 201704010051 METAR KEWR 010051Z 03009KT 4SM RA BR BKN008 OVC012 04/04 A2977 RMK AO2 SLP082 P0015 T00440039= 201704010151 METAR KEWR 010151Z 03013KT 4SM -RA BR BKN007 OVC013 04/03 A2975 RMK AO2 SLP074 P0011 T00390033= 201704010251 METAR KEWR 010251Z 03015KT 4SM -RA BR BKN008 OVC015 04/03 A2972 RMK AO2 SLP063 P0003 60029 T00390033 58006= 201704010351 METAR KEWR 010351Z 03018G25KT 5SM -RA BR BKN007 OVC012 03/03 A2970 RMK AO2 SLP057 P0001 T00330028= 201704010451 METAR KEWR 010451Z 04016G25KT 5SM -DZ BR OVC008 03/02 A2968 RMK AO2 PK WND 05031/0433 RAE21DZB21 SLP051 P0000 T00330022 400560033= 201704010551 METAR KEWR 010551Z 03017G31KT 4SM -DZ BR OVC009 03/02 A2967 RMK AO2 PK WND 03031/0548 SLP047 P0000 60030 T00330022 10050 20033 56016= 201704010651 METAR KEWR 010651Z 03017G25KT 3SM -DZ BR BKN007 OVC012 03/02 A2967 RMK AO2 PK WND 03031/0610 SLP045 P0000 T00280022= 201704010751 METAR KEWR 010751Z 01015KT 4SM -DZ BR OVC007 03/02 A2967 RMK AO2 PK WND 03026/0704 DZE28B49RAB28E49 SLP045 P0001 T00280022= 201704010851 METAR KEWR 010851Z 36015G21KT 4SM -RA BR BKN006 OVC012 02/02 A2967 RMK AO2 DZE06RAB06 SLP047 P0001 60002 T00220022 55000= 201704010951 METAR KEWR 010951Z 36015G21KT 5SM -DZ BR BKN008 OVC014 02/02 A2970 RMK AO2 RAE18DZB18 SLP056 P0000 T00220022= 201704011051 METAR KEWR 011051Z 36014KT 8SM OVC011 03/02 A2972 RMK AO2 DZE49 SLP065 P0000 T00280017= 201704011151 METAR KEWR 011151Z 36016G21KT 10SM BKN015 OVC023 03/02 A2975 RMK AO2 SLP072 60002 70146 T00280017 10033 20022 51025= 201704011251 METAR KEWR 011251Z 36017G21KT 10SM SCT017 OVC023 04/02 A2977 RMK AO2 SLP081 T00390017= 201704011351 METAR KEWR 011351Z 35015KT 10SM OVC020 04/02 A2979 RMK AO2 SLP089 T00440017= 201704011451 METAR KEWR 011451Z 35017KT 10SM OVC022 06/02 A2981 RMK AO2 PK WND 01026/1414 SLP094 T00560017 51022= 201704011551 METAR KEWR 011551Z 35017KT 10SM OVC024 07/02 A2982 RMK AO2 PK WND 36027/1507 SLP099 T00670017= 201704011651 METAR KEWR 011651Z 36016G23KT 10SM OVC024 07/02 A2983 RMK AO2 SLP102 T00720017= 201704011751 METAR KEWR 011751Z 36013G23KT 10SM OVC028 08/01 A2985 RMK AO2 SLP106 T00780011 10078 20028 51013= 201704011851 METAR KEWR 011851Z 36016G20KT 10SM BKN032 09/02 A2986 RMK AO2 SLP110 T00890017= 201704011951 METAR KEWR 011951Z 35016G20KT 10SM SCT038 BKN050 09/02 A2987 RMK AO2 SLP113 T00940017= 201704012051 METAR KEWR 012051Z 34012KT 10SM BKN038 BKN050 09/02 A2990 RMK AO2 SLP123 T00940017 53017= 201704012151 METAR KEWR 012151Z 35015KT 10SM FEW028 OVC036 09/02 A2992 RMK AO2 SLP132 T00940017= 201704012251 METAR KEWR 012251Z 06008KT 10SM FEW028 BKN040 BKN055 08/01 A2995 RMK AO2 SLP142 T00830011= 201704012351 METAR KEWR 012351Z 03006KT 10SM OVC037 08/02 A2998 RMK AO2 SLP152 T00830017 10100 20072 53029= 201704020051 METAR KEWR 020051Z 02006KT 10SM FEW035 OVC041 08/02 A3000 RMK AO2 SLP159 T00780017= 201704020151 METAR KEWR 020151Z 32008KT 10SM OVC040 09/01 A3002 RMK AO2 SLP165 T00890011= 201704020251 METAR KEWR 020251Z 30013KT 10SM OVC041 08/01 A3004 RMK AO2 SLP171 T00830011 51019= 201704020351 METAR KEWR 020351Z 31010KT 10SM BKN038 BKN090 08/01 A3005 RMK AO2 SLP174 T00780011= 201704020451 METAR KEWR 020451Z 32011KT 10SM BKN036 BKN090 08/01 A3005 RMK AO2 SLP177 T00780011 401000022= 201704020551 METAR KEWR 020551Z 32013KT 10SM BKN033 07/01 A3006 RMK AO2 SLP178 T00720006 10089 20072 51007= 201704020651 METAR KEWR 020651Z 31013KT 10SM BKN033 06/M01 A3006 RMK AO2 SLP178 T00611006= 201704020751 METAR KEWR 020751Z 30010KT 10SM SCT033 06/M01 A3007 RMK AO2 SLP180 T00561006= 201704020851 METAR KEWR 020851Z 31009KT 10SM SCT033 05/M01 A3008 RMK AO2 SLP185 T00501006 53007= 201704020951 METAR KEWR 020951Z 31011KT 10SM FEW038 05/M01 A3010 RMK AO2 SLP192 T00501006= 201704021051 METAR KEWR 021051Z 32010KT 10SM CLR 05/M01 A3013 RMK AO2 SLP201 T00501006= 201704021151 METAR KEWR 021151Z 33010G19KT 10SM CLR 06/M01 A3014 RMK AO2 SLP207 T00611006 10067 20050 51022= 201704021251 METAR KEWR 021251Z 32013KT 10SM FEW200 08/00 A3015 RMK AO2 SLP207 T00780000= 201704021351 METAR KEWR 021351Z 31010KT 10SM FEW150 09/00 A3015 RMK AO2 SLP207 T00940000= 201704021451 METAR KEWR 021451Z 29008G14KT 10SM CLR 12/M01 A3015 RMK AO2 SLP209 T01171006 53002= 201704021551 METAR KEWR 021551Z 27007KT 10SM FEW040 FEW260 13/M01 A3013 RMK AO2 SLP202 T01331011= 201704021651 METAR KEWR 021651Z 28009G17KT 10SM FEW050 FEW260 15/M01 A3010 RMK AO2 SLP191 T01501011= 201704021751 METAR KEWR 021751Z 31010G21KT 10SM SCT060 SCT260 17/M03 A3008 RMK AO2 SLP184 T01671033 10172 20061 57024= 201704021851 METAR KEWR 021851Z 32009G18KT 10SM SCT070 BKN260 17/M03 A3005 RMK AO2 SLP175 T01671033= 201704021951 METAR KEWR 021951Z 34011G23KT 10SM SCT080 BKN260 17/M04 A3004 RMK AO2 PK WND 28026/1936 SLP171 T01721039= 201704022051 METAR KEWR 022051Z 32014G23KT 10SM SCT080 BKN250 17/M04 A3005 RMK AO2 PK WND 30026/2035 SLP174 T01721039 55010= 201704022151 METAR KEWR 022151Z 31016G22KT 10SM SCT090 BKN250 17/M04 A3004 RMK AO2 PK WND 30026/2055 SLP173 T01721039= 201704022251 METAR KEWR 022251Z 32011KT 10SM FEW090 BKN250 16/M03 A3003 RMK AO2 SLP169 T01611033= 201704022351 METAR KEWR 022351Z 29005KT 10SM FEW090 BKN250 16/M03 A3004 RMK AO2 SLP172 T01561028 10183 20156 55002= 201704030051 METAR KEWR 030051Z 26005KT 10SM FEW090 BKN250 15/M02 A3006 RMK AO2 SLP180 T01501022= 201704030151 METAR KEWR 030151Z 30006KT 10SM BKN250 14/M02 A3009 RMK AO2 SLP189 T01391017= 201704030251 METAR KEWR 030251Z 33010KT 10SM BKN250 14/M02 A3009 RMK AO2 SLP187 T01391017 50015= 201704030351 METAR KEWR 030351Z 35005KT 10SM SCT250 13/M01 A3010 RMK AO2 SLP193 T01281011= 201704030451 METAR KEWR 030451Z 36007KT 10SM FEW250 11/M01 A3009 RMK AO2 SLP189 T01111011 401830050= 201704030551 METAR KEWR 030551Z 02005KT 10SM FEW250 09/M01 A3009 RMK AO2 SLP190 T00891006 10156 20089 51003= 201704030651 METAR KEWR 030651Z 20003KT 10SM SCT250 10/M01 A3010 RMK AO2 SLP191 T01001006= 201704030751 METAR KEWR 030751Z 00000KT 10SM SCT250 09/01 A3008 RMK AO2 SLP185 T00890006= 201704030851 METAR KEWR 030851Z VRB04KT 10SM SCT250 08/00 A3008 RMK AO2 SLP187 T00780000 55003= 201704030951 METAR KEWR 030951Z 00000KT 10SM SCT250 07/00 A3009 RMK AO2 SLP189 T00720000= 201704031051 METAR KEWR 031051Z 00000KT 10SM FEW110 BKN250 07/00 A3011 RMK AO2 SLP197 T00720000= 201704031151 METAR KEWR 031151Z 00000KT 10SM FEW110 BKN140 BKN250 10/03 A3013 RMK AO2 SLP203 T01000028 10100 20067 53016= 201704031251 METAR KEWR 031251Z 00000KT 10SM BKN120 BKN140 BKN250 11/01 A3013 RMK AO2 SLP201 T01060011= 201704031351 METAR KEWR 031351Z 00000KT 10SM SCT100 BKN130 BKN250 12/02 A3012 RMK AO2 SLP199 T01220017= 201704031451 METAR KEWR 031451Z 17007KT 10SM FEW100 SCT140 BKN250 15/00 A3011 RMK AO2 SLP195 T01500000 58007= 201704031551 METAR KEWR 031551Z 14006KT 10SM FEW100 SCT140 BKN250 16/M01 A3009 RMK AO2 SLP188 T01611006= 201704031651 METAR KEWR 031651Z 13008KT 10SM FEW100 SCT140 BKN250 16/M01 A3007 RMK AO2 SLP183 T01561011= 201704031751 METAR KEWR 031751Z 11007KT 10SM FEW180 SCT210 BKN250 16/00 A3005 RMK AO2 SLP174 T01560000 10167 20100 58021= 201704031851 METAR KEWR 031851Z 12008KT 10SM FEW140 SCT180 BKN250 15/01 A3002 RMK AO2 SLP166 T01500006= 201704031951 METAR KEWR 031951Z 10007G16KT 10SM FEW080 SCT160 SCT230 BKN250 14/02 A3000 RMK AO2 SLP157 T01390022= 201704032051 METAR KEWR 032051Z 10010KT 10SM FEW080 SCT160 SCT230 BKN260 13/04 A2997 RMK AO2 SLP148 T01280039 58026= 201704032151 METAR KEWR 032151Z 10006KT 10SM SCT070 BKN180 OVC260 12/04 A2997 RMK AO2 SLP148 T01220044= 201704032251 METAR KEWR 032251Z 06005KT 10SM BKN065 BKN140 OVC260 11/05 A2996 RMK AO2 SLP145 T01110050 $= 201704032351 METAR KEWR 032351Z 09004KT 10SM BKN055 OVC120 11/05 A2994 RMK AO2 SLP139 T01060050 10156 20106 58009 $= 201704040051 METAR KEWR 040051Z 15006KT 10SM OVC055 13/03 A2993 RMK AO2 SLP136 T01280033 $= 201704040151 METAR KEWR 040151Z 14006KT 10SM OVC055 12/02 A2994 RMK AO2 SLP137 T01220022 $= 201704040251 METAR KEWR 040251Z 11006KT 10SM -RA FEW035 BKN049 OVC075 11/02 A2990 RMK AO2 RAB43 PRESFR SLP125 P0000 60000 T01110022 58013 $= 201704040351 METAR KEWR 040351Z 11005KT 10SM -RA FEW030 OVC048 10/04 A2986 RMK AO2 SLP111 P0000 T01000044 $= 201704040451 METAR KEWR 040451Z 10008KT 8SM -RA SCT022 BKN046 OVC070 09/06 A2981 RMK AO2 SLP095 P0004 T00940056 401670067 $= 201704040551 METAR KEWR 040551Z 12008G16KT 5SM RA BR FEW012 BKN020 OVC032 09/07 A2975 RMK AO2 SLP074 P0012 60016 T00940072 10133 20089 58051 $= 201704040651 METAR KEWR 040651Z 13009G18KT 3SM RA BR SCT008 BKN012 OVC026 09/08 A2973 RMK AO2 SLP068 P0067 T00940083 $= 201704040751 METAR KEWR 040751Z 00000KT 6SM RA BR OVC005 10/09 A2970 RMK AO2 SLP057 P0030 T01000094 $= 201704040851 METAR KEWR 040851Z 12006KT 6SM -RA BR OVC004 11/09 A2963 RMK AO2 SLP034 P0007 60104 T01060094 58040 $= 201704040951 METAR KEWR 040951Z 11007KT 5SM -RA BR OVC004 11/11 A2962 RMK AO2 SLP029 P0001 T01110106 $= 201704041051 METAR KEWR 041051Z 06007KT 1 1/2SM -DZ BR OVC003 10/09 A2962 RMK AO2 SFC VIS 2 1/2 RAE50DZB50 SLP028 CIG 002V004 P0000 T01000094 $= 201704041151 METAR KEWR 041151Z 02006KT 1SM R04R/5000VP6000FT -DZ BR OVC002 11/11 A2961 RMK AO2 SFC VIS 1 1/4 SLP025 RAB12E23DZB23 P0001 60106 70122 T01110106 10117 20089 56009 $= 201704041251 METAR KEWR 041251Z 02009KT 1SM R04R/P6000FT -DZ BR OVC003 11/10 A2960 RMK AO2 SFC VIS 1 1/2 DZE05B47RAB05E34 SLP022 CIG 002V004 P0001 T01060100 $= 201704041351 METAR KEWR 041351Z 02009KT 1/2SM R04R/5000VP6000FT -RA BR OVC003 11/10 A2959 RMK AO2 SFC VIS 1 DZE47RAB47 SLP019 CIG 002V004 P0001 T01060100 $= 201704041451 METAR KEWR 041451Z 03008KT 1/2SM R04R/P6000FT -DZ BR OVC003 11/10 A2958 RMK AO2 SFC VIS 2 RAE04DZB04 SLP017 P0000 60002 T01060100 56008= 201704041551 METAR KEWR 041551Z 03012KT 1 1/2SM BR OVC005 10/09 A2956 RMK AO2 SFC VIS 4 DZE28 SLP010 CIG 004V006 P0001 T01000094= 201704041651 METAR KEWR 041651Z 03011KT 2 1/2SM BR OVC005 10/09 A2956 RMK AO2 SFC VIS 6 SLP010 CIG 004V006 T01000094= 201704041751 METAR KEWR 041751Z 03012KT 3SM OVC007 11/09 A2958 RMK AO2 SFC VIS 8 SLP016 CIG 006V008 60003 T01060094 10111 20100 50006= 201704041851 METAR KEWR 041851Z 03012KT 3SM OVC008 09/08 A2959 RMK AO2 SFC VIS 10 SLP020 CIG 006V010 T00890078= 201704041951 METAR KEWR 041951Z 03009KT 10SM SCT008 BKN015 BKN110 OVC250 10/09 A2958 RMK AO2 RAB1853E26 SLP016 BKN015 V SCT P0001 T01000089= 201704042051 METAR KEWR 042051Z 04009KT 10SM SCT008 OVC014 11/09 A2960 RMK AO2 SLP024 60001 T01060089 53008= 201704042151 METAR KEWR 042151Z 02007KT 10SM FEW008 OVC010 11/08 A2962 RMK AO2 SLP029 T01060083= 201704042251 METAR KEWR 042251Z 04006KT 10SM FEW008 BKN011 OVC017 11/08 A2963 RMK AO2 SLP033 T01060083= 201704042351 METAR KEWR 042351Z 00000KT 10SM FEW008 OVC011 10/08 A2966 RMK AO2 SLP041 60001 T01000078 10111 20089 53018= 201704050051 METAR KEWR 050051Z 03007KT 10SM BKN009 OVC012 09/07 A2969 RMK AO2 SLP053 T00940072= 201704050151 METAR KEWR 050151Z 07003KT 8SM BKN008 OVC012 09/08 A2971 RMK AO2 SLP061 T00940078= 201704050251 METAR KEWR 050251Z 04005KT 8SM BKN008 OVC011 09/08 A2973 RMK AO2 SLP067 T00890078 51025= 201704050351 METAR KEWR 050351Z 10004KT 7SM BKN007 OVC009 09/08 A2974 RMK AO2 SLP070 T00890078= 201704050451 METAR KEWR 050451Z 08003KT 3SM BR BKN004 OVC007 08/08 A2975 RMK AO2 SLP073 T00830078 401170083= 201704050551 METAR KEWR 050551Z 10003KT 3/4SM R04R/4000V6000FT BR BKN002 OVC004 08/08 A2974 RMK AO2 SLP071 T00830078 10100 20083 50004= 201704050651 METAR KEWR 050651Z 00000KT 3/4SM R04R/3500V5500FT BR OVC002 08/08 A2975 RMK AO2 SLP075 T00830083= 201704050751 METAR KEWR 050751Z 12003KT 3/4SM R04R/4500VP6000FT BR OVC002 08/08 A2977 RMK AO2 SLP080 T00830083= 201704050851 METAR KEWR 050851Z 16006KT 3/4SM R04R/P6000FT BR OVC002 07/07 A2979 RMK AO2 SLP086 T00720072 53015= 201704050951 METAR KEWR 050951Z 00000KT 1/2SM R04R/P6000FT BR OVC002 07/07 A2981 RMK AO2 SFC VIS 1 1/2 SLP094 T00720072= 201704051051 METAR KEWR 051051Z 19004KT 1/2SM R04R/P6000FT BR OVC002 08/08 A2986 RMK AO2 SFC VIS 1 PRESRR SLP112 T00780078= 201704051151 METAR KEWR 051151Z VRB03KT 1SM R04R/P6000FT BR BKN004 OVC010 08/08 A2988 RMK AO2 SFC VIS 3 SLP118 70004 T00830083 10083 20072 51033= 201704051251 METAR KEWR 051251Z 15004KT 2SM BR BKN006 BKN010 09/08 A2991 RMK AO2 SFC VIS 4 SLP129 T00890083= 201704051351 METAR KEWR 051351Z VRB04KT 5SM HZ SCT008 BKN012 11/08 A2992 RMK AO2 SLP130 CIG 010V015 SCT V BKN T01060078= 201704051451 METAR KEWR 051451Z 00000KT 6SM HZ FEW006 SCT012 OVC027 11/08 A2994 RMK AO2 SLP137 CIG 025V030 T01060078 51019= 201704051551 METAR KEWR 051551Z VRB04KT 7SM FEW008 FEW015 OVC040 12/08 A2993 RMK AO2 SLP135 T01220083= 201704051651 METAR KEWR 051651Z 22004KT 10SM FEW009 SCT033 OVC040 14/08 A2993 RMK AO2 SLP133 T01390078= 201704051751 METAR KEWR 051751Z VRB03KT 10SM FEW032 BKN045 BKN250 16/07 A2993 RMK AO2 SLP135 T01610067 10161 20083 55002= 201704051851 METAR KEWR 051851Z 07006KT 10SM FEW035 SCT045 BKN250 16/06 A2991 RMK AO2 SLP129 T01610056= 201704051951 METAR KEWR 051951Z 11007KT 10SM FEW038 SCT048 SCT250 17/06 A2991 RMK AO2 SLP129 T01670056= 201704052051 METAR KEWR 052051Z 11005KT 10SM FEW040 BKN250 17/06 A2991 RMK AO2 SLP127 T01670056 56008= 201704052151 METAR KEWR 052151Z 13007KT 10SM FEW040 BKN250 16/07 A2993 RMK AO2 SLP135 T01560067= 201704052251 METAR KEWR 052251Z 15007KT 10SM BKN250 11/06 A2996 RMK AO2 SLP145 T01110056= 201704052351 METAR KEWR 052351Z VRB06KT 10SM FEW010 OVC250 10/06 A2997 RMK AO2 SLP147 FU FEW010 FU PLUME E DRFTG NW T01000056 10172 20100 51020= 201704060051 METAR KEWR 060051Z 12005KT 10SM FEW006 OVC250 08/06 A2998 RMK AO2 SLP150 T00830056= 201704060151 METAR KEWR 060151Z 11010KT 10SM FEW006 OVC250 08/06 A2998 RMK AO2 SLP152 T00830056= 201704060251 METAR KEWR 060251Z VRB06KT 10SM FEW006 OVC250 09/06 A2997 RMK AO2 SLP147 T00890061 50000= 201704060351 METAR KEWR 060351Z 10008G18KT 10SM BKN008 BKN011 OVC250 07/05 A2998 RMK AO2 SLP150 T00720050= 201704060451 METAR KEWR 060451Z 09009KT 10SM BKN008 BKN011 OVC250 08/05 A2998 RMK AO2 SLP151 T00780050 401720072= 201704060551 METAR KEWR 060551Z 09009KT 10SM BKN007 OVC012 07/06 A2996 RMK AO2 SLP143 T00720056 10100 20072 58004= 201704060651 METAR KEWR 060651Z 11008G17KT 10SM BKN007 OVC012 08/06 A2994 RMK AO2 SLP137 T00780056= 201704060751 METAR KEWR 060751Z 11010G20KT 10SM BKN007 OVC014 07/04 A2994 RMK AO2 PRESRR SLP137 T00720044= 201704060851 METAR KEWR 060851Z 09010KT 10SM FEW007 BKN012 OVC046 07/04 A2990 RMK AO2 RAB19E49 SLP124 P0000 60000 T00670044 58019= 201704060951 METAR KEWR 060951Z 08010G20KT 9SM -RA FEW007 OVC010 07/04 A2985 RMK AO2 RAB0856 SLP107 P0001 T00670044= 201704061051 METAR KEWR 061051Z 06013G19KT 10SM -RA OVC010 06/04 A2982 RMK AO2 SLP096 P0005 T00610044= 201704061151 METAR KEWR 061151Z 07007KT 10SM -RA BKN008 OVC011 06/04 A2979 RMK AO2 SLP086 P0000 60006 70006 T00610039 10078 20061 56021= 201704061251 METAR KEWR 061251Z 08010G18KT 2SM -RA BR BKN007 OVC012 06/04 A2974 RMK AO2 SFC VIS 2 1/2 SLP070 P0001 T00560039= 201704061351 METAR KEWR 061351Z 06012KT 2SM -RA BR BKN007 OVC011 06/04 A2971 RMK AO2 SLP060 CIG 006V009 P0003 T00560044= 201704061451 METAR KEWR 061451Z 06008KT 2SM -RA BR BKN007 OVC013 07/05 A2967 RMK AO2 SLP047 CIG 005V009 P0003 60007 T00670050 56039= 201704061551 METAR KEWR 061551Z 05011KT 1 1/2SM R04R/5500VP6000FT -RA BR BKN007 OVC011 07/06 A2962 RMK AO2 SFC VIS 1 3/4 SLP030 CIG 005V009 P0003 T00670056= 201704061651 METAR KEWR 061651Z 03012KT 1 1/2SM -RA BR SCT004 OVC007 07/06 A2955 RMK AO2 SFC VIS 2 LTG DSNT W PRESFR SLP004 CIG 006V009 P0005 T00720061= 201704061751 METAR KEWR 061751Z 02014KT 2SM R04R/5500VP6000FT -RA BR OVC006 07/06 A2947 RMK AO2 PRESFR SLP978 CIG 004V009 P0001 60016 T00720061 10072 20056 58069= 201704061851 METAR KEWR 061851Z 04016G21KT 2SM -RA BR BKN005 OVC020 07/06 A2937 RMK AO2 SFC VIS 4 LTG DSNT ALQDS RAE1758B41DZB1758E26 SLP946 CIG 004V006 P0000 T00670061= 201704061951 METAR KEWR 061951Z 02017KT 1/2SM R04R/P6000FT RA BR OVC003 07/06 A2929 RMK AO2 SFC VIS 2 1/2 LTG DSNT ALQDS TSB17E50 SLP918 P0008 T00670061 $= 201704062051 METAR KEWR 062051Z 02014KT 1SM R04R/P6000FT RA BR BKN006 BKN012 OVC030 07/07 A2925 RMK AO2 WSHFT 2029 SFC VIS 3 LTG DSNT NE-SE SLP904 TSB1959E21B31E47 CIG 005V009 P0035 60043 T00720067 55042= 201704062151 METAR KEWR 062151Z 04009KT 9SM FEW008 FEW017 BKN050 BKN130 BKN250 08/08 A2920 RMK AO2 RAE51 SLP886 P0011 T00830078= 201704062251 METAR KEWR 062251Z 14004KT 10SM FEW005 FEW018 SCT050 09/08 A2920 RMK AO2 SLP886 T00940083= 201704062351 METAR KEWR 062351Z 19007G16KT 8SM SCT005 BKN023 BKN045 09/08 A2923 RMK AO2 SLP897 60054 T00940078 10094 20067 50010= 201704070051 METAR KEWR 070051Z 21014KT 10SM FEW007 FEW025 SCT050 10/08 A2925 RMK AO2 SLP903 T01000078= 201704070151 METAR KEWR 070151Z 22013KT 10SM FEW025 SCT050 09/07 A2928 RMK AO2 SLP915 T00940067= 201704070251 METAR KEWR 070251Z 21013KT 10SM FEW025 FEW050 09/07 A2928 RMK AO2 SLP915 T00940067 51018= 201704070351 METAR KEWR 070351Z 22010KT 10SM BKN038 09/07 A2929 RMK AO2 SLP918 T00940072= 201704070451 METAR KEWR 070451Z 23011KT 10SM FEW035 SCT090 10/07 A2929 RMK AO2 SLP918 T01000072 401000056= 201704070551 METAR KEWR 070551Z 23016G22KT 10SM FEW040 FEW090 10/04 A2930 RMK AO2 SLP923 T01000044 10100 20089 53008= 201704070651 METAR KEWR 070651Z 24014KT 10SM FEW040 09/03 A2930 RMK AO2 SLP923 T00890028= 201704070751 METAR KEWR 070751Z 22011KT 10SM FEW035 08/02 A2931 RMK AO2 SLP926 T00780022= 201704070851 METAR KEWR 070851Z 22010KT 10SM SCT050 07/02 A2931 RMK AO2 SLP923 T00720017 50001= 201704070951 METAR KEWR 070951Z 22011KT 10SM BKN048 07/02 A2931 RMK AO2 SLP923 T00720017= 201704071051 METAR KEWR 071051Z 21013KT 10SM OVC048 07/02 A2933 RMK AO2 SLP930 T00720017= 201704071151 METAR KEWR 071151Z 23013KT 10SM FEW048 BKN060 07/01 A2934 RMK AO2 SLP933 70070 T00720011 10100 20067 53010= 201704071251 METAR KEWR 071251Z 23012KT 10SM SCT047 OVC055 08/01 A2935 RMK AO2 SLP938 T00780011= 201704071351 METAR KEWR 071351Z 23017KT 10SM -RA BKN033 OVC050 08/01 A2936 RMK AO2 RAB51 SLP943 P0000 T00780011= 201704071451 METAR KEWR 071451Z 23014G20KT 10SM SCT024 BKN030 OVC060 07/03 A2938 RMK AO2 RAE45 SLP947 P0000 60000 T00720033 51014= 201704071522 METAR KEWR 071522Z 25014KT 10SM BKN024 OVC036 08/02 A2938 RMK RAB22 P0000 T00780022= 201704071551 METAR KEWR 071551Z 25016G23KT 10SM -RA BKN026 OVC035 08/02 A2938 RMK AO2 RAB22 SLP948 P0000 T00780017= 201704071651 METAR KEWR 071651Z 26016G22KT 10SM -RA SCT021 BKN037 OVC055 07/03 A2939 RMK AO2 PK WND 27026/1623 RAE1552B06 SLP952 P0000 T00720028= 201704071751 METAR KEWR 071751Z 26019KT 10SM SCT025 BKN034 OVC080 09/02 A2939 RMK AO2 PK WND 26028/1731 RAE1653 SLP951 P0000 60000 T00940022 10094 20067 50004= 201704071851 METAR KEWR 071851Z 26016G23KT 10SM SCT033 OVC060 09/02 A2939 RMK AO2 PK WND 25027/1807 SLP952 T00940017= 201704071951 METAR KEWR 071951Z 26016KT 10SM FEW035 BKN048 OVC065 09/01 A2941 RMK AO2 PK WND 28031/1902 RAB04E14 SLP957 P0000 T00940011= 201704072051 METAR KEWR 072051Z 27017G30KT 10SM SCT037 BKN045 BKN080 08/02 A2944 RMK AO2 PK WND 28030/2043 RAB09E20 SLP969 P0000 60000 T00830017 53018= 201704072151 METAR KEWR 072151Z 27020G25KT 10SM FEW037 SCT048 OVC085 09/M02 A2948 RMK AO2 PK WND 27033/2109 SLP981 T00891017= 201704072251 METAR KEWR 072251Z 29021G31KT 10SM FEW037 SCT045 BKN085 07/M02 A2953 RMK AO2 PK WND 29034/2208 SLP999 T00721017= 201704072351 METAR KEWR 072351Z 30017G25KT 10SM FEW035 SCT070 BKN095 07/M02 A2957 RMK AO2 PK WND 30030/2324 SLP011 60000 T00671022 10100 20067 51042= 201704080051 METAR KEWR 080051Z 29017G23KT 10SM FEW035 SCT045 BKN090 06/M02 A2961 RMK AO2 PK WND 29028/0003 SLP027 T00611022= 201704080151 METAR KEWR 080151Z 30018G25KT 10SM SCT040 BKN070 BKN100 06/M03 A2965 RMK AO2 PK WND 29028/0054 SLP041 T00561033= 201704080251 METAR KEWR 080251Z 29017G24KT 10SM BKN045 BKN070 05/M03 A2968 RMK AO2 PK WND 30029/0212 SLP048 T00501033 51037= 201704080351 METAR KEWR 080351Z 28019G28KT 10SM OVC040 05/M03 A2969 RMK AO2 PK WND 30030/0326 SLP052 T00501033= 201704080451 METAR KEWR 080451Z 27017G22KT 10SM OVC044 04/M03 A2970 RMK AO2 PK WND 28026/0414 SLP058 T00441028 401000044= 201704080551 METAR KEWR 080551Z 28015G22KT 10SM -RA OVC045 05/M03 A2971 RMK AO2 RAB23E28B50 SLP060 P0000 60000 T00501028 10067 20044 51012= 201704080651 METAR KEWR 080651Z 28016G22KT 10SM OVC044 05/M03 A2971 RMK AO2 RAE0555 SLP061 P0000 T00501028= 201704080751 METAR KEWR 080751Z 29015G24KT 10SM OVC048 05/M04 A2972 RMK AO2 SLP063 T00501039= 201704080851 METAR KEWR 080851Z 29012G20KT 10SM BKN050 05/M06 A2973 RMK AO2 PK WND 28027/0754 SLP067 60000 T00501056 53007= 201704080951 METAR KEWR 080951Z 28011KT 10SM SCT050 04/M05 A2975 RMK AO2 SLP072 T00441050= 201704081051 METAR KEWR 081051Z 28016KT 10SM FEW050 FEW250 04/M06 A2977 RMK AO2 SLP081 T00441056= 201704081151 METAR KEWR 081151Z 28011G21KT 10SM FEW050 FEW270 06/M06 A2980 RMK AO2 SLP090 60000 T00561056 10056 20044 53022= 201704081251 METAR KEWR 081251Z 31014G27KT 10SM FEW050 FEW270 06/M06 A2981 RMK AO2 PK WND 29027/1226 SLP093 T00611056= 201704081351 METAR KEWR 081351Z 28015KT 10SM FEW050 FEW270 08/M05 A2983 RMK AO2 SLP099 T00781050= 201704081451 METAR KEWR 081451Z 30015G22KT 10SM FEW050 FEW270 09/M05 A2984 RMK AO2 PK WND 31028/1435 SLP102 T00941050 51013= 201704081551 METAR KEWR 081551Z 29015G24KT 10SM FEW055 10/M05 A2984 RMK AO2 PK WND 28028/1517 SLP103 T01001050= 201704081651 METAR KEWR 081651Z 29016G22KT 10SM FEW065 12/M05 A2983 RMK AO2 PK WND 31027/1628 SLP100 T01221050= 201704081751 METAR KEWR 081751Z 30022G30KT 10SM FEW065 13/M06 A2983 RMK AO2 PK WND 29030/1750 SLP099 T01331056 10133 20056 58003= 201704081851 METAR KEWR 081851Z 30016G23KT 10SM FEW280 14/M06 A2982 RMK AO2 PK WND 29032/1754 SLP097 T01441056= 201704081951 METAR KEWR 081951Z 30012G23KT 10SM SCT280 15/M06 A2981 RMK AO2 PK WND 28036/1920 SLP094 T01501061= 201704082051 METAR KEWR 082051Z 29017G28KT 10SM SCT280 14/M07 A2982 RMK AO2 PK WND 28028/2043 SLP097 T01441067 55002= 201704082151 METAR KEWR 082151Z 28021G28KT 10SM BKN250 14/M07 A2984 RMK AO2 PK WND 29032/2100 SLP103 T01391072= 201704082251 METAR KEWR 082251Z 30020G28KT 10SM SCT230 13/M08 A2986 RMK AO2 PK WND 28029/2226 SLP110 T01281078= 201704082351 METAR KEWR 082351Z 30007G16KT 10SM FEW230 12/M08 A2990 RMK AO2 PK WND 31027/2311 SLP125 T01171083 10156 20117 53028= 201704090051 METAR KEWR 090051Z 31012KT 10SM FEW230 12/M09 A2994 RMK AO2 SLP139 T01171089= 201704090151 METAR KEWR 090151Z 32008KT 10SM CLR 11/M08 A2998 RMK AO2 SLP150 T01111083= 201704090251 METAR KEWR 090251Z 31006KT 10SM CLR 10/M08 A3000 RMK AO2 SLP159 T01001078 51033= 201704090351 METAR KEWR 090351Z 33006KT 10SM CLR 09/M07 A3003 RMK AO2 SLP169 T00891072= 201704090451 METAR KEWR 090451Z 30004KT 10SM CLR 08/M07 A3005 RMK AO2 SLP175 T00831067 401560044= 201704090551 METAR KEWR 090551Z 27008KT 10SM CLR 07/M06 A3006 RMK AO2 SLP177 T00721061 10122 20072 51019= 201704090651 METAR KEWR 090651Z 28010KT 10SM CLR 07/M06 A3006 RMK AO2 SLP178 T00671061= 201704090751 METAR KEWR 090751Z 30007KT 10SM CLR 07/M06 A3007 RMK AO2 SLP182 T00671061= 201704090851 METAR KEWR 090851Z 00000KT 10SM CLR 06/M06 A3009 RMK AO2 SLP187 T00611056 53010= 201704090951 METAR KEWR 090951Z 24003KT 10SM CLR 05/M06 A3011 RMK AO2 SLP194 T00501061= 201704091051 METAR KEWR 091051Z 00000KT 10SM FEW250 05/M05 A3013 RMK AO2 SLP204 T00501050= 201704091151 METAR KEWR 091151Z 27008KT 10SM SCT250 08/M06 A3016 RMK AO2 SLP212 T00831056 10083 20044 53024= 201704091251 METAR KEWR 091251Z 25004KT 10SM FEW180 SCT250 11/M06 A3016 RMK AO2 SLP212 T01111056= 201704091351 METAR KEWR 091351Z 28004KT 10SM FEW180 FEW250 13/M06 A3017 RMK AO2 SLP216 T01281056= 201704091451 METAR KEWR 091451Z 20007KT 10SM FEW150 FEW250 14/M04 A3017 RMK AO2 SLP217 T01391039 53005= 201704091551 METAR KEWR 091551Z 18006KT 10SM FEW150 FEW250 15/M03 A3017 RMK AO2 SLP216 T01501033= 201704091651 METAR KEWR 091651Z 20006KT 10SM FEW160 FEW260 17/M03 A3016 RMK AO2 SLP211 T01721028= 201704091751 METAR KEWR 091751Z 23013G17KT 10SM SCT200 SCT280 18/M03 A3014 RMK AO2 SLP207 T01831028 10183 20078 58010= 201704091851 METAR KEWR 091851Z 24012KT 10SM SCT200 BKN280 19/M04 A3013 RMK AO2 SLP201 T01891039= 201704091951 METAR KEWR 091951Z 25010G17KT 10SM FEW200 SCT250 BKN290 19/M06 A3012 RMK AO2 SLP199 T01941056= 201704092051 METAR KEWR 092051Z 24012KT 10SM FEW200 FEW250 BKN290 21/M07 A3011 RMK AO2 SLP194 T02061072 56013= 201704092151 METAR KEWR 092151Z 24009KT 10SM SCT250 BKN290 20/M06 A3010 RMK AO2 SLP191 T02001061= 201704092251 METAR KEWR 092251Z VRB03KT 10SM BKN250 15/03 A3011 RMK AO2 SLP194 T01500033= 201704092351 METAR KEWR 092351Z 10005KT 10SM BKN250 13/04 A3012 RMK AO2 SLP197 T01330039 10211 20128 53003= 201704100051 METAR KEWR 100051Z 16005KT 10SM BKN250 14/02 A3014 RMK AO2 SLP206 T01440022= 201704100151 METAR KEWR 100151Z 18010KT 10SM BKN250 14/02 A3016 RMK AO2 SLP211 T01440017= 201704100251 METAR KEWR 100251Z 19007KT 10SM BKN250 13/01 A3017 RMK AO2 SLP214 T01330006 51017= 201704100351 METAR KEWR 100351Z 19007KT 10SM BKN250 13/00 A3017 RMK AO2 SLP215 T01280000= 201704100451 METAR KEWR 100451Z 21006KT 10SM BKN250 12/M01 A3018 RMK AO2 SLP218 T01171006 402110044= 201704100551 METAR KEWR 100551Z 20003KT 10SM BKN250 12/00 A3018 RMK AO2 SLP219 T01170000 10150 20100 51005= 201704100651 METAR KEWR 100651Z 21005KT 10SM BKN250 10/01 A3017 RMK AO2 SLP217 T01000006= 201704100751 METAR KEWR 100751Z 15003KT 10SM SCT250 10/01 A3018 RMK AO2 SLP219 T01000011= 201704100851 METAR KEWR 100851Z 17003KT 10SM SCT250 10/02 A3019 RMK AO2 SLP223 T01000017 53004= 201704100951 METAR KEWR 100951Z 19004KT 10SM SCT250 09/02 A3020 RMK AO2 SLP226 T00940017= 201704101051 METAR KEWR 101051Z 20003KT 10SM BKN250 10/01 A3022 RMK AO2 SLP231 T01000011= 201704101151 METAR KEWR 101151Z 18004KT 10SM BKN250 12/02 A3022 RMK AO2 SLP231 T01170017 10117 20089 51008= 201704101251 METAR KEWR 101251Z 24004KT 10SM BKN250 14/02 A3021 RMK AO2 SLP230 T01390022= 201704101351 METAR KEWR 101351Z 23005KT 10SM BKN250 17/03 A3021 RMK AO2 SLP228 T01670028= 201704101451 METAR KEWR 101451Z 15007KT 10SM BKN250 18/03 A3018 RMK AO2 SLP220 T01830033 58010= 201704101551 METAR KEWR 101551Z 21007KT 10SM BKN250 21/04 A3017 RMK AO2 SLP217 T02110044= 201704101651 METAR KEWR 101651Z 18012KT 10SM BKN250 23/05 A3015 RMK AO2 SLP208 T02280050= 201704101751 METAR KEWR 101751Z 17008KT 10SM BKN250 24/05 A3012 RMK AO2 SLP198 T02390050 10239 20117 58022= 201704101851 METAR KEWR 101851Z 20011KT 10SM BKN250 26/04 A3009 RMK AO2 WSHFT 1803 SLP189 T02610044= 201704101951 METAR KEWR 101951Z 22012G22KT 10SM BKN250 27/03 A3007 RMK AO2 SLP183 T02720028= 201704102051 METAR KEWR 102051Z 21013G21KT 10SM BKN250 27/04 A3006 RMK AO2 SLP180 T02720039 56019= 201704102151 METAR KEWR 102151Z 23013G20KT 10SM BKN250 27/03 A3006 RMK AO2 SLP179 T02670033= 201704102251 METAR KEWR 102251Z 20015KT 10SM BKN250 26/04 A3006 RMK AO2 SLP179 T02560044= 201704102351 METAR KEWR 102351Z 20011KT 10SM BKN250 24/05 A3007 RMK AO2 SLP183 T02440050 10278 20239 53003 $= 201704110051 METAR KEWR 110051Z 17009KT 10SM BKN250 22/06 A3010 RMK AO2 SLP193 T02220061 $= 201704110151 METAR KEWR 110151Z 18007KT 10SM BKN250 21/07 A3013 RMK AO2 SLP201 T02060072 $= 201704110251 METAR KEWR 110251Z 19011KT 10SM SCT190 BKN260 20/07 A3013 RMK AO2 SLP202 T02000072 51019 $= 201704110351 METAR KEWR 110351Z 21014KT 10SM FEW180 BKN250 19/07 A3013 RMK AO2 SLP202 T01940067 $= 201704110451 METAR KEWR 110451Z 21010KT 10SM BKN250 18/08 A3012 RMK AO2 SLP200 T01830078 402780089 $= 201704110551 METAR KEWR 110551Z 22010KT 10SM BKN250 17/08 A3012 RMK AO2 SLP198 T01720078 10239 20167 58004 $= 201704110651 METAR KEWR 110651Z 22008KT 10SM SCT250 16/08 A3010 RMK AO2 SLP193 T01610078 $= 201704110751 METAR KEWR 110751Z 22006KT 10SM SCT250 16/07 A3010 RMK AO2 SLP192 T01560072 $= 201704110851 METAR KEWR 110851Z 22008KT 10SM SCT250 15/08 A3011 RMK AO2 SLP195 T01500078 55003 $= 201704110951 METAR KEWR 110951Z 21007KT 10SM BKN250 14/07 A3012 RMK AO2 SLP197 T01390072 $= 201704111051 METAR KEWR 111051Z 21008KT 10SM SCT250 14/08 A3013 RMK AO2 SLP201 T01440083 $= 201704111151 METAR KEWR 111151Z 21008KT 10SM BKN250 16/08 A3014 RMK AO2 SLP205 T01610083 10172 20133 53010 $= 201704111251 METAR KEWR 111251Z 22009KT 10SM BKN250 18/09 A3014 RMK AO2 SLP206 T01830089 $= 201704111351 METAR KEWR 111351Z 25009KT 10SM BKN250 21/08 A3015 RMK AO2 SLP208 T02110083= 201704111451 METAR KEWR 111451Z 22007KT 10SM BKN250 22/09 A3013 RMK AO2 SLP203 T02220094 58001= 201704111551 METAR KEWR 111551Z 21004KT 10SM BKN250 25/09 A3012 RMK AO2 SLP198 T02500089= 201704111651 METAR KEWR 111651Z 17008KT 10SM SCT250 26/09 A3010 RMK AO2 SLP193 T02610089= 201704111751 METAR KEWR 111751Z 15008KT 10SM BKN250 27/10 A3009 RMK AO2 SLP189 T02720100 10278 20161 56015= 201704111851 METAR KEWR 111851Z 11008KT 10SM BKN250 27/10 A3007 RMK AO2 SLP183 T02670100= 201704111951 METAR KEWR 111951Z 09007KT 10SM BKN250 25/11 A3007 RMK AO2 SLP181 T02500106= 201704112051 METAR KEWR 112051Z 10SM BKN250 27/11 A3005 RMK AO2 SLP175 T02720106 56014= 201704112151 METAR KEWR 112151Z 24008KT 10SM BKN250 28/07 A3005 RMK AO2 SLP177 T02830067= 201704112251 METAR KEWR 112251Z 19007KT 10SM FEW180 BKN250 27/08 A3004 RMK AO2 SLP173 T02720083 $= 201704112351 METAR KEWR 112351Z 18007KT 10SM FEW180 BKN250 26/08 A3005 RMK AO2 SLP174 T02610083 10289 20250 58001 $= 201704120051 METAR KEWR 120051Z 20007KT 10SM FEW180 BKN250 24/10 A3007 RMK AO2 SLP180 T02390100 $= 201704120151 METAR KEWR 120151Z 19006KT 10SM FEW180 BKN250 23/10 A3007 RMK AO2 SLP183 T02280100 $= 201704120251 METAR KEWR 120251Z 18006KT 10SM SCT250 22/11 A3008 RMK AO2 SLP186 T02220106 51012 $= 201704120351 METAR KEWR 120351Z 25004KT 10SM SCT250 22/11 A3010 RMK AO2 SLP192 T02170106 $= 201704120451 METAR KEWR 120451Z 15003KT 10SM SCT250 20/11 A3010 RMK AO2 SLP191 T02000111 402890133 $= 201704120551 METAR KEWR 120551Z 00000KT 10SM SCT250 20/11 A3009 RMK AO2 SLP187 T02000111 10261 20200 50001 $= 201704120651 METAR KEWR 120651Z 36003KT 10SM SCT250 18/12 A3008 RMK AO2 SLP185 T01830117 $= 201704120751 METAR KEWR 120751Z 06004KT 10SM SCT250 17/11 A3007 RMK AO2 SLP182 T01670111 $= 201704120851 METAR KEWR 120851Z 02003KT 10SM BKN240 16/11 A3008 RMK AO2 SLP186 T01560106 55002 $= 201704120951 METAR KEWR 120951Z 00000KT 10SM SCT240 17/11 A3010 RMK AO2 SLP190 T01670111 $= 201704121051 METAR KEWR 121051Z 02003KT 10SM BKN240 16/11 A3010 RMK AO2 SLP193 T01560106 $= 201704121151 METAR KEWR 121151Z 00000KT 10SM BKN240 18/12 A3012 RMK AO2 SLP198 T01830117 10200 20156 53012 $= 201704121251 METAR KEWR 121251Z 27003KT 10SM SCT090 SCT180 OVC250 21/12 A3012 RMK AO2 SLP199 T02060117 $= 201704121351 METAR KEWR 121351Z 00000KT 10SM BKN095 BKN180 OVC250 22/12 A3013 RMK AO2 SLP203 T02170117= 201704121451 METAR KEWR 121451Z 30015G23KT 10SM FEW050CB BKN070 OVC250 21/12 A3017 RMK AO2 TSB30E47 SLP215 CB N-NE AND SW MOV E T02110117 53017= 201704121551 METAR KEWR 121551Z 32007KT 10SM FEW045 OVC065 19/13 A3018 RMK AO2 RAB1455E37 SLP219 P0003 T01940133= 201704121651 METAR KEWR 121651Z 36006KT 10SM -RA FEW055 OVC070 18/13 A3017 RMK AO2 RAB22 SLP216 P0000 T01830133= 201704121751 METAR KEWR 121751Z 36004KT 10SM FEW030 SCT070 BKN120 BKN140 BKN250 20/13 A3015 RMK AO2 RAE29 SLP208 P0000 60003 T02000133 10222 20183 58007= 201704121851 METAR KEWR 121851Z 28008KT 240V310 10SM FEW035 FEW130 BKN220 22/12 A3013 RMK AO2 SLP201 T02170122= 201704121951 METAR KEWR 121951Z 24006KT 10SM FEW040 FEW130 BKN220 23/10 A3011 RMK AO2 SLP196 T02280100= 201704122051 METAR KEWR 122051Z 29012G17KT 10SM FEW040 FEW080 BKN250 26/07 A3010 RMK AO2 SLP193 T02560067 56015= 201704122151 METAR KEWR 122151Z 27015KT 10SM FEW040 FEW080 SCT250 25/01 A3011 RMK AO2 SLP195 T02500006= 201704122251 METAR KEWR 122251Z 26012KT 10SM FEW050 FEW250 24/M01 A3012 RMK AO2 SLP198 T02441011= 201704122351 METAR KEWR 122351Z 27012KT 10SM FEW040 FEW250 23/M02 A3015 RMK AO2 SLP208 T02281022 10256 20200 53015= 201704130051 METAR KEWR 130051Z 29009KT 10SM FEW250 21/01 A3019 RMK AO2 SLP221 T02110006= 201704130151 METAR KEWR 130151Z 30007KT 10SM CLR 21/02 A3020 RMK AO2 SLP227 T02060017= 201704130251 METAR KEWR 130251Z 33008KT 10SM CLR 20/03 A3022 RMK SLP231 T02000028 51023= 201704130351 METAR KEWR 130351Z 35011KT 10SM CLR 17/05 A3025 RMK SLP242 T01720050= 201704130451 METAR KEWR 130451Z 35016G22KT 10SM CLR 15/04 A3028 RMK AO2 SLP253 T01500044 402560150 $= 201704130551 METAR KEWR 130551Z 36013KT 10SM CLR 13/02 A3030 RMK AO2 SLP260 T01280017 10228 20128 51029 $= 201704130651 METAR KEWR 130651Z 33015G26KT 10SM CLR 11/01 A3031 RMK AO2 PK WND 32026/0648 SLP263 T01110006 $= 201704130751 METAR KEWR 130751Z 35009KT 10SM CLR 10/01 A3032 RMK AO2 SLP266 T01000006 $= 201704130851 METAR KEWR 130851Z 33011KT 10SM CLR 09/00 A3033 RMK AO2 SLP268 T00940000 51008 $= 201704130951 METAR KEWR 130951Z 33012G22KT 10SM FEW250 09/00 A3033 RMK AO2 SLP270 T00940000 $= 201704131051 METAR KEWR 131051Z 32009KT 10SM BKN250 09/00 A3035 RMK AO2 SLP276 T00940000 $= 201704131151 METAR KEWR 131151Z 32013G25KT 10SM BKN250 10/00 A3036 RMK AO2 SLP281 70003 T01000000 10122 20089 53013 $= 201704131251 METAR KEWR 131251Z 32018G27KT 10SM BKN250 11/00 A3036 RMK AO2 PK WND 32027/1245 SLP279 T01060000 $= 201704131351 METAR KEWR 131351Z 31016KT 10SM BKN250 12/M01 A3037 RMK AO2 SLP284 T01171006 $= 201704131451 METAR KEWR 131451Z 33012KT 10SM SCT190 BKN250 12/M01 A3037 RMK AO2 SLP282 T01221011 52001 $= 201704131551 METAR KEWR 131551Z 32012KT 10SM FEW190 BKN250 14/M02 A3035 RMK AO2 SLP276 T01391017 $= 201704131651 METAR KEWR 131651Z 31013G25KT 290V360 10SM BKN250 16/M01 A3034 RMK AO2 SLP273 T01561011 $= 201704131751 METAR KEWR 131751Z 34012KT 10SM SCT250 17/M02 A3033 RMK AO2 SLP268 T01671022 10167 20094 56014 $= 201704131851 METAR KEWR 131851Z 34013KT 10SM BKN250 18/M02 A3031 RMK AO2 SLP263 T01781017 $= 201704131951 METAR KEWR 131951Z 30012G18KT 10SM BKN250 18/M02 A3029 RMK AO2 SLP257 T01831022 $= 201704132051 METAR KEWR 132051Z 32014G19KT 290V360 10SM BKN250 18/M02 A3030 RMK AO2 SLP259 T01831022 55009 $= 201704132151 METAR KEWR 132151Z 32008G15KT 10SM FEW150 BKN250 17/M04 A3029 RMK AO2 SLP257 T01721039 $= 201704132251 METAR KEWR 132251Z 34010G17KT 10SM SCT140 BKN250 17/M04 A3031 RMK AO2 SLP262 T01721039 $= 201704132351 METAR KEWR 132351Z 31011G18KT 10SM FEW120 BKN150 OVC250 17/M04 A3033 RMK AO2 SLP269 T01671044 10189 20167 53010 $= 201704140051 METAR KEWR 140051Z 35012KT 10SM FEW090 SCT120 BKN170 OVC250 15/M04 A3034 RMK AO2 SLP275 T01501039 $= 201704140151 METAR KEWR 140151Z 34009KT 10SM FEW100 SCT130 SCT170 BKN250 14/M04 A3035 RMK AO2 SLP275 T01391039 $= 201704140251 METAR KEWR 140251Z 34009KT 10SM FEW100 SCT150 BKN250 14/M03 A3035 RMK AO2 SLP278 T01391033 51009 $= 201704140351 METAR KEWR 140351Z 35008KT 10SM FEW140 SCT250 13/M02 A3036 RMK AO2 SLP279 T01281022 $= 201704140451 METAR KEWR 140451Z 02005KT 10SM SCT250 10/M02 A3036 RMK AO2 SLP279 T01001017 401890089 $= 201704140551 METAR KEWR 140551Z 01005KT 10SM FEW250 09/M01 A3036 RMK SLP279 T00941011 10167 20089 51002= 201704140651 METAR KEWR 140651Z 32005KT 10SM SCT250 10/M02 A3036 RMK SLP280 T01001017= 201704140751 METAR KEWR 140751Z 36005KT 10SM FEW250 08/M02 A3036 RMK SLP280 T00831017= 201704140851 METAR KEWR 140851Z 03006KT 10SM SCT130 SCT250 08/M01 A3037 RMK AO2 SLP282 T00781006 $= 201704140951 METAR KEWR 140951Z 02007KT 10SM BKN130 BKN250 08/M01 A3037 RMK AO2 SLP285 T00831006 $= 201704141051 METAR KEWR 141051Z 02007KT 10SM BKN140 BKN250 08/M01 A3039 RMK AO2 SLP291 T00781006 $= 201704141151 METAR KEWR 141151Z 02010KT 10SM BKN095 BKN140 BKN250 09/M01 A3040 RMK AO2 SLP294 T00941011 10106 20067 53011 $= 201704141251 METAR KEWR 141251Z 01009KT 10SM BKN095 BKN120 BKN140 11/M02 A3041 RMK AO2 SLP295 VIRGA T01111017 $= 201704141351 METAR KEWR 141351Z 01007KT 10SM BKN095 12/M01 A3042 RMK AO2 SLP299 VIRGA NW T01171011 $= 201704141451 METAR KEWR 141451Z 09004KT 10SM OVC095 13/M01 A3042 RMK AO2 SLP300 T01331011 51006 $= 201704141551 METAR KEWR 141551Z VRB03KT 10SM SCT090 BKN110 15/M02 A3040 RMK AO2 SLP294 T01501017 $= 201704141651 METAR KEWR 141651Z VRB05KT 10SM FEW085 SCT100 16/M02 A3039 RMK AO2 SLP290 T01561022 $= 201704141751 METAR KEWR 141751Z 13005KT 10SM FEW095 FEW120 SCT250 16/M03 A3037 RMK AO2 SLP283 T01611033 10172 20100 58017 $= 201704141851 METAR KEWR 141851Z VRB06KT 10SM FEW095 FEW120 FEW250 17/M03 A3036 RMK AO2 SLP279 T01721028 $= 201704141951 METAR KEWR 141951Z 15006KT 10SM FEW070 SCT250 18/M03 A3034 RMK AO2 SLP273 T01781028 $= 201704142051 METAR KEWR 142051Z 13006KT 10SM FEW070 FEW250 17/M03 A3033 RMK AO2 SLP270 T01721028 56013 $= 201704142151 METAR KEWR 142151Z 14008KT 10SM FEW070 FEW250 16/M02 A3033 RMK AO2 SLP270 T01611017 $= 201704142251 METAR KEWR 142251Z 16008KT 10SM FEW070 FEW250 15/M01 A3034 RMK AO2 SLP272 T01501006 $= 201704142351 METAR KEWR 142351Z 16007KT 10SM SCT250 14/01 A3035 RMK AO2 SLP276 T01390006 10178 20139 53005 $= 201704150051 METAR KEWR 150051Z 20008KT 10SM FEW250 13/01 A3037 RMK AO2 SLP285 T01280006 $= 201704150151 METAR KEWR 150151Z 21005KT 10SM FEW250 12/01 A3039 RMK AO2 SLP289 T01170011 $= 201704150251 METAR KEWR 150251Z 20005KT 10SM FEW250 11/01 A3040 RMK AO2 SLP292 T01060011 51017 $= 201704150351 METAR KEWR 150351Z 23007KT 10SM FEW250 11/01 A3039 RMK AO2 SLP292 T01110011 $= 201704150451 METAR KEWR 150451Z 22003KT 10SM FEW250 11/01 A3040 RMK AO2 SLP294 T01060011 401780067 $= 201704150551 METAR KEWR 150551Z 20004KT 10SM FEW250 09/02 A3040 RMK AO2 SLP294 T00940017 10139 20094 53001 $= 201704150651 METAR KEWR 150651Z 00000KT 10SM CLR 10/02 A3039 RMK AO2 SLP291 T01000022 $= 201704150751 METAR KEWR 150751Z 17003KT 10SM CLR 09/03 A3039 RMK AO2 SLP290 T00940028 $= 201704150851 METAR KEWR 150851Z 15004KT 10SM CLR 09/03 A3038 RMK AO2 SLP286 T00890028 58007 $= 201704150951 METAR KEWR 150951Z 17003KT 10SM FEW300 09/03 A3038 RMK AO2 SLP287 T00890033 $= 201704151051 METAR KEWR 151051Z 18004KT 10SM FEW080 FEW300 09/03 A3038 RMK AO2 SLP288 T00890033 $= 201704151151 METAR KEWR 151151Z 19006KT 10SM SCT085 SCT300 10/04 A3039 RMK AO2 SLP291 T01000044 10106 20083 53004 $= 201704151251 METAR KEWR 151251Z 18006KT 10SM SCT085 SCT300 12/03 A3039 RMK AO2 SLP290 T01170033 $= 201704151351 METAR KEWR 151351Z 21007KT 10SM BKN070 BKN090 13/02 A3038 RMK AO2 SLP288 T01330022 $= 201704151451 METAR KEWR 151451Z 17007KT 10SM OVC070 15/03 A3037 RMK AO2 SLP283 T01500028 58008 $= 201704151551 METAR KEWR 151551Z 15006KT 10SM OVC065 16/03 A3034 RMK AO2 SLP273 T01560033 $= 201704151651 METAR KEWR 151651Z 11005KT 10SM BKN055 OVC075 15/06 A3032 RMK AO2 SLP267 T01500056 $= 201704151751 METAR KEWR 151751Z 05009KT 10SM SCT065 OVC080 17/07 A3029 RMK AO2 SLP258 T01670067 10167 20100 57025 $= 201704151851 METAR KEWR 151851Z 15007KT 10SM BKN055 BKN075 18/06 A3025 RMK AO2 SLP242 T01780056 $= 201704151951 METAR KEWR 151951Z 20011KT 10SM BKN045 OVC060 19/06 A3021 RMK AO2 SLP229 T01940056 $= 201704152051 METAR KEWR 152051Z 15008KT 10SM OVC041 18/08 A3018 RMK AO2 SLP219 T01780083 56038 $= 201704152151 METAR KEWR 152151Z 19014G20KT 10SM BKN031 OVC041 18/11 A3017 RMK AO2 SLP216 T01780111 $= 201704152251 METAR KEWR 152251Z 17008KT 10SM FEW027 OVC033 17/12 A3017 RMK AO2 SLP215 T01720117 $= 201704152351 METAR KEWR 152351Z 17008KT 10SM OVC035 17/12 A3015 RMK AO2 SLP210 T01720117 10194 20161 58010 $= 201704160051 METAR KEWR 160051Z 18007KT 10SM -RA FEW027 SCT036 BKN100 OVC170 17/12 A3014 RMK AO2 RAB46 SLP205 P0000 T01670122 $= 201704160151 METAR KEWR 160151Z 19009KT 10SM FEW036 SCT110 OVC170 17/12 A3013 RMK AO2 RAE0059 SLP202 P0000 T01670122 $= 201704160251 METAR KEWR 160251Z 19011KT 10SM FEW036 BKN130 OVC190 17/13 A3010 RMK AO2 SLP192 60000 T01670128 58017 $= 201704160351 METAR KEWR 160351Z 23010KT 10SM BKN110 OVC190 16/13 A3009 RMK AO2 RAB0259E08B34E48 SLP189 P0000 T01610133 $= 201704160451 METAR KEWR 160451Z 22008KT 10SM SCT110 BKN180 16/13 A3006 RMK AO2 SLP179 T01610133 401940083 $= 201704160551 METAR KEWR 160551Z 23008KT 10SM FEW110 BKN180 16/13 A3005 RMK AO2 SLP174 60000 T01560133 10172 20156 58018 $= 201704160651 METAR KEWR 160651Z 23007KT 10SM FEW110 SCT180 16/13 A3003 RMK AO2 SLP167 T01560133 $= 201704160751 METAR KEWR 160751Z 22008KT 10SM CLR 14/13 A3001 RMK AO2 SLP161 T01440133 $= 201704160851 METAR KEWR 160851Z 22006KT 10SM SCT250 14/13 A3000 RMK AO2 SLP157 T01440133 56017 $= 201704160951 METAR KEWR 160951Z 22008KT 10SM FEW140 BKN250 15/14 A2999 RMK AO2 SLP155 T01500139 $= 201704161051 METAR KEWR 161051Z 23006KT 10SM BKN140 BKN250 16/14 A3000 RMK AO2 SLP158 T01560144 $= 201704161151 METAR KEWR 161151Z 23008KT 10SM FEW060 SCT140 17/14 A3000 RMK AO2 SLP158 T01670144 10167 20144 53001 $= 201704161251 METAR KEWR 161251Z 22009KT 10SM SCT090 SCT140 SCT250 19/14 A2999 RMK AO2 SLP156 T01890144 $= 201704161351 METAR KEWR 161351Z 23009KT 10SM FEW090 FEW140 FEW250 23/15 A2997 RMK AO2 SLP149 T02280150 $= 201704161451 METAR KEWR 161451Z 27018G23KT 10SM FEW090 SCT140 SCT250 26/13 A2996 RMK AO2 SLP144 T02560128 58014 $= 201704161551 METAR KEWR 161551Z 24019G22KT 10SM SCT090 SCT140 BKN250 28/12 A2993 RMK AO2 PK WND 25026/1527 SLP134 T02780117 $= 201704161651 METAR KEWR 161651Z 25016G28KT 10SM FEW070 SCT150 SCT250 29/11 A2988 RMK AO2 PK WND 24028/1645 SLP119 T02940106 $= 201704161751 METAR KEWR 161751Z 23015KT 10SM SCT070 SCT150 BKN250 31/11 A2985 RMK AO2 PK WND 24032/1717 SLP108 T03060111 10306 20167 58037 $= 201704161851 METAR KEWR 161851Z 24018G25KT 10SM FEW040 SCT070 BKN120 BKN250 29/11 A2984 RMK AO2 PK WND 23029/1835 SLP104 TCU DSNT SE T02940106 $= 201704161951 METAR KEWR 161951Z 24021G28KT 10SM FEW050 BKN080 BKN120 BKN250 29/11 A2981 RMK AO2 PK WND 24029/1935 RAB10E18 SLP093 VCSH NE P0000 T02890106 $= 201704162051 METAR KEWR 162051Z 29010KT 10SM FEW040 SCT080 BKN120 25/17 A2980 RMK AO2 PK WND 26044/2027 RAB21E37 SLP090 VCSH E P0005 60005 T02500167 56018 $= 201704162151 METAR KEWR 162151Z 25013KT 10SM FEW080 FEW120 SCT250 28/14 A2979 RMK AO2 SLP086 T02780139 $= 201704162251 METAR KEWR 162251Z 24026G38KT 10SM FEW070 FEW130 SCT250 28/11 A2976 RMK AO2 PK WND 23038/2243 SLP078 T02830106 $= 201704162351 METAR KEWR 162351Z 24018G24KT 10SM SCT100 SCT250 28/10 A2978 RMK AO2 PK WND 24033/2254 SLP084 60005 T02780100 10306 20233 55006 $= 201704170051 METAR KEWR 170051Z 24016G27KT 10SM FEW050 SCT080 BKN120 BKN250 27/10 A2981 RMK AO2 PK WND 24029/0029 SLP094 T02720100 $= 201704170151 METAR KEWR 170151Z 31018G24KT 10SM SCT070 BKN090 BKN120 BKN250 22/13 A2986 RMK AO2 PK WND 32039/0110 WSHFT 0057 SLP112 T02220133 $= 201704170251 METAR KEWR 170251Z 26012G20KT 10SM SCT080 BKN095 OVC140 22/13 A2986 RMK AO2 SLP111 T02170133 50027 $= 201704170351 METAR KEWR 170351Z 26013KT 10SM SCT080 BKN110 22/14 A2986 RMK AO2 SLP110 T02170139 $= 201704170451 METAR KEWR 170451Z 25011KT 10SM FEW080 SCT110 BKN200 21/14 A2986 RMK AO2 SLP112 T02110144 403060144 $= 201704170551 METAR KEWR 170551Z 26014KT 10SM FEW080 SCT110 SCT200 21/14 A2986 RMK AO2 SLP112 T02060144 10278 20206 53001 $= 201704170651 METAR KEWR 170651Z 26009KT 10SM CLR 19/14 A2985 RMK AO2 SLP108 T01940144 $= 201704170751 METAR KEWR 170751Z 25009KT 10SM FEW140 19/14 A2985 RMK AO2 SLP108 T01940144 $= 201704170851 METAR KEWR 170851Z 24007KT 10SM SCT170 19/14 A2986 RMK AO2 SLP112 T01890144 53000 $= 201704170951 METAR KEWR 170951Z 24008KT 10SM FEW170 SCT200 18/14 A2989 RMK AO2 SLP121 T01830144 $= 201704171051 METAR KEWR 171051Z 26006KT 10SM FEW120 BKN180 BKN260 18/14 A2992 RMK AO2 SLP130 T01830144 $= 201704171151 METAR KEWR 171151Z 30008KT 10SM SCT110 BKN140 BKN250 20/14 A2992 RMK AO2 SLP132 70005 T02000144 10206 20183 51020 $= 201704171251 METAR KEWR 171251Z 31010KT 10SM FEW045 BKN100 BKN130 OVC250 20/13 A2994 RMK AO2 SLP137 T02000128 $= 201704171351 METAR KEWR 171351Z 32009KT 10SM FEW050 BKN100 BKN140 OVC250 19/07 A2995 RMK AO2 SLP141 T01940067 $= 201704171451 METAR KEWR 171451Z 30011KT 10SM FEW055 SCT090 BKN120 BKN180 BKN250 20/04 A2997 RMK AO2 SLP149 T02000044 53017 $= 201704171551 METAR KEWR 171551Z 32009G16KT 10SM FEW065 SCT110 BKN160 OVC250 22/03 A2997 RMK AO2 SLP149 T02170033 $= 201704171651 METAR KEWR 171651Z 29015KT 10SM FEW060 FEW110 BKN160 BKN250 22/03 A2997 RMK AO2 SLP146 T02170028 $= 201704171751 METAR KEWR 171751Z 29014G22KT 10SM FEW070 BKN130 BKN180 BKN250 22/03 A2996 RMK AO2 SLP143 T02220028 10228 20194 58006 $= 201704171851 METAR KEWR 171851Z 30017G25KT 10SM FEW070 BKN140 BKN160 BKN250 23/00 A2996 RMK AO2 SLP143 T02280000 $= 201704171951 METAR KEWR 171951Z 34015G24KT 10SM SCT170 BKN190 BKN250 23/M03 A2996 RMK AO2 SLP145 T02281033 $= 201704172051 METAR KEWR 172051Z 33014G24KT 10SM FEW170 BKN190 BKN270 22/M03 A2996 RMK AO2 PK WND 35028/1953 SLP146 T02221028 53003 $= 201704172151 METAR KEWR 172151Z 33020G27KT 10SM FEW170 SCT270 22/M04 A2998 RMK AO2 PK WND 32027/2150 SLP153 T02221039 $= 201704172251 METAR KEWR 172251Z 34014KT 10SM FEW170 FEW270 21/M04 A3001 RMK AO2 SLP161 T02111039 $= 201704172351 METAR KEWR 172351Z 36019KT 10SM FEW170 SCT250 19/M02 A3005 RMK AO2 SLP176 T01891022 10239 20189 53030 $= 201704180051 METAR KEWR 180051Z 35015KT 10SM FEW170 BKN250 18/M02 A3009 RMK AO2 SLP187 T01831022 $= 201704180151 METAR KEWR 180151Z 35015KT 10SM BKN240 18/M02 A3011 RMK AO2 SLP197 T01781022 $= 201704180251 METAR KEWR 180251Z 35021G24KT 10SM BKN250 17/M03 A3013 RMK AO2 PK WND 35026/0236 SLP204 T01671028 51027 $= 201704180351 METAR KEWR 180351Z 35019G26KT 10SM BKN240 16/M03 A3015 RMK AO2 PK WND 36027/0300 SLP208 T01561028 $= 201704180451 METAR KEWR 180451Z 35014KT 10SM SCT240 14/M02 A3016 RMK AO2 SLP214 T01441017 402390144 $= 201704180551 METAR KEWR 180551Z 36014KT 10SM SCT250 13/M02 A3017 RMK AO2 SLP217 T01331017 10189 20133 51014 $= 201704180651 METAR KEWR 180651Z 35011KT 10SM BKN260 13/M01 A3019 RMK AO2 SLP222 T01281006 $= 201704180751 METAR KEWR 180751Z 34014KT 10SM SCT260 12/M01 A3021 RMK AO2 SLP229 T01221006 $= 201704180851 METAR KEWR 180851Z 34016G26KT 10SM FEW260 12/M01 A3024 RMK AO2 PK WND 33026/0843 SLP238 T01221006 53021 $= 201704180951 METAR KEWR 180951Z 34010KT 10SM FEW250 12/M01 A3027 RMK AO2 SLP251 T01171006 $= 201704181051 METAR KEWR 181051Z 01013KT 10SM FEW040 SCT250 10/01 A3031 RMK AO2 SLP263 T01000006 $= 201704181151 METAR KEWR 181151Z 03015KT 10SM FEW045 SCT250 11/02 A3033 RMK AO2 SLP271 T01110017 10133 20100 51032 $= 201704181251 METAR KEWR 181251Z 04007KT 10SM FEW100 FEW250 12/02 A3035 RMK AO2 SLP277 T01220022 $= 201704181351 METAR KEWR 181351Z 01008KT 10SM FEW250 14/02 A3037 RMK AO2 SLP283 T01390022 $= 201704181451 METAR KEWR 181451Z 00000KT 10SM FEW050 FEW250 14/01 A3038 RMK AO2 SLP286 T01440011 51016 $= 201704181551 METAR KEWR 181551Z VRB05KT 10SM FEW055 16/01 A3037 RMK AO2 SLP285 T01560011 $= 201704181651 METAR KEWR 181651Z 08008KT 060V120 10SM FEW060 16/01 A3036 RMK AO2 SLP281 T01610011 $= 201704181751 METAR KEWR 181751Z 10006KT 10SM FEW060 17/00 A3036 RMK AO2 SLP279 T01670000 10172 20111 58007 $= 201704181851 METAR KEWR 181851Z 14010KT 10SM FEW065 SCT250 17/02 A3035 RMK AO2 SLP276 T01670017 $= 201704181951 METAR KEWR 181951Z 13012G17KT 10SM FEW065 SCT250 16/03 A3036 RMK AO2 SLP280 T01560028 $= 201704182051 METAR KEWR 182051Z 14011G19KT 110V170 10SM FEW065 SCT250 14/03 A3037 RMK AO2 SLP284 T01390028 53005 $= 201704182151 METAR KEWR 182151Z 13011KT 10SM FEW065 SCT250 13/04 A3039 RMK AO2 SLP291 T01280039 $= 201704182251 METAR KEWR 182251Z 15009KT 10SM FEW250 12/03 A3042 RMK AO2 SLP299 T01220033 $= 201704182351 METAR KEWR 182351Z 14008KT 10SM SCT250 11/04 A3043 RMK AO2 SLP304 T01110039 10178 20111 51020 $= 201704190051 METAR KEWR 190051Z 13009KT 10SM SCT250 11/04 A3046 RMK AO2 SLP313 T01060044 $= 201704190151 METAR KEWR 190151Z 13006KT 10SM SCT250 10/05 A3049 RMK AO2 SLP325 T01000050 $= 201704190251 METAR KEWR 190251Z 13006KT 10SM FEW015 SCT250 10/04 A3050 RMK AO2 SLP327 T01000044 51023 $= 201704190351 METAR KEWR 190351Z 12011G17KT 10SM SCT015 09/05 A3049 RMK AO2 SLP325 T00940050 $= 201704190451 METAR KEWR 190451Z 12008KT 10SM BKN019 BKN025 09/05 A3052 RMK AO2 SLP334 T00890050 401780089 $= 201704190551 METAR KEWR 190551Z 15008KT 10SM BKN019 BKN025 08/04 A3053 RMK AO2 SLP337 T00830044 10111 20083 53009 $= 201704190651 METAR KEWR 190651Z 14007KT 110V170 10SM BKN020 BKN025 08/04 A3051 RMK AO2 SLP331 T00830044 $= 201704190751 METAR KEWR 190751Z 11011KT 10SM BKN020 BKN025 08/03 A3051 RMK AO2 SLP332 T00830033 $= 201704190851 METAR KEWR 190851Z 14006KT 10SM BKN023 08/04 A3052 RMK AO2 SLP335 T00830039 55002 $= 201704190951 METAR KEWR 190951Z 11008KT 10SM SCT021 BKN250 08/03 A3051 RMK AO2 SLP330 T00830033 $= 201704191051 METAR KEWR 191051Z 12008G15KT 10SM SCT021 BKN250 08/03 A3052 RMK AO2 SLP333 SCT V BKN T00780033 $= 201704191151 METAR KEWR 191151Z 13008KT 10SM BKN022 BKN250 09/04 A3053 RMK AO2 SLP338 BKN022 V SCT T00890039 10089 20078 53003 $= 201704191251 METAR KEWR 191251Z 13009G17KT 10SM BKN022 BKN250 09/03 A3051 RMK AO2 SLP332 T00890033 $= 201704191351 METAR KEWR 191351Z 11009G16KT 10SM BKN023 BKN250 09/03 A3052 RMK AO2 SLP333 CIG 020V026 T00940033 $= 201704191451 METAR KEWR 191451Z 13010KT 10SM BKN025 BKN070 BKN250 09/03 A3050 RMK AO2 SLP326 CIG 023V028 BKN025 V SCT T00940033 58012 $= 201704191551 METAR KEWR 191551Z 11011G17KT 10SM SCT022 BKN027 OVC070 10/04 A3048 RMK AO2 SLP322 SCT V BKN T01000039 $= 201704191651 METAR KEWR 191651Z 14012G19KT 10SM FEW022 SCT029 BKN075 10/04 A3045 RMK AO2 SLP309 T01000039 $= 201704191751 METAR KEWR 191751Z 13015G21KT 10SM FEW020 SCT028 SCT075 BKN130 BKN250 11/04 A3042 RMK AO2 SLP301 T01060044 10106 20083 58025 $= 201704191851 METAR KEWR 191851Z 14015G24KT 10SM SCT018 BKN130 BKN250 11/05 A3039 RMK AO2 SLP288 T01060050 $= 201704191951 METAR KEWR 191951Z 13013G22KT 10SM SCT019 BKN065 OVC100 09/04 A3036 RMK AO2 SLP280 T00940044 $= 201704192051 METAR KEWR 192051Z 13010G20KT 10SM SCT015 OVC060 09/05 A3035 RMK AO2 RAB15E26 SLP276 P0000 60000 T00940050 56025 $= 201704192151 METAR KEWR 192151Z 13010KT 10SM BKN015 OVC055 09/06 A3034 RMK AO2 SLP273 T00940056 $= 201704192251 METAR KEWR 192251Z 13009KT 10SM BKN015 OVC050 09/06 A3032 RMK AO2 SLP268 T00940056 $= 201704192351 METAR KEWR 192351Z 14009KT 10SM BKN015 OVC045 10/06 A3030 RMK AO2 SLP259 60000 T01000061 10111 20094 58017 $= 201704200051 METAR KEWR 200051Z 13006KT 10SM SCT015 BKN035 OVC045 10/06 A3030 RMK AO2 SLP258 T01000061 $= 201704200151 METAR KEWR 200151Z 16007KT 10SM -RA FEW015 OVC025 10/06 A3027 RMK AO2 RAB49 SLP251 P0000 T01000061 $= 201704200251 METAR KEWR 200251Z 16006KT 10SM BKN020 OVC040 10/07 A3025 RMK AO2 RAE00 SLP241 P0000 60000 T01000067 58018 $= 201704200351 METAR KEWR 200351Z 16005KT 10SM OVC020 11/07 A3023 RMK AO2 SLP235 T01060067 $= 201704200451 METAR KEWR 200451Z 00000KT 10SM BKN020 OVC030 11/07 A3021 RMK AO2 SLP229 T01060067 401110078 $= 201704200551 METAR KEWR 200551Z 00000KT 10SM SCT020 OVC028 11/07 A3018 RMK AO2 SLP219 60000 T01060067 10106 20094 58022 $= 201704200651 METAR KEWR 200651Z 00000KT 10SM OVC023 11/07 A3016 RMK AO2 SLP211 T01110072 $= 201704200751 METAR KEWR 200751Z 00000KT 10SM OVC023 11/07 A3014 RMK AO2 SLP204 T01110072 $= 201704200851 METAR KEWR 200851Z 08003KT 10SM BKN021 OVC027 11/07 A3012 RMK AO2 RAB27E49 SLP198 P0000 60000 T01060072 56021 $= 201704200951 METAR KEWR 200951Z 12003KT 10SM BKN020 OVC025 11/08 A3010 RMK AO2 RAB0852E09 SLP190 P0000 T01110078 $= 201704201051 METAR KEWR 201051Z 00000KT 10SM -RA BKN018 OVC022 11/08 A3013 RMK AO2 RAB36 SLP203 P0000 T01110083 $= 201704201151 METAR KEWR 201151Z 00000KT 5SM -RA BR BKN018 BKN025 OVC032 11/09 A3013 RMK AO2 SLP203 P0004 60004 70004 T01110089 10117 20106 53005 $= 201704201251 METAR KEWR 201251Z 00000KT 9SM BKN010 BKN043 BKN080 OVC150 11/10 A3012 RMK AO2 RAE32 SLP199 BKN010 V SCT P0001 T01110100 $= 201704201351 METAR KEWR 201351Z 00000KT 8SM BKN009 OVC029 12/11 A3012 RMK AO2 SLP200 CIG 008V010 T01220106 $= 201704201451 METAR KEWR 201451Z 00000KT 8SM FEW007 BKN012 OVC030 13/10 A3012 RMK AO2 SLP200 CIG 010V015 T01330100 $= 201704201551 METAR KEWR 201551Z 00000KT 8SM SCT015 BKN027 OVC085 14/11 A3011 RMK AO2 SLP195 SCT V BKN T01440106 $= 201704201651 METAR KEWR 201651Z 01006KT 10SM SCT020 BKN030 BKN070 17/11 A3008 RMK AO2 SLP185 SCT V BKN T01670111 $= 201704201751 METAR KEWR 201751Z 04005KT 10SM FEW025 SCT035 BKN080 17/11 A3007 RMK AO2 SLP182 60001 T01720111 10172 20106 58012 $= 201704201851 METAR KEWR 201851Z VRB05KT 10SM BKN028 BKN080 18/11 A3005 RMK AO2 SLP177 T01830111 $= 201704201951 METAR KEWR 201951Z 07006KT 10SM BKN030 18/11 A3004 RMK AO2 SLP171 T01830106 $= 201704202051 METAR KEWR 202051Z 10006KT 10SM BKN031 18/10 A3003 RMK AO2 SLP167 T01830100 58010 $= 201704202151 METAR KEWR 202151Z 13007KT 070V150 10SM BKN032 BKN250 18/10 A3003 RMK AO2 SLP168 T01830100 $= 201704202251 METAR KEWR 202251Z 11008KT 10SM BKN035 OVC250 16/10 A3002 RMK AO2 SLP166 T01610100 $= 201704202351 METAR KEWR 202351Z 14008KT 10SM BKN035 OVC200 15/10 A3004 RMK AO2 SLP172 T01500100 10194 20150 53005 $= 201704210051 METAR KEWR 210051Z 14008KT 10SM BKN037 OVC060 14/09 A3005 RMK AO2 SLP176 T01390089 $= 201704210151 METAR KEWR 210151Z 16010KT 10SM FEW037 BKN048 BKN200 OVC250 12/09 A3005 RMK AO2 SLP175 T01220089 $= 201704210251 METAR KEWR 210251Z 15009KT 10SM FEW009 BKN043 BKN090 OVC230 12/09 A3006 RMK AO2 SLP178 T01170089 51006 $= 201704210351 METAR KEWR 210351Z 12008KT 10SM FEW009 BKN039 OVC090 12/09 A3003 RMK AO2 SLP167 T01170089 $= 201704210451 METAR KEWR 210451Z 14006KT 7SM -RA OVC009 11/09 A3005 RMK AO2 RAB37 SLP174 P0000 T01110089 401940106 $= 201704210551 METAR KEWR 210551Z 09007KT 9SM -RA BKN008 OVC014 11/09 A3002 RMK AO2 SLP164 P0010 60010 T01060094 10150 20106 56014 $= 201704210651 METAR KEWR 210651Z 10010KT 9SM BKN009 OVC015 11/09 A2999 RMK AO2 RAE0559 SLP154 P0000 T01060089 $= 201704210751 METAR KEWR 210751Z 10008KT 10SM OVC006 10/09 A2999 RMK AO2 RAB07E23 SLP154 P0000 T01000089 $= 201704210851 METAR KEWR 210851Z 10011G18KT 10SM OVC005 09/08 A2996 RMK AO2 SLP146 60000 T00940083 56018 $= 201704210951 METAR KEWR 210951Z 10007KT 10SM OVC005 09/08 A2998 RMK AO2 SLP151 T00940083 $= 201704211051 METAR KEWR 211051Z 05003KT 2SM -RA BR OVC007 10/09 A3001 RMK AO2 SFC VIS 3 RAB41 SLP160 CIG 006V008 P0000 T01000089 $= 201704211151 METAR KEWR 211151Z 05007KT 1 1/2SM -RA BR OVC004 10/09 A2999 RMK AO2 SFC VIS 2 SLP154 P0003 60003 7//// T01000094 10106 20094 50008 $= 201704211251 METAR KEWR 211251Z 08007KT 1 1/2SM BKN007 BKN012 OVC017 10/09 A2997 RMK AO2 SFC VIS 8 RAE51 SLP150 CIG 005V010 P0001 T01000094 $= 201704211351 METAR KEWR 211351Z 03008KT 10SM BKN008 OVC014 11/09 A2995 RMK AO2 RAB36E48 SLP142 CIG 007V010 P0000 T01060094 $= 201704211451 METAR KEWR 211451Z 02008KT 10SM OVC008 11/09 A2995 RMK AO2 DZB1353E31 SLP141 CIG 007V009 P0000 60001 T01060094 56014 $= 201704211551 METAR KEWR 211551Z 03008KT 10SM OVC009 11/09 A2993 RMK AO2 SLP136 T01110094 $= 201704211651 METAR KEWR 211651Z 02008KT 10SM OVC010 12/09 A2993 RMK AO2 SLP136 CIG 009V011 T01170094 $= 201704211751 METAR KEWR 211751Z 02007KT 10SM OVC012 13/10 A2992 RMK AO2 SLP132 60001 T01280100 10128 20100 56008 $= 201704211851 METAR KEWR 211851Z 01005KT 10SM OVC014 13/10 A2991 RMK AO2 SLP128 T01330100 $= 201704211951 METAR KEWR 211951Z 01005KT 9SM FEW010 OVC014 14/09 A2989 RMK AO2 SLP120 T01390094 $= 201704212051 METAR KEWR 212051Z 09005KT 9SM FEW010 OVC015 14/10 A2988 RMK AO2 SLP117 T01390100 56016 $= 201704212151 METAR KEWR 212151Z 04009KT 9SM FEW010 OVC015 13/09 A2989 RMK AO2 SLP120 T01280094 $= 201704212251 METAR KEWR 212251Z 03007KT 8SM FEW010 BKN016 OVC025 12/09 A2989 RMK AO2 SLP121 T01170089 $= 201704212351 METAR KEWR 212351Z 03008KT 9SM FEW008 BKN012 OVC017 11/09 A2990 RMK AO2 SLP125 T01110094 10139 20111 51008 $= 201704220051 METAR KEWR 220051Z 03008KT 7SM BKN007 OVC012 11/09 A2992 RMK AO2 SLP131 T01060089 $= 201704220151 METAR KEWR 220151Z 05007KT 8SM BKN008 OVC012 11/09 A2992 RMK AO2 SLP133 T01060089 $= 201704220251 METAR KEWR 220251Z 04010KT 9SM BKN007 OVC012 10/08 A2993 RMK AO2 SLP135 T01000083 51010 $= 201704220351 METAR KEWR 220351Z 03008KT 3SM -DZ BR BKN005 OVC009 10/09 A2994 RMK AO2 DZB0256 SLP137 P0000 T01000089 $= 201704220451 METAR KEWR 220451Z 05008KT 6SM -DZ BR BKN005 OVC010 10/09 A2993 RMK AO2 SLP135 P0000 T01000094 401390094 $= 201704220551 METAR KEWR 220551Z 02008KT 8SM BKN008 OVC016 10/09 A2993 RMK AO2 DZE49 SLP134 P0000 60000 T01000089 10111 20094 58001 $= 201704220651 METAR KEWR 220651Z 02007KT 7SM OVC006 10/09 A2993 RMK AO2 SLP133 T01000089 $= 201704220751 METAR KEWR 220751Z 01009KT 8SM BKN006 BKN120 OVC160 10/09 A2989 RMK AO2 SLP122 T01000089 $= 201704220851 METAR KEWR 220851Z 02006KT 9SM BKN007 BKN140 10/09 A2989 RMK AO2 SLP122 T01000089 55012 $= 201704220951 METAR KEWR 220951Z 02007KT 9SM OVC008 11/09 A2991 RMK AO2 SLP126 T01060094 $= 201704221051 METAR KEWR 221051Z 02010KT 10SM OVC009 11/09 A2990 RMK AO2 SLP124 T01060094 $= 201704221151 METAR KEWR 221151Z 01007KT 10SM SCT009 OVC090 11/09 A2992 RMK AO2 SLP130 70001 T01110094 10111 20100 53008 $= 201704221251 METAR KEWR 221251Z 36007KT 10SM FEW014 OVC080 12/09 A2993 RMK AO2 RAB17E47 SLP134 P0000 T01170094 $= 201704221351 METAR KEWR 221351Z 02007KT 10SM FEW016 OVC075 12/09 A2994 RMK AO2 SLP137 T01220089 $= 201704221451 METAR KEWR 221451Z 01010KT 10SM FEW020 FEW035 OVC075 13/08 A2994 RMK AO2 SLP139 60000 T01330078 51009 $= 201704221551 METAR KEWR 221551Z 36007KT 10SM FEW023 SCT035 OVC070 14/08 A2994 RMK AO2 RAB39E51 SLP138 P0000 T01390083 $= 201704221651 METAR KEWR 221651Z 03005KT 8SM -RA FEW018 BKN023 OVC065 13/10 A2992 RMK AO2 RAB07 SLP132 P0001 T01330100 $= 201704221751 METAR KEWR 221751Z 00000KT 10SM -RA SCT018 OVC026 13/09 A2992 RMK AO2 RAE01B17E26B44 SLP131 P0000 60001 T01330094 10139 20111 56008 $= 201704221851 METAR KEWR 221851Z 00000KT 7SM -RA BKN018 BKN024 OVC070 13/10 A2993 RMK AO2 SLP133 P0002 T01280100 $= 201704221951 METAR KEWR 221951Z 28010G16KT 10SM -RA FEW016 BKN025 OVC070 13/10 A2992 RMK AO2 SLP132 BKN V SCT P0001 T01330100 $= 201704222051 METAR KEWR 222051Z 30010G19KT 10SM FEW016 SCT022 OVC040 13/09 A2994 RMK AO2 RAE29 SLP137 P0000 60003 T01330089 53006 $= 201704222151 METAR KEWR 222151Z 32011G16KT 10SM -RA FEW022 SCT040 OVC090 13/07 A2995 RMK AO2 RAB09 SLP140 P0000 T01280067 $= 201704222251 METAR KEWR 222251Z 32007KT 10SM FEW025 SCT045 OVC100 13/07 A2994 RMK AO2 RAE11 SLP139 P0000 T01330067 $= 201704222351 METAR KEWR 222351Z 30004KT 10SM FEW025 BKN048 OVC120 13/06 A2996 RMK AO2 SLP145 60003 T01280061 10133 20128 53008 $= 201704230051 METAR KEWR 230051Z 33014G20KT 10SM SCT050 OVC120 13/04 A2997 RMK AO2 SLP148 T01280044 $= 201704230151 METAR KEWR 230151Z 34015G22KT 10SM SCT120 OVC150 12/03 A3000 RMK AO2 SLP157 T01170028 $= 201704230251 METAR KEWR 230251Z 35010KT 10SM FEW033 SCT045 OVC130 11/03 A2999 RMK AO2 SLP156 T01110028 50010 $= 201704230351 METAR KEWR 230351Z 34010KT 10SM OVC045 11/03 A3001 RMK AO2 SLP162 T01110028 $= 201704230451 METAR KEWR 230451Z 34010KT 10SM SCT045 BKN150 10/03 A3003 RMK AO2 SLP169 T01000028 401390100 $= 201704230551 METAR KEWR 230551Z 34009KT 10SM FEW045 SCT250 09/03 A3003 RMK AO2 SLP167 T00940028 10128 20094 50011 $= 201704230651 METAR KEWR 230651Z 35006KT 10SM FEW045 SCT250 09/03 A3003 RMK AO2 SLP169 T00890028 $= 201704230751 METAR KEWR 230751Z 36008KT 10SM FEW045 SCT250 08/02 A3003 RMK AO2 SLP169 T00830022 $= 201704230851 METAR KEWR 230851Z 01008KT 10SM CLR 08/02 A3005 RMK AO2 SLP175 T00830017 53008 $= 201704230951 METAR KEWR 230951Z 01008KT 10SM SCT250 08/02 A3007 RMK AO2 SLP183 T00780017 $= 201704231051 METAR KEWR 231051Z 02005KT 10SM SCT250 08/02 A3010 RMK AO2 SLP192 T00780022 $= 201704231151 METAR KEWR 231151Z 02010KT 10SM SCT250 09/02 A3012 RMK AO2 SLP199 70004 T00890022 10094 20067 51024 $= 201704231251 METAR KEWR 231251Z 02011KT 10SM FEW250 11/03 A3013 RMK AO2 SLP203 T01110028 $= 201704231351 METAR KEWR 231351Z 01008KT 10SM FEW250 13/02 A3013 RMK AO2 SLP203 T01280022 $= 201704231451 METAR KEWR 231451Z 05006KT 10SM FEW200 FEW250 13/02 A3013 RMK AO2 SLP203 T01330022 51004 $= 201704231551 METAR KEWR 231551Z 03005KT 10SM FEW200 SCT250 14/01 A3012 RMK AO2 SLP200 T01390011 $= 201704231651 METAR KEWR 231651Z VRB03KT 10SM SCT200 BKN250 16/01 A3012 RMK AO2 SLP197 T01560011 $= 201704231751 METAR KEWR 231751Z VRB06KT 10SM SCT200 BKN250 18/01 A3009 RMK AO2 SLP188 T01780011 10178 20089 58015 $= 201704231851 METAR KEWR 231851Z VRB04KT 10SM SCT200 BKN250 17/01 A3008 RMK AO2 SLP184 T01720011 $= 201704231951 METAR KEWR 231951Z 15007KT 10SM BKN200 BKN250 17/02 A3006 RMK AO2 SLP177 T01720022 $= 201704232051 METAR KEWR 232051Z 14007KT 10SM BKN200 BKN250 18/03 A3006 RMK AO2 SLP179 T01780033 55009 $= 201704232151 METAR KEWR 232151Z 14006KT 10SM BKN200 BKN250 16/04 A3007 RMK AO2 SLP183 T01560039 $= 201704232251 METAR KEWR 232251Z 12005KT 10SM BKN200 BKN250 15/04 A3008 RMK AO2 SLP185 T01500044 $= 201704232351 METAR KEWR 232351Z VRB04KT 10SM SCT200 BKN250 13/06 A3009 RMK AO2 SLP190 T01330056 10183 20133 53011 $= 201704240051 METAR KEWR 240051Z 13005KT 10SM SCT200 BKN250 13/06 A3011 RMK AO2 SLP196 T01280056 $= 201704240151 METAR KEWR 240151Z 15006KT 10SM FEW200 OVC250 12/06 A3013 RMK AO2 SLP201 T01220061 $= 201704240251 METAR KEWR 240251Z 18006KT 10SM OVC250 11/06 A3013 RMK AO2 SLP203 T01110056 51014 $= 201704240351 METAR KEWR 240351Z 19005KT 10SM OVC250 11/06 A3013 RMK AO2 SLP201 T01060056 $= 201704240451 METAR KEWR 240451Z 15003KT 10SM BKN250 11/06 A3013 RMK AO2 SLP203 T01060056 401830067 $= 201704240551 METAR KEWR 240551Z 17004KT 10SM BKN250 10/06 A3013 RMK AO2 SLP201 T01000056 10133 20100 57002 $= 201704240651 METAR KEWR 240651Z 18003KT 10SM BKN250 09/06 A3011 RMK AO2 SLP195 T00940056 $= 201704240751 METAR KEWR 240751Z 00000KT 10SM BKN250 09/06 A3011 RMK AO2 SLP196 T00890056 $= 201704240851 METAR KEWR 240851Z 00000KT 10SM BKN250 09/06 A3012 RMK AO2 SLP200 T00890061 55001 $= 201704240951 METAR KEWR 240951Z 36003KT 10SM BKN180 BKN250 09/07 A3012 RMK AO2 SLP200 T00890067 $= 201704241051 METAR KEWR 241051Z 15003KT 10SM BKN180 BKN250 11/07 A3014 RMK AO2 SLP206 T01060072 $= 201704241151 METAR KEWR 241151Z 16003KT 10SM FEW130 BKN170 BKN250 11/07 A3016 RMK AO2 SLP213 T01060067 10111 20083 53013 $= 201704241251 METAR KEWR 241251Z 10004KT 10SM FEW002 BKN130 BKN160 BKN250 12/07 A3017 RMK AO2 SLP215 T01170067 $= 201704241351 METAR KEWR 241351Z 07004KT 10SM SCT130 BKN160 OVC250 12/07 A3017 RMK AO2 SLP216 T01220072 $= 201704241451 METAR KEWR 241451Z 00000KT 10SM SCT130 BKN150 OVC250 13/07 A3018 RMK AO2 SLP218 T01280067 51005 $= 201704241551 METAR KEWR 241551Z 09005KT 10SM FEW130 SCT150 OVC250 14/06 A3016 RMK AO2 SLP214 T01390061 $= 201704241651 METAR KEWR 241651Z 14005KT 10SM BKN110 BKN150 OVC250 14/06 A3016 RMK AO2 SLP211 T01390061 $= 201704241751 METAR KEWR 241751Z 11004KT 10SM BKN100 OVC140 14/05 A3015 RMK AO2 SLP210 T01390050 10144 20106 56007 $= 201704241851 METAR KEWR 241851Z 17005KT 10SM -RA FEW080 BKN100 OVC130 14/05 A3015 RMK AO2 RAB38 SLP208 P0000 T01390050 $= 201704241951 METAR KEWR 241951Z 10004KT 10SM -RA FEW070 OVC090 13/06 A3014 RMK AO2 SLP205 P0000 T01330056 $= 201704242051 METAR KEWR 242051Z 15003KT 10SM FEW060 OVC090 13/05 A3014 RMK AO2 RAE02 SLP205 P0000 60000 T01330050 55005 $= 201704242151 METAR KEWR 242151Z 13004KT 10SM FEW065 BKN090 OVC130 13/05 A3014 RMK AO2 RAB2059E07 SLP205 P0000 T01330050 $= 201704242251 METAR KEWR 242251Z 11005KT 10SM FEW065 BKN085 OVC130 13/04 A3013 RMK AO2 SLP202 T01330039 $= 201704242351 METAR KEWR 242351Z 09005KT 10SM FEW065 SCT085 OVC110 13/06 A3012 RMK AO2 SLP199 60000 T01280056 10150 20128 58006 $= 201704250051 METAR KEWR 250051Z 07005KT 10SM FEW065 BKN100 OVC130 13/06 A3012 RMK AO2 SLP200 T01330061 $= 201704250151 METAR KEWR 250151Z 08006KT 10SM FEW050 BKN070 OVC100 14/03 A3013 RMK AO2 SLP201 T01390028 $= 201704250251 METAR KEWR 250251Z 07005KT 10SM FEW050 BKN070 OVC100 13/03 A3013 RMK AO2 SLP201 T01330028 50002 $= 201704250351 METAR KEWR 250351Z 06006KT 10SM BKN055 OVC075 13/04 A3012 RMK AO2 SLP199 T01330039 $= 201704250451 METAR KEWR 250451Z 03008KT 10SM FEW015 BKN055 OVC080 12/06 A3011 RMK AO2 SLP195 T01220056 401500083 $= 201704250551 METAR KEWR 250551Z 04009KT 10SM -RA BKN018 OVC050 12/07 A3009 RMK AO2 RAB0457 SLP189 P0000 60000 T01170067 10139 20117 58012 $= 201704250651 METAR KEWR 250651Z 03010KT 10SM -RA BKN015 OVC035 11/08 A3008 RMK AO2 SLP185 P0000 T01110083 $= 201704250751 METAR KEWR 250751Z 03011KT 10SM -RA FEW013 OVC025 11/09 A3007 RMK AO2 SLP182 P0001 T01060089 $= 201704250851 METAR KEWR 250851Z 03010KT 10SM -RA FEW007 FEW012 OVC025 11/09 A3007 RMK AO2 SLP183 P0000 60001 T01060089 55005 $= 201704250951 METAR KEWR 250951Z 04014G20KT 10SM -RA FEW009 OVC020 11/09 A3006 RMK AO2 SLP179 P0000 T01110089 $= 201704251051 METAR KEWR 251051Z 04012G17KT 10SM -RA FEW009 OVC013 11/09 A3008 RMK AO2 RAE0954B22 SLP185 CIG 011V015 P0000 T01110094 $= 201704251151 METAR KEWR 251151Z 04014KT 10SM FEW008 OVC012 11/09 A3009 RMK AO2 RAE1054DZB1058E33 SLP189 CIG 010V014 P0000 60001 70001 T01110094 10117 20106 51009 $= 201704251251 METAR KEWR 251251Z 03012KT 10SM OVC009 11/09 A3008 RMK AO2 RAB23E36 SLP186 CIG 008V010 P0000 T01110094 $= 201704251351 METAR KEWR 251351Z 05010KT 030V100 8SM -DZ OVC008 12/10 A3009 RMK AO2 DZB13 SLP188 CIG 007V009 P0000 T01170100 $= 201704251451 METAR KEWR 251451Z 03011KT 6SM -RA BR OVC009 12/10 A3009 RMK AO2 DZE16RAB16 SLP187 CIG 007V011 P0001 60001 T01170100 56002 $= 201704251551 METAR KEWR 251551Z 05011G19KT 10SM OVC010 13/11 A3006 RMK AO2 RAE25 SLP179 CIG 009V011 P0001 T01280111 $= 201704251651 METAR KEWR 251651Z 05015G21KT 10SM OVC010 13/11 A3005 RMK AO2 SLP173 CIG 009V011 T01280111 $= 201704251751 METAR KEWR 251751Z 04016G22KT 10SM OVC013 13/11 A3001 RMK AO2 RAB11E35 SLP162 CIG 011V015 P0000 60002 T01330111 10133 20111 58024 $= 201704251851 METAR KEWR 251851Z 05017KT 9SM -RA OVC010 13/11 A2999 RMK AO2 PK WND 04026/1821 RAB1752 SLP154 P0000 T01280111 $= 201704251951 METAR KEWR 251951Z 04015G23KT 8SM -RA OVC009 13/12 A2996 RMK AO2 SLP144 P0000 T01280117 $= 201704252051 METAR KEWR 252051Z 05017G25KT 4SM -RA BR BKN008 OVC012 13/12 A2993 RMK AO2 PK WND 05030/2028 SLP133 P0003 60003 T01280117 58029 $= 201704252151 METAR KEWR 252151Z 05015G23KT 2 1/2SM -RA BR BKN008 OVC012 12/11 A2991 RMK AO2 PK WND 06027/2056 SFC VIS 4 SLP128 P0006 T01220111 $= 201704252251 METAR KEWR 252251Z 04013G22KT 2 1/2SM RA BR BKN008 OVC012 12/11 A2990 RMK AO2 SLP125 CIG 007V009 P0007 T01220111 $= 201704252351 METAR KEWR 252351Z 04013KT 2 1/2SM RA BR BKN008 OVC014 12/11 A2989 RMK AO2 SLP121 CIG 007V009 P0015 60031 T01170111 10133 20117 56012 $= 201704260051 METAR KEWR 260051Z 03014KT 2 1/2SM +RA BR BKN008 OVC014 12/11 A2990 RMK AO2 SFC VIS 3 SLP124 P0028 T01170106 $= 201704260151 METAR KEWR 260151Z 03016G22KT 5SM -RA BR BKN008 OVC013 12/11 A2988 RMK AO2 SLP116 P0018 T01170106 $= 201704260251 METAR KEWR 260251Z 04014KT 7SM -RA OVC006 12/11 A2987 RMK AO2 SLP115 P0003 60049 T01170111 58006 $= 201704260351 METAR KEWR 260351Z 03013KT 8SM -RA OVC005 12/11 A2984 RMK AO2 SLP105 P0004 T01170111 $= 201704260451 METAR KEWR 260451Z 03013KT 4SM -RA BR OVC003 12/12 A2980 RMK AO2 SLP089 P0001 T01170117 401330106 $= 201704260551 METAR KEWR 260551Z 03011KT 6SM -RA BR OVC004 12/12 A2979 RMK AO2 SLP088 P0000 60054 T01220122 10122 20117 56027 $= 201704260651 METAR KEWR 260651Z 03012KT 3SM -DZ BR OVC004 13/12 A2978 RMK AO2 RAE12DZB12 SLP085 P0000 T01280122 $= 201704260751 METAR KEWR 260751Z 01012KT 3SM -DZ BR OVC004 12/12 A2976 RMK AO2 DZE17B38RAB17E38 SLP076 P0001 T01220122 $= 201704260851 METAR KEWR 260851Z 02011KT 5SM -RA BR BKN004 OVC009 12/12 A2975 RMK AO2 DZE20RAB20 SLP073 P0002 60003 T01170117 56015 $= 201704260951 METAR KEWR 260951Z 03014KT 7SM -RA BKN005 BKN025 OVC070 12/12 A2974 RMK AO2 SLP071 P0000 T01170117 $= 201704261051 METAR KEWR 261051Z 01013KT 2 1/2SM -RA BR OVC005 12/12 A2975 RMK AO2 SLP075 P0000 T01170117 $= 201704261151 METAR KEWR 261151Z 02014KT 2 1/2SM -RA BR BKN006 BKN012 OVC041 12/12 A2975 RMK AO2 SFC VIS 3 RAE00B44DZB00E44 SLP073 CIG 004V008 P0003 60006 70093 T01170117 10128 20117 55000 $= 201704261251 METAR KEWR 261251Z 02015KT 10SM -RA BKN007 BKN017 OVC080 12/12 A2974 RMK AO2 SLP071 CIG 005V010 P0001 T01220122 $= 201704261351 METAR KEWR 261351Z 03010KT 10SM OVC007 13/13 A2974 RMK AO2 RAE09 SLP072 CIG 005V009 P0000 T01330128 $= 201704261451 METAR KEWR 261451Z 03009KT 10SM OVC006 13/13 A2977 RMK AO2 SLP079 CIG 005V007 60001 T01330133 53008 $= 201704261551 METAR KEWR 261551Z 04007KT 7SM -RA BKN008 OVC013 14/13 A2978 RMK AO2 RAB14 SLP083 CIG 007V010 P0002 T01390133 $= 201704261651 METAR KEWR 261651Z 04009KT 10SM OVC010 14/14 A2977 RMK AO2 RAE35 SLP080 CIG 009V012 P0001 T01440139 $= 201704261751 METAR KEWR 261751Z 36006KT 10SM OVC011 15/13 A2977 RMK AO2 SLP081 60004 T01500133 10150 20117 51001 $= 201704261851 METAR KEWR 261851Z 36007KT 10SM OVC012 16/14 A2977 RMK AO2 SLP080 T01560139 $= 201704261951 METAR KEWR 261951Z 03005KT 10SM OVC012 16/14 A2976 RMK AO2 SLP077 T01560139 $= 201704262051 METAR KEWR 262051Z 08005KT 10SM FEW006 OVC012 16/14 A2975 RMK AO2 SLP074 T01560139 58007 $= 201704262151 METAR KEWR 262151Z 35006KT 10SM FEW006 OVC010 16/14 A2978 RMK AO2 SLP084 T01610139 $= 201704262251 METAR KEWR 262251Z 10003KT 10SM FEW007 OVC014 16/14 A2979 RMK AO2 SLP088 T01610139 $= 201704262351 METAR KEWR 262351Z 09004KT 8SM FEW009 BKN016 OVC025 16/14 A2979 RMK AO2 SLP087 T01560144 10167 20150 50013 $= 201704270051 METAR KEWR 270051Z 12003KT 7SM FEW009 OVC015 16/14 A2981 RMK AO2 SLP093 T01560144 $= 201704270151 METAR KEWR 270151Z 00000KT 7SM FEW009 OVC017 15/14 A2984 RMK AO2 SLP103 T01500144 $= 201704270251 METAR KEWR 270251Z 00000KT 8SM FEW008 OVC014 16/14 A2984 RMK AO2 SLP104 T01560144 51018 $= 201704270351 METAR KEWR 270351Z 19003KT 7SM OVC012 15/14 A2984 RMK AO2 SLP105 T01500139 $= 201704270451 METAR KEWR 270451Z 23003KT 2 1/2SM -DZ BR OVC005 15/14 A2985 RMK AO2 DZB26 SLP107 P0000 T01500144 401670117 $= 201704270551 METAR KEWR 270551Z 24003KT 2SM -DZ BR OVC003 15/15 A2985 RMK AO2 SLP107 P0000 60000 T01500150 10161 20144 51003 $= 201704270651 METAR KEWR 270651Z 00000KT 2SM -DZ BR OVC003 15/15 A2984 RMK AO2 SLP106 P0000 T01500150 $= 201704270751 METAR KEWR 270751Z 00000KT 3SM -DZ BR BKN005 BKN009 OVC020 15/14 A2985 RMK AO2 SLP107 P0000 T01500144 $= 201704270851 METAR KEWR 270851Z 00000KT 4SM -DZ BR SCT006 OVC020 15/14 A2985 RMK AO2 SLP109 P0000 60000 T01500144 53001 $= 201704270951 METAR KEWR 270951Z 13003KT 3SM BR FEW006 OVC022 15/15 A2986 RMK AO2 DZE49 SLP112 P0000 T01500150 $= 201704271051 METAR KEWR 271051Z 19004KT 3SM BR SCT007 OVC022 15/14 A2989 RMK AO2 SLP120 T01500144 $= 201704271151 METAR KEWR 271151Z 00000KT 1 1/2SM BR SCT007 OVC020 15/14 A2990 RMK AO2 SFC VIS 2 1/2 SLP125 60000 70004 T01500144 10150 20144 53017 $= 201704271251 METAR KEWR 271251Z 13003KT 1 1/2SM BR SCT007 SCT015 OVC020 16/14 A2992 RMK AO2 SFC VIS 3 SLP131 T01560144 $= 201704271351 METAR KEWR 271351Z 10003KT 4SM BR FEW007 OVC019 16/14 A2991 RMK AO2 SLP129 T01560144 $= 201704271451 METAR KEWR 271451Z 10005KT 8SM FEW007 BKN028 18/14 A2990 RMK AO2 SLP125 HAZE ALOFT T01830144 58001 $= 201704271551 METAR KEWR 271551Z VRB05KT 10SM FEW011 BKN019 19/14 A2991 RMK AO2 SLP128 HAZE ALOFT T01890139 $= 201704271651 METAR KEWR 271651Z 13006KT 10SM BKN025 BKN032 20/14 A2990 RMK AO2 SLP123 CIG 023V028 T02000139 $= 201704271751 METAR KEWR 271751Z 11009KT 10SM OVC027 20/14 A2989 RMK AO2 SLP122 T02000139 10200 20150 58003 $= 201704271851 METAR KEWR 271851Z 13010KT 10SM BKN033 20/14 A2988 RMK AO2 SLP119 T02000139 $= 201704271951 METAR KEWR 271951Z 11013G19KT 10SM FEW015 SCT034 BKN150 OVC250 19/14 A2987 RMK AO2 SLP113 T01890139 $= 201704272051 METAR KEWR 272051Z 12010G18KT 9SM BKN013 BKN030 OVC250 17/13 A2987 RMK AO2 SLP114 T01670133 55005 $= 201704272151 METAR KEWR 272151Z 13009KT 100V160 9SM SCT005 BKN009 OVC015 17/13 A2988 RMK AO2 SLP118 T01670133 $= 201704272251 METAR KEWR 272251Z 13007KT 100V160 8SM BKN005 OVC010 16/14 A2988 RMK AO2 SLP118 T01610139 $= 201704272351 METAR KEWR 272351Z 13008KT 1SM R04R/P6000FT -DZ BR OVC003 15/14 A2988 RMK AO2 SFC VIS 2 DZB01 SLP117 P0000 60000 T01500139 10206 20150 50003 $= 201704280051 METAR KEWR 280051Z 12005KT 3/4SM R04R/P6000FT -DZ BR OVC002 14/13 A2988 RMK AO2 TWR VIS 1 SLP117 P0000 T01390133 $= 201704280151 METAR KEWR 280151Z 11004KT 1SM R04R/P6000FT -DZ BR OVC002 13/13 A2990 RMK AO2 SLP123 P0000 T01330128 $= 201704280251 METAR KEWR 280251Z 09004KT 1SM R04R/P6000FT BR OVC002 13/13 A2989 RMK AO2 SFC VIS 2 DZE44 SLP120 P0000 60000 T01330128 50003 $= 201704280351 METAR KEWR 280351Z 09004KT 1SM R04R/P6000FT BR OVC002 13/13 A2988 RMK AO2 SFC VIS 2 SLP119 T01330128 $= 201704280451 METAR KEWR 280451Z 07005KT 1SM R04R/6000VP6000FT BR OVC002 13/13 A2986 RMK AO2 SLP112 T01330128 402060128 $= 201704280551 METAR KEWR 280551Z 09004KT 1/2SM R04R/P6000FT FG OVC002 13/13 A2987 RMK AO2 SLP114 60000 T01330133 10150 20128 55006 $= 201704280651 METAR KEWR 280651Z 00000KT 1/2SM R04R/6000VP6000FT FG OVC002 13/13 A2987 RMK AO2 SLP114 T01330133 $= 201704280751 METAR KEWR 280751Z 02003KT 1/2SM R04R/P6000FT -RA BR OVC002 14/13 A2987 RMK AO2 SFC VIS 1 RAB26 SLP113 P0000 T01390133 $= 201704280851 METAR KEWR 280851Z 00000KT 1/2SM R04R/P6000FT BR OVC003 14/14 A2990 RMK AO2 SFC VIS 2 RAE03 SLP123 P0000 60000 T01390139 53009 $= 201704280951 METAR KEWR 280951Z 00000KT 1/2SM R04R/P6000FT BR BKN003 OVC070 14/14 A2990 RMK AO2 SFC VIS 2 RAB36E49 SLP125 P0000 T01440144 $= 201704281051 METAR KEWR 281051Z 01004KT 1/2SM R04R/P6000FT BR BKN006 BKN070 OVC170 15/14 A2992 RMK AO2 SFC VIS 3 SLP133 T01500144 $= 201704281151 METAR KEWR 281151Z VRB03KT 1/2SM R04R/P6000FT BR BKN006 OVC070 16/15 A2996 RMK AO2 SFC VIS 3 SLP144 60000 T01560150 10161 20133 53021 $= 201704281251 METAR KEWR 281251Z 24003KT 2 1/2SM BR BKN006 BKN070 BKN140 17/16 A2997 RMK AO2 SFC VIS 4 SLP148 T01720161 $= 201704281351 METAR KEWR 281351Z VRB05KT 7SM FEW009 SCT070 BKN140 20/16 A2998 RMK AO2 SLP152 T02000161 $= 201704281451 METAR KEWR 281451Z 22004KT 9SM FEW070 FEW140 SCT260 22/16 A2998 RMK AO2 SLP153 T02220161 51008 $= 201704281551 METAR KEWR 281551Z 19005KT 10SM FEW040 FEW260 26/14 A2999 RMK AO2 SLP154 T02560144 $= 201704281651 METAR KEWR 281651Z 24012G17KT 10SM FEW040 FEW260 27/14 A2998 RMK AO2 SLP152 T02720139 $= 201704281751 METAR KEWR 281751Z 22014G22KT 10SM FEW050 FEW120 SCT260 28/12 A2997 RMK AO2 SLP148 T02830117 10283 20156 58004 $= 201704281851 METAR KEWR 281851Z 25010G21KT 10SM FEW050 BKN260 29/08 A2996 RMK AO2 SLP146 T02890083 $= 201704281951 METAR KEWR 281951Z 23015G22KT 10SM FEW050 SCT260 29/04 A2998 RMK AO2 SLP150 T02940039 $= 201704282051 METAR KEWR 282051Z 23015G19KT 10SM FEW050 SCT260 29/05 A2997 RMK AO2 SLP147 T02940050 58001 $= 201704282151 METAR KEWR 282151Z 22015G21KT 10SM FEW050 BKN260 29/05 A2997 RMK AO2 SLP147 T02890050 $= 201704282251 METAR KEWR 282251Z 24014KT 10SM FEW050 BKN250 28/02 A2997 RMK AO2 SLP150 T02830022 $= 201704282351 METAR KEWR 282351Z 23013KT 10SM FEW180 BKN250 27/04 A2999 RMK AO2 SLP156 T02670039 10300 20267 53009 $= 201704290051 METAR KEWR 290051Z 24007KT 10SM FEW180 BKN250 25/04 A3002 RMK AO2 SLP163 T02500044 $= 201704290151 METAR KEWR 290151Z 24007KT 10SM FEW180 BKN250 24/05 A3004 RMK AO2 SLP171 T02440050 $= 201704290251 METAR KEWR 290251Z 24008KT 10SM FEW150 BKN250 23/06 A3003 RMK AO2 SLP170 T02330061 50013 $= 201704290351 METAR KEWR 290351Z 22006KT 10SM SCT220 BKN260 22/08 A3004 RMK AO2 SLP171 T02170083 $= 201704290451 METAR KEWR 290451Z 22008KT 10SM SCT200 BKN240 22/12 A3005 RMK AO2 SLP174 T02220122 403000128 $= 201704290551 METAR KEWR 290551Z 19004KT 10SM FEW140 SCT210 BKN240 21/13 A3002 RMK AO2 SLP165 T02060133 10267 20206 58005 $= 201704290651 METAR KEWR 290651Z 24007KT 10SM BKN130 BKN160 OVC210 21/14 A3003 RMK AO2 SLP167 T02060139 $= 201704290751 METAR KEWR 290751Z 21004KT 10SM -RA FEW050 SCT120 OVC140 20/14 A3001 RMK AO2 RAB23E33B50 SLP163 P0000 T02000144 $= 201704290851 METAR KEWR 290851Z 00000KT 10SM -TSRA FEW050CB BKN110 OVC130 19/15 A2999 RMK AO2 LTG DSNT SE-W TSB49 SLP154 OCNL LTGIC VC SW-VC W TS VC SW-VC W MOV E P0001 60001 T01940150 58010 $= 201704290951 METAR KEWR 290951Z 30009KT 10SM -RA FEW020 SCT038 BKN100 OVC130 19/17 A2997 RMK AO2 LTG DSNT E-S TSE44 SLP148 CONS LTGICCC DSNT E-DSNT SE CB DSNT E-DSNT SE MOV E P0015 T01890172 $= 201704291051 METAR KEWR 291051Z 21004KT 10SM FEW040 SCT100 SCT130 BKN240 18/17 A2997 RMK AO2 RAE04 SLP149 P0000 T01830172 $= 201704291151 METAR KEWR 291151Z 20003KT 10SM FEW130 SCT220 OVC250 19/17 A2996 RMK AO2 SLP146 60016 70016 T01890172 10211 20183 56008 $= 201704291251 METAR KEWR 291251Z 22007KT 10SM FEW130 SCT220 OVC250 21/18 A3002 RMK AO2 PRESRR SLP165 T02110183 $= 201704291351 METAR KEWR 291351Z 22011KT 10SM FEW018 FEW220 BKN250 23/19 A3003 RMK AO2 SLP168 T02330189 $= 201704291451 METAR KEWR 291451Z 26017KT 10SM FEW024 FEW220 BKN250 26/18 A2998 RMK AO2 PRESFR SLP152 T02560178 50006 $= 201704291551 METAR KEWR 291551Z 27016G24KT 10SM FEW044 SCT190 BKN260 28/16 A2998 RMK AO2 SLP153 T02780161 $= 201704291651 METAR KEWR 291651Z 27014G20KT 10SM FEW048 SCT190 BKN260 29/16 A2994 RMK AO2 PK WND 28030/1609 PRESFR SLP137 T02890161 $= 201704291751 METAR KEWR 291751Z 27015G21KT 10SM FEW050 SCT190 BKN260 29/16 A2994 RMK AO2 SLP139 T02890161 10289 20189 55013 $= 201704291851 METAR KEWR 291851Z 27021G27KT 10SM FEW050 SCT190 BKN260 29/16 A2996 RMK AO2 PK WND 27030/1834 SLP146 T02940161 $= 201704291951 METAR KEWR 291951Z 26022G29KT 10SM FEW055 SCT190 BKN260 30/16 A2996 RMK AO2 PK WND 27029/1949 SLP146 T03000156 $= 201704292051 METAR KEWR 292051Z 27020G32KT 10SM FEW060 FEW200 OVC260 29/14 A2999 RMK AO2 PK WND 28039/2034 SLP154 T02940144 53015 $= 201704292151 METAR KEWR 292151Z 28024G29KT 10SM FEW060 SCT210 BKN260 28/14 A2998 RMK AO2 PK WND 26033/2056 SLP150 T02830144 $= 201704292251 METAR KEWR 292251Z 28013KT 10SM FEW060 SCT210 BKN260 27/14 A2998 RMK AO2 PK WND 29031/2215 SLP151 T02720144 $= 201704292351 METAR KEWR 292351Z 27012KT 10SM FEW210 BKN250 26/14 A3000 RMK AO2 SLP160 T02610144 10300 20261 53005 $= 201704300051 METAR KEWR 300051Z 30011KT 10SM BKN250 26/14 A3004 RMK AO2 SLP173 T02560144 $= 201704300151 METAR KEWR 300151Z 33014KT 10SM FEW055 BKN250 25/14 A3008 RMK AO2 SLP185 T02500139 $= 201704300251 METAR KEWR 300251Z 34012KT 10SM BKN065 BKN250 24/13 A3009 RMK AO2 SLP188 T02390133 51028 $= 201704300351 METAR KEWR 300351Z 33014KT 10SM BKN065 22/13 A3012 RMK AO2 SLP197 T02220128 $= 201704300451 METAR KEWR 300451Z 32011KT 10SM BKN060 21/12 A3012 RMK AO2 SLP200 T02060117 403000183 $= 201704300551 METAR KEWR 300551Z 35010KT 10SM SCT060 BKN250 19/11 A3012 RMK AO2 SLP199 T01940111 10261 20194 50012 $= 201704300651 METAR KEWR 300651Z 01007KT 10SM FEW060 BKN250 17/08 A3013 RMK AO2 SLP204 T01720078 $= 201704300751 METAR KEWR 300751Z 35009KT 10SM SCT055 BKN250 18/06 A3015 RMK AO2 SLP208 T01780056 $= 201704300851 METAR KEWR 300851Z 01008KT 10SM SCT060 BKN250 17/06 A3015 RMK AO2 SLP209 T01670056 51009 $= 201704300951 METAR KEWR 300951Z 02011KT 10SM SCT055 BKN250 16/07 A3017 RMK AO2 SLP215 T01610072 $= 201704301051 METAR KEWR 301051Z 02012KT 10SM BKN050 BKN250 16/06 A3021 RMK AO2 SLP228 T01560061 $= 201704301151 METAR KEWR 301151Z 03010KT 10SM SCT050 SCT200 16/04 A3022 RMK AO2 SLP234 T01560039 10194 20150 51025 $= 201704301251 METAR KEWR 301251Z 04009KT 10SM SCT048 BKN060 BKN200 16/04 A3023 RMK AO2 SLP235 T01560039 $= 201704301351 METAR KEWR 301351Z 09007KT 10SM OVC045 17/03 A3023 RMK AO2 SLP237 T01670033 $= 201704301451 METAR KEWR 301451Z VRB05KT 10SM OVC045 17/04 A3022 RMK AO2 SLP233 T01720039 58001 $= 201704301551 METAR KEWR 301551Z 12007G14KT 080V140 10SM OVC046 18/05 A3023 RMK AO2 SLP237 T01830050 $= 201704301651 METAR KEWR 301651Z 10013G22KT 10SM OVC045 16/06 A3025 RMK AO2 SLP242 T01560056 $= 201704301751 METAR KEWR 301751Z 10011G17KT 10SM OVC043 14/04 A3024 RMK AO2 SLP238 T01390044 10189 20139 50005 $= 201704301851 METAR KEWR 301851Z 12011G17KT 10SM OVC042 14/04 A3024 RMK AO2 SLP240 T01390039 $= 201704301951 METAR KEWR 301951Z 14011G18KT 10SM OVC040 13/04 A3022 RMK AO2 SLP232 T01330044 $= 201704302051 METAR KEWR 302051Z 12008KT 10SM OVC036 13/04 A3021 RMK AO2 SLP230 T01280039 58008 $= 201704302151 METAR KEWR 302151Z 11010KT 10SM OVC031 13/04 A3021 RMK AO2 SLP231 T01280044 $= 201704302251 METAR KEWR 302251Z 11012G15KT 10SM OVC027 12/04 A3021 RMK AO2 SLP230 T01220044 $= 201704302351 METAR KEWR 302351Z 10006G16KT 10SM OVC024 12/05 A3019 RMK AO2 SLP224 T01170050 10144 20117 58007 $=
