 201708010051 METAR KEWR 010051Z 15004KT 10SM FEW060 FEW100 SCT250 27/18 A3002 RMK AO2 SLP166 TCU DSNT NE T02670183 $= 201708010151 METAR KEWR 010151Z 17003KT 10SM FEW050 SCT250 26/18 A3003 RMK AO2 SLP168 T02610178 $= 201708010251 METAR KEWR 010251Z 18004KT 10SM FEW250 25/18 A3003 RMK AO2 SLP169 T02500178 51007 $= 201708010351 METAR KEWR 010351Z 19003KT 10SM FEW250 25/18 A3002 RMK AO2 SLP164 T02500178 $= 201708010451 METAR KEWR 010451Z 23005KT 10SM FEW250 24/18 A3001 RMK AO2 SLP163 T02440178 403280178 $= 201708010551 METAR KEWR 010551Z 25003KT 10SM FEW250 23/18 A3001 RMK AO2 SLP162 T02280178 10283 20222 56007 $= 201708010651 METAR KEWR 010651Z 23003KT 10SM CLR 23/18 A3000 RMK AO2 SLP160 T02280183 $= 201708010751 METAR KEWR 010751Z 00000KT 10SM CLR 23/18 A3001 RMK AO2 SLP161 T02330178 $= 201708010851 METAR KEWR 010851Z 03003KT 10SM CLR 23/17 A3002 RMK AO2 SLP164 T02280172 53002 $= 201708010951 METAR KEWR 010951Z 02005KT 10SM CLR 21/16 A3003 RMK AO2 SLP167 T02060161 $= 201708011051 METAR KEWR 011051Z 03003KT 10SM CLR 22/17 A3004 RMK AO2 SLP170 T02220172 $= 201708011151 METAR KEWR 011151Z 01003KT 10SM CLR 25/17 A3005 RMK AO2 SLP175 T02500172 10250 20206 53012 $= 201708011251 METAR KEWR 011251Z 35008KT 10SM CLR 27/17 A3006 RMK AO2 SLP177 T02720167 $= 201708011351 METAR KEWR 011351Z 04005KT 10SM CLR 28/17 A3005 RMK AO2 SLP176 T02830172= 201708011451 METAR KEWR 011451Z 05003KT 10SM FEW050 29/17 A3005 RMK AO2 SLP176 T02940167 51001= 201708011551 METAR KEWR 011551Z 00000KT 10SM FEW050 31/16 A3004 RMK AO2 SLP172 T03060161= 201708011651 METAR KEWR 011651Z 22004KT 10SM FEW055 32/15 A3003 RMK AO2 SLP168 T03170150= 201708011751 METAR KEWR 011751Z 27007KT 10SM FEW065 33/13 A3002 RMK AO2 SLP165 T03280128 10333 20256 56011= 201708011851 METAR KEWR 011851Z 00000KT 10SM FEW065 SCT250 32/13 A3001 RMK AO2 SLP160 CB DSNT W AND DSNT NW MOV E T03220133= 201708011951 METAR KEWR 011951Z 18005KT 10SM FEW065 SCT250 32/14 A3000 RMK AO2 SLP157 CB DSNT NW MOV E T03170144= 201708012051 METAR KEWR 012051Z 16009KT 10SM FEW065 SCT250 31/18 A2999 RMK AO2 SLP155 T03110178 56010= 201708012151 METAR KEWR 012151Z 17009KT 10SM FEW065 SCT100 SCT250 31/18 A2999 RMK AO2 SLP154 T03060178= 201708012251 METAR KEWR 012251Z 17010KT 10SM FEW065 SCT090 SCT250 29/18 A2999 RMK AO2 SLP154 T02940178= 201708012351 METAR KEWR 012351Z 20008KT 10SM FEW065 FEW090 FEW250 29/18 A3001 RMK AO2 SLP161 T02890178 10339 20283 53005= 201708020051 METAR KEWR 020051Z 19007KT 10SM FEW100 SCT250 28/18 A3001 RMK AO2 SLP163 T02780178= 201708020151 METAR KEWR 020151Z VRB04KT 10SM FEW100 SCT250 27/18 A3003 RMK AO2 SLP167 T02720183= 201708020251 METAR KEWR 020251Z 15003KT 10SM FEW250 27/19 A3003 RMK AO2 SLP170 T02670189 53009= 201708020351 METAR KEWR 020351Z 16003KT 10SM FEW250 26/19 A3003 RMK AO2 SLP170 T02560189= 201708020451 METAR KEWR 020451Z 16004KT 10SM FEW250 26/19 A3004 RMK AO2 SLP170 T02560194 403390206= 201708020551 METAR KEWR 020551Z 00000KT 10SM FEW250 25/19 A3003 RMK AO2 SLP168 T02500194 10289 20250 58002= 201708020651 METAR KEWR 020651Z 17004KT 10SM FEW120 SCT250 24/20 A3003 RMK AO2 SLP169 T02440200= 201708020751 METAR KEWR 020751Z 21003KT 10SM FEW120 SCT250 24/20 A3003 RMK AO2 SLP167 T02440200= 201708020851 METAR KEWR 020851Z VRB03KT 10SM SCT250 23/19 A3003 RMK AO2 SLP168 T02330194 53000= 201708020951 METAR KEWR 020951Z 21003KT 10SM BKN240 23/19 A3003 RMK AO2 SLP169 T02330194= 201708021051 METAR KEWR 021051Z 27003KT 10SM BKN240 24/20 A3004 RMK AO2 LTG DSNT S SLP173 T02390200= 201708021151 METAR KEWR 021151Z 20004KT 10SM FEW050 SCT120 BKN240 25/20 A3005 RMK AO2 LTG DSNT SE SLP176 CB DSNT SE MOV E T02500200 10256 20228 53008= 201708021251 METAR KEWR 021251Z 20004KT 10SM FEW055 FEW150 BKN250 26/21 A3006 RMK AO2 SLP178 T02560206= 201708021351 METAR KEWR 021351Z VRB03KT 9SM FEW150 BKN250 28/20 A3006 RMK AO2 SLP180 T02780200= 201708021451 METAR KEWR 021451Z VRB05KT 10SM FEW025 FEW055 BKN140 BKN250 29/21 A3006 RMK AO2 SLP180 T02890206 51004= 201708021551 METAR KEWR 021551Z 15005KT 10SM BKN055TCU BKN130 BKN250 29/20 A3006 RMK AO2 SLP179 TCU OHD AND N T02890200= 201708021651 METAR KEWR 021651Z 14003KT 8SM -TSRA FEW027 SCT055CB BKN090 BKN140 BKN250 26/19 A3004 RMK AO2 PK WND 26028/1605 LTG DSNT ALQDS FRQ LTGICCG OHD-VC NE-VC SE-VC SW RAB1558 TSB03 TS OHD-VC NE-VC SE-VC SW CB NW MOV NE SLP171 P0092 T0580194= 201708021751 METAR KEWR 021751Z 15006G15KT 9SM -TSRA FEW030 SCT045CB BKN060 BKN140 BKN250 25/19 A3004 RMK AO2 LTG DSNT ALQDS SLP172 FRQ LTGICCG VC NW-VC NE AND VC SW TS VC NW-VC NE AND VC SW MOV NE P0003 60095 T02500194 10300 20233 55008= 201708021851 METAR KEWR 021851Z 30003KT 10SM -TSRA FEW020 SCT050CB SCT095 BKN140 OVC250 26/19 A3004 RMK AO2 LTG DSNT SW-N SLP172 OCNL LTGIC VC S AND VC NW-VC NE TS VC S AND VC NW-VC NE MOV NE P0000 T02610194= 201708021951 METAR KEWR 021951Z 26009KT 10SM FEW020 FEW050 SCT100 BKN140 OVC250 26/19 A3002 RMK AO2 LTG DSNT ALQDS RAE1852 TSE07 SLP166 CB DSNT SW MOV NE P0000 T02610194= 201708022051 METAR KEWR 022051Z 29010KT 8SM -TSRA FEW020 BKN040CB OVC120 23/19 A3009 RMK AO2 LTG DSNT N AND NE AND SW RAB11 TSB44 SLP188 OCNL LTGICCG OHD TS OHD MOV NE P0002 60002 T02280194 53016= 201708022151 METAR KEWR 022151Z 32006KT 10SM -RA FEW020 SCT040 BKN070 BKN130 BKN250 22/19 A3009 RMK AO2 WSHFT 2042 LTG DSNT NE TSE36 SLP187 CB DSNT NE-DSNT E MOV NE P0002 T02220189= 201708022251 METAR KEWR 022251Z 02009KT 10SM SCT070 BKN140 BKN220 22/19 A3005 RMK AO2 RAE03 SLP174 P0000 T02220189= 201708022351 METAR KEWR 022351Z 13003KT 10SM FEW050 SCT120 BKN150 BKN250 23/19 A3006 RMK AO2 SLP178 60004 T02280189 10261 20217 55009= 201708030051 METAR KEWR 030051Z 21003KT 10SM SCT120 BKN160 BKN240 22/19 A3008 RMK AO2 SLP186 T02220189= 201708030151 METAR KEWR 030151Z 00000KT 10SM SCT120 BKN180 BKN250 22/19 A3008 RMK AO2 SLP186 T02220194= 201708030251 METAR KEWR 030251Z 00000KT 10SM BKN140 BKN250 22/19 A3010 RMK AO2 SLP193 T02170189 51015= 201708030351 METAR KEWR 030351Z 00000KT 10SM FEW030 SCT140 BKN250 22/19 A3010 RMK AO2 SLP193 T02220194= 201708030451 METAR KEWR 030451Z 00000KT 10SM SCT140 BKN250 22/19 A3009 RMK AO2 SLP190 T02220194 403000211= 201708030551 METAR KEWR 030551Z 28003KT 10SM SCT140 BKN250 22/19 A3009 RMK AO2 SLP188 T02170194 10228 20211 58005= 201708030651 METAR KEWR 030651Z 02003KT 9SM FEW140 BKN250 21/19 A3008 RMK AO2 SLP185 T02110194= 201708030751 METAR KEWR 030751Z 00000KT 8SM FEW140 BKN240 22/19 A3009 RMK AO2 SLP188 T02170194= 201708030851 METAR KEWR 030851Z 00000KT 7SM FEW140 BKN240 21/19 A3008 RMK AO2 SLP187 T02110189 56002= 201708030951 METAR KEWR 030951Z 01004KT 7SM SCT240 20/19 A3009 RMK AO2 SLP190 T02000189= 201708031051 METAR KEWR 031051Z 01003KT 5SM BR FEW010 FEW250 21/20 A3011 RMK AO2 SLP195 T02110200= 201708031151 METAR KEWR 031151Z 00000KT 5SM HZ FEW015 FEW250 23/19 A3013 RMK AO2 SLP202 70099 T02280194 10228 20200 53015= 201708031251 METAR KEWR 031251Z 01003KT 6SM HZ SCT015 24/19 A3013 RMK AO2 SLP204 T02440194= 201708031351 METAR KEWR 031351Z 00000KT 6SM HZ FEW020 26/19 A3013 RMK AO2 SLP204 T02560194= 201708031451 METAR KEWR 031451Z VRB03KT 9SM FEW025 26/19 A3013 RMK AO2 SLP202 T02610189 50001= 201708031551 METAR KEWR 031551Z VRB04KT 9SM FEW025 28/19 A3012 RMK AO2 SLP198 T02780189= 201708031651 METAR KEWR 031651Z 16008KT 10SM FEW028 29/20 A3011 RMK AO2 SLP195 T02890200= 201708031751 METAR KEWR 031751Z 17007KT 10SM FEW030 29/19 A3009 RMK AO2 SLP188 T02890194 10294 20228 58014 $= 201708031851 METAR KEWR 031851Z 16010KT 10SM SCT035 29/21 A3007 RMK AO2 SLP183 T02890211 $= 201708031951 METAR KEWR 031951Z 13012G16KT 10SM FEW025TCU SCT100 28/21 A3006 RMK AO2 SLP178 TCU OHD AND S-SW T02830211 $= 201708032051 METAR KEWR 032051Z 16009KT 10SM SCT030TCU SCT100 29/19 A3004 RMK AO2 SLP173 TCU OHD-SW-NW T02940194 56015 $= 201708032151 METAR KEWR 032151Z 16010KT 10SM -RA SCT035TCU BKN110 BKN200 27/20 A3004 RMK AO2 LTG DSNT SW RAB25 TSB2056E49 SLP173 CB DSNT S AND DSNT SW MOV NE TCU OHD AND NW P0000 T02670200 $= 201708032251 METAR KEWR 032251Z 16007KT 10SM TS FEW040CB FEW080 BKN110 BKN200 27/19 A3005 RMK AO2 LTG DSNT SW RAE12 TSB47 SLP175 OCNL LTGCG VC SW TS VC SW MOV NE CB S MOV NE P0000 T02720194 $= 201708032351 METAR KEWR 032351Z 18005KT 10SM -RA FEW040TCU FEW080 BKN110 BKN230 24/20 A3008 RMK AO2 LTG DSNT W RAB15 TSE41 SLP184 CB DSNT NW-DSNT N MOV NE TCU OHD P0000 60000 T02440200 10294 20239 53011 $= 201708040051 METAR KEWR 040051Z 14005KT 10SM FEW040 FEW080 SCT110 BKN150 BKN230 25/21 A3007 RMK AO2 RAE28 SLP183 FRQ LTGIC DSNT W CB DSNT W MOV NE P0001 T02500206 $= 201708040151 METAR KEWR 040151Z 23005KT 10SM FEW040 SCT110 BKN140 BKN250 25/20 A3010 RMK AO2 SLP190 OCNL LTGIC DSNT W CB DSNT W MOV NE T02500200 $= 201708040251 METAR KEWR 040251Z 25008KT 10SM FEW045 FEW075 SCT090 BKN150 BKN250 24/20 A3010 RMK AO2 RAB19E33 SLP192 P0000 60001 T02390200 53007 $= 201708040351 METAR KEWR 040351Z 27004KT 10SM FEW050 SCT150 BKN250 24/18 A3008 RMK AO2 SLP185 T02390183 $= 201708040451 METAR KEWR 040451Z 15003KT 10SM FEW150 BKN250 23/19 A3007 RMK AO2 SLP180 T02330189 402940200 $= 201708040551 METAR KEWR 040551Z 18004KT 10SM FEW150 BKN250 23/19 A3007 RMK AO2 SLP181 60001 T02330194 10256 20228 55010 $= 201708040651 METAR KEWR 040651Z 17003KT 10SM FEW180 BKN250 23/19 A3006 RMK AO2 SLP178 T02280194 $= 201708040751 METAR KEWR 040751Z 15003KT 10SM FEW070 SCT180 BKN250 23/20 A3006 RMK AO2 SLP178 T02280200 $= 201708040851 METAR KEWR 040851Z 15003KT 10SM FEW060 SCT180 BKN250 23/20 A3005 RMK AO2 SLP176 T02280200 56005 $= 201708040951 METAR KEWR 040951Z 15004KT 10SM TS FEW015 SCT060CB BKN180 BKN250 23/20 A3006 RMK AO2 LTG DSNT SW AND W TSB37 SLP177 FRQ LTGICCG OHD-VC SW TS OHD-VC SW MOV NE T02280200 $= 201708041051 METAR KEWR 041051Z 31006G23KT 1 3/4SM R04R/2000VP6000FT +TSRA SCT005 BKN030CB OVC110 22/19 A3006 RMK AO2 RAB07 SLP178 VIS S 1/2 FRQ LTGICCG OHD AND VC E TS OHD AND VC E MOV NE P0060 T02220194 $= 201708041151 METAR KEWR 041151Z VRB03KT 10SM TS FEW005 BKN047CB BKN075 23/20 A3006 RMK AO2 LTG DSNT E RAE23 SLP179 FRQ LTGICCG VC E TS VC E MOV NE VCSH NE-SE P0025 60085 70086 T02280200 10233 20211 52003 $= 201708041251 METAR KEWR 041251Z 13005KT 10SM TS FEW006 SCT055CB BKN070 23/21 A3006 RMK AO2 LTG DSNT NE AND E SLP178 OCNL LTGICCG VC E-VC SE TS VC E-VC SE MOV NE VCSH E-SE T02280206 $= 201708041351 METAR KEWR 041351Z 14007KT 10SM FEW011 SCT055 SCT070 25/22 A3005 RMK AO2 TSE1257 SLP176 T02500222 $= 201708041451 METAR KEWR 041451Z 15008KT 10SM SCT018 SCT060 26/22 A3005 RMK AO2 SLP176 T02610217 57003= 201708041551 METAR KEWR 041551Z 13009KT 10SM SCT018 27/22 A3004 RMK AO2 SLP173 T02720222= 201708041651 METAR KEWR 041651Z VRB06KT 10SM FEW022 FEW250 28/22 A3003 RMK AO2 SLP168 T02780222= 201708041751 METAR KEWR 041751Z 13009KT 10SM FEW030TCU FEW250 29/19 A3000 RMK AO2 SLP160 TCU W T02890194 10289 20228 58016= 201708041851 METAR KEWR 041851Z 11011G17KT 10SM FEW030 FEW250 28/21 A2997 RMK AO2 SLP147 T02830206= 201708041951 METAR KEWR 041951Z 14013G20KT 10SM FEW035 FEW250 29/19 A2995 RMK AO2 SLP143 T02890189= 201708042051 METAR KEWR 042051Z 14011G18KT 10SM FEW040 FEW250 28/19 A2994 RMK AO2 SLP139 T02830194 56021= 201708042151 METAR KEWR 042151Z 14010G20KT 10SM FEW015 FEW040 SCT250 28/18 A2994 RMK AO2 SLP137 T02830183= 201708042251 METAR KEWR 042251Z 16011KT 10SM FEW015 FEW040 SCT250 28/20 A2992 RMK AO2 SLP132 T02780200= 201708042351 METAR KEWR 042351Z 16008G16KT 10SM FEW015 FEW050 SCT250 26/20 A2992 RMK AO2 SLP132 T02610200 10294 20261 56007= 201708050051 METAR KEWR 050051Z 16008KT 10SM FEW008 FEW015 SCT250 25/20 A2993 RMK AO2 SLP135 T02500200= 201708050151 METAR KEWR 050151Z 17007KT 10SM FEW008 SCT014 BKN250 24/21 A2994 RMK AO2 SLP139 T02440206= 201708050251 METAR KEWR 050251Z 16007KT 10SM FEW008 SCT012 BKN250 24/22 A2995 RMK AO2 SLP140 T02440217 51008= 201708050351 METAR KEWR 050351Z 16007KT 10SM FEW008 BKN012 BKN250 24/22 A2993 RMK AO2 SLP133 T02390217= 201708050451 METAR KEWR 050451Z 16008KT 10SM FEW008 SCT012 BKN100 BKN250 24/22 A2992 RMK AO2 SLP130 T02390217 402940211= 201708050551 METAR KEWR 050551Z 17006KT 10SM FEW007 BKN011 BKN028 OVC250 24/22 A2990 RMK AO2 SLP123 T02390217 10261 20239 57017= 201708050651 METAR KEWR 050651Z 16004KT 10SM FEW008 BKN014 BKN100 BKN250 24/22 A2988 RMK AO2 LTG DSNT W SLP117 T02390217= 201708050751 METAR KEWR 050751Z 15006KT 10SM -RA FEW008 BKN014 OVC020 24/22 A2985 RMK AO2 RAB46 SLP109 P0000 T02440217= 201708050851 METAR KEWR 050851Z 12005KT 10SM -TSRA BKN014 BKN020CB OVC070 24/22 A2984 RMK AO2 LTG DSNT ALQDS RAE22B47 TSB0757 SLP105 FRQ LTGICCC OHD TS OHD MOV NE P0000 60000 T02440217 56018= 201708050951 METAR KEWR 050951Z 04003KT 6SM TSRA BR FEW014 BKN025CB OVC120 21/20 A2984 RMK AO2 PK WND 24034/0903 LTG DSNT NE-SE SLP104 OCNL LTGICCC VC E TS VC E MOV NE P0062 T02110200= 201708051051 METAR KEWR 051051Z 21006KT 8SM FEW005 BKN010 OVC050 21/20 A2984 RMK AO2 RAE48 TSE0959 SLP105 P0002 T02060200= 201708051151 METAR KEWR 051151Z 24007KT 10SM SCT005 BKN010 BKN050 OVC130 21/21 A2986 RMK AO2 SLP110 60064 70064 T02110206 10244 20206 53004= 201708051251 METAR KEWR 051251Z 27008KT 10SM FEW007 BKN013 BKN060 OVC130 21/20 A2988 RMK AO2 SLP117 BKN013 V SCT T02060200= 201708051351 METAR KEWR 051351Z 26006KT 10SM SCT015 SCT130 BKN230 23/20 A2988 RMK AO2 SLP118 T02280200= 201708051451 METAR KEWR 051451Z 27010KT 10SM SCT019 BKN026 OVC230 24/19 A2989 RMK AO2 SLP121 T02390194 51012= 201708051551 METAR KEWR 051551Z 27011KT 10SM SCT022 BKN028 BKN049 BKN230 25/19 A2988 RMK AO2 SLP118 T02500189= 201708051651 METAR KEWR 051651Z 25013KT 10SM SCT030 OVC045 25/18 A2988 RMK AO2 SLP119 T02500178= 201708051751 METAR KEWR 051751Z 26013KT 10SM SCT032 BKN050 26/17 A2987 RMK AO2 SLP115 T02560167 10261 20206 58006= 201708051851 METAR KEWR 051851Z 25013G18KT 10SM SCT045 SCT230 27/16 A2986 RMK AO2 SLP110 T02720161= 201708051951 METAR KEWR 051951Z 26015KT 10SM SCT045 27/14 A2985 RMK AO2 SLP109 T02670139= 201708052051 METAR KEWR 052051Z 26016G22KT 10SM SCT045 27/13 A2986 RMK AO2 SLP112 T02670133 55003= 201708052151 METAR KEWR 052151Z 25015G22KT 10SM SCT050 26/13 A2987 RMK AO2 SLP116 T02560128= 201708052251 METAR KEWR 052251Z 29016G22KT 10SM FEW050 26/12 A2990 RMK AO2 SLP125 T02560122= 201708052351 METAR KEWR 052351Z 29011G19KT 10SM FEW060 24/11 A2992 RMK AO2 SLP130 T02390111 10272 20239 53018= 201708060051 METAR KEWR 060051Z 27007KT 10SM FEW060 23/12 A2995 RMK AO2 SLP141 T02280122= 201708060151 METAR KEWR 060151Z 26005KT 10SM FEW060 22/12 A2997 RMK AO2 SLP148 T02170122= 201708060251 METAR KEWR 060251Z 28007KT 10SM SCT060 21/13 A2998 RMK AO2 SLP151 T02110128 51022= 201708060351 METAR KEWR 060351Z 28007KT 10SM CLR 21/13 A2999 RMK AO2 SLP155 T02060128= 201708060451 METAR KEWR 060451Z 27007KT 10SM CLR 19/13 A2999 RMK AO2 SLP155 T01940128 402720194= 201708060551 METAR KEWR 060551Z 28007KT 10SM CLR 19/12 A3000 RMK AO2 SLP158 T01890117 10239 20189 51006= 201708060651 METAR KEWR 060651Z 28010KT 10SM CLR 19/11 A3000 RMK AO2 SLP159 T01890111= 201708060751 METAR KEWR 060751Z 28009KT 10SM CLR 18/11 A3003 RMK AO2 SLP167 T01830111= 201708060851 METAR KEWR 060851Z 30009KT 10SM CLR 18/11 A3003 RMK AO2 SLP168 T01780111 51010= 201708060951 METAR KEWR 060951Z 30009KT 10SM SCT250 18/11 A3004 RMK AO2 SLP173 T01780111= 201708061051 METAR KEWR 061051Z 29008KT 10SM SCT250 18/11 A3006 RMK AO2 SLP178 T01780111= 201708061151 METAR KEWR 061151Z 30009KT 10SM SCT250 19/12 A3008 RMK AO2 SLP184 T01940117 10194 20172 53015= 201708061251 METAR KEWR 061251Z 30008KT 10SM FEW100 BKN250 20/12 A3009 RMK AO2 SLP189 T02000117= 201708061351 METAR KEWR 061351Z 29007KT 10SM FEW100 BKN250 22/12 A3010 RMK AO2 SLP192 T02170122= 201708061451 METAR KEWR 061451Z 30008KT 10SM FEW100 SCT180 BKN240 23/11 A3010 RMK AO2 SLP193 T02330106 51009= 201708061551 METAR KEWR 061551Z 26007KT 240V310 10SM FEW050 FEW100 SCT180 BKN240 24/11 A3010 RMK AO2 SLP192 T02390111= 201708061651 METAR KEWR 061651Z 29006KT 10SM FEW060 FEW100 SCT160 BKN250 24/11 A3010 RMK AO2 SLP192 T02390111= 201708061751 METAR KEWR 061751Z 25008G17KT 10SM FEW060 FEW100 BKN160 BKN250 24/11 A3010 RMK AO2 SLP191 T02440106 10244 20194 58001= 201708061851 METAR KEWR 061851Z 27010KT 10SM FEW055 FEW100 BKN140 OVC220 25/11 A3009 RMK AO2 SLP189 T02500111= 201708061951 METAR KEWR 061951Z 26012G16KT 10SM FEW050 FEW100 BKN150 BKN220 25/12 A3009 RMK AO2 SLP188 T02500117= 201708062051 METAR KEWR 062051Z 24011KT 10SM FEW050 BKN150 BKN200 BKN250 24/11 A3009 RMK AO2 SLP188 T02440111 56004= 201708062151 METAR KEWR 062151Z 25011KT 10SM FEW050 SCT150 BKN200 BKN250 24/11 A3009 RMK AO2 SLP187 T02390111= 201708062251 METAR KEWR 062251Z 22009KT 10SM FEW060 SCT150 BKN200 BKN250 23/11 A3009 RMK AO2 SLP188 T02280111= 201708062351 METAR KEWR 062351Z 24008KT 10SM SCT130 BKN200 BKN250 23/12 A3010 RMK AO2 SLP192 T02280117 10256 20228 53005= 201708070051 METAR KEWR 070051Z 24008KT 10SM FEW130 SCT210 BKN250 22/12 A3010 RMK AO2 SLP193 T02170122= 201708070151 METAR KEWR 070151Z 23006KT 10SM SCT220 BKN250 22/12 A3011 RMK AO2 SLP195 T02170117= 201708070251 METAR KEWR 070251Z 25008KT 10SM FEW220 BKN250 21/12 A3012 RMK AO2 SLP198 T02110122 53005= 201708070351 METAR KEWR 070351Z 23004KT 10SM FEW220 BKN250 20/13 A3012 RMK AO2 SLP198 T02000128= 201708070451 METAR KEWR 070451Z 23004KT 10SM FEW210 BKN250 19/13 A3012 RMK AO2 SLP199 T01890128 402560172= 201708070551 METAR KEWR 070551Z VRB04KT 10SM FEW120 SCT210 BKN250 19/13 A3011 RMK AO2 SLP196 T01940133 10228 20178 58002= 201708070651 METAR KEWR 070651Z 21004KT 10SM BKN120 OVC250 19/14 A3011 RMK AO2 SLP194 T01890139= 201708070751 METAR KEWR 070751Z 24005KT 10SM BKN110 OVC250 19/14 A3010 RMK AO2 SLP193 T01940139= 201708070851 METAR KEWR 070851Z 23004KT 10SM BKN100 OVC250 19/13 A3010 RMK AO2 SLP191 T01940133 58005= 201708070951 METAR KEWR 070951Z 00000KT 10SM BKN100 BKN130 OVC250 20/13 A3009 RMK AO2 SLP189 T02000133= 201708071051 METAR KEWR 071051Z 00000KT 10SM FEW028 BKN085 BKN110 OVC200 21/14 A3010 RMK AO2 SLP193 T02060144= 201708071151 METAR KEWR 071151Z 00000KT 10SM -RA FEW028 BKN085 OVC200 21/16 A3009 RMK AO2 RAB1059 SLP190 P0000 60000 T02060156 10211 20183 58001 $= 201708071251 METAR KEWR 071251Z 27005KT 10SM BKN017 BKN065 OVC080 19/17 A3009 RMK AO2 RAE51 SLP188 P0000 T01940167 $= 201708071351 METAR KEWR 071351Z 00000KT 10SM FEW017 BKN050 OVC065 19/18 A3008 RMK AO2 RAB16E36 SLP186 P0000 T01940178 $= 201708071451 METAR KEWR 071451Z 04004KT 5SM -RA BR FEW012 SCT030 OVC044 20/18 A3009 RMK AO2 RAB1353 SLP188 P0001 60001 T02000178 55001 $= 201708071551 METAR KEWR 071551Z 03006KT 3SM -RA BR SCT010 BKN038 OVC060 20/18 A3009 RMK AO2 SLP188 SCT V BKN P0007 T02000183 $= 201708071651 METAR KEWR 071651Z 04007KT 5SM -RA BR FEW008 SCT023 OVC050 19/18 A3006 RMK AO2 SLP179 P0004 T01940178 $= 201708071751 METAR KEWR 071751Z 02008KT 3SM RA BR SCT008 BKN023 OVC045 19/18 A3005 RMK AO2 SLP175 P0008 60020 T01940183 10206 20189 58013 $= 201708071851 METAR KEWR 071851Z 00000KT 3SM RA BR SCT008 BKN016 OVC033 19/18 A3003 RMK AO2 SLP167 CIG 013V018 P0013 T01890183 $= 201708071951 METAR KEWR 071951Z 08003KT 6SM -RA BR FEW006 BKN030 OVC110 18/16 A3001 RMK AO2 SLP162 P0010 T01830161= 201708072051 METAR KEWR 072051Z 11007KT 8SM -RA FEW007 BKN018 OVC030 19/18 A2997 RMK AO2 PRESFR SLP147 P0006 60029 T01890178 58021= 201708072151 METAR KEWR 072151Z 14006KT 10SM -RA SCT012 BKN018 OVC033 21/19 A2995 RMK AO2 SLP141 SCT V BKN P0001 T02060189= 201708072251 METAR KEWR 072251Z 13006KT 3SM +RA BR BKN015 BKN023 OVC050 19/18 A2996 RMK AO2 SLP143 P0008 T01940183= 201708072351 METAR KEWR 072351Z 13004KT 4SM RA BR FEW015 BKN020 OVC085 19/18 A2994 RMK AO2 SLP138 P0006 60044 T01940183 10206 20183 56009= 201708080051 METAR KEWR 080051Z 08006KT 10SM BKN017 BKN070 OVC120 19/18 A2992 RMK AO2 RAE48 SLP131 P0001 T01940183= 201708080151 METAR KEWR 080151Z 02007KT 10SM OVC014 19/18 A2991 RMK AO2 SLP129 T01940183= 201708080251 METAR KEWR 080251Z 03009KT 9SM OVC014 19/18 A2991 RMK AO2 SLP129 CIG 012V017 60001 T01890183 55009= 201708080351 METAR KEWR 080351Z 02007KT 10SM SCT008 OVC014 18/18 A2991 RMK AO2 SLP126 T01830183= 201708080451 METAR KEWR 080451Z 01006KT 10SM FEW007 BKN014 BKN110 18/18 A2989 RMK AO2 SLP120 CIG 012V017 BKN014 V SCT T01830178 402110178= 201708080551 METAR KEWR 080551Z 36008KT 10SM BKN007 OVC012 18/18 A2988 RMK AO2 SLP119 60001 T01830178 10200 20183 56010= 201708080651 METAR KEWR 080651Z 36005KT 10SM BKN009 OVC030 18/18 A2988 RMK AO2 SLP118 CIG 008V010 T01830178= 201708080751 METAR KEWR 080751Z 01007KT 10SM OVC009 18/18 A2988 RMK AO2 SLP116 CIG 008V010 T01830178= 201708080851 METAR KEWR 080851Z 36006KT 10SM BKN008 OVC030 18/18 A2988 RMK AO2 SLP116 T01830178 56003= 201708080951 METAR KEWR 080951Z 36004KT 8SM SCT008 BKN012 OVC019 18/18 A2988 RMK AO2 SLP116 T01830178= 201708081051 METAR KEWR 081051Z 31005KT 10SM SCT007 SCT011 OVC017 19/18 A2990 RMK AO2 SLP123 SCT011 V BKN T01890178 $= 201708081151 METAR KEWR 081151Z 32006KT 10SM FEW007 SCT011 OVC020 19/18 A2991 RMK AO2 SLP128 CIG 018V023 70065 T01940178 10194 20183 53012 $= 201708081251 METAR KEWR 081251Z 35010KT 10SM SCT013 BKN020 BKN028 21/17 A2992 RMK AO2 SLP131 CIG 018V023 T02060172 $= 201708081351 METAR KEWR 081351Z 35010KT 10SM FEW012 SCT020 BKN030 OVC200 21/17 A2993 RMK AO2 SLP136 T02110167 $= 201708081451 METAR KEWR 081451Z 34007KT 10SM SCT020 BKN032 BKN200 22/17 A2995 RMK AO2 SLP140 T02170167 53012 $= 201708081551 METAR KEWR 081551Z 35009KT 10SM SCT024 BKN036 BKN220 23/17 A2996 RMK AO2 SLP145 T02280167= 201708081651 METAR KEWR 081651Z 03009KT 10SM SCT036 BKN048 BKN220 BKN260 24/16 A2997 RMK AO2 SLP149 T02440156= 201708081751 METAR KEWR 081751Z 02007KT 10SM BKN040 BKN200 BKN250 26/16 A2997 RMK AO2 SLP149 T02560161 10261 20194 51009= 201708081851 METAR KEWR 081851Z 36006KT 10SM SCT040 BKN065 BKN200 BKN250 26/14 A2997 RMK AO2 SLP150 T02560144= 201708081951 METAR KEWR 081951Z 31009KT 290V350 10SM SCT050 SCT200 BKN270 27/14 A2998 RMK AO2 SLP151 T02670139= 201708082051 METAR KEWR 082051Z 29009KT 10SM SCT050 SCT200 BKN290 26/14 A2998 RMK AO2 SLP150 T02610139 50001= 201708082151 METAR KEWR 082151Z 00000KT 10SM FEW050 SCT200 BKN300 26/14 A2998 RMK AO2 SLP151 T02610144= 201708082251 METAR KEWR 082251Z 30008KT 10SM FEW050 FEW200 SCT300 26/13 A3000 RMK AO2 SLP158 T02610133= 201708082351 METAR KEWR 082351Z 25007KT 10SM FEW055 FEW300 25/14 A3002 RMK AO2 SLP166 T02500139 10267 20250 53016= 201708090051 METAR KEWR 090051Z 24008KT 10SM FEW060 FEW300 24/14 A3005 RMK AO2 SLP174 T02440144= 201708090151 METAR KEWR 090151Z 25007KT 10SM FEW060 23/15 A3007 RMK AO2 SLP180 T02330150= 201708090251 METAR KEWR 090251Z 26008KT 10SM FEW065 FEW080 23/16 A3008 RMK AO2 SLP185 T02330156 51019= 201708090351 METAR KEWR 090351Z 28006KT 10SM FEW080 22/16 A3009 RMK AO2 SLP190 T02170156= 201708090451 METAR KEWR 090451Z 28006KT 10SM FEW080 21/16 A3010 RMK AO2 SLP192 T02110156 402670183= 201708090551 METAR KEWR 090551Z 27003KT 10SM FEW080 21/16 A3011 RMK AO2 SLP195 T02060156 10250 20206 51010= 201708090651 METAR KEWR 090651Z 00000KT 10SM CLR 20/15 A3012 RMK AO2 SLP197 T02000150= 201708090751 METAR KEWR 090751Z 33003KT 10SM CLR 19/14 A3013 RMK AO2 SLP202 T01940144= 201708090851 METAR KEWR 090851Z 00000KT 10SM CLR 18/15 A3014 RMK AO2 SLP204 T01830150 53009= 201708090951 METAR KEWR 090951Z VRB03KT 10SM FEW080 19/14 A3015 RMK AO2 SLP210 T01890144= 201708091051 METAR KEWR 091051Z 00000KT 10SM FEW100 20/15 A3018 RMK AO2 SLP218 T02000150= 201708091151 METAR KEWR 091151Z 00000KT 10SM FEW100 22/15 A3019 RMK AO2 SLP221 T02170150 10217 20178 51017= 201708091251 METAR KEWR 091251Z 00000KT 10SM FEW100 FEW250 23/13 A3019 RMK AO2 SLP224 T02330128= 201708091351 METAR KEWR 091351Z 34004KT 10SM FEW100 FEW250 26/12 A3020 RMK AO2 SLP226 T02560117= 201708091451 METAR KEWR 091451Z VRB06KT 10SM FEW250 27/11 A3021 RMK AO2 SLP228 T02670106 53007= 201708091551 METAR KEWR 091551Z 00000KT 10SM FEW055 27/12 A3020 RMK AO2 SLP227 T02670117= 201708091651 METAR KEWR 091651Z VRB03KT 10SM FEW065 28/12 A3019 RMK AO2 SLP223 T02780122= 201708091751 METAR KEWR 091751Z VRB04KT 10SM FEW060 28/13 A3018 RMK AO2 SLP219 T02830128 10283 20217 58009= 201708091851 METAR KEWR 091851Z VRB06KT 10SM SCT070 28/13 A3018 RMK AO2 SLP218 T02830133= 201708091951 METAR KEWR 091951Z VRB05KT 10SM FEW075 28/13 A3017 RMK AO2 SLP215 T02830133= 201708092051 METAR KEWR 092051Z 16007KT 10SM SCT080 28/14 A3016 RMK AO2 SLP212 T02780144 58007= 201708092151 METAR KEWR 092151Z 16009KT 10SM SCT080 27/14 A3016 RMK AO2 SLP214 T02720144= 201708092251 METAR KEWR 092251Z 16009KT 10SM FEW080 FEW250 27/16 A3017 RMK AO2 SLP216 T02670156= 201708092351 METAR KEWR 092351Z 18007KT 10SM FEW070 FEW250 26/16 A3019 RMK AO2 SLP222 T02610156 10289 20261 53011= 201708100051 METAR KEWR 100051Z 19006KT 10SM FEW250 24/16 A3021 RMK AO2 SLP228 T02440161= 201708100151 METAR KEWR 100151Z 18005KT 10SM FEW250 24/16 A3022 RMK AO2 SLP234 T02390161= 201708100251 METAR KEWR 100251Z VRB05KT 10SM FEW250 23/16 A3023 RMK AO2 SLP235 T02280156 51013= 201708100351 METAR KEWR 100351Z 00000KT 10SM SCT250 22/16 A3023 RMK AO2 SLP235 T02220161= 201708100451 METAR KEWR 100451Z 19004KT 10SM SCT250 22/16 A3023 RMK AO2 SLP236 T02170161 402890178= 201708100551 METAR KEWR 100551Z 20004KT 10SM SCT250 21/16 A3023 RMK AO2 SLP235 T02110156 10261 20206 58000= 201708100651 METAR KEWR 100651Z 24006KT 10SM SCT250 21/16 A3023 RMK AO2 SLP234 T02060161= 201708100751 METAR KEWR 100751Z 23005KT 10SM FEW250 19/16 A3022 RMK AO2 SLP233 T01940161= 201708100851 METAR KEWR 100851Z 23004KT 8SM CLR 18/16 A3022 RMK AO2 SLP233 T01830156 55002= 201708100951 METAR KEWR 100951Z 25003KT 10SM FEW250 19/16 A3022 RMK AO2 SLP233 T01940161= 201708101051 METAR KEWR 101051Z 00000KT 10SM FEW250 21/17 A3023 RMK AO2 SLP235 T02110167= 201708101151 METAR KEWR 101151Z 00000KT 10SM FEW250 23/17 A3024 RMK AO2 SLP239 T02330172 10233 20183 53006= 201708101251 METAR KEWR 101251Z 00000KT 10SM CLR 25/16 A3024 RMK AO2 SLP241 T02500161= 201708101351 METAR KEWR 101351Z 01003KT 10SM CLR 27/15 A3024 RMK AO2 SLP239 T02720150= 201708101451 METAR KEWR 101451Z 00000KT 10SM FEW050 FEW250 28/13 A3023 RMK AO2 SLP237 T02780133 58002= 201708101551 METAR KEWR 101551Z VRB04KT 10SM FEW055 SCT250 29/14 A3022 RMK AO2 SLP233 T02890144= 201708101651 METAR KEWR 101651Z 18005KT 10SM SCT055 SCT250 28/15 A3021 RMK AO2 SLP231 T02830150= 201708101751 METAR KEWR 101751Z 16005KT 10SM SCT060 SCT250 29/13 A3020 RMK AO2 SLP227 T02890128 10300 20233 57010= 201708101851 METAR KEWR 101851Z 14009KT 10SM FEW060 SCT250 29/14 A3020 RMK AO2 SLP224 T02890139= 201708101951 METAR KEWR 101951Z 16010KT 10SM FEW060 BKN250 28/15 A3019 RMK AO2 SLP222 T02780150= 201708102051 METAR KEWR 102051Z 16009KT 10SM FEW050 BKN250 27/14 A3018 RMK AO2 SLP218 T02720144 58009= 201708102151 METAR KEWR 102151Z 15008KT 10SM FEW048 BKN250 26/14 A3017 RMK AO2 SLP215 T02610144= 201708102251 METAR KEWR 102251Z 15007KT 10SM FEW048 SCT200 BKN250 26/12 A3018 RMK AO2 SLP218 T02610122= 201708102351 METAR KEWR 102351Z 14005KT 10SM SCT200 BKN250 25/14 A3017 RMK AO2 SLP216 T02500139 10294 20250 56002= 201708110051 METAR KEWR 110051Z 16007KT 10SM SCT210 BKN260 24/16 A3018 RMK AO2 SLP218 T02390156= 201708110151 METAR KEWR 110151Z 17005KT 10SM BKN210 BKN260 23/16 A3017 RMK AO2 SLP217 T02330161= 201708110251 METAR KEWR 110251Z 16004KT 10SM FEW150 SCT210 BKN260 23/17 A3017 RMK AO2 SLP217 T02280167 51001= 201708110351 METAR KEWR 110351Z 19004KT 10SM FEW150 SCT200 BKN250 21/16 A3017 RMK AO2 SLP217 T02110161= 201708110451 METAR KEWR 110451Z 17004KT 10SM BKN150 BKN200 BKN250 22/16 A3017 RMK AO2 SLP217 T02220161 403000183= 201708110551 METAR KEWR 110551Z 18005KT 10SM OVC150 22/15 A3017 RMK AO2 SLP216 T02170150 10250 20211 58001= 201708110651 METAR KEWR 110651Z 19004KT 10SM FEW070 OVC140 22/15 A3017 RMK AO2 SLP215 T02170150= 201708110751 METAR KEWR 110751Z 19004KT 10SM FEW080 BKN150 OVC200 21/15 A3016 RMK AO2 SLP213 T02110150= 201708110851 METAR KEWR 110851Z 15003KT 10SM BKN150 BKN200 21/15 A3015 RMK AO2 SLP209 T02110150 58007= 201708110951 METAR KEWR 110951Z 00000KT 10SM SCT150 SCT250 20/14 A3015 RMK AO2 SLP210 T02000144= 201708111051 METAR KEWR 111051Z 22004KT 10SM FEW080 FEW150 SCT260 21/15 A3016 RMK AO2 SLP213 T02060150= 201708111151 METAR KEWR 111151Z 00000KT 10SM FEW080 FEW130 SCT260 23/15 A3016 RMK AO2 SLP213 T02280150 10228 20200 51004= 201708111251 METAR KEWR 111251Z 17005KT 10SM FEW080 FEW130 SCT260 24/16 A3015 RMK AO2 SLP210 T02390161= 201708111351 METAR KEWR 111351Z 16003KT 10SM FEW080 FEW130 SCT260 24/17 A3014 RMK AO2 SLP206 T02440167= 201708111451 METAR KEWR 111451Z 20005KT 10SM FEW040 SCT100 SCT180 BKN260 26/17 A3015 RMK AO2 SLP208 T02560167 55005= 201708111551 METAR KEWR 111551Z 15006KT 10SM SCT040 BKN100 BKN180 BKN260 26/16 A3014 RMK AO2 SLP204 T02610161= 201708111651 METAR KEWR 111651Z 14007KT 10SM SCT050 BKN100 BKN180 BKN260 27/16 A3012 RMK AO2 SLP198 T02670161= 201708111751 METAR KEWR 111751Z 13007KT 090V160 10SM SCT050 SCT100 BKN180 OVC260 27/16 A3011 RMK AO2 SLP197 T02670156 10272 20222 56011= 201708111851 METAR KEWR 111851Z 13009KT 10SM BKN055 BKN090 BKN180 BKN260 27/16 A3010 RMK AO2 SLP191 T02670161= 201708111951 METAR KEWR 111951Z 14009G16KT 10SM BKN070 BKN150 BKN260 26/17 A3007 RMK AO2 SLP183 T02610167= 201708112051 METAR KEWR 112051Z 13009G17KT 10SM FEW044 BKN070 BKN260 26/17 A3007 RMK AO2 SLP182 T02560167 56015= 201708112151 METAR KEWR 112151Z 15008KT 10SM FEW045 SCT070 BKN230 26/17 A3005 RMK AO2 SLP177 T02560172= 201708112251 METAR KEWR 112251Z 14007KT 10SM FEW045 FEW070 BKN120 BKN250 25/17 A3004 RMK AO2 SLP171 T02500172= 201708112351 METAR KEWR 112351Z 16009KT 10SM -RA FEW045 BKN090 BKN160 OVC250 24/17 A3004 RMK AO2 RAB45 SLP171 P0000 60000 T02440172 10272 20244 56011= 201708120051 METAR KEWR 120051Z 16006KT 10SM -RA FEW050 SCT065 OVC100 24/17 A3004 RMK AO2 RAE2354B31 SLP170 P0000 T02390172= 201708120151 METAR KEWR 120151Z 15006KT 10SM FEW050 OVC080 23/17 A3003 RMK AO2 RAE0055 SLP169 P0000 T02330172= 201708120251 METAR KEWR 120251Z 17006KT 10SM SCT070 BKN085 OVC130 23/18 A3002 RMK AO2 SLP164 60000 T02330178 58007= 201708120351 METAR KEWR 120351Z 17005KT 10SM BKN080 OVC120 23/18 A3000 RMK AO2 SLP159 T02280183= 201708120451 METAR KEWR 120451Z 00000KT 10SM -RA FEW015 OVC070 23/17 A3000 RMK AO2 LTG DSNT NW RAB49 SLP158 P0000 T02280172 402720200= 201708120551 METAR KEWR 120551Z 33007KT 10SM R04R/6000VP6000FT -RA SCT020 BKN030 OVC060 20/16 A3001 RMK AO2 LTG DSNT SE AND NW TSE0453B0454E17 SLP161 P0001 60001 T02000156 10244 20200 55003= 201708120651 METAR KEWR 120651Z 03009KT 10SM -TSRA FEW015 SCT025CB OVC040 18/17 A3000 RMK AO2 TSB35 SLP159 OCNL LTGIC VC NW TS VC NW MOV NE P0011 T01830167= 201708120751 METAR KEWR 120751Z 03005KT 10SM FEW022 OVC028 19/17 A2997 RMK AO2 RAE40 TSE0658 SLP147 P0000 T01890172= 201708120851 METAR KEWR 120851Z 02005KT 10SM -RA OVC022 19/17 A2995 RMK AO2 RAB49 SLP143 P0000 60011 T01890172 58018= 201708120951 METAR KEWR 120951Z 05003KT 10SM FEW010 BKN022 BKN028 19/18 A2996 RMK AO2 RAE07 SLP145 P0001 T01940178= 201708121051 METAR KEWR 121051Z 06003KT 10SM FEW010 BKN022 BKN190 BKN250 20/18 A2996 RMK AO2 SLP145 BKN022 V SCT T02000183= 201708121151 METAR KEWR 121151Z 02006KT 10SM BKN016 BKN022 BKN190 BKN250 19/18 A2996 RMK AO2 SLP146 60012 70013 T01940183 10200 20183 51003= 201708121251 METAR KEWR 121251Z 05003KT 10SM FEW010 BKN016 BKN180 BKN250 21/18 A2995 RMK AO2 SLP142 T02060178= 201708121351 METAR KEWR 121351Z VRB03KT 10SM SCT016 BKN180 BKN250 23/19 A2995 RMK AO2 SLP142 SCT V BKN T02280189= 201708121451 METAR KEWR 121451Z 20005KT 10SM BKN017 BKN180 BKN250 22/18 A2996 RMK AO2 SLP144 T02220183 55002= 201708121551 METAR KEWR 121551Z 13005KT 10SM OVC017 23/18 A2995 RMK AO2 SLP141 T02280183= 201708121651 METAR KEWR 121651Z 15005KT 10SM OVC017 23/19 A2995 RMK AO2 SLP140 T02280189= 201708121751 METAR KEWR 121751Z 16005KT 10SM OVC017 23/19 A2993 RMK AO2 SLP136 T02330194 10233 20194 58008= 201708121851 METAR KEWR 121851Z VRB04KT 10SM FEW016 OVC021 24/19 A2992 RMK AO2 SLP132 T02390194= 201708121951 METAR KEWR 121951Z 17005KT 10SM FEW016 BKN021 OVC029 24/20 A2991 RMK AO2 SLP128 T02440200= 201708122051 METAR KEWR 122051Z 17005KT 10SM FEW017 SCT022 BKN032 25/21 A2989 RMK AO2 SLP122 T02500206 58014= 201708122151 METAR KEWR 122151Z 14005KT 10SM FEW018 FEW026 SCT032 BKN260 25/21 A2987 RMK AO2 SLP116 T02500206= 201708122251 METAR KEWR 122251Z 16007KT 10SM FEW015 SCT032 SCT200 BKN260 24/21 A2989 RMK AO2 SLP120 T02390206= 201708122351 METAR KEWR 122351Z 35003KT 10SM BKN010 BKN024 BKN200 BKN260 23/21 A2990 RMK AO2 SLP125 T02330211 10250 20233 53003= 201708130051 METAR KEWR 130051Z 14010KT 10SM SCT009 SCT020 SCT160 BKN260 24/22 A2987 RMK AO2 RAB00E10 SLP116 P0000 T02390217= 201708130151 METAR KEWR 130151Z 16004KT 10SM FEW009 FEW020 SCT075 OVC160 23/22 A2987 RMK AO2 SLP115 T02330217= 201708130251 METAR KEWR 130251Z 19008KT 10SM FEW009 SCT020 BKN030 BKN160 23/22 A2987 RMK AO2 SLP114 60000 T02330217 56012= 201708130351 METAR KEWR 130351Z 20007KT 10SM SCT015 BKN028 BKN160 23/22 A2987 RMK AO2 SLP113 T02330217= 201708130451 METAR KEWR 130451Z 20005KT 10SM FEW013 FEW022 FEW160 22/21 A2986 RMK AO2 SLP111 T02220211 402500183= 201708130551 METAR KEWR 130551Z 21006KT 10SM FEW012 SCT026 SCT250 22/21 A2986 RMK AO2 SLP111 60000 T02220211 10239 20222 56002= 201708130651 METAR KEWR 130651Z 24005KT 10SM SCT010 SCT026 SCT250 22/22 A2985 RMK AO2 SLP107 T02220217= 201708130751 METAR KEWR 130751Z 26004KT 10SM SCT010 SCT026 SCT250 22/21 A2984 RMK AO2 SLP105 T02170211= 201708130851 METAR KEWR 130851Z 29005KT 10SM FEW006 SCT025 21/21 A2985 RMK AO2 SLP108 T02110211 55003= 201708130951 METAR KEWR 130951Z 32005KT 10SM FEW006 FEW035 21/20 A2987 RMK AO2 SLP113 T02110200= 201708131051 METAR KEWR 131051Z 34007KT 10SM FEW150 22/19 A2988 RMK AO2 SLP119 T02170189= 201708131151 METAR KEWR 131151Z 32008KT 10SM FEW070 23/18 A2991 RMK AO2 SLP127 T02280178 10228 20206 53019= 201708131251 METAR KEWR 131251Z 33010KT 10SM FEW040 SCT150 24/17 A2992 RMK AO2 SLP131 T02440167= 201708131351 METAR KEWR 131351Z 34011KT 10SM FEW010 SCT120 SCT250 26/16 A2993 RMK AO2 SLP135 T02560161= 201708131451 METAR KEWR 131451Z 29006G15KT 10SM FEW030 SCT250 26/16 A2994 RMK AO2 SLP138 T02610156 51012= 201708131551 METAR KEWR 131551Z 29011G18KT 10SM FEW040 SCT250 28/16 A2994 RMK AO2 SLP138 T02780161= 201708131651 METAR KEWR 131651Z 30010G18KT 10SM FEW045 SCT250 28/16 A2994 RMK AO2 SLP137 T02830161= 201708131751 METAR KEWR 131751Z 32007G17KT 10SM FEW050 SCT250 28/15 A2994 RMK AO2 SLP137 T02830150 10289 20228 58001= 201708131851 METAR KEWR 131851Z 33008G16KT 280V350 10SM FEW050 SCT250 29/14 A2995 RMK AO2 SLP140 T02890144= 201708131951 METAR KEWR 131951Z 28010G23KT 10SM SCT050 BKN250 29/14 A2994 RMK AO2 SLP138 T02890144= 201708132051 METAR KEWR 132051Z 31012G16KT 10SM SCT055 BKN250 29/15 A2995 RMK AO2 SLP143 T02890150 53005= 201708132151 METAR KEWR 132151Z 30009G14KT 10SM SCT060 BKN250 28/14 A2996 RMK AO2 SLP145 T02830139= 201708132251 METAR KEWR 132251Z 30007KT 10SM SCT060 BKN250 27/14 A2997 RMK AO2 SLP149 T02720139= 201708132351 METAR KEWR 132351Z 29007KT 10SM SCT050 BKN250 27/14 A2998 RMK AO2 SLP150 T02670139 10294 20267 51007= 201708140051 METAR KEWR 140051Z VRB06KT 10SM FEW050 BKN250 26/15 A2999 RMK AO2 SLP156 T02610150= 201708140151 METAR KEWR 140151Z VRB04KT 10SM FEW050 SCT250 25/16 A3000 RMK AO2 SLP158 T02500156= 201708140251 METAR KEWR 140251Z 28007KT 10SM SCT250 24/17 A3001 RMK AO2 SLP160 T02390167 51010= 201708140351 METAR KEWR 140351Z 24004KT 10SM FEW250 23/16 A3001 RMK AO2 SLP163 T02330161= 201708140451 METAR KEWR 140451Z 00000KT 10SM FEW050 23/16 A3002 RMK AO2 SLP164 T02280161 402940206= 201708140551 METAR KEWR 140551Z 32003KT 10SM FEW050 22/16 A3001 RMK AO2 SLP162 T02220161 10267 20217 50002= 201708140651 METAR KEWR 140651Z 02006KT 10SM CLR 21/16 A3002 RMK AO2 SLP164 T02060161= 201708140751 METAR KEWR 140751Z 02004KT 10SM FEW100 SCT250 21/16 A3002 RMK AO2 SLP164 T02060161= 201708140851 METAR KEWR 140851Z 36006KT 10SM SCT060 SCT250 20/17 A3002 RMK AO2 SLP164 T02000172 51002= 201708140951 METAR KEWR 140951Z 01006KT 10SM BKN060 BKN250 20/18 A3002 RMK AO2 SLP166 T02000178= 201708141051 METAR KEWR 141051Z 02007KT 10SM SCT060 BKN250 21/17 A3003 RMK AO2 SLP169 T02060172= 201708141151 METAR KEWR 141151Z 02007KT 10SM FEW060 BKN250 22/17 A3004 RMK AO2 SLP171 T02170167 10228 20194 52006= 201708141251 METAR KEWR 141251Z 02003KT 10SM FEW065 BKN250 25/18 A3004 RMK AO2 SLP172 T02500178= 201708141351 METAR KEWR 141351Z 11005KT 10SM FEW038 FEW060 BKN250 26/15 A3004 RMK AO2 SLP172 T02610150= 201708141451 METAR KEWR 141451Z 15007KT 10SM FEW045 BKN250 27/15 A3003 RMK AO2 SLP169 T02670150 58002= 201708141551 METAR KEWR 141551Z 16007KT 10SM FEW055 OVC250 26/17 A3003 RMK AO2 SLP169 T02560167= 201708141651 METAR KEWR 141651Z 13005KT 10SM FEW055 BKN200 OVC260 26/18 A3002 RMK AO2 SLP165 T02610183= 201708141751 METAR KEWR 141751Z 19005KT 10SM FEW055 BKN200 OVC260 27/17 A3001 RMK AO2 SLP161 T02720167 10272 20217 58007= 201708141851 METAR KEWR 141851Z VRB03KT 10SM FEW055 BKN200 OVC260 27/17 A2999 RMK AO2 SLP154 T02670172= 201708141951 METAR KEWR 141951Z 18007KT 10SM FEW045 SCT055 BKN200 OVC260 27/17 A2998 RMK AO2 SLP150 T02670172= 201708142051 METAR KEWR 142051Z 17006KT 10SM FEW044 FEW055 BKN200 OVC260 26/17 A2997 RMK AO2 SLP149 T02610167 56012= 201708142151 METAR KEWR 142151Z 17005KT 10SM FEW040 FEW060 BKN140 OVC250 26/18 A2997 RMK AO2 SLP147 T02560183= 201708142251 METAR KEWR 142251Z 16003KT 10SM FEW050 SCT140 BKN170 OVC250 26/18 A2996 RMK AO2 SLP144 T02560183= 201708142351 METAR KEWR 142351Z 14008KT 10SM FEW050 SCT120 BKN170 BKN250 25/19 A2995 RMK AO2 SLP142 T02500194 10272 20250 56007= 201708150051 METAR KEWR 150051Z 16006KT 10SM FEW035 BKN140 BKN250 24/21 A2996 RMK AO2 SLP144 T02440206= 201708150151 METAR KEWR 150151Z 18006KT 10SM FEW035 SCT130 BKN250 24/21 A2996 RMK AO2 SLP145 T02390206= 201708150251 METAR KEWR 150251Z 19006KT 10SM FEW035 SCT100 BKN140 BKN250 23/21 A2996 RMK AO2 SLP145 T02330206 50003= 201708150351 METAR KEWR 150351Z 19005KT 10SM FEW020 BKN100 OVC190 23/20 A2995 RMK AO2 SLP143 T02330200= 201708150451 METAR KEWR 150451Z 21006KT 10SM -RA BKN090 OVC140 23/19 A2995 RMK AO2 RAB15 SLP141 P0000 T02280194 402720194= 201708150551 METAR KEWR 150551Z 23005KT 10SM -RA FEW020 OVC070 23/19 A2994 RMK AO2 SLP139 P0000 60000 T02280189 10250 20222 57005= 201708150651 METAR KEWR 150651Z 24009KT 3SM +RA BR FEW010 SCT022 OVC038 21/20 A2996 RMK AO2 SLP144 P0023 T02110200 $= 201708150751 METAR KEWR 150751Z 20004KT 4SM RA BR FEW022 SCT038 OVC060 21/20 A2995 RMK AO2 SLP141 P0008 T02060200 $= 201708150851 METAR KEWR 150851Z 15003KT 10SM -RA FEW008 FEW022 OVC050 20/20 A2994 RMK AO2 SLP139 P0002 60033 T02000200 58001 $= 201708150951 METAR KEWR 150951Z 00000KT 10SM BKN050 OVC075 21/19 A2992 RMK AO2 RAE36 SLP133 P0000 T02060189 $= 201708151051 METAR KEWR 151051Z 00000KT 10SM SCT047 BKN060 BKN140 OVC250 21/19 A2993 RMK AO2 SLP136 T02110189 $= 201708151151 METAR KEWR 151151Z 00000KT 10SM BKN046 BKN140 OVC250 22/19 A2993 RMK AO2 SLP136 60033 70033 T02170189 10228 20200 55003 $= 201708151251 METAR KEWR 151251Z 17003KT 10SM SCT044 BKN085 BKN130 OVC250 22/19 A2993 RMK AO2 SLP136 T02220189 $= 201708151351 METAR KEWR 151351Z 16005KT 10SM SCT080 BKN095 OVC250 23/19 A2993 RMK AO2 SLP135 T02280194= 201708151451 METAR KEWR 151451Z VRB03KT 10SM SCT038 BKN075 BKN100 OVC130 23/20 A2993 RMK AO2 SLP134 T02330200 58002= 201708151551 METAR KEWR 151551Z 15006KT 10SM BKN013 BKN075 OVC085 23/20 A2992 RMK AO2 SLP132 T02330200= 201708151651 METAR KEWR 151651Z 15004KT 5SM -RA BR FEW012 BKN019 OVC080 23/21 A2992 RMK AO2 RAB1556 SLP130 BKN V SCT P0003 T02280211= 201708151751 METAR KEWR 151751Z 18004KT 3SM -RA BR SCT008 OVC019 23/22 A2991 RMK AO2 SFC VIS 4 SLP129 SCT V BKN P0006 60009 T02280217 10233 20222 56004= 201708151851 METAR KEWR 151851Z 22003KT 3SM -RA BR BKN006 BKN015 OVC065 22/22 A2990 RMK AO2 SFC VIS 4 SLP125 BKN006 V SCT P0007 T02220217= 201708151951 METAR KEWR 151951Z VRB03KT 9SM -RA FEW006 BKN015 OVC065 23/21 A2990 RMK AO2 RAE32B47 SLP123 P0000 T02280211= 201708152051 METAR KEWR 152051Z 00000KT 10SM FEW008 SCT015 BKN035 OVC150 23/21 A2989 RMK AO2 RAE23 SLP120 P0002 60009 T02280211 56009= 201708152151 METAR KEWR 152151Z 23005KT 10SM SCT012 BKN026 BKN040 OVC150 23/21 A2990 RMK AO2 SLP123 T02330211= 201708152251 METAR KEWR 152251Z 00000KT 10SM -RA FEW012 BKN022 OVC070 23/21 A2990 RMK AO2 RAB47 SLP123 P0000 T02330211= 201708152351 METAR KEWR 152351Z 14004KT 10SM FEW015 SCT042 SCT120 BKN250 23/21 A2990 RMK AO2 RAE01 SLP123 P0000 60009 T02280211 10233 20222 51003= 201708160051 METAR KEWR 160051Z 15004KT 10SM SCT015 BKN120 BKN250 22/21 A2991 RMK AO2 SLP128 T02220211= 201708160151 METAR KEWR 160151Z 00000KT 9SM FEW008 OVC012 23/22 A2991 RMK AO2 SLP129 T02280217= 201708160251 METAR KEWR 160251Z 00000KT 8SM FEW007 BKN011 OVC019 23/22 A2991 RMK AO2 SLP129 T02280217 51006= 201708160351 METAR KEWR 160351Z 17003KT 6SM BR FEW008 FEW014 22/21 A2990 RMK AO2 SLP125 T02220211= 201708160451 METAR KEWR 160451Z 23003KT 5SM BR FEW009 FEW015 22/21 A2991 RMK AO2 SLP127 T02170211 402330200= 201708160551 METAR KEWR 160551Z 24004KT 4SM BR SCT004 SCT015 21/21 A2990 RMK AO2 SLP126 T02110211 10228 20211 56003= 201708160651 METAR KEWR 160651Z 00000KT 1/2SM R04R/P6000FT BR BKN002 21/21 A2991 RMK AO2 SFC VIS 3/4 SLP129 T02110211= 201708160751 METAR KEWR 160751Z 27006KT 5SM BR SCT006 BKN009 21/21 A2991 RMK AO2 SLP128 T02110211= 201708160851 METAR KEWR 160851Z 27004KT 6SM BR BKN006 21/21 A2992 RMK AO2 SLP130 T02110206 51004= 201708160951 METAR KEWR 160951Z VRB04KT 7SM BKN009 BKN100 21/20 A2994 RMK AO2 SLP137 T02110200= 201708161051 METAR KEWR 161051Z 31005KT 6SM BR FEW007 21/20 A2995 RMK AO2 SLP142 T02110200= 201708161151 METAR KEWR 161151Z 30004KT 7SM FEW007 FEW250 23/20 A2996 RMK AO2 SLP144 70018 T02280200 10228 20211 51014= 201708161251 METAR KEWR 161251Z 35011G16KT 7SM FEW007 FEW250 24/18 A2996 RMK AO2 SLP145 T02440178= 201708161351 METAR KEWR 161351Z 36010KT 10SM FEW250 26/17 A2996 RMK AO2 SLP146 T02610172= 201708161451 METAR KEWR 161451Z 36011KT 10SM BKN250 28/17 A2997 RMK AO2 SLP146 T02780167 51002= 201708161551 METAR KEWR 161551Z 30011G17KT 10SM FEW045 BKN250 29/17 A2996 RMK AO2 SLP146 T02940167= 201708161651 METAR KEWR 161651Z 32009G17KT 10SM FEW050 BKN250 28/16 A2995 RMK AO2 SLP141 T02780156= 201708161751 METAR KEWR 161751Z 02007G15KT 10SM SCT055 BKN250 29/17 A2995 RMK AO2 SLP141 T02890167 10306 20228 55005= 201708161851 METAR KEWR 161851Z 30010G20KT 10SM SCT055 BKN250 28/16 A2996 RMK AO2 SLP144 T02830156= 201708161951 METAR KEWR 161951Z 30011KT 10SM SCT060 BKN250 29/16 A2996 RMK AO2 SLP143 T02940161= 201708162051 METAR KEWR 162051Z 27013G19KT 10SM FEW060 SCT085 BKN250 29/16 A2995 RMK AO2 SLP142 T02890156 50001= 201708162151 METAR KEWR 162151Z 34010G19KT 10SM FEW060 FEW085 SCT260 29/14 A2995 RMK AO2 SLP140 T02890139= 201708162251 METAR KEWR 162251Z 29008KT 10SM FEW070 FEW260 29/15 A2995 RMK AO2 SLP142 T02940150= 201708162351 METAR KEWR 162351Z 29010G16KT 10SM FEW050 FEW090 28/14 A2997 RMK AO2 SLP148 T02780144 10306 20244 53006= 201708170051 METAR KEWR 170051Z 29005KT 10SM FEW060 27/14 A2998 RMK AO2 SLP152 T02670144= 201708170151 METAR KEWR 170151Z 31004KT 10SM FEW060 26/16 A2999 RMK AO2 SLP157 T02560161= 201708170251 METAR KEWR 170251Z 31006KT 10SM FEW070 24/16 A3000 RMK AO2 SLP160 T02440161 51012= 201708170351 METAR KEWR 170351Z 31005KT 10SM CLR 24/17 A3001 RMK AO2 SLP163 T02390167= 201708170451 METAR KEWR 170451Z 34009KT 10SM FEW250 23/16 A3001 RMK AO2 SLP163 T02330161 403060211= 201708170551 METAR KEWR 170551Z 01010KT 10SM SCT070 23/17 A3002 RMK AO2 SLP166 T02330167 10278 20217 51006= 201708170651 METAR KEWR 170651Z 01008KT 10SM BKN080 22/17 A3003 RMK AO2 SLP167 T02170172= 201708170751 METAR KEWR 170751Z 02009KT 10SM BKN080 20/16 A3002 RMK AO2 SLP164 T02000161= 201708170851 METAR KEWR 170851Z 02008KT 10SM BKN080 21/16 A3002 RMK AO2 SLP166 T02060156 53001= 201708170951 METAR KEWR 170951Z 01007KT 10SM BKN080 19/16 A3004 RMK AO2 SLP171 T01940156= 201708171051 METAR KEWR 171051Z 02007KT 10SM FEW060 BKN080 BKN250 20/14 A3005 RMK AO2 SLP176 T02000144= 201708171151 METAR KEWR 171151Z 02009KT 10SM FEW060 BKN080 BKN250 21/14 A3007 RMK AO2 SLP183 T02110144 10233 20189 53017= 201708171251 METAR KEWR 171251Z 03008KT 10SM FEW060 BKN080 BKN250 23/14 A3007 RMK AO2 SLP181 T02330144= 201708171351 METAR KEWR 171351Z VRB04KT 10SM FEW065 SCT080 BKN250 25/14 A3007 RMK AO2 SLP182 T02500144= 201708171451 METAR KEWR 171451Z VRB04KT 10SM FEW045 SCT080 SCT250 26/15 A3006 RMK AO2 SLP178 T02560150 58005 $= 201708171551 METAR KEWR 171551Z VRB05KT 10SM FEW050 SCT250 27/16 A3005 RMK AO2 SLP177 T02720156 $= 201708171651 METAR KEWR 171651Z VRB06KT 10SM FEW050 SCT250 26/16 A3005 RMK AO2 SLP174 T02610156 $= 201708171751 METAR KEWR 171751Z 18009KT 10SM FEW045 BKN250 26/16 A3003 RMK AO2 SLP167 T02610161 10272 20200 58011 $= 201708171851 METAR KEWR 171851Z 16007KT 10SM FEW040 BKN250 26/17 A3001 RMK AO2 SLP163 T02610172 $= 201708171951 METAR KEWR 171951Z 16008KT 10SM FEW040 BKN250 26/17 A3000 RMK AO2 SLP157 T02610172 $= 201708172051 METAR KEWR 172051Z 13008KT 10SM FEW045 BKN250 26/16 A2998 RMK AO2 SLP153 T02610161 56014 $= 201708172151 METAR KEWR 172151Z 15008KT 10SM FEW045 BKN250 26/17 A2998 RMK AO2 SLP150 T02560172 $= 201708172251 METAR KEWR 172251Z 15007KT 110V180 10SM FEW100 BKN250 24/19 A2997 RMK AO2 SLP150 T02390189 $= 201708172351 METAR KEWR 172351Z 14005KT 10SM FEW090 BKN250 24/20 A2997 RMK AO2 SLP149 T02390200 10267 20233 56004= 201708180051 METAR KEWR 180051Z 13007KT 10SM FEW010 BKN180 BKN250 23/21 A2997 RMK AO2 SLP149 T02330211= 201708180151 METAR KEWR 180151Z 14005KT 10SM BKN010 BKN180 BKN250 23/22 A2998 RMK AO2 SLP150 T02280217= 201708180251 METAR KEWR 180251Z 13006KT 9SM SCT010 BKN170 BKN250 23/22 A2998 RMK AO2 SLP151 T02280222 53002= 201708180351 METAR KEWR 180351Z 16004KT 7SM BKN009 OVC160 23/22 A2996 RMK AO2 SLP146 T02330222= 201708180451 METAR KEWR 180451Z 15005KT 7SM BKN009 BKN016 OVC050 23/23 A2994 RMK AO2 SLP138 T02330228 402720189= 201708180551 METAR KEWR 180551Z 16004KT 8SM SCT009 BKN014 BKN040 OVC160 23/23 A2992 RMK AO2 SLP132 T02330228 10239 20228 56019= 201708180651 METAR KEWR 180651Z 19008KT 10SM FEW009 FEW014 SCT025 BKN200 23/22 A2991 RMK AO2 SLP129 T02280222= 201708180751 METAR KEWR 180751Z 18005KT 10SM FEW025 SCT040 BKN200 OVC250 24/22 A2991 RMK AO2 SLP126 T02390217= 201708180851 METAR KEWR 180851Z 17005KT 10SM BKN050 OVC200 24/21 A2989 RMK AO2 SLP121 T02440211 58011= 201708180951 METAR KEWR 180951Z 20005KT 10SM BKN033 OVC110 24/21 A2989 RMK AO2 SLP121 T02440211= 201708181051 METAR KEWR 181051Z 16004KT 5SM RA SCT033CB BKN050 OVC110 24/21 A2988 RMK AO2 LTG DSNT W RAB28 SLP119 CB W MOV E P0000 T02440211= 201708181151 METAR KEWR 181151Z 32008KT 9SM -TSRA FEW009 BKN018 OVC034CB 24/22 A2988 RMK AO2 LTG DSNT NE AND SW TSB22 SLP119 OCNL LTGIC VC NE TS VC NE MOV NE CB DSNT SW MOV NE P0006 60006 70006 T02390217 10244 20228 58003 $= 201708181251 METAR KEWR 181251Z 00000KT 5SM -RA BR FEW008 SCT015CB BKN022 BKN200 23/22 A2987 RMK AO2 LTG DSNT NE AND E TSE03 SLP116 CB SE MOV NE P0021 T02330222 $= 201708181351 METAR KEWR 181351Z 00000KT 2SM R04R/4000VP6000FT -RA BR BKN006 OVC012 24/23 A2987 RMK AO2 TWR VIS 2 1/2 LTG DSNT E RAE14B30 SLP116 CIG 005V008 P0001 T02390228 $= 201708181451 METAR KEWR 181451Z 21003KT 2 1/2SM -RA BR BKN007 OVC011 24/23 A2987 RMK AO2 SFC VIS 3 RAE10B42 SLP116 CIG 006V009 P0001 60023 T02390233 56003 $= 201708181551 METAR KEWR 181551Z 18006KT 8SM OVC007 26/24 A2986 RMK AO2 RAE1452DZB1453E51 SLP110 CIG 006V008 P0000 T02560244 $= 201708181651 METAR KEWR 181651Z 19010KT 10SM FEW009 BKN016 OVC028 27/24 A2985 RMK AO2 SLP106 CIG 015V019 T02670244 $= 201708181751 METAR KEWR 181751Z 18007KT 6SM -RA BR FEW007 BKN015 OVC025 27/24 A2983 RMK AO2 RAB24 SLP102 P0000 60023 T02670244 10272 20228 56014 $= 201708181851 METAR KEWR 181851Z 19006KT 9SM FEW010 BKN015 BKN040 BKN250 28/25 A2981 RMK AO2 RAE10 SLP093 P0000 T02830250 $= 201708181951 METAR KEWR 181951Z 19008KT 10SM FEW010 SCT017 BKN025 BKN250 29/25 A2978 RMK AO2 RAB17E26 SLP083 P0000 T02890250 $= 201708182051 METAR KEWR 182051Z 16006KT 10SM FEW014 FEW025 SCT045 BKN170 BKN250 28/25 A2976 RMK AO2 SLP078 60000 T02830250 56024 $= 201708182151 METAR KEWR 182151Z 13006KT 9SM FEW012 BKN022 BKN045 BKN170 OVC250 28/24 A2978 RMK AO2 LTG DSNT SE AND W SLP085 CB DSNT SE MOV NE T02780244 $= 201708182251 METAR KEWR 182251Z 08004KT 8SM -TSRA FEW010 BKN022 BKN040CB BKN130 OVC220 27/25 A2978 RMK AO2 LTG DSNT ALQDS RAB25 TSB05 SLP085 FRQ LTGICCG OHD TS OHD MOV E P0000 T02720250 $= 201708182351 METAR KEWR 182351Z 20008KT 9SM -TSRA FEW010 SCT040CB BKN060 BKN130 BKN250 23/22 A2979 RMK AO2 WSHFT 2259 LTG DSNT N AND E AND S SLP088 FRQ LTGICCG OHD TS OHD MOV E P0039 60039 T02330217 10289 20233 51010 $= 201708190051 METAR KEWR 190051Z 23009KT 10SM FEW012 FEW045 SCT100 BKN140 BKN250 24/22 A2977 RMK AO2 RAE2356 TSE18 SLP079 CONS LTGICCC DSNT E-DSNT SE CB DSNT E-DSNT SE MOV E P0000 T02390217 $= 201708190151 METAR KEWR 190151Z 20009KT 10SM FEW040 SCT100 BKN140 BKN250 24/22 A2980 RMK AO2 SLP090 T02390222 $= 201708190251 METAR KEWR 190251Z 23007KT 10SM FEW040 BKN100 BKN140 BKN250 23/22 A2981 RMK AO2 SLP094 60000 T02330217 53005 $= 201708190351 METAR KEWR 190351Z 22006KT 10SM FEW015 BKN080 BKN200 23/22 A2982 RMK AO2 SLP096 T02330222 $= 201708190451 METAR KEWR 190451Z 23007KT 10SM FEW008 FEW015 SCT080 BKN130 OVC200 23/22 A2979 RMK AO2 SLP087 T02330222 402890228 $= 201708190551 METAR KEWR 190551Z 26007KT 10SM SCT008 BKN015 OVC080 23/22 A2979 RMK AO2 SLP087 60000 T02330222 10239 20233 58007 $= 201708190651 METAR KEWR 190651Z 23007KT 10SM BKN008 BKN014 BKN080 OVC250 23/22 A2978 RMK AO2 SLP084 T02330222 $= 201708190751 METAR KEWR 190751Z 24008KT 10SM BKN008 OVC250 23/22 A2978 RMK AO2 SLP083 T02330222 $= 201708190851 METAR KEWR 190851Z 26005KT 10SM BKN012 BKN020 BKN250 23/22 A2980 RMK AO2 SLP090 T02330222 53003 $= 201708190951 METAR KEWR 190951Z 22004KT 10SM FEW020 BKN250 23/22 A2981 RMK AO2 SLP094 T02330222 $= 201708191051 METAR KEWR 191051Z 25004KT 10SM FEW020 SCT200 BKN250 23/22 A2982 RMK AO2 SLP099 T02280222 $= 201708191151 METAR KEWR 191151Z VRB03KT 10SM FEW020 FEW100 SCT200 BKN250 25/22 A2983 RMK AO2 SLP100 70062 T02500222 10250 20228 51010 $= 201708191251 METAR KEWR 191251Z VRB05KT 10SM FEW100 SCT200 BKN250 27/21 A2984 RMK AO2 SLP104 T02720211 $= 201708191351 METAR KEWR 191351Z 29005KT 10SM FEW015 FEW100 SCT250 28/19 A2985 RMK AO2 SLP109 T02830189 $= 201708191451 METAR KEWR 191451Z 00000KT 10SM FEW045 FEW100 SCT250 29/18 A2986 RMK AO2 SLP110 T02940178 51010 $= 201708191551 METAR KEWR 191551Z 30009KT 10SM SCT050 SCT100 SCT250 29/17 A2986 RMK AO2 SLP112 T02890172 $= 201708191651 METAR KEWR 191651Z 25007KT 10SM SCT055 SCT100 SCT250 31/17 A2986 RMK AO2 SLP110 T03060167 $= 201708191751 METAR KEWR 191751Z VRB04G14KT 10SM SCT055 SCT100 SCT250 31/17 A2985 RMK AO2 SLP108 T03060172 10311 20250 58002 $= 201708191851 METAR KEWR 191851Z 25010G17KT 10SM SCT055 SCT100 SCT250 31/17 A2984 RMK AO2 SLP104 T03110172 $= 201708191951 METAR KEWR 191951Z 27011KT 10SM SCT050 SCT100 SCT250 31/17 A2984 RMK AO2 SLP104 T03060167 $= 201708192051 METAR KEWR 192051Z 28013G18KT 10SM SCT050 SCT100 SCT250 30/17 A2983 RMK AO2 SLP100 T03000172 56009 $= 201708192151 METAR KEWR 192151Z 28010KT 10SM FEW050 FEW130 FEW250 30/17 A2982 RMK AO2 SLP098 T03000172 $= 201708192251 METAR KEWR 192251Z 26010G16KT 10SM FEW050 FEW130 FEW250 29/17 A2983 RMK AO2 SLP100 T02940172 $= 201708192351 METAR KEWR 192351Z 26008KT 10SM FEW150 FEW250 29/17 A2984 RMK AO2 SLP106 T02890172 10317 20283 53006 $= 201708200051 METAR KEWR 200051Z 22007KT 10SM FEW150 FEW250 27/18 A2986 RMK AO2 SLP109 T02670183 $= 201708200151 METAR KEWR 200151Z 24008KT 10SM FEW050 SCT180 SCT250 27/18 A2988 RMK AO2 SLP118 T02670183 $= 201708200251 METAR KEWR 200251Z 27005KT 10SM FEW050 SCT180 SCT250 26/18 A2988 RMK AO2 SLP119 T02610183 51014 $= 201708200351 METAR KEWR 200351Z 24011KT 10SM FEW050 BKN130 BKN180 BKN250 26/18 A2989 RMK AO2 SLP122 T02610183 $= 201708200451 METAR KEWR 200451Z 25010KT 10SM SCT130 SCT250 25/18 A2990 RMK AO2 SLP125 T02500178 403170228 $= 201708200551 METAR KEWR 200551Z 26009KT 10SM FEW130 SCT250 23/17 A2991 RMK AO2 SLP128 T02330172 10289 20233 51009 $= 201708200651 METAR KEWR 200651Z 26010KT 10SM CLR 22/17 A2992 RMK AO2 SLP131 T02170167 $= 201708200751 METAR KEWR 200751Z 25006KT 10SM CLR 21/17 A2994 RMK AO2 SLP138 T02110167 $= 201708200851 METAR KEWR 200851Z 27005KT 10SM CLR 21/17 A2996 RMK AO2 SLP145 T02060167 53017 $= 201708200951 METAR KEWR 200951Z 26006KT 10SM CLR 20/16 A2999 RMK AO2 SLP155 T02000161 $= 201708201051 METAR KEWR 201051Z 29011KT 10SM FEW250 21/16 A3001 RMK AO2 SLP162 T02060161 $= 201708201151 METAR KEWR 201151Z 29008KT 10SM FEW250 22/16 A3003 RMK AO2 SLP169 T02170161 10233 20200 51024 $= 201708201251 METAR KEWR 201251Z 31011KT 10SM FEW250 23/16 A3004 RMK AO2 SLP172 T02280161 $= 201708201351 METAR KEWR 201351Z 30009KT 10SM FEW032 FEW250 24/16 A3005 RMK AO2 SLP174 T02440156 $= 201708201451 METAR KEWR 201451Z 31010KT 10SM FEW040 SCT250 26/14 A3006 RMK AO2 SLP178 T02610144 53009 $= 201708201551 METAR KEWR 201551Z 31011KT 10SM SCT050 BKN280 27/15 A3006 RMK AO2 SLP179 T02670150 $= 201708201651 METAR KEWR 201651Z 34011G18KT 10SM SCT050 BKN280 27/14 A3007 RMK AO2 SLP181 T02720144 $= 201708201751 METAR KEWR 201751Z 30011G19KT 10SM SCT050 BKN300 28/15 A3008 RMK AO2 SLP184 T02830150 10283 20217 53006 $= 201708201851 METAR KEWR 201851Z 30011G18KT 10SM SCT050 BKN300 28/14 A3007 RMK AO2 SLP182 T02830144 $= 201708201951 METAR KEWR 201951Z 30008G17KT 10SM SCT050 BKN280 29/14 A3006 RMK AO2 SLP178 T02890139 $= 201708202051 METAR KEWR 202051Z 29009G17KT 10SM FEW050 BKN280 29/14 A3006 RMK AO2 SLP180 T02940139 55005 $= 201708202151 METAR KEWR 202151Z 32012G16KT 10SM FEW050 BKN260 28/13 A3007 RMK AO2 SLP182 T02830133 $= 201708202251 METAR KEWR 202251Z 30008G17KT 10SM FEW050 SCT260 28/13 A3008 RMK AO2 SLP187 T02780133 $= 201708202351 METAR KEWR 202351Z 30006KT 10SM FEW050 FEW260 27/14 A3009 RMK AO2 SLP190 T02670144 10294 20267 53010 $= 201708210051 METAR KEWR 210051Z 28006KT 10SM FEW260 26/14 A3011 RMK AO2 SLP196 T02610144 $= 201708210151 METAR KEWR 210151Z 27003KT 10SM CLR 26/16 A3013 RMK AO2 SLP204 T02560156 $= 201708210251 METAR KEWR 210251Z 26006KT 10SM CLR 24/16 A3015 RMK AO2 SLP207 T02440156 51018 $= 201708210351 METAR KEWR 210351Z 26008KT 10SM CLR 24/16 A3016 RMK AO2 SLP213 T02390156 $= 201708210451 METAR KEWR 210451Z 26006KT 10SM CLR 23/16 A3016 RMK AO2 SLP212 T02330161 402940200 $= 201708210551 METAR KEWR 210551Z 00000KT 10SM CLR 22/16 A3017 RMK AO2 SLP215 T02170161 10267 20217 51008 $= 201708210651 METAR KEWR 210651Z 22004KT 10SM SCT250 20/16 A3016 RMK AO2 SLP213 T02000161 $= 201708210751 METAR KEWR 210751Z 00000KT 10SM SCT250 22/17 A3016 RMK AO2 SLP214 T02170172 $= 201708210851 METAR KEWR 210851Z 00000KT 10SM SCT250 21/17 A3017 RMK AO2 SLP216 T02110167 53001 $= 201708210951 METAR KEWR 210951Z 21004KT 10SM SCT250 20/17 A3019 RMK AO2 SLP221 T02000172 $= 201708211051 METAR KEWR 211051Z 23004KT 10SM SCT250 21/18 A3020 RMK AO2 SLP225 T02110178 $= 201708211151 METAR KEWR 211151Z 21003KT 10SM BKN250 22/18 A3020 RMK AO2 SLP227 T02220183 10222 20189 51011 $= 201708211251 METAR KEWR 211251Z 26005KT 10SM BKN250 25/18 A3020 RMK AO2 SLP226 T02500178 $= 201708211351 METAR KEWR 211351Z 26006KT 10SM BKN250 27/17 A3019 RMK AO2 SLP222 T02670172 $= 201708211451 METAR KEWR 211451Z 25010KT 10SM BKN250 28/17 A3020 RMK AO2 SLP225 T02830167 55002 $= 201708211551 METAR KEWR 211551Z 22007KT 190V250 10SM BKN250 29/17 A3019 RMK AO2 SLP221 T02940167= 201708211651 METAR KEWR 211651Z 23008KT 10SM SCT250 31/16 A3016 RMK AO2 SLP212 T03060161= 201708211751 METAR KEWR 211751Z 23007KT 10SM SCT050 BKN250 31/18 A3014 RMK AO2 SLP207 T03060178 10311 20222 58018= 201708211851 METAR KEWR 211851Z 24008KT 10SM SCT050 BKN250 29/17 A3013 RMK AO2 SLP202 T02940172= 201708211951 METAR KEWR 211951Z 21005KT 10SM SCT049 BKN250 29/18 A3012 RMK AO2 SLP200 T02940183= 201708212051 METAR KEWR 212051Z 18008KT 10SM SCT049 BKN060 29/18 A3011 RMK AO2 SLP196 T02890183 56011= 201708212151 METAR KEWR 212151Z 17008KT 10SM BKN049 BKN250 29/19 A3011 RMK AO2 SLP194 T02890194= 201708212251 METAR KEWR 212251Z 20011KT 10SM BKN250 28/19 A3009 RMK AO2 SLP188 T02830194= 201708212351 METAR KEWR 212351Z 20011KT 10SM BKN250 27/21 A3010 RMK AO2 SLP191 T02720206 10311 20272 55004= 201708220051 METAR KEWR 220051Z 21012KT 10SM FEW035 BKN250 27/21 A3011 RMK AO2 SLP196 CB DSNT NW MOV E T02670206= 201708220151 METAR KEWR 220151Z 21008KT 10SM FEW035 SCT250 26/21 A3011 RMK AO2 SLP195 T02610211= 201708220251 METAR KEWR 220251Z 19010KT 10SM SCT250 25/21 A3010 RMK AO2 SLP192 T02500211 50001 $= 201708220351 METAR KEWR 220351Z 21009KT 10SM SCT250 24/21 A3009 RMK AO2 SLP189 T02440211 $= 201708220451 METAR KEWR 220451Z 21007KT 10SM BKN250 24/21 A3008 RMK AO2 SLP186 T02390211 403110189 $= 201708220551 METAR KEWR 220551Z 22008KT 10SM SCT250 24/22 A3006 RMK AO2 SLP180 T02390217 10272 20239 58013 $= 201708220651 METAR KEWR 220651Z 21005KT 10SM FEW015 FEW100 SCT250 23/21 A3006 RMK AO2 SLP178 T02330211 $= 201708220751 METAR KEWR 220751Z 23007KT 10SM FEW015 FEW100 BKN250 23/22 A3004 RMK AO2 SLP172 T02330217 $= 201708220851 METAR KEWR 220851Z 21006KT 10SM FEW015 SCT100 BKN250 23/21 A3003 RMK AO2 SLP170 T02280211 58010 $= 201708220951 METAR KEWR 220951Z 21005KT 9SM FEW020 FEW100 BKN250 23/22 A3003 RMK AO2 SLP169 T02280217 $= 201708221051 METAR KEWR 221051Z 21005KT 8SM SCT010 SCT100 BKN250 23/22 A3003 RMK AO2 SLP168 T02330217 $= 201708221151 METAR KEWR 221151Z 22008KT 5SM BR OVC005 24/23 A3003 RMK AO2 SLP167 CIG 004V006 T02390228 10244 20228 56003 $= 201708221251 METAR KEWR 221251Z 23011KT 7SM BKN009 26/23 A3002 RMK AO2 SLP164 CIG 008V010 HAZE ALOFT VIS LWR NE-S T02610228 $= 201708221351 METAR KEWR 221351Z 23011G21KT 9SM OVC012 26/23 A3000 RMK AO2 SLP159 HAZE ALOFT VIS LWR NE-S T02610228= 201708221451 METAR KEWR 221451Z 24011G19KT 8SM BKN016 28/23 A2999 RMK AO2 SLP153 HAZE ALOFT VIS LWR NE-S T02780228 58014= 201708221551 METAR KEWR 221551Z 21007KT 8SM SCT022 SCT250 29/23 A2996 RMK AO2 SLP145 HAZE ALOFT T02940233= 201708221651 METAR KEWR 221651Z 19011G16KT 9SM FEW025 BKN250 31/24 A2994 RMK AO2 SLP136 T03060239= 201708221751 METAR KEWR 221751Z 18012G19KT 10SM SCT034 BKN250 31/23 A2991 RMK AO2 SLP129 T03060228 10311 20239 57025= 201708221851 METAR KEWR 221851Z 20010G20KT 10SM SCT040 BKN060 BKN250 32/22 A2987 RMK AO2 SLP115 T03170222= 201708221951 METAR KEWR 221951Z 21014G20KT 10SM SCT044 SCT060 32/22 A2983 RMK AO2 SLP101 T03220217= 201708222051 METAR KEWR 222051Z 20016G24KT 10SM SCT048 SCT250 32/21 A2981 RMK AO2 SLP093 T03220211 56035= 201708222151 METAR KEWR 222151Z 19014G21KT 10SM FEW050 SCT250 32/22 A2979 RMK AO2 PK WND 20026/2052 SLP086 T03220217 $= 201708222251 METAR KEWR 222251Z 20016KT 10SM FEW049 SCT250 31/22 A2978 RMK AO2 SLP083 T03110217 $= 201708222351 METAR KEWR 222351Z 20012G20KT 10SM FEW045 FEW140 BKN250 30/22 A2978 RMK AO2 PK WND 19029/2323 SLP082 CB DSNT NW MOV NE T03000217 10328 20300 56011 $= 201708230051 METAR KEWR 230051Z 19015G21KT 10SM FEW045 FEW140 BKN250 29/22 A2977 RMK AO2 SLP079 OCNL LTGIC DSNT W-DSNT NW CB DSNT W-DSNT NW MOV NE T02940217 $= 201708230151 METAR KEWR 230151Z 19011G20KT 10SM FEW050 FEW130 BKN250 28/21 A2975 RMK AO2 LTG DSNT W AND NW SLP073 CONS LTGIC DSNT SW-DSNT W CB DSNT SW-DSNT W MOV E T02830211 $= 201708230251 METAR KEWR 230251Z 21014G27KT 3SM -TSRA BR FEW032 BKN050CB BKN110 OVC230 23/21 A2980 RMK AO2 PK WND 24035/0239 SFC VIS 5 LTG DSNT SW-N RAB31 TSB21 SLP089 FRQ LTGICCG OHD TS OHD MOV E P0011 60011 T02330211 53007 $= 201708230351 METAR KEWR 230351Z 25013G24KT 1SM R04R/4500VP6000FT +TSRA BR SCT029 BKN050CB OVC110 23/22 A2981 RMK AO2 PK WND 24026/0333 LTG DSNT ALQDS SLP094 FRQ LTGICCG OHD TS OHD MOV E P0025 T02280217 $= 201708230451 METAR KEWR 230451Z 20007KT 5SM -RA BR FEW040 BKN080 OVC110 23/22 A2978 RMK AO2 LTG DSNT S TSE50 SLP085 OCNL LTGICCG DSNT SE CB DSNT SE MOV E P0034 T02280217 403280228 $= 201708230551 METAR KEWR 230551Z 21009KT 10SM FEW036 FEW045 BKN120 BKN220 23/22 A2977 RMK AO2 RAE09 SLP082 P0000 60070 T02280217 10306 20228 58007 $= 201708230651 METAR KEWR 230651Z 22008KT 10SM FEW017 SCT110 SCT230 23/22 A2976 RMK AO2 SLP076 T02280217 $= 201708230751 METAR KEWR 230751Z 22007KT 10SM BKN009 BKN110 23/22 A2975 RMK AO2 SLP075 T02330222 $= 201708230851 METAR KEWR 230851Z 22006KT 10SM SCT009 SCT046 BKN130 23/22 A2976 RMK AO2 RAB03E23 SLP076 P0000 60000 T02330222 55005 $= 201708230951 METAR KEWR 230951Z 24008KT 10SM FEW010 BKN110 BKN140 23/22 A2976 RMK AO2 SLP079 T02330222 $= 201708231051 METAR KEWR 231051Z 26007KT 10SM FEW010 BKN110 BKN140 23/22 A2978 RMK AO2 SLP084 T02330222 $= 201708231151 METAR KEWR 231151Z 27006KT 10SM FEW010 BKN090 BKN140 BKN250 24/22 A2980 RMK AO2 SLP091 60000 70070 T02390222 10239 20228 53014 $= 201708231251 METAR KEWR 231251Z 29009KT 10SM FEW021 BKN090 BKN140 BKN250 23/18 A2982 RMK AO2 SLP098 T02280183 $= 201708231351 METAR KEWR 231351Z 34008KT 10SM FEW100 FEW140 SCT250 25/18 A2983 RMK AO2 SLP102 T02500178 $= 201708231451 METAR KEWR 231451Z 32011G19KT 10SM FEW150 SCT200 BKN250 26/12 A2985 RMK AO2 SLP106 T02610117 51016 $= 201708231551 METAR KEWR 231551Z 31011KT 280V350 10SM SCT150 BKN200 BKN250 27/12 A2984 RMK AO2 SLP106 T02670122 $= 201708231651 METAR KEWR 231651Z 29007KT 230V350 10SM SCT150 BKN200 BKN250 27/13 A2984 RMK AO2 SLP104 T02670128 $= 201708231751 METAR KEWR 231751Z 27014G21KT 10SM FEW080 SCT150 BKN200 BKN250 28/12 A2984 RMK AO2 SLP104 T02830117 10283 20228 56002 $= 201708231851 METAR KEWR 231851Z 27013KT 10SM FEW070 SCT150 BKN200 27/11 A2983 RMK AO2 SLP101 T02720111 $= 201708231951 METAR KEWR 231951Z 31008KT 10SM FEW070 SCT150 BKN200 BKN260 27/12 A2983 RMK AO2 SLP101 T02720117 $= 201708232051 METAR KEWR 232051Z 29009KT 10SM FEW070 FEW150 SCT200 SCT260 27/12 A2982 RMK AO2 SLP099 T02720117 56005 $= 201708232151 METAR KEWR 232151Z 32012KT 10SM FEW070 SCT150 SCT250 27/11 A2983 RMK AO2 SLP100 T02720106 $= 201708232251 METAR KEWR 232251Z 28009KT 10SM FEW070 FEW150 SCT250 27/11 A2983 RMK AO2 SLP100 T02670111 $= 201708232351 METAR KEWR 232351Z 27006KT 10SM BKN065 BKN250 26/12 A2985 RMK AO2 SLP106 T02560122 10283 20256 53007 $= 201708240051 METAR KEWR 240051Z 34006KT 10SM SCT065 BKN250 25/11 A2987 RMK AO2 SLP113 T02500111 $= 201708240151 METAR KEWR 240151Z 35008KT 10SM FEW065 SCT250 24/11 A2986 RMK AO2 SLP111 T02440106 $= 201708240251 METAR KEWR 240251Z 34006KT 10SM FEW250 23/11 A2986 RMK AO2 SLP113 T02330111 51006 $= 201708240351 METAR KEWR 240351Z 28003KT 10SM FEW250 22/12 A2988 RMK AO2 SLP116 T02220117 $= 201708240451 METAR KEWR 240451Z 00000KT 10SM CLR 22/12 A2988 RMK AO2 SLP118 T02170122 402830217 $= 201708240551 METAR KEWR 240551Z 24003KT 10SM CLR 21/13 A2988 RMK AO2 SLP116 T02060133 10256 20206 50004 $= 201708240651 METAR KEWR 240651Z 00000KT 10SM CLR 20/13 A2987 RMK AO2 SLP116 T02000133 $= 201708240751 METAR KEWR 240751Z 31005KT 10SM CLR 19/14 A2988 RMK AO2 SLP118 T01940139 $= 201708240851 METAR KEWR 240851Z 34007KT 10SM CLR 20/13 A2989 RMK AO2 SLP123 T02000128 53006 $= 201708240951 METAR KEWR 240951Z 34009KT 10SM FEW080 19/12 A2991 RMK AO2 SLP126 T01940122 $= 201708241051 METAR KEWR 241051Z 32013KT 10SM FEW080 19/12 A2993 RMK AO2 SLP134 T01940122 $= 201708241151 METAR KEWR 241151Z 33007KT 10SM FEW080 21/12 A2994 RMK AO2 SLP139 T02110122 10211 20189 53016 $= 201708241251 METAR KEWR 241251Z 01007KT 10SM FEW080 FEW250 22/13 A2995 RMK AO2 SLP141 T02170128 $= 201708241351 METAR KEWR 241351Z 35007KT 10SM FEW080 FEW250 23/12 A2995 RMK AO2 SLP141 T02330122= 201708241451 METAR KEWR 241451Z 10SM FEW050 FEW080 FEW250 24/12 A2994 RMK AO2 SLP139 T02440117 50001= 201708241551 METAR KEWR 241551Z VRB03KT 10SM FEW055 FEW080 SCT250 26/11 A2994 RMK AO2 SLP139 T02560106= 201708241651 METAR KEWR 241651Z VRB03G14KT 10SM FEW060 SCT250 25/10 A2993 RMK AO2 SLP135 T02500100= 201708241751 METAR KEWR 241751Z 35004KT 10SM SCT060 SCT250 27/09 A2992 RMK AO2 SLP130 T02720089 10272 20211 58009= 201708241851 METAR KEWR 241851Z 26011G17KT 10SM SCT060 SCT250 27/10 A2992 RMK AO2 SLP131 T02720100= 201708241951 METAR KEWR 241951Z 31010G17KT 10SM SCT070 27/09 A2992 RMK AO2 SLP130 T02720094= 201708242051 METAR KEWR 242051Z 32011G17KT 10SM SCT070 26/09 A2992 RMK AO2 SLP132 T02560089 53002= 201708242151 METAR KEWR 242151Z 31011KT 10SM SCT070 26/08 A2993 RMK AO2 SLP133 T02560083= 201708242251 METAR KEWR 242251Z 30012G23KT 10SM FEW070 25/09 A2993 RMK AO2 SLP135 T02500089= 201708242351 METAR KEWR 242351Z 34010KT 10SM FEW070 24/09 A2994 RMK AO2 SLP138 T02390089 10272 20239 53006= 201708250051 METAR KEWR 250051Z 34006KT 10SM FEW070 23/09 A2996 RMK AO2 SLP143 T02330089= 201708250151 METAR KEWR 250151Z 30005KT 10SM FEW070 22/09 A2996 RMK AO2 SLP145 T02220094= 201708250251 METAR KEWR 250251Z 28005KT 10SM FEW070 21/10 A2996 RMK AO2 SLP145 T02110100 51007= 201708250351 METAR KEWR 250351Z 32004KT 10SM SCT070 21/11 A2998 RMK AO2 SLP152 T02060106= 201708250451 METAR KEWR 250451Z 01009KT 10SM SCT070 19/12 A2999 RMK AO2 SLP156 T01940117 402720189= 201708250551 METAR KEWR 250551Z 02007KT 10SM FEW070 18/12 A3000 RMK AO2 SLP158 T01830122 10239 20183 51012= 201708250651 METAR KEWR 250651Z 35009KT 10SM FEW070 19/12 A3002 RMK AO2 SLP164 T01940117= 201708250751 METAR KEWR 250751Z 35009KT 10SM FEW100 19/12 A3002 RMK AO2 SLP165 T01890122= 201708250851 METAR KEWR 250851Z 34005KT 10SM FEW100 BKN150 18/12 A3004 RMK AO2 SLP171 T01830122 51013= 201708250951 METAR KEWR 250951Z 01004KT 10SM FEW100 SCT130 BKN160 17/12 A3005 RMK AO2 SLP176 T01670122= 201708251051 METAR KEWR 251051Z 35007KT 10SM FEW100 SCT130 SCT160 BKN200 18/12 A3007 RMK AO2 SLP182 T01780122= 201708251151 METAR KEWR 251151Z 35007KT 10SM FEW130 SCT160 BKN200 19/12 A3008 RMK AO2 SLP185 T01890122 10194 20161 51014= 201708251251 METAR KEWR 251251Z 03008KT 10SM FEW130 FEW150 FEW250 21/13 A3009 RMK AO2 SLP190 T02060128= 201708251351 METAR KEWR 251351Z VRB06KT 10SM FEW035 FEW120 22/12 A3010 RMK AO2 SLP192 T02220122= 201708251451 METAR KEWR 251451Z 03003KT 10SM FEW045 23/12 A3010 RMK AO2 SLP191 T02330117 50006= 201708251551 METAR KEWR 251551Z 35006KT 10SM SCT050 25/11 A3010 RMK AO2 SLP191 T02500111= 201708251651 METAR KEWR 251651Z 00000KT 10SM SCT050 SCT130 24/11 A3009 RMK AO2 SLP190 T02440106= 201708251751 METAR KEWR 251751Z 32009G14KT 10SM SCT055 BKN075 26/12 A3009 RMK AO2 SLP190 T02610117 10261 20194 55001= 201708251851 METAR KEWR 251851Z 31006KT 10SM SCT065 BKN080 24/10 A3009 RMK AO2 SLP189 T02440100= 201708251951 METAR KEWR 251951Z 26008KT 10SM SCT060 BKN090 26/10 A3009 RMK AO2 SLP190 T02560100= 201708252051 METAR KEWR 252051Z 30012G21KT 10SM SCT060 BKN095 24/10 A3011 RMK AO2 SLP195 T02440100 53005= 201708252151 METAR KEWR 252151Z 29009KT 10SM FEW060 BKN085 24/11 A3013 RMK AO2 SLP201 T02390111= 201708252251 METAR KEWR 252251Z 28007G18KT 260V330 10SM SCT090 BKN110 24/11 A3013 RMK AO2 SLP201 T02390106= 201708252351 METAR KEWR 252351Z VRB06KT 10SM SCT095 BKN250 23/12 A3014 RMK AO2 SLP207 T02330117 10261 20233 53012= 201708260051 METAR KEWR 260051Z 26005KT 10SM SCT095 BKN250 23/12 A3016 RMK AO2 SLP212 T02280122= 201708260151 METAR KEWR 260151Z 30006KT 10SM SCT090 22/12 A3017 RMK AO2 SLP216 T02170122= 201708260251 METAR KEWR 260251Z 30006KT 10SM BKN100 21/11 A3018 RMK AO2 SLP220 T02110111 51013= 201708260351 METAR KEWR 260351Z 34008KT 10SM FEW100 21/12 A3019 RMK AO2 SLP223 T02060117= 201708260451 METAR KEWR 260451Z 01010KT 10SM CLR 19/12 A3020 RMK AO2 SLP226 T01940122 402610161= 201708260551 METAR KEWR 260551Z 01008KT 10SM FEW100 18/12 A3021 RMK AO2 SLP228 T01830117 10233 20183 51007= 201708260651 METAR KEWR 260651Z 01009KT 10SM CLR 17/12 A3021 RMK AO2 SLP231 T01720117= 201708260751 METAR KEWR 260751Z 36008KT 10SM CLR 18/11 A3022 RMK AO2 SLP234 T01780106= 201708260851 METAR KEWR 260851Z 36006KT 10SM CLR 17/11 A3023 RMK AO2 SLP236 T01720106 51008= 201708260951 METAR KEWR 260951Z 03006KT 10SM FEW100 16/12 A3025 RMK AO2 SLP241 T01610117= 201708261051 METAR KEWR 261051Z 03006KT 10SM FEW100 16/12 A3026 RMK AO2 SLP247 T01610117= 201708261151 METAR KEWR 261151Z 01007KT 10SM FEW100 18/12 A3026 RMK AO2 SLP247 T01780117 10183 20150 51011= 201708261251 METAR KEWR 261251Z 01010KT 10SM FEW100 19/11 A3026 RMK AO2 SLP246 T01940106= 201708261351 METAR KEWR 261351Z 02008KT 10SM CLR 21/11 A3027 RMK AO2 SLP250 T02060111= 201708261451 METAR KEWR 261451Z 02007KT 10SM FEW048 22/09 A3028 RMK AO2 SLP251 T02220094 53004= 201708261551 METAR KEWR 261551Z 04008KT 10SM FEW050 23/08 A3026 RMK AO2 SLP247 T02330083= 201708261651 METAR KEWR 261651Z 00000KT 10SM FEW060 24/07 A3025 RMK SLP243 T02390072= 201708261751 METAR KEWR 261751Z VRB03KT 10SM FEW060 24/06 A3024 RMK SLP240 T02440061 10256 20178 56011= 201708261851 METAR KEWR 261851Z VRB03KT 10SM FEW065 25/06 A3022 RMK SLP234 T02500056= 201708261951 METAR KEWR 261951Z VRB03KT 10SM FEW070 25/06 A3021 RMK SLP231 T02500061= 201708262051 METAR KEWR 262051Z VRB05KT 10SM FEW070 26/07 A3021 RMK SLP230 T02610072 56010= 201708262151 METAR KEWR 262151Z 03007KT 10SM FEW075 24/08 A3021 RMK SLP230 T02440078= 201708262251 METAR KEWR 262251Z 04006KT 10SM FEW070 24/08 A3021 RMK SLP231 T02390083= 201708262351 METAR KEWR 262351Z 03008KT 10SM FEW065 21/08 A3023 RMK SLP235 T02110083 10261 20211 53005= 201708270051 METAR KEWR 270051Z 04006KT 10SM FEW065 22/08 A3024 RMK SLP239 T02170078= 201708270151 METAR KEWR 270151Z 04004KT 10SM FEW060 21/08 A3025 RMK SLP241 T02170083= 201708270251 METAR KEWR 270251Z 00000KT 10SM CLR 21/11 A3025 RMK AO2 SLP244 T02110106 51009= 201708270351 METAR KEWR 270351Z 00000KT 10SM CLR 21/13 A3025 RMK AO2 SLP244 T02060128= 201708270451 METAR KEWR 270451Z 33003KT 10SM CLR 19/10 A3026 RMK AO2 SLP246 T01890100 402610150= 201708270551 METAR KEWR 270551Z 02007KT 10SM CLR 16/10 A3025 RMK AO2 SLP243 T01610100 10222 20161 58001= 201708270651 METAR KEWR 270651Z 01005KT 10SM CLR 16/11 A3025 RMK AO2 SLP241 T01610111= 201708270751 METAR KEWR 270751Z 36007KT 10SM CLR 16/12 A3025 RMK AO2 SLP243 T01610117= 201708270851 METAR KEWR 270851Z 02004KT 10SM FEW055 16/12 A3025 RMK AO2 SLP243 T01610117 53000= 201708270951 METAR KEWR 270951Z 01005KT 10SM SCT050 15/11 A3026 RMK AO2 SLP245 T01500111= 201708271051 METAR KEWR 271051Z 02007KT 10SM FEW050 FEW065 BKN250 16/12 A3027 RMK AO2 SLP249 T01560117= 201708271151 METAR KEWR 271151Z 01010KT 10SM BKN250 18/11 A3026 RMK AO2 SLP248 T01780111 10178 20150 50005= 201708271251 METAR KEWR 271251Z 36012KT 10SM BKN250 19/11 A3027 RMK AO2 SLP250 T01940111= 201708271351 METAR KEWR 271351Z 01006KT 10SM BKN250 21/11 A3028 RMK AO2 SLP253 T02060111= 201708271451 METAR KEWR 271451Z 05006KT 10SM BKN250 23/11 A3028 RMK AO2 SLP253 T02280111 50005= 201708271551 METAR KEWR 271551Z 10006KT 10SM FEW040 BKN250 24/09 A3027 RMK AO2 SLP250 T02390089= 201708271651 METAR KEWR 271651Z 05006G15KT 10SM SCT050 BKN250 25/08 A3026 RMK AO2 SLP246 T02500078= 201708271751 METAR KEWR 271751Z 05007G17KT 10SM SCT060 BKN250 26/08 A3025 RMK AO2 SLP241 T02560083 10256 20178 58011= 201708271851 METAR KEWR 271851Z VRB06KT 10SM FEW070 BKN250 25/08 A3022 RMK AO2 SLP234 T02500083= 201708271951 METAR KEWR 271951Z 09008KT 10SM FEW070 FEW200 BKN250 24/08 A3021 RMK AO2 SLP230 T02440083= 201708272051 METAR KEWR 272051Z 18009KT 10SM FEW060 SCT200 BKN250 24/11 A3021 RMK AO2 SLP229 T02390106 56013= 201708272151 METAR KEWR 272151Z 17008KT 10SM FEW060 SCT200 BKN250 23/12 A3022 RMK AO2 SLP234 T02280117= 201708272251 METAR KEWR 272251Z 13007KT 10SM FEW050 SCT200 BKN250 22/12 A3023 RMK AO2 SLP236 T02220117= 201708272351 METAR KEWR 272351Z 13006KT 10SM FEW040 FEW200 BKN250 22/12 A3023 RMK AO2 SLP237 T02170117 10256 20217 51008= 201708280051 METAR KEWR 280051Z 15004KT 10SM FEW040 FEW200 BKN250 22/13 A3024 RMK AO2 SLP240 T02170128= 201708280151 METAR KEWR 280151Z 11005KT 10SM BKN250 22/12 A3024 RMK AO2 SLP241 T02170122= 201708280251 METAR KEWR 280251Z 09005KT 10SM BKN250 21/13 A3026 RMK AO2 SLP245 T02110128 53008= 201708280351 METAR KEWR 280351Z 07006KT 10SM BKN250 21/12 A3026 RMK AO2 SLP245 T02110122= 201708280451 METAR KEWR 280451Z 08007KT 10SM BKN250 21/12 A3026 RMK AO2 SLP246 T02110122 402560150= 201708280551 METAR KEWR 280551Z 09007KT 10SM BKN250 21/13 A3024 RMK AO2 SLP240 T02060128 10217 20206 58006= 201708280651 METAR KEWR 280651Z VRB05KT 10SM BKN250 20/13 A3023 RMK AO2 SLP237 T02000133= 201708280751 METAR KEWR 280751Z VRB04KT 10SM BKN250 19/13 A3024 RMK AO2 SLP238 T01940133= 201708280851 METAR KEWR 280851Z 02007KT 10SM SCT250 16/13 A3024 RMK AO2 SLP240 T01610128 55000= 201708280951 METAR KEWR 280951Z 01007KT 10SM SCT250 16/13 A3026 RMK AO2 SLP244 T01560133= 201708281051 METAR KEWR 281051Z 01006KT 10SM FEW040 BKN250 17/13 A3029 RMK AO2 SLP255 T01670133= 201708281151 METAR KEWR 281151Z 02008KT 10SM FEW040 BKN250 18/14 A3031 RMK AO2 SLP262 T01830144 10206 20156 53022= 201708281251 METAR KEWR 281251Z 02008KT 10SM FEW040 FEW150 BKN250 20/14 A3030 RMK AO2 SLP261 T02000144= 201708281351 METAR KEWR 281351Z 06010G15KT 10SM FEW040 FEW150 BKN250 22/11 A3030 RMK AO2 SLP260 T02220106= 201708281451 METAR KEWR 281451Z 05010KT 10SM FEW045 FEW150 BKN250 23/11 A3030 RMK AO2 SLP259 T02330106 58003= 201708281551 METAR KEWR 281551Z 06010KT 10SM FEW045 BKN250 23/11 A3029 RMK AO2 SLP255 T02330111= 201708281651 METAR KEWR 281651Z 06010KT 10SM FEW045 BKN250 24/10 A3028 RMK AO2 SLP254 T02390100= 201708281751 METAR KEWR 281751Z 04007KT 10SM FEW050 BKN250 24/09 A3027 RMK AO2 SLP251 T02440094 10244 20183 56007= 201708281851 METAR KEWR 281851Z 08009KT 050V120 10SM SCT060 BKN250 23/09 A3026 RMK AO2 SLP247 T02330094= 201708281951 METAR KEWR 281951Z VRB06KT 10SM SCT060 BKN250 23/09 A3026 RMK AO2 SLP246 T02330094= 201708282051 METAR KEWR 282051Z 12007G15KT 10SM SCT055 BKN250 23/11 A3025 RMK AO2 SLP243 T02330106 56008= 201708282151 METAR KEWR 282151Z 13008KT 10SM SCT050 BKN250 23/12 A3026 RMK AO2 SLP248 T02280117= 201708282251 METAR KEWR 282251Z 11009KT 10SM FEW050 BKN250 22/10 A3027 RMK AO2 SLP251 T02220100= 201708282351 METAR KEWR 282351Z 13008KT 10SM FEW045 BKN250 21/10 A3027 RMK AO2 SLP248 T02110100 10244 20211 50005= 201708290051 METAR KEWR 290051Z 12009KT 10SM FEW045 BKN250 21/13 A3027 RMK AO2 SLP250 T02060128= 201708290151 METAR KEWR 290151Z 09009G15KT 10SM FEW040 BKN250 21/13 A3026 RMK AO2 SLP245 T02060128= 201708290251 METAR KEWR 290251Z 08007KT 10SM FEW040 OVC250 20/12 A3026 RMK AO2 SLP245 T02000122 58003= 201708290351 METAR KEWR 290351Z 06006KT 10SM FEW040 OVC250 20/12 A3025 RMK AO2 SLP244 T02000122= 201708290451 METAR KEWR 290451Z 08009KT 10SM FEW040 OVC250 20/12 A3026 RMK AO2 SLP245 T02000122 402440156= 201708290551 METAR KEWR 290551Z 06009KT 10SM OVC240 19/13 A3024 RMK AO2 SLP238 T01940128 10211 20194 58007= 201708290651 METAR KEWR 290651Z 06007KT 10SM FEW035 OVC210 19/13 A3021 RMK AO2 SLP229 T01940128= 201708290751 METAR KEWR 290751Z 06009KT 10SM FEW035 OVC200 19/13 A3021 RMK AO2 SLP229 T01940128= 201708290851 METAR KEWR 290851Z 06008KT 10SM FEW035 FEW100 OVC190 19/13 A3021 RMK AO2 SLP230 T01890128 55007= 201708290951 METAR KEWR 290951Z 06007KT 10SM FEW035 FEW100 OVC170 19/13 A3020 RMK AO2 SLP226 T01940133= 201708291051 METAR KEWR 291051Z 04009KT 10SM SCT044 OVC160 19/13 A3021 RMK AO2 SLP229 T01940133= 201708291151 METAR KEWR 291151Z 04010KT 10SM FEW025 BKN043 OVC160 19/13 A3021 RMK AO2 SLP230 T01940133 10194 20189 55000= 201708291251 METAR KEWR 291251Z 06006KT 10SM FEW025 BKN045 OVC160 19/14 A3020 RMK AO2 SLP227 T01940139= 201708291351 METAR KEWR 291351Z 06013G17KT 10SM FEW025 BKN044 BKN055 OVC140 20/14 A3019 RMK AO2 SLP224 T02000139= 201708291451 METAR KEWR 291451Z 05012G17KT 10SM SCT025 OVC047 20/14 A3020 RMK AO2 SLP225 T02000144 55006= 201708291551 METAR KEWR 291551Z 08008KT 10SM SCT023 OVC048 20/13 A3019 RMK AO2 SLP221 T02000133= 201708291651 METAR KEWR 291651Z 05009KT 10SM -RA SCT023 BKN049 OVC065 21/14 A3017 RMK AO2 RAB1552 SLP216 P0000 T02060139= 201708291751 METAR KEWR 291751Z 05010KT 9SM -RA FEW025 SCT055 BKN100 OVC130 19/14 A3017 RMK AO2 SLP214 P0001 60001 T01940144 10206 20194 56010= 201708291851 METAR KEWR 291851Z 04012KT 7SM -RA FEW020 SCT050 OVC110 18/16 A3013 RMK AO2 SLP204 P0003 T01830156= 201708291951 METAR KEWR 291951Z 05009KT 8SM -RA FEW020 FEW080 BKN110 OVC140 19/16 A3012 RMK AO2 SLP199 P0006 T01890161= 201708292051 METAR KEWR 292051Z 05009KT 7SM -RA FEW017 SCT080 BKN110 OVC130 18/16 A3010 RMK AO2 SLP191 P0006 60015 T01830156 56024 $= 201708292151 METAR KEWR 292151Z 03011KT 10SM -RA FEW017 FEW080 BKN130 OVC200 18/15 A3010 RMK AO2 SLP191 P0002 T01780150 $= 201708292251 METAR KEWR 292251Z 05011G19KT 10SM -RA SCT020 BKN050 BKN120 OVC200 18/15 A3006 RMK AO2 SLP180 P0000 T01830150 $= 201708292351 METAR KEWR 292351Z 06014G18KT 10SM -RA SCT025 BKN100 BKN120 OVC200 18/14 A3005 RMK AO2 SLP176 P0000 60017 T01830144 10194 20178 58014 $= 201708300051 METAR KEWR 300051Z 05011KT 8SM -RA BKN021 BKN050 OVC120 18/15 A3004 RMK AO2 SLP172 P0004 T01780150 $= 201708300151 METAR KEWR 300151Z 36010KT 10SM -RA BKN021 BKN070 OVC120 17/15 A3004 RMK AO2 SLP173 P0004 T01720150 $= 201708300251 METAR KEWR 300251Z 03015KT 10SM -RA BKN017 OVC025 17/14 A3001 RMK AO2 PRESFR SLP160 P0001 60009 T01670144 58016 $= 201708300351 METAR KEWR 300351Z 02013KT 10SM -RA BKN018 OVC024 16/14 A3003 RMK AO2 PRESRR SLP168 P0001 T01610144 $= 201708300451 METAR KEWR 300451Z 02012KT 10SM -RA BKN013 OVC019 16/15 A3000 RMK AO2 SLP157 P0002 T01610150 402060161 $= 201708300551 METAR KEWR 300551Z 01010KT 10SM BKN014 OVC030 16/15 A2997 RMK AO2 RAE17 SLP149 P0000 60012 T01610150 10183 20156 58011 $= 201708300651 METAR KEWR 300651Z 02010KT 10SM BKN016 OVC026 16/15 A2995 RMK AO2 SLP142 T01610150 $= 201708300751 METAR KEWR 300751Z 02013KT 10SM BKN018 BKN028 OVC046 17/14 A2994 RMK AO2 SLP138 T01670144 $= 201708300851 METAR KEWR 300851Z 01012KT 10SM BKN018 BKN026 OVC050 16/14 A2994 RMK AO2 SLP137 T01610139 58005 $= 201708300951 METAR KEWR 300951Z 01009KT 10SM SCT018 BKN045 OVC060 16/13 A2994 RMK AO2 SLP139 T01610133 $= 201708301051 METAR KEWR 301051Z 36011KT 10SM FEW018 BKN060 BKN090 17/13 A2996 RMK AO2 SLP145 T01670128 $= 201708301151 METAR KEWR 301151Z 34009KT 10SM FEW018 FEW070 BKN095 17/13 A2998 RMK AO2 SLP150 70030 T01720128 10172 20161 53012 $= 201708301251 METAR KEWR 301251Z 36012KT 10SM FEW023 FEW080 SCT100 19/12 A2998 RMK AO2 SLP151 T01890122 $= 201708301351 METAR KEWR 301351Z 36013G21KT 10SM FEW035 21/11 A2998 RMK AO2 SLP152 T02060106 $= 201708301451 METAR KEWR 301451Z 36009KT 10SM FEW040 22/11 A2998 RMK AO2 SLP150 T02170111 50000= 201708301551 METAR KEWR 301551Z 33013G20KT 10SM SCT042 23/11 A2998 RMK AO2 SLP151 T02330111= 201708301651 METAR KEWR 301651Z 01010KT 10SM SCT047 24/11 A2997 RMK AO2 SLP147 T02390106= 201708301751 METAR KEWR 301751Z 27004KT 10SM FEW050 25/11 A2995 RMK AO2 SLP141 T02500106 10250 20178 58010= 201708301851 METAR KEWR 301851Z 28005KT 10SM FEW055 26/11 A2994 RMK AO2 SLP136 T02610106= 201708301951 METAR KEWR 301951Z 35004KT 10SM FEW055 26/12 A2992 RMK AO2 SLP132 T02610117= 201708302051 METAR KEWR 302051Z 28008KT 10SM SCT055 26/12 A2992 RMK AO2 SLP132 T02610122 55008= 201708302151 METAR KEWR 302151Z 26010KT 10SM SCT055 SCT250 26/12 A2992 RMK AO2 SLP132 T02560122= 201708302251 METAR KEWR 302251Z 27011KT 10SM FEW055 SCT250 25/12 A2992 RMK AO2 SLP132 T02500122= 201708302351 METAR KEWR 302351Z 25010KT 10SM FEW050 FEW250 24/13 A2993 RMK AO2 SLP134 T02390133 10267 20239 53001= 201708310051 METAR KEWR 310051Z 24009KT 10SM FEW250 23/14 A2994 RMK AO2 SLP136 T02280139= 201708310151 METAR KEWR 310151Z 25011KT 10SM FEW250 22/14 A2994 RMK AO2 SLP139 T02170144= 201708310251 METAR KEWR 310251Z 26010KT 10SM FEW250 21/14 A2994 RMK AO2 SLP138 T02110144 50005= 201708310351 METAR KEWR 310351Z 24007KT 10SM CLR 21/14 A2993 RMK AO2 SLP135 T02060144= 201708310451 METAR KEWR 310451Z 25008KT 10SM FEW250 20/14 A2993 RMK AO2 SLP133 T02000144 402670156= 201708310551 METAR KEWR 310551Z 24009KT 10SM FEW250 19/14 A2992 RMK AO2 SLP131 T01940144 10239 20189 56008= 201708310651 METAR KEWR 310651Z 24009KT 10SM FEW250 19/14 A2991 RMK AO2 SLP129 T01890144= 201708310751 METAR KEWR 310751Z 23009KT 10SM FEW250 18/14 A2992 RMK AO2 SLP130 T01780144= 201708310851 METAR KEWR 310851Z 23005KT 10SM FEW200 SCT250 17/14 A2992 RMK AO2 SLP130 T01720144 55000= 201708310951 METAR KEWR 310951Z 21006KT 10SM SCT250 16/14 A2993 RMK AO2 SLP134 T01610144= 201708311051 METAR KEWR 311051Z 24007KT 10SM SCT250 17/15 A2994 RMK AO2 SLP138 T01720150= 201708311151 METAR KEWR 311151Z 25004KT 10SM SCT250 19/15 A2995 RMK AO2 SLP140 T01890150 10194 20161 51010= 201708311251 METAR KEWR 311251Z 26006KT 10SM SCT250 21/16 A2994 RMK AO2 SLP139 T02110156= 201708311351 METAR KEWR 311351Z 28008KT 10SM SCT250 24/15 A2994 RMK AO2 SLP136 T02390150= 201708311451 METAR KEWR 311451Z 25007KT 10SM FEW035 SCT250 24/16 A2993 RMK AO2 SLP135 T02440161 58005= 201708311551 METAR KEWR 311551Z 32008KT 10SM SCT040 BKN250 27/16 A2991 RMK AO2 SLP128 T02670161= 201708311651 METAR KEWR 311651Z 27013G18KT 10SM SCT045 BKN250 27/15 A2989 RMK AO2 SLP122 T02720150= 201708311751 METAR KEWR 311751Z VRB06G19KT 10SM SCT049 BKN090 BKN250 28/16 A2989 RMK AO2 SLP120 T02830156 10289 20178 56014= 201708311851 METAR KEWR 311851Z 32014KT 10SM SCT060 BKN075 BKN100 BKN250 27/14 A2987 RMK AO2 SLP116 T02670144= 201708311951 METAR KEWR 311951Z 31011KT 10SM -RA FEW013 SCT050 BKN080 23/17 A2989 RMK AO2 PK WND 30029/1913 RAB1856 SLP121 P0003 T02280172= 201708312051 METAR KEWR 312051Z 33015KT 10SM FEW050 SCT080 BKN110 BKN250 23/15 A2990 RMK AO2 RAE1957 SLP125 P0000 60003 T02330150 53004= 201708312151 METAR KEWR 312151Z 33013KT 10SM FEW045 FEW075 SCT110 BKN250 25/14 A2990 RMK AO2 SLP125 T02500139= 201708312251 METAR KEWR 312251Z 34012KT 10SM FEW045 SCT110 BKN250 24/12 A2991 RMK AO2 SLP129 T02390122= 201708312351 METAR KEWR 312351Z 33010G19KT 10SM FEW050 BKN120 BKN250 23/12 A2993 RMK AO2 SLP135 60003 T02280122 10283 20206 53010=
