 201712010051 METAR KEWR 010051Z 16005KT 10SM FEW030 BKN090 BKN200 OVC260 11/06 A3006 RMK AO2 SLP178 T01060061= 201712010151 METAR KEWR 010151Z 18005KT 10SM FEW025 BKN090 OVC240 10/06 A3006 RMK AO2 SLP178 T01000061= 201712010251 METAR KEWR 010251Z 20003KT 10SM -RA FEW025 BKN045 OVC110 09/06 A3005 RMK AO2 RAB41 SLP175 P0000 60000 T00940061 58002= 201712010351 METAR KEWR 010351Z VRB04KT 10SM -RA FEW020 BKN040 OVC049 09/06 A3005 RMK AO2 RAE0252B13 SLP173 P0001 T00890061= 201712010451 METAR KEWR 010451Z 17003KT 10SM FEW020 SCT040 OVC070 09/07 A3002 RMK AO2 RAE44 SLP166 P0001 T00890067 401060000= 201712010551 METAR KEWR 010551Z 00000KT 10SM BKN022 BKN034 OVC070 09/07 A3002 RMK AO2 SLP163 60002 T00890072 10106 20083 58012= 201712010651 METAR KEWR 010651Z 28005KT 10SM OVC018 09/07 A3002 RMK AO2 SLP165 T00890067= 201712010751 METAR KEWR 010751Z 27005KT 10SM FEW022 SCT034 BKN050 08/06 A3003 RMK AO2 SLP168 T00830061= 201712010851 METAR KEWR 010851Z 27006KT 10SM FEW035 SCT060 BKN250 08/06 A3003 RMK AO2 SLP169 T00780056 51005= 201712010951 METAR KEWR 010951Z 31005KT 10SM FEW060 FEW250 07/05 A3006 RMK AO2 SLP179 T00720050= 201712011051 METAR KEWR 011051Z 32006KT 10SM FEW250 08/04 A3009 RMK AO2 SLP187 T00780039= 201712011151 METAR KEWR 011151Z 31007KT 10SM FEW250 07/03 A3012 RMK AO2 SLP199 70002 T00720028 10089 20067 53030= 201712011251 METAR KEWR 011251Z 28005KT 10SM FEW055 FEW250 07/03 A3016 RMK AO2 SLP211 T00720028= 201712011351 METAR KEWR 011351Z 33008KT 10SM FEW028 FEW055 FEW250 09/03 A3017 RMK AO2 SLP215 T00890033= 201712011451 METAR KEWR 011451Z 34014KT 10SM FEW035 FEW250 10/01 A3019 RMK AO2 SLP221 T01000011 51022= 201712011551 METAR KEWR 011551Z 35012G20KT 10SM SCT045 11/M01 A3018 RMK AO2 SLP221 T01111011= 201712011651 METAR KEWR 011651Z 33016G21KT 10SM SCT045 11/M01 A3018 RMK AO2 PK WND 32027/1601 SLP220 T01061011= 201712011751 METAR KEWR 011751Z 32012KT 10SM SCT046 11/M01 A3018 RMK AO2 SLP217 T01111011 10111 20067 58004= 201712011851 METAR KEWR 011851Z 35013KT 10SM FEW046 FEW250 11/M01 A3017 RMK AO2 SLP217 T01111006= 201712011951 METAR KEWR 011951Z 32009KT 10SM FEW045 FEW250 11/M02 A3018 RMK AO2 SLP218 T01111017= 201712012051 METAR KEWR 012051Z 30010G18KT 10SM FEW045 FEW250 10/M02 A3020 RMK AO2 SLP227 T01001022 53009= 201712012151 METAR KEWR 012151Z 34009KT 10SM FEW045 FEW250 09/M02 A3023 RMK AO2 SLP235 T00941022= 201712012251 METAR KEWR 012251Z 33009KT 10SM FEW050 FEW250 09/M02 A3024 RMK AO2 SLP241 T00891017= 201712012351 METAR KEWR 012351Z 33008KT 10SM FEW050 FEW250 08/M02 A3026 RMK AO2 SLP245 T00781017 10111 20078 51019= 201712020051 METAR KEWR 020051Z 34011KT 10SM FEW250 07/M02 A3027 RMK AO2 SLP248 T00721022= 201712020151 METAR KEWR 020151Z 02007KT 10SM FEW250 05/M02 A3028 RMK AO2 SLP253 T00501022= 201712020251 METAR KEWR 020251Z 03007KT 10SM SCT250 04/M02 A3029 RMK AO2 SLP255 T00441017 51009= 201712020351 METAR KEWR 020351Z 03004KT 10SM FEW250 03/M02 A3030 RMK AO2 SLP260 T00331017= 201712020451 METAR KEWR 020451Z 01006KT 10SM FEW200 FEW250 02/M03 A3029 RMK AO2 SLP256 T00221028 401110022= 201712020551 METAR KEWR 020551Z 00000KT 10SM FEW250 04/M01 A3028 RMK AO2 SLP253 T00441011 10078 20017 58001= 201712020651 METAR KEWR 020651Z 00000KT 10SM SCT250 03/M02 A3030 RMK AO2 SLP261 T00281017= 201712020751 METAR KEWR 020751Z 00000KT 10SM SCT250 03/M02 A3031 RMK AO2 SLP264 T00281022= 201712020851 METAR KEWR 020851Z 04004KT 10SM FEW200 SCT250 03/M02 A3031 RMK AO2 SLP262 T00281017 50009= 201712020951 METAR KEWR 020951Z 03005KT 10SM FEW200 BKN250 01/M02 A3030 RMK AO2 SLP260 T00111022= 201712021051 METAR KEWR 021051Z 03005KT 10SM SCT250 01/M03 A3031 RMK AO2 SLP262 T00061028= 201712021151 METAR KEWR 021151Z 03005KT 10SM FEW200 BKN250 01/M02 A3032 RMK AO2 SLP265 T00061022 10044 20000 53002= 201712021251 METAR KEWR 021251Z 03005KT 10SM FEW200 BKN250 01/M01 A3033 RMK AO2 SLP269 T00111011= 201712021351 METAR KEWR 021351Z 03004KT 10SM FEW200 BKN250 04/M01 A3032 RMK AO2 SLP266 T00391006= 201712021451 METAR KEWR 021451Z 01003KT 10SM FEW200 BKN250 07/M01 A3032 RMK AO2 SLP267 T00671006 51003= 201712021551 METAR KEWR 021551Z 04004KT 10SM FEW210 BKN260 08/M02 A3030 RMK AO2 SLP260 T00781017= 201712021651 METAR KEWR 021651Z 30003KT 10SM FEW041 FEW210 BKN260 09/M02 A3027 RMK AO2 SLP248 T00891022= 201712021751 METAR KEWR 021751Z VRB04KT 10SM FEW041 FEW220 BKN260 09/M02 A3025 RMK AO2 SLP242 T00891017 10094 20000 56025= 201712021851 METAR KEWR 021851Z 08005KT 10SM FEW041 SCT230 BKN270 09/M02 A3024 RMK AO2 SLP238 T00891017= 201712021951 METAR KEWR 021951Z 00000KT 10SM FEW041 BKN220 BKN260 09/M02 A3024 RMK AO2 SLP238 T00891017= 201712022051 METAR KEWR 022051Z 13003KT 10SM FEW040 BKN220 OVC260 09/M01 A3024 RMK AO2 SLP239 T00891011 55003= 201712022151 METAR KEWR 022151Z 00000KT 10SM FEW040 OVC190 09/M02 A3025 RMK AO2 SLP241 T00891017= 201712022251 METAR KEWR 022251Z 16003KT 10SM BKN170 OVC210 08/01 A3025 RMK AO2 SLP241 T00830006= 201712022351 METAR KEWR 022351Z 15004KT 10SM BKN170 OVC210 08/01 A3024 RMK AO2 SLP238 T00780006 10094 20078 58001= 201712030051 METAR KEWR 030051Z 15003KT 10SM SCT150 SCT210 BKN260 07/01 A3023 RMK AO2 SLP236 T00720011= 201712030151 METAR KEWR 030151Z 20005KT 10SM BKN150 BKN260 06/01 A3024 RMK AO2 SLP238 T00610011= 201712030251 METAR KEWR 030251Z 22005KT 10SM BKN150 07/02 A3024 RMK AO2 SLP238 T00670017 55000= 201712030351 METAR KEWR 030351Z 29003KT 10SM BKN140 06/01 A3024 RMK AO2 SLP240 T00560011= 201712030451 METAR KEWR 030451Z 00000KT 10SM OVC120 06/01 A3024 RMK AO2 SLP241 T00560011 400940000= 201712030551 METAR KEWR 030551Z 03004KT 10SM FEW040 FEW120 BKN250 04/01 A3022 RMK AO2 SLP233 T00390006 10078 20039 58005= 201712030651 METAR KEWR 030651Z 36004KT 10SM FEW036 SCT120 BKN250 04/00 A3020 RMK AO2 SLP227 T00390000= 201712030751 METAR KEWR 030751Z 02005KT 10SM OVC036 04/01 A3020 RMK AO2 SLP227 T00440011= 201712030851 METAR KEWR 030851Z 02005KT 10SM OVC038 05/02 A3021 RMK AO2 SLP229 T00500017 55004= 201712030951 METAR KEWR 030951Z 02004KT 10SM OVC038 05/02 A3021 RMK AO2 SLP227 T00500017= 201712031051 METAR KEWR 031051Z 03004KT 10SM OVC039 06/02 A3021 RMK AO2 SLP229 T00560017= 201712031151 METAR KEWR 031151Z 01005KT 10SM OVC037 06/02 A3021 RMK AO2 SLP228 T00560017 10061 20033 56001= 201712031251 METAR KEWR 031251Z 01004KT 10SM OVC038 06/02 A3021 RMK AO2 SLP230 T00610022= 201712031351 METAR KEWR 031351Z 02006KT 10SM FEW020 BKN036 OVC130 07/02 A3022 RMK AO2 SLP234 T00670022= 201712031451 METAR KEWR 031451Z 02005KT 10SM FEW020 BKN041 BKN110 BKN250 07/03 A3023 RMK AO2 SLP235 T00720028 51007= 201712031551 METAR KEWR 031551Z 02005KT 10SM FEW020 BKN041 BKN130 OVC250 08/03 A3021 RMK AO2 SLP229 T00830033= 201712031651 METAR KEWR 031651Z 03004KT 10SM FEW020 OVC031 08/03 A3020 RMK AO2 SLP226 T00830033= 201712031751 METAR KEWR 031751Z 02003KT 10SM FEW025 OVC032 09/03 A3018 RMK AO2 SLP219 T00890033 10089 20050 58016= 201712031851 METAR KEWR 031851Z VRB03KT 10SM FEW025 OVC029 09/04 A3018 RMK AO2 SLP219 T00940039= 201712031951 METAR KEWR 031951Z 25003KT 10SM OVC024 09/04 A3019 RMK AO2 SLP223 CIG 022V027 T00940039= 201712032051 METAR KEWR 032051Z 05004KT 10SM BKN025 OVC039 09/04 A3019 RMK AO2 SLP224 T00940044 53004= 201712032151 METAR KEWR 032151Z 02006KT 10SM BKN028 OVC034 08/04 A3021 RMK AO2 SLP229 T00830039= 201712032251 METAR KEWR 032251Z 02004KT 10SM FEW025 SCT033 OVC046 08/04 A3023 RMK AO2 SLP235 T00830044= 201712032351 METAR KEWR 032351Z 02004KT 10SM FEW025 SCT031 SCT043 SCT250 08/03 A3024 RMK AO2 SLP239 T00780033 10094 20072 53011= 201712040051 METAR KEWR 040051Z 03005KT 10SM FEW025 SCT045 SCT250 06/03 A3025 RMK AO2 SLP242 T00560028= 201712040151 METAR KEWR 040151Z 03005KT 10SM FEW030 FEW050 SCT250 05/03 A3027 RMK AO2 SLP248 T00500028= 201712040251 METAR KEWR 040251Z 03004KT 10SM FEW020 SCT250 06/03 A3027 RMK AO2 SLP251 T00560033 51012= 201712040351 METAR KEWR 040351Z 00000KT 10SM FEW020 FEW250 05/03 A3029 RMK AO2 SLP257 T00500028= 201712040451 METAR KEWR 040451Z 00000KT 10SM FEW020 05/03 A3030 RMK AO2 SLP261 T00500028 400940033= 201712040551 METAR KEWR 040551Z 00000KT 10SM CLR 04/02 A3030 RMK AO2 SLP260 T00390017 10078 20033 50009= 201712040651 METAR KEWR 040651Z 01003KT 10SM CLR 03/02 A3032 RMK AO2 SLP265 T00280017= 201712040751 METAR KEWR 040751Z 03003KT 9SM CLR 02/01 A3034 RMK AO2 SLP272 T00170011= 201712040851 METAR KEWR 040851Z 05004KT 8SM CLR 01/01 A3035 RMK AO2 SLP278 T00110006 53018= 201712040951 METAR KEWR 040951Z 01005KT 8SM FEW010 01/00 A3035 RMK AO2 SLP277 T00060000= 201712041051 METAR KEWR 041051Z 02006KT 6SM BR FEW002 SCT006 01/00 A3037 RMK AO2 SLP284 T00060000= 201712041151 METAR KEWR 041151Z 03006KT 5SM BR FEW002 FEW005 BKN250 01/M01 A3040 RMK AO2 SLP293 T00061006 10039 20000 53015= 201712041251 METAR KEWR 041251Z 02004KT 1/2SM R04R/1200V1600FT FG BKN002 BKN250 01/01 A3042 RMK AO2 TWR VIS 3 SLP301 VIS W 1/4 T00060006= 201712041351 METAR KEWR 041351Z 02005KT 1/2SM R04R/1600V2400FT BR BKN003 BKN250 02/02 A3044 RMK AO2 SFC VIS 3/4 SLP306 CIG 002V004 T00170017= 201712041451 METAR KEWR 041451Z 03004KT 2 1/2SM BR FEW003 SCT005 BKN011 BKN250 03/03 A3046 RMK AO2 TWR VIS 3 SLP314 T00330033 51021= 201712041551 METAR KEWR 041551Z 04004KT 6SM BR FEW010 SCT250 06/04 A3046 RMK AO2 SLP313 T00610039= 201712041651 METAR KEWR 041651Z 00000KT 7SM FEW015 SCT250 09/04 A3044 RMK AO2 SLP309 T00940044= 201712041751 METAR KEWR 041751Z 11004KT 10SM FEW025 SCT250 10/03 A3042 RMK AO2 SLP299 T01000033 10106 20000 58015= 201712041851 METAR KEWR 041851Z 15005KT 10SM FEW025 BKN250 11/02 A3040 RMK AO2 SLP294 T01060022= 201712041951 METAR KEWR 041951Z 16006KT 10SM FEW025 BKN250 10/02 A3041 RMK AO2 SLP297 T01000022= 201712042051 METAR KEWR 042051Z 12005KT 10SM FEW019 BKN200 10/05 A3042 RMK AO2 SLP301 T01000050 53002= 201712042151 METAR KEWR 042151Z VRB05KT 10SM FEW020 BKN250 09/04 A3040 RMK AO2 SLP294 T00940044= 201712042251 METAR KEWR 042251Z 12004KT 10SM FEW020 BKN250 09/04 A3040 RMK AO2 SLP292 T00940044= 201712042351 METAR KEWR 042351Z 14003KT 10SM BKN034 BKN250 09/04 A3041 RMK AO2 SLP295 T00940044 10111 20094 55005= 201712050051 METAR KEWR 050051Z 14005KT 10SM SCT034 BKN250 09/04 A3041 RMK AO2 SLP297 T00940044= 201712050151 METAR KEWR 050151Z 15005KT 10SM SCT034 BKN250 09/04 A3041 RMK SLP297 T00940044= 201712050251 METAR KEWR 050251Z 16005KT 10SM BKN036 OVC250 10/05 A3041 RMK AO2 SLP298 T01000050 51002= 201712050351 METAR KEWR 050351Z 15006KT 10SM SCT038 BKN160 BKN250 09/04 A3041 RMK SLP295 T00940044= 201712050451 METAR KEWR 050451Z 16006KT 10SM BKN040 BKN160 10/04 A3039 RMK AO2 SLP290 T01000044 401110000= 201712050551 METAR KEWR 050551Z 15008KT 10SM BKN035 BKN120 OVC160 10/05 A3037 RMK AO2 SLP282 T01000050 10100 20094 58016= 201712050651 METAR KEWR 050651Z 15011KT 10SM BKN041 OVC130 11/05 A3036 RMK AO2 SLP279 T01060050= 201712050751 METAR KEWR 050751Z 16009G16KT 10SM BKN038 OVC130 11/06 A3033 RMK AO2 SLP271 T01060056= 201712050851 METAR KEWR 050851Z 15009KT 10SM SCT031 BKN039 BKN250 11/06 A3031 RMK AO2 SLP264 T01060056 58018= 201712050951 METAR KEWR 050951Z 15009KT 10SM FEW030 BKN170 BKN250 11/06 A3029 RMK AO2 SLP255 T01060061= 201712051051 METAR KEWR 051051Z 16010G15KT 10SM FEW030 BKN170 BKN250 11/07 A3027 RMK AO2 SLP250 T01110072= 201712051151 METAR KEWR 051151Z 17007G16KT 10SM FEW020 OVC040 12/08 A3026 RMK AO2 SLP248 T01170078 10117 20100 56017= 201712051251 METAR KEWR 051251Z 15010KT 10SM -RA SCT017 BKN022 OVC040 12/08 A3025 RMK AO2 RAB39 SLP243 P0000 T01220083= 201712051351 METAR KEWR 051351Z 16011G19KT 10SM -RA BKN017 BKN027 OVC040 12/09 A3022 RMK AO2 RAE13B46 SLP233 P0000 T01220094= 201712051451 METAR KEWR 051451Z 16011G19KT 10SM FEW017 BKN028 BKN045 BKN180 OVC250 13/10 A3020 RMK AO2 RAE1355B10E19 SLP225 P0000 60000 T01280100 58023= 201712051551 METAR KEWR 051551Z 16011G18KT 10SM BKN018 BKN024 OVC050 14/11 A3015 RMK AO2 SLP209 T01390111= 201712051651 METAR KEWR 051651Z 16005KT 10SM SCT020 BKN042 OVC070 15/11 A3012 RMK AO2 SLP199 T01500111= 201712051751 METAR KEWR 051751Z 11004KT 10SM SCT025 BKN032 OVC070 17/12 A3006 RMK AO2 RAB23E35 SLP179 P0000 60000 T01670117 10167 20117 58030= 201712051851 METAR KEWR 051851Z 13005KT 10SM FEW025 BKN032 OVC070 17/12 A3002 RMK AO2 SLP164 T01670117 $= 201712051951 METAR KEWR 051951Z 21005KT 10SM -RA FEW027 BKN035 OVC060 17/12 A3001 RMK AO2 RAB49 SLP161 P0000 T01720117 $= 201712052051 METAR KEWR 052051Z 13004KT 10SM FEW025 BKN037 OVC065 16/12 A2998 RMK AO2 RAE11 SLP152 P0000 60000 T01610117 56027 $= 201712052151 METAR KEWR 052151Z 15005KT 10SM -RA FEW027 BKN035 OVC060 17/12 A2997 RMK AO2 RAB45 SLP148 P0000 T01720122= 201712052251 METAR KEWR 052251Z 17011KT 10SM -RA FEW025 BKN040 OVC060 17/13 A2993 RMK AO2 RAE02B33 SLP135 P0000 T01670128 $= 201712052351 METAR KEWR 052351Z 18008KT 5SM -RA BR SCT014 BKN040 OVC050 16/14 A2992 RMK AO2 SLP130 P0002 60002 T01560144 10178 20156 58022 $= 201712060051 METAR KEWR 060051Z 25009KT 5SM -RA BR BKN007 BKN014 OVC021 15/14 A2991 RMK AO2 SLP127 CIG 006V009 P0005 T01500144 $= 201712060151 METAR KEWR 060151Z 23009KT 3SM RA BR BKN007 BKN012 OVC025 14/13 A2989 RMK AO2 SLP122 P0010 T01440133 $= 201712060251 METAR KEWR 060251Z 20011KT 6SM -RA BR BKN009 BKN055 OVC085 14/13 A2986 RMK AO2 PRESFR SLP110 BKN008 V SCT P0007 60022 T01440133 58020 $= 201712060351 METAR KEWR 060351Z 20012G16KT 7SM -RA SCT008 BKN023 OVC075 14/13 A2983 RMK AO2 SLP102 P0006 T01440133 $= 201712060451 METAR KEWR 060451Z 20010KT 10SM BKN010 BKN035 OVC110 14/13 A2980 RMK AO2 RAE16 SLP092 P0001 T01440133 401780100 $= 201712060551 METAR KEWR 060551Z 22011KT 10SM BKN012 BKN020 OVC060 14/13 A2981 RMK AO2 SLP095 60029 T01440133 10156 20139 55015 $= 201712060651 METAR KEWR 060651Z 22012KT 10SM -RA BKN012 BKN060 OVC100 14/13 A2981 RMK AO2 RAB31 SLP095 P0000 T01440133 $= 201712060751 METAR KEWR 060751Z 24007KT 10SM BKN012 BKN024 OVC060 14/13 A2982 RMK AO2 RAE23 SLP097 P0000 T01440133 $= 201712060851 METAR KEWR 060851Z 28017G24KT 10SM -RA FEW026 OVC034 10/07 A2987 RMK AO2 PK WND 31032/0805 RAB08E28B48 SLP114 P0000 60000 T01000067 53019 $= 201712060951 METAR KEWR 060951Z 27012KT 10SM -RA FEW034 OVC050 10/04 A2988 RMK AO2 RAE15B49 SLP117 P0000 T01000039 $= 201712061051 METAR KEWR 061051Z 26015G21KT 10SM BKN060 OVC080 09/M05 A2992 RMK AO2 PK WND 28027/1014 RAE28 SLP131 P0000 T00891050 $= 201712061151 METAR KEWR 061151Z 26013KT 10SM SCT060 OVC080 08/M05 A2995 RMK AO2 SLP140 60000 70031 T00781050 10150 20078 53026 $= 201712061251 METAR KEWR 061251Z 27011G24KT 10SM FEW060 SCT090 OVC200 07/M06 A2999 RMK AO2 SLP154 T00671056 $= 201712061351 METAR KEWR 061351Z 27014KT 10SM FEW070 BKN200 06/M07 A3001 RMK AO2 SLP160 T00561072 $= 201712061451 METAR KEWR 061451Z 28016KT 10SM FEW090 BKN220 05/M07 A3003 RMK AO2 SLP168 T00501072 51028 $= 201712061551 METAR KEWR 061551Z 27012KT 10SM FEW100 BKN240 05/M08 A3002 RMK AO2 SLP166 T00501083= 201712061651 METAR KEWR 061651Z 25012KT 10SM FEW230 BKN260 06/M08 A3000 RMK AO2 SLP158 T00561078= 201712061751 METAR KEWR 061751Z 25013KT 10SM FEW230 SCT260 06/M08 A2998 RMK AO2 SLP150 T00611083 10078 20044 58018= 201712061851 METAR KEWR 061851Z 27011KT 10SM SCT250 07/M09 A2996 RMK AO2 SLP143 T00721089= 201712061951 METAR KEWR 061951Z 25016KT 10SM FEW180 BKN250 07/M11 A2997 RMK AO2 SLP148 T00671106= 201712062051 METAR KEWR 062051Z 25011G19KT 10SM FEW180 BKN250 06/M10 A2998 RMK AO2 SLP151 T00611100 53001= 201712062151 METAR KEWR 062151Z 25014KT 10SM FEW180 BKN250 06/M09 A2999 RMK AO2 SLP156 T00561094= 201712062251 METAR KEWR 062251Z 26009KT 10SM FEW180 BKN250 06/M09 A3000 RMK AO2 SLP160 T00561089= 201712062351 METAR KEWR 062351Z 24011KT 10SM BKN250 05/M08 A3001 RMK AO2 SLP162 T00501083 10072 20044 51011= 201712070051 METAR KEWR 070051Z 23011KT 10SM BKN250 04/M08 A3002 RMK AO2 SLP163 T00441083= 201712070151 METAR KEWR 070151Z 23007KT 10SM BKN250 04/M08 A3002 RMK AO2 SLP164 T00441078= 201712070251 METAR KEWR 070251Z 24006KT 10SM BKN250 04/M08 A3002 RMK AO2 SLP164 T00391078 51002= 201712070351 METAR KEWR 070351Z 22006KT 10SM FEW060 BKN250 03/M07 A3001 RMK AO2 SLP162 T00281072= 201712070451 METAR KEWR 070451Z 23009KT 10SM FEW060 BKN250 03/M07 A3001 RMK AO2 SLP160 T00331067 401500028= 201712070551 METAR KEWR 070551Z 23007KT 10SM FEW070 SCT250 03/M07 A3000 RMK AO2 SLP158 T00281067 10050 20028 57006= 201712070651 METAR KEWR 070651Z 24007KT 10SM FEW070 SCT250 03/M07 A3000 RMK AO2 SLP158 T00281067= 201712070751 METAR KEWR 070751Z 24008KT 10SM FEW070 BKN250 03/M07 A3000 RMK AO2 SLP159 T00281067= 201712070851 METAR KEWR 070851Z 24009KT 10SM SCT250 02/M06 A2999 RMK AO2 SLP156 T00221061 58002= 201712070951 METAR KEWR 070951Z 24006KT 10SM SCT250 02/M06 A3000 RMK AO2 SLP157 T00171061= 201712071051 METAR KEWR 071051Z 22004KT 10SM FEW250 00/M06 A3001 RMK AO2 SLP161 T00001061= 201712071151 METAR KEWR 071151Z 23006KT 10SM FEW250 00/M06 A3002 RMK AO2 SLP164 T00001061 10028 21006 53008= 201712071251 METAR KEWR 071251Z 25007KT 10SM FEW250 02/M06 A3003 RMK AO2 SLP168 T00221056= 201712071351 METAR KEWR 071351Z 24008KT 10SM FEW250 04/M06 A3003 RMK AO2 SLP169 T00391056= 201712071451 METAR KEWR 071451Z 26014G20KT 10SM FEW250 06/M07 A3005 RMK AO2 SLP174 T00561072 53010= 201712071551 METAR KEWR 071551Z 28011KT 10SM FEW120 FEW250 07/M09 A3003 RMK AO2 PK WND 27031/1513 SLP167 T00721089= 201712071651 METAR KEWR 071651Z 27017G26KT 10SM FEW060 FEW250 08/M08 A3000 RMK AO2 PK WND 27029/1620 SLP158 T00781078= 201712071751 METAR KEWR 071751Z 26022G27KT 10SM FEW060 FEW250 07/M08 A2998 RMK AO2 PK WND 27030/1711 SLP150 T00721083 10078 20000 58024= 201712071851 METAR KEWR 071851Z 26021G28KT 10SM FEW060 FEW250 07/M09 A2997 RMK AO2 PK WND 25030/1831 SLP147 T00721089= 201712071951 METAR KEWR 071951Z 25019G24KT 10SM FEW060 FEW250 07/M08 A2996 RMK AO2 PK WND 26030/1904 SLP146 T00721083= 201712072051 METAR KEWR 072051Z 26012KT 10SM FEW060 FEW250 07/M08 A2998 RMK AO2 SLP150 T00671078 55000= 201712072151 METAR KEWR 072151Z 22010KT 10SM FEW055 FEW130 SCT250 06/M07 A2998 RMK AO2 SLP150 T00561072= 201712072251 METAR KEWR 072251Z 23009KT 10SM FEW055 SCT130 SCT250 05/M07 A2999 RMK AO2 SLP153 T00501072= 201712072351 METAR KEWR 072351Z 23010KT 10SM SCT080 SCT150 BKN250 04/M07 A3001 RMK AO2 SLP160 T00441067 10078 20039 53010= 201712080051 METAR KEWR 080051Z 22009KT 10SM FEW070 BKN085 BKN250 04/M07 A3001 RMK AO2 SLP161 T00441067= 201712080151 METAR KEWR 080151Z 26009KT 10SM SCT060 BKN075 BKN090 BKN250 05/M07 A3002 RMK AO2 SLP165 VIRGA T00501067= 201712080251 METAR KEWR 080251Z 24005KT 10SM FEW055 SCT075 BKN095 BKN250 04/M07 A3002 RMK AO2 SLP166 T00441067 53006= 201712080351 METAR KEWR 080351Z 23005KT 10SM SCT045 BKN065 BKN085 OVC250 04/M06 A3005 RMK AO2 SLP174 T00391056= 201712080451 METAR KEWR 080451Z 25007KT 10SM FEW055 SCT090 BKN250 04/M04 A3004 RMK AO2 SLP172 T00391044 400781006= 201712080551 METAR KEWR 080551Z VRB05KT 10SM FEW070 BKN250 03/M04 A3003 RMK AO2 SLP168 T00331039 10056 20028 50001= 201712080651 METAR KEWR 080651Z 23007KT 10SM BKN250 02/M04 A3005 RMK AO2 SLP175 T00171039= 201712080751 METAR KEWR 080751Z 23006KT 10SM FEW060 BKN250 01/M04 A3006 RMK AO2 SLP178 T00111044= 201712080851 METAR KEWR 080851Z 27007KT 10SM FEW050 BKN250 02/M06 A3006 RMK AO2 SLP178 T00171056 51011= 201712080951 METAR KEWR 080951Z 25006KT 10SM BKN180 BKN250 02/M07 A3007 RMK AO2 SLP183 T00171072= 201712081051 METAR KEWR 081051Z 25007KT 10SM BKN180 OVC250 02/M07 A3008 RMK AO2 SLP184 T00171072= 201712081151 METAR KEWR 081151Z 26007KT 10SM FEW100 BKN160 BKN220 01/M08 A3008 RMK AO2 SLP185 T00111078 10033 20000 51006= 201712081251 METAR KEWR 081251Z 28006KT 10SM BKN130 BKN200 01/M08 A3009 RMK AO2 SLP187 T00111083= 201712081351 METAR KEWR 081351Z 27008KT 10SM SCT130 BKN200 BKN250 01/M08 A3010 RMK AO2 SLP193 T00111083= 201712081451 METAR KEWR 081451Z 28008KT 10SM BKN120 OVC200 02/M08 A3011 RMK AO2 SLP195 T00221083 51010= 201712081551 METAR KEWR 081551Z 27008KT 10SM BKN130 OVC200 02/M09 A3011 RMK AO2 SLP194 T00221089= 201712081651 METAR KEWR 081651Z 28006KT 10SM FEW110 BKN130 OVC200 03/M09 A3007 RMK AO2 SLP180 T00281089= 201712081751 METAR KEWR 081751Z 29004KT 10SM FEW120 BKN150 OVC200 03/M09 A3006 RMK AO2 SLP178 T00331089 10039 20006 58017= 201712081851 METAR KEWR 081851Z 25005KT 10SM FEW110 BKN130 OVC200 03/M09 A3005 RMK AO2 SLP173 T00331094= 201712081951 METAR KEWR 081951Z 26009KT 10SM FEW110 BKN130 OVC200 03/M10 A3003 RMK AO2 SLP170 T00331100= 201712082051 METAR KEWR 082051Z 22009KT 10SM FEW110 BKN130 OVC200 02/M09 A3005 RMK AO2 SLP173 T00221089 55005= 201712082151 METAR KEWR 082151Z 23010KT 10SM BKN120 OVC180 02/M09 A3005 RMK AO2 SLP174 T00221089= 201712082251 METAR KEWR 082251Z 22007KT 10SM BKN100 OVC150 02/M08 A3003 RMK AO2 SLP168 T00221083= 201712082351 METAR KEWR 082351Z 25008KT 10SM BKN100 OVC140 02/M08 A3003 RMK AO2 SLP167 T00221083 10033 20022 58006= 201712090051 METAR KEWR 090051Z 25006KT 10SM SCT100 OVC130 02/M08 A3002 RMK AO2 SLP165 T00221078= 201712090151 METAR KEWR 090151Z 29006KT 10SM OVC130 02/M08 A2998 RMK AO2 SLP153 T00221078= 201712090251 METAR KEWR 090251Z 26007KT 10SM OVC110 02/M08 A2999 RMK AO2 SLP156 T00221083 55011= 201712090351 METAR KEWR 090351Z 27007KT 10SM OVC110 02/M08 A3000 RMK AO2 SLP158 T00221083= 201712090451 METAR KEWR 090451Z 26007KT 10SM OVC120 02/M08 A2997 RMK AO2 SLP147 T00171083 400390000= 201712090551 METAR KEWR 090551Z 26006KT 10SM OVC100 02/M08 A2998 RMK AO2 SLP150 T00171083 10022 20017 55006= 201712090651 METAR KEWR 090651Z 27005KT 10SM OVC100 02/M08 A2997 RMK AO2 SLP149 T00171083= 201712090751 METAR KEWR 090751Z 27004KT 10SM OVC100 02/M08 A2997 RMK AO2 SLP146 T00171083= 201712090851 METAR KEWR 090851Z 27005KT 10SM OVC090 02/M08 A2998 RMK AO2 SLP151 T00171083 53002= 201712090951 METAR KEWR 090951Z 36003KT 10SM BKN100 OVC120 02/M08 A2996 RMK AO2 SLP143 T00171083= 201712091051 METAR KEWR 091051Z 36006KT 10SM OVC080 02/M09 A2995 RMK AO2 SLP140 T00171089= 201712091151 METAR KEWR 091151Z 36007KT 10SM OVC075 02/M09 A2995 RMK AO2 SLP142 T00171089 10017 20017 55009= 201712091251 METAR KEWR 091251Z 01009KT 10SM BKN060 OVC075 02/M09 A2995 RMK AO2 SLP141 T00171094= 201712091351 METAR KEWR 091351Z 01011KT 3SM -SN BKN050 OVC070 01/M07 A2993 RMK AO2 SNB27 SLP134 P0000 T00111067= 201712091451 METAR KEWR 091451Z 01008KT 1SM R04R/6000VP6000FT -SN FEW008 OVC025 00/M05 A2994 RMK AO2 SLP139 P0000 60000 T00001050 55003= 201712091551 METAR KEWR 091551Z 02005KT 3/4SM R04R/4500VP6000FT -SN BR BKN008 OVC013 M01/M02 A2993 RMK AO2 PRESFR SLP133 P0003 T10111022= 201712091651 METAR KEWR 091651Z 02006KT 1/2SM R04R/3500V4000FT SN FZFG BKN007 OVC011 M01/M02 A2987 RMK AO2 PRESFR SLP114 SNINCR 1/1 P0004 T10111022= 201712091751 METAR KEWR 091751Z 36007KT 3/4SM R04R/4000VP6000FT -SN BR BKN007 OVC015 M01/M02 A2984 RMK AO2 SLP102 931014 4/001 P0004 60011 T10061017 10017 21011 58037= 201712091851 METAR KEWR 091851Z 01009KT 1/2SM R04R/4000V5500FT SN FZFG BKN006 OVC010 M01/M02 A2979 RMK AO2 SLP087 SNINCR 1/2 P0006 T10111017= 201712091951 METAR KEWR 091951Z 36009KT 3/4SM R04R/P6000FT -SN BR BKN006 OVC021 M01/M02 A2977 RMK AO2 SLP081 P0003 T10061017= 201712092051 METAR KEWR 092051Z 36009KT 1/2SM R04R/4000VP6000FT SN FZFG BKN006 OVC012 M01/M02 A2976 RMK AO2 SLP076 P0005 60014 T10061017 56026= 201712092151 METAR KEWR 092151Z 36010KT 2SM -SN BR BKN008 OVC026 M01/M02 A2975 RMK AO2 SLP073 P0003 T10061017= 201712092251 METAR KEWR 092251Z 35012KT 2SM -SN BR BKN008 OVC020 M01/M02 A2973 RMK AO2 SLP068 P0002 T10061017= 201712092351 METAR KEWR 092351Z 35011KT 2SM -SN BR BKN009 BKN025 OVC037 00/M02 A2973 RMK AO2 SFC VIS 3 SLP068 931022 4/004 P0001 60020 T00001017 10000 21011 56008= 201712100051 METAR KEWR 100051Z 33008KT 2SM -SN BR BKN009 BKN026 OVC030 00/M02 A2974 RMK AO2 SLP070 P0003 T00001017= 201712100151 METAR KEWR 100151Z 33008G17KT 2SM -SN BR BKN009 BKN026 OVC030 00/M02 A2973 RMK AO2 SLP068 P0002 T00001017= 201712100251 METAR KEWR 100251Z 33009KT 2SM -SN BR BKN009 BKN025 OVC050 00/M02 A2974 RMK AO2 SFC VIS 3 SLP069 P0001 60006 T00001017 51001= 201712100351 METAR KEWR 100351Z 32009KT 6SM -SN BR FEW010 BKN028 OVC070 00/M02 A2975 RMK AO2 SLP073 P0000 T00001022= 201712100451 METAR KEWR 100451Z 00000KT 10SM FEW010 FEW032 BKN070 OVC150 M01/M02 A2973 RMK AO2 SNE18 SLP068 P0000 T10061022 400171011= 201712100551 METAR KEWR 100551Z 25006KT 10SM FEW015 BKN040 OVC080 M01/M02 A2974 RMK AO2 SLP071 931007 4/004 60006 T10061022 10000 21006 51002= 201712100651 METAR KEWR 100651Z 26006KT 10SM FEW015 BKN045 OVC090 00/M02 A2975 RMK AO2 SNB17E26 SLP072 P0000 T00001022= 201712100751 METAR KEWR 100751Z 25010KT 10SM FEW020 SCT050 BKN100 M01/M03 A2977 RMK AO2 SLP078 T10061028= 201712100851 METAR KEWR 100851Z 25008KT 10SM FEW050 SCT100 BKN160 M01/M03 A2977 RMK AO2 SLP081 60000 T10111033 53010= 201712100951 METAR KEWR 100951Z 25009KT 10SM FEW100 BKN160 M02/M04 A2979 RMK AO2 SLP088 T10171044= 201712101051 METAR KEWR 101051Z 26010KT 10SM FEW100 OVC150 M02/M06 A2983 RMK AO2 SLP099 T10171056= 201712101151 METAR KEWR 101151Z 26009KT 10SM SCT120 BKN160 M02/M06 A2986 RMK AO2 SLP110 931000 4/004 60000 70037 T10221061 10000 21022 53029= 201712101251 METAR KEWR 101251Z 25008KT 10SM FEW090 SCT140 M02/M07 A2989 RMK AO2 SLP122 T10221067= 201712101351 METAR KEWR 101351Z 26012KT 10SM FEW090 FEW140 M01/M06 A2992 RMK AO2 SLP131 T10061061= 201712101451 METAR KEWR 101451Z 25009KT 10SM FEW090 01/M06 A2993 RMK AO2 SLP134 T00061056 51024= 201712101551 METAR KEWR 101551Z 26010KT 10SM CLR 02/M05 A2992 RMK AO2 SLP132 T00171050= 201712101651 METAR KEWR 101651Z 25011KT 10SM CLR 03/M04 A2993 RMK AO2 SLP133 T00281044= 201712101751 METAR KEWR 101751Z 23015KT 10SM SCT030 03/M04 A2992 RMK AO2 SLP132 933003 T00331044 10033 21028 56002= 201712101851 METAR KEWR 101851Z 25013KT 10SM SCT030 04/M05 A2992 RMK AO2 SLP130 T00391050= 201712101951 METAR KEWR 101951Z 26015KT 10SM SCT045 BKN055 04/M06 A2994 RMK AO2 SLP136 T00391056= 201712102051 METAR KEWR 102051Z 24011KT 10SM SCT043 BKN060 03/M05 A2996 RMK AO2 SLP143 T00331050 53011= 201712102151 METAR KEWR 102151Z 23009KT 10SM FEW045 OVC060 03/M06 A2998 RMK AO2 SLP150 T00281056= 201712102251 METAR KEWR 102251Z 23010KT 10SM BKN055 02/M06 A2999 RMK AO2 SLP156 T00221061= 201712102351 METAR KEWR 102351Z 22008KT 10SM SCT055 02/M06 A3000 RMK AO2 SLP158 4/002 T00221056 10044 20022 51014= 201712110051 METAR KEWR 110051Z 23010KT 10SM FEW055 BKN160 02/M05 A3002 RMK AO2 SLP164 T00171050= 201712110151 METAR KEWR 110151Z 23009KT 10SM FEW050 OVC150 02/M05 A3002 RMK AO2 SLP163 T00171050= 201712110251 METAR KEWR 110251Z 23010KT 10SM FEW050 OVC140 02/M06 A3002 RMK AO2 SLP165 T00171056 51008= 201712110351 METAR KEWR 110351Z 22008KT 10SM FEW050 OVC130 02/M06 A3002 RMK AO2 SLP166 T00171056= 201712110451 METAR KEWR 110451Z 22009KT 10SM OVC100 01/M05 A3002 RMK AO2 SLP165 T00111050 400441028= 201712110551 METAR KEWR 110551Z 22005KT 10SM OVC100 01/M05 A3001 RMK AO2 SLP162 4/001 T00111050 10022 20011 58003= 201712110651 METAR KEWR 110651Z 22010KT 10SM OVC095 01/M05 A3000 RMK AO2 SLP159 T00111050= 201712110751 METAR KEWR 110751Z 22008KT 10SM BKN090 OVC130 01/M05 A2999 RMK AO2 SLP155 T00111050= 201712110851 METAR KEWR 110851Z 23009KT 10SM OVC070 01/M05 A3000 RMK AO2 SLP158 T00111050 55004= 201712110951 METAR KEWR 110951Z 23011KT 10SM OVC060 01/M05 A3001 RMK AO2 SLP161 T00111050= 201712111051 METAR KEWR 111051Z 22009KT 10SM SCT050 BKN110 OVC150 01/M04 A3002 RMK AO2 SLP165 T00061039= 201712111151 METAR KEWR 111151Z 23008KT 10SM FEW055 BKN070 OVC130 00/M03 A3002 RMK AO2 SLP165 4/001 T00001033 10017 20000 51007= 201712111251 METAR KEWR 111251Z 25008KT 10SM FEW020 SCT070 00/M03 A3004 RMK AO2 SLP172 T00001028= 201712111351 METAR KEWR 111351Z 23009KT 10SM FEW015 FEW070 FEW130 01/M02 A3004 RMK AO2 SLP172 T00111022= 201712111451 METAR KEWR 111451Z 26006KT 10SM FEW070 FEW130 03/M02 A3004 RMK AO2 SLP173 T00281022 51008= 201712111551 METAR KEWR 111551Z 27010KT 10SM FEW040 04/M05 A3004 RMK AO2 SLP173 T00391050= 201712111651 METAR KEWR 111651Z 29008KT 10SM FEW040 SCT250 04/M05 A3002 RMK AO2 SLP164 T00441050= 201712111751 METAR KEWR 111751Z 28008KT 10SM FEW040 SCT250 06/M06 A2999 RMK AO2 SLP154 T00561061 10056 20000 58019= 201712111851 METAR KEWR 111851Z 26011KT 10SM SCT050 BKN250 06/M06 A2999 RMK AO2 SLP154 T00561061= 201712111951 METAR KEWR 111951Z 28009KT 10SM SCT050 BKN250 06/M05 A3000 RMK AO2 SLP157 T00561050= 201712112051 METAR KEWR 112051Z 28007KT 10SM SCT050 SCT220 BKN260 04/M06 A2999 RMK AO2 SLP154 T00441056 50000= 201712112151 METAR KEWR 112151Z 27006KT 10SM FEW050 BKN150 BKN200 BKN250 04/M06 A3000 RMK AO2 SLP159 T00391061= 201712112251 METAR KEWR 112251Z 25007KT 10SM BKN140 BKN200 03/M06 A3002 RMK AO2 SLP165 T00331061= 201712112351 METAR KEWR 112351Z 19003KT 10SM BKN140 BKN210 03/M06 A3001 RMK AO2 SLP161 T00281061 10061 20022 50007= 201712120051 METAR KEWR 120051Z 00000KT 10SM BKN110 03/M06 A3001 RMK AO2 SLP161 T00331061= 201712120151 METAR KEWR 120151Z 15003KT 10SM BKN090 BKN110 03/M05 A3000 RMK AO2 SLP157 T00331050= 201712120251 METAR KEWR 120251Z 17004KT 10SM OVC080 03/M05 A2999 RMK AO2 SLP154 T00331050 58007= 201712120351 METAR KEWR 120351Z 16004KT 10SM OVC085 04/M04 A2997 RMK AO2 SLP146 T00391044= 201712120451 METAR KEWR 120451Z 16003KT 10SM BKN100 OVC150 04/M04 A2994 RMK AO2 SLP139 T00391044 400610000= 201712120551 METAR KEWR 120551Z 14003KT 10SM BKN080 OVC160 04/M04 A2991 RMK AO2 SLP126 T00391039 10039 20022 58028= 201712120651 METAR KEWR 120651Z 13003KT 10SM BKN075 OVC140 04/M03 A2987 RMK AO2 SLP114 T00441033= 201712120751 METAR KEWR 120751Z 16005KT 10SM FEW035 BKN080 OVC130 05/M01 A2984 RMK AO2 SLP103 T00501006= 201712120851 METAR KEWR 120851Z 16006KT 10SM FEW033 BKN085 OVC130 06/01 A2979 RMK AO2 SLP088 T00610006 58038= 201712120951 METAR KEWR 120951Z 16007KT 10SM -RA FEW033 BKN090 OVC130 07/02 A2975 RMK AO2 RAB46 PRESFR SLP073 P0000 T00670017= 201712121051 METAR KEWR 121051Z 16007KT 10SM FEW033 BKN100 OVC140 07/03 A2971 RMK AO2 RAE0957 SLP060 P0000 T00720028= 201712121151 METAR KEWR 121151Z 16009KT 10SM FEW025 SCT060 OVC080 08/03 A2966 RMK AO2 SLP044 60000 T00780033 10078 20039 58044= 201712121251 METAR KEWR 121251Z 16008KT 10SM FEW015 SCT060 OVC080 08/03 A2964 RMK AO2 RAB26E49 SLP038 P0000 T00830033= 201712121351 METAR KEWR 121351Z 17010KT 10SM FEW015 SCT060 OVC080 08/03 A2961 RMK AO2 SLP025 T00830033= 201712121451 METAR KEWR 121451Z 18006KT 10SM FEW020 BKN070 BKN095 OVC130 09/04 A2957 RMK AO2 SLP013 VCSH 60000 T00940039 58031= 201712121551 METAR KEWR 121551Z 19008KT 10SM FEW025 BKN050 BKN070 OVC130 10/04 A2954 RMK AO2 SLP003 T01000044= 201712121651 METAR KEWR 121651Z 24011KT 10SM FEW025 BKN031 OVC050 08/03 A2950 RMK AO2 RAB1555E51 SLP988 P0000 T00830028= 201712121751 METAR KEWR 121751Z 24012KT 10SM -RA FEW025 BKN048 OVC060 08/02 A2947 RMK AO2 RAB1655E10B49 SLP978 P0000 60000 T00830017 10100 20078 56035= 201712121851 METAR KEWR 121851Z 26010KT 10SM -RA FEW025 BKN042 OVC055 07/02 A2945 RMK AO2 SLP972 P0000 T00720022= 201712121951 METAR KEWR 121951Z 28008KT 10SM FEW020 BKN060 BKN090 OVC150 07/01 A2944 RMK AO2 RAE1855 SLP967 P0000 T00720011= 201712122051 METAR KEWR 122051Z 30011KT 10SM FEW028 FEW035 BKN060 BKN150 OVC250 07/01 A2943 RMK AO2 SLP965 60000 T00670006 56014= 201712122151 METAR KEWR 122151Z 27014KT 10SM -RA SCT028 BKN035 OVC090 06/01 A2944 RMK AO2 RAB47 SLP968 P0000 T00610006= 201712122251 METAR KEWR 122251Z 28011G19KT 10SM SCT025 BKN048 OVC075 05/00 A2945 RMK AO2 RAE31 SLP973 P0000 T00500000= 201712122351 METAR KEWR 122351Z 27014G20KT 10SM SCT055 BKN080 BKN110 05/M02 A2946 RMK AO2 SLP975 60000 T00501017 10083 20050 51010= 201712130051 METAR KEWR 130051Z 30015G25KT 10SM FEW030 BKN050 OVC110 03/M04 A2949 RMK AO2 PK WND 29034/0010 SLP987 T00281044 $= 201712130151 METAR KEWR 130151Z 31016G25KT 10SM FEW030 SCT045 SCT110 02/M07 A2946 RMK AO2 PK WND 30027/0113 SLP976 T00171072 $= 201712130251 METAR KEWR 130251Z 31016G24KT 10SM FEW025 SCT049 01/M08 A2944 RMK AO2 SLP970 T00111083 58005 $= 201712130351 METAR KEWR 130351Z 31014G25KT 10SM FEW048 BKN055 00/M11 A2946 RMK AO2 PK WND 31029/0258 SLP977 T00001106 $= 201712130451 METAR KEWR 130451Z 31017G22KT 10SM FEW045 BKN055 M02/M14 A2949 RMK AO2 PK WND 28027/0416 SLP985 T10171139 401001017 $= 201712130551 METAR KEWR 130551Z 32018G24KT 10SM BKN060 M03/M15 A2951 RMK AO2 PK WND 32027/0500 SLP992 T10281150 10056 21028 52023 $= 201712130651 METAR KEWR 130651Z 29016G24KT 10SM FEW055 M04/M17 A2953 RMK AO2 PK WND 28030/0621 SLP000 T10441172 $= 201712130751 METAR KEWR 130751Z 28021G27KT 10SM FEW050 M05/M17 A2955 RMK AO2 PK WND 27027/0659 SLP006 T10501167 $= 201712130851 METAR KEWR 130851Z 28017G27KT 10SM FEW050 M06/M17 A2953 RMK AO2 PK WND 28027/0759 SLP000 T10611167 50007 $= 201712130951 METAR KEWR 130951Z 27020KT 10SM FEW050 M06/M16 A2953 RMK AO2 PK WND 28027/0904 SLP998 T10611156 $= 201712131051 METAR KEWR 131051Z 27015G21KT 10SM FEW050 M07/M15 A2953 RMK AO2 PK WND 27030/1025 SLP998 T10671150 $= 201712131151 METAR KEWR 131151Z 27019G26KT 10SM FEW040 M07/M15 A2955 RMK AO2 PK WND 28030/1113 SLP005 T10671150 11028 21067 53005 $= 201712131251 METAR KEWR 131251Z 27016G25KT 10SM FEW040 M06/M15 A2956 RMK AO2 PK WND 28029/1201 SLP009 T10611150 $= 201712131351 METAR KEWR 131351Z 27021G28KT 10SM SCT041 SCT250 M05/M14 A2957 RMK AO2 PK WND 27029/1335 SLP014 T10501144 $= 201712131451 METAR KEWR 131451Z 28020G28KT 10SM BKN050 BKN060 M03/M14 A2957 RMK AO2 PK WND 30036/1437 SLP014 T10331144 51009 $= 201712131551 METAR KEWR 131551Z 29020G41KT 10SM FEW045 BKN050 M03/M15 A2957 RMK AO2 PK WND 28041/1548 SLP013 VIRGA T10281150= 201712131651 METAR KEWR 131651Z 28028G36KT 10SM FEW045 SCT050 BKN250 M01/M15 A2956 RMK AO2 PK WND 29036/1616 SLP008 T10061150= 201712131751 METAR KEWR 131751Z 28017G28KT 10SM FEW045 SCT055 SCT085 00/M16 A2956 RMK AO2 PK WND 28037/1659 SLP008 T00001161 10000 21067 57006= 201712131851 METAR KEWR 131851Z 28021G32KT 10SM FEW055 01/M17 A2958 RMK AO2 PK WND 27035/1809 SLP016 T00061167= 201712131951 METAR KEWR 131951Z 27016G24KT 10SM FEW060 01/M16 A2960 RMK AO2 PK WND 27034/1922 SLP023 T00061161= 201712132051 METAR KEWR 132051Z 27022G26KT 10SM FEW060 M01/M14 A2961 RMK AO2 PK WND 28031/2007 SLP028 T10061144 51020= 201712132151 METAR KEWR 132151Z 26020G24KT 10SM FEW055 M02/M14 A2965 RMK AO2 PK WND 26029/2100 SLP038 T10171144= 201712132251 METAR KEWR 132251Z 26013G23KT 10SM FEW055 M02/M14 A2967 RMK AO2 SLP048 T10221144= 201712132351 METAR KEWR 132351Z 25015G23KT 10SM FEW055 FEW250 M03/M14 A2968 RMK AO2 SLP051 T10281144 10011 21028 51023= 201712140051 METAR KEWR 140051Z 26014G21KT 10SM FEW055 SCT130 BKN250 M03/M14 A2969 RMK AO2 SLP052 T10281144= 201712140151 METAR KEWR 140151Z 25011G18KT 10SM FEW070 BKN110 BKN250 M03/M15 A2968 RMK AO2 SLP049 T10281150= 201712140251 METAR KEWR 140251Z 26010KT 10SM FEW070 BKN090 OVC130 M03/M15 A2968 RMK AO2 SLP049 T10281150 58002= 201712140351 METAR KEWR 140351Z 24008KT 10SM BKN060 OVC100 M02/M14 A2967 RMK AO2 SLP048 VIRGA T10221144= 201712140451 METAR KEWR 140451Z 23011KT 2 1/2SM -SN BKN022 OVC030 M04/M09 A2970 RMK AO2 SFC VIS 3 SNB16 SLP056 P0000 T10391094 400111067= 201712140551 METAR KEWR 140551Z 00000KT 2 1/2SM -SN BR FEW012 SCT018 OVC024 M05/M07 A2965 RMK AO2 SLP038 931004 P0001 60001 T10501072 11022 21050 58010= 201712140651 METAR KEWR 140651Z 00000KT 1SM R04R/P6000FT -SN BR BKN008 BKN016 OVC024 M04/M06 A2962 RMK AO2 SFC VIS 1 3/4 SLP029 SNINCR 1/1 P0003 T10441061= 201712140751 METAR KEWR 140751Z 00000KT 5SM -SN BR SCT012 BKN018 OVC036 M04/M06 A2960 RMK AO2 SLP021 P0002 T10441056= 201712140851 METAR KEWR 140851Z 01006KT 8SM BKN007 OVC014 M04/M06 A2955 RMK AO2 SNE10 SLP007 P0000 60005 T10391056 58031= 201712140951 METAR KEWR 140951Z 02008KT 10SM FEW007 BKN014 OVC021 M04/M06 A2954 RMK AO2 SLP003 T10391056= 201712141051 METAR KEWR 141051Z 36009KT 8SM -SN FEW010 SCT016 OVC034 M04/M06 A2955 RMK AO2 SNB42 SLP007 P0000 T10391056= 201712141151 METAR KEWR 141151Z 01009KT 2 1/2SM -SN BR BKN022 OVC040 M04/M06 A2957 RMK AO2 SFC VIS 3 SLP014 931011 4/002 P0000 60005 70006 T10391056 11033 21050 53007= 201712141251 METAR KEWR 141251Z 36009KT 1 1/2SM -SN BR FEW012 BKN023 OVC037 M04/M06 A2959 RMK AO2 SFC VIS 1 3/4 SLP020 P0002 T10391056= 201712141351 METAR KEWR 141351Z 35011KT 8SM -SN SCT010 SCT028 BKN075 BKN250 M03/M05 A2965 RMK AO2 SLP039 SCT028 V BKN P0000 T10281050= 201712141451 METAR KEWR 141451Z 35011KT 8SM SCT014 BKN038 BKN080 OVC250 M02/M06 A2970 RMK AO2 SNE48 SLP057 SCT V BKN P0000 60002 T10221056 53043= 201712141551 METAR KEWR 141551Z 33014KT 10SM FEW023 M02/M07 A2973 RMK AO2 SLP066 T10171072= 201712141651 METAR KEWR 141651Z 31013G18KT 10SM SCT035 M01/M08 A2976 RMK AO2 SLP076 T10061078= 201712141751 METAR KEWR 141751Z 32012KT 10SM SCT035 01/M08 A2977 RMK AO2 SLP081 4/001 60002 T00061083 10006 21039 51024= 201712141851 METAR KEWR 141851Z 32013G21KT 10SM SCT040 01/M08 A2981 RMK AO2 SLP095 T00111083= 201712141951 METAR KEWR 141951Z 29016G23KT 10SM SCT047 M01/M11 A2986 RMK AO2 PK WND 29026/1916 SLP111 T10061106= 201712142051 METAR KEWR 142051Z 32015G21KT 10SM FEW045 SCT250 M01/M12 A2990 RMK AO2 PK WND 30026/2023 SLP123 T10111122 51042= 201712142151 METAR KEWR 142151Z 29015KT 10SM FEW045 SCT250 M02/M13 A2994 RMK AO2 SLP138 T10221128= 201712142251 METAR KEWR 142251Z 30011G21KT 10SM FEW140 SCT250 M03/M13 A2998 RMK AO2 SLP152 T10281128= 201712142351 METAR KEWR 142351Z 30009G17KT 10SM FEW140 SCT250 M03/M14 A3002 RMK AO2 SLP164 T10331139 10011 21033 51042= 201712150051 METAR KEWR 150051Z 30008KT 10SM FEW140 SCT250 M03/M14 A3005 RMK AO2 SLP175 T10331144= 201712150151 METAR KEWR 150151Z 32009KT 10SM SCT210 BKN260 M04/M16 A3008 RMK AO2 SLP184 T10391156= 201712150251 METAR KEWR 150251Z 31005KT 10SM SCT210 BKN260 M04/M15 A3010 RMK AO2 SLP191 T10391150 51026= 201712150351 METAR KEWR 150351Z 30010KT 10SM BKN210 BKN260 M04/M16 A3010 RMK AO2 SLP193 T10441156= 201712150451 METAR KEWR 150451Z 31007KT 10SM FEW210 SCT260 M05/M16 A3010 RMK AO2 SLP193 T10501156 400111050= 201712150551 METAR KEWR 150551Z 26006KT 10SM SCT220 M06/M15 A3011 RMK AO2 SLP196 T10561150 11033 21056 53005= 201712150651 METAR KEWR 150651Z 27006KT 10SM FEW210 M06/M14 A3012 RMK AO2 SLP199 T10611144= 201712150751 METAR KEWR 150751Z 30005KT 10SM SCT210 M07/M14 A3012 RMK AO2 SLP197 T10671139= 201712150851 METAR KEWR 150851Z 30006KT 10SM FEW140 BKN210 M07/M14 A3011 RMK AO2 SLP195 T10671139 58001= 201712150951 METAR KEWR 150951Z 30006KT 10SM FEW140 BKN200 M07/M14 A3011 RMK AO2 SLP194 T10671139= 201712151051 METAR KEWR 151051Z 22004KT 10SM FEW140 BKN200 M07/M14 A3011 RMK AO2 SLP195 T10671139= 201712151151 METAR KEWR 151151Z 24005KT 10SM BKN160 BKN250 M06/M14 A3012 RMK AO2 SLP199 70002 T10611139 11056 21078 53004= 201712151251 METAR KEWR 151251Z 24004KT 10SM FEW050 BKN130 OVC250 M06/M13 A3012 RMK AO2 SLP197 T10561133= 201712151351 METAR KEWR 151351Z 26006KT 10SM FEW050 SCT130 BKN160 OVC250 M05/M13 A3012 RMK AO2 SLP199 T10501128= 201712151451 METAR KEWR 151451Z 29005KT 10SM FEW050 FEW120 BKN140 OVC250 M04/M13 A3012 RMK AO2 SLP200 T10441128 53001= 201712151551 METAR KEWR 151551Z 00000KT 10SM FEW050 FEW110 BKN140 OVC250 M04/M12 A3009 RMK AO2 PRESFR SLP189 T10391122= 201712151651 METAR KEWR 151651Z 00000KT 10SM FEW060 BKN120 OVC200 M03/M12 A3005 RMK AO2 SLP175 T10331122= 201712151751 METAR KEWR 151751Z 00000KT 10SM BKN050 BKN070 OVC130 M03/M12 A3001 RMK AO2 SLP160 T10331122 11028 21061 58040= 201712151851 METAR KEWR 151851Z 00000KT 10SM -SN SCT050 OVC070 M03/M12 A2997 RMK AO2 SNB26 SLP148 P0000 T10281117= 201712151951 METAR KEWR 151951Z 31006KT 5SM -SN FEW025 BKN035 OVC043 M03/M09 A2995 RMK AO2 SLP140 P0000 T10281094= 201712152051 METAR KEWR 152051Z 28005KT 1SM R04R/P6000FT -SN BKN012 OVC022 M04/M08 A2993 RMK AO2 SFC VIS 1 1/2 SLP135 CIG 010V016 P0001 60001 T10441078 56025= 201712152151 METAR KEWR 152151Z 26007KT 3/4SM R04R/5500VP6000FT -SN SCT004 BKN007 OVC015 M05/M07 A2994 RMK AO2 SLP137 CIG 006V008 P0005 T10501067= 201712152251 METAR KEWR 152251Z 25005KT 3/4SM R04R/P6000FT -SN FEW005 BKN008 OVC020 M04/M06 A2993 RMK AO2 SFC VIS 1 SLP135 CIG 007V010 P0004 T10441061= 201712152351 METAR KEWR 152351Z 27005KT 3SM -SN FEW009 SCT029 OVC040 M04/M07 A2993 RMK AO2 SFC VIS 5 SLP133 SCT V BKN 931010 4/001 P0000 60010 T10441067 11028 21050 58002= 201712160051 METAR KEWR 160051Z 26006KT 3SM -SN FEW008 SCT020 OVC031 M04/M07 A2992 RMK AO2 SFC VIS 5 SLP131 P0000 T10441067= 201712160151 METAR KEWR 160151Z 26009KT 10SM FEW009 FEW035 SCT080 BKN250 M04/M07 A2993 RMK AO2 SNE32 SLP134 P0000 T10441072= 201712160251 METAR KEWR 160251Z 24007KT 10SM FEW008 FEW080 SCT250 M06/M08 A2993 RMK AO2 SLP135 60000 T10561078 53002= 201712160351 METAR KEWR 160351Z 22007KT 10SM BKN080 BKN110 M06/M08 A2993 RMK AO2 SLP133 T10561078= 201712160451 METAR KEWR 160451Z 22007KT 10SM FEW080 M06/M08 A2992 RMK AO2 SLP131 T10611078 410281078= 201712160551 METAR KEWR 160551Z 25007KT 10SM FEW080 M06/M08 A2992 RMK AO2 SLP131 60000 T10611078 11044 21067 56003= 201712160651 METAR KEWR 160651Z 26012KT 10SM FEW250 M06/M08 A2994 RMK AO2 SLP136 T10561078= 201712160751 METAR KEWR 160751Z 26010KT 10SM FEW250 M05/M08 A2996 RMK AO2 SLP146 T10501078= 201712160851 METAR KEWR 160851Z 24007KT 10SM FEW250 M06/M09 A2998 RMK AO2 SLP151 T10561089 53020= 201712160951 METAR KEWR 160951Z 22005KT 10SM FEW250 M07/M09 A2999 RMK AO2 SLP154 T10721094= 201712161051 METAR KEWR 161051Z 22005KT 10SM FEW250 M07/M10 A3001 RMK AO2 SLP160 T10721100= 201712161151 METAR KEWR 161151Z 24010KT 10SM SCT250 M06/M09 A3003 RMK AO2 SLP168 4/001 70010 T10561089 11050 21083 53017= 201712161251 METAR KEWR 161251Z 23008KT 10SM SCT250 M05/M09 A3005 RMK AO2 SLP176 T10501089= 201712161351 METAR KEWR 161351Z 24012KT 10SM BKN070 BKN110 BKN260 M03/M08 A3008 RMK AO2 SLP184 T10281078= 201712161451 METAR KEWR 161451Z 24012KT 10SM BKN045 BKN060 BKN260 M01/M07 A3009 RMK AO2 SLP188 T10111072 51020= 201712161551 METAR KEWR 161551Z 23011KT 10SM BKN050 OVC060 M01/M07 A3006 RMK AO2 SLP178 T10061067= 201712161651 METAR KEWR 161651Z 24013G19KT 10SM SCT050 SCT060 BKN260 02/M06 A3003 RMK AO2 SLP168 T00171056= 201712161751 METAR KEWR 161751Z 23014KT 10SM BKN046 BKN070 BKN260 02/M06 A3000 RMK AO2 SLP159 T00221056 10022 21061 56030= 201712161851 METAR KEWR 161851Z 24017G23KT 10SM BKN044 OVC065 03/M05 A2999 RMK AO2 SLP156 T00281050= 201712161951 METAR KEWR 161951Z 24013KT 10SM SCT030 OVC046 03/M04 A3000 RMK AO2 SLP157 T00281044= 201712162051 METAR KEWR 162051Z 24015KT 10SM SCT030 OVC043 03/M04 A3001 RMK AO2 SLP161 T00331039 53003= 201712162151 METAR KEWR 162151Z 24011KT 10SM FEW030 BKN043 OVC055 03/M04 A3003 RMK AO2 SLP169 T00331039= 201712162251 METAR KEWR 162251Z 25008KT 10SM FEW045 OVC055 03/M04 A3006 RMK AO2 SLP179 T00331039= 201712162351 METAR KEWR 162351Z 24008KT 10SM FEW050 OVC060 04/M04 A3009 RMK AO2 SLP189 T00391039 10039 20022 53027= 201712170051 METAR KEWR 170051Z 31005KT 10SM FEW038 BKN050 OVC060 03/M03 A3014 RMK AO2 SLP205 T00331033= 201712170151 METAR KEWR 170151Z 35006KT 10SM SCT037 OVC050 03/M03 A3016 RMK AO2 SLP213 T00281033= 201712170251 METAR KEWR 170251Z 34010KT 10SM SCT041 OVC055 02/M04 A3018 RMK AO2 SLP220 T00221039 51031= 201712170351 METAR KEWR 170351Z 33009KT 10SM FEW040 BKN050 OVC065 02/M04 A3020 RMK AO2 SLP224 T00221044= 201712170451 METAR KEWR 170451Z 02006KT 10SM BKN046 BKN060 01/M04 A3021 RMK AO2 SLP230 T00111044 400391083= 201712170551 METAR KEWR 170551Z 02004KT 10SM FEW035 OVC055 01/M04 A3022 RMK AO2 SLP231 T00111044 10039 20006 51011= 201712170651 METAR KEWR 170651Z 02006KT 10SM SCT033 OVC050 01/M04 A3023 RMK AO2 SLP237 T00061044= 201712170751 METAR KEWR 170751Z 03004KT 10SM BKN033 OVC048 01/M05 A3025 RMK AO2 SLP244 T00061050= 201712170851 METAR KEWR 170851Z 03005KT 10SM FEW033 OVC040 01/M06 A3027 RMK AO2 SLP248 T00061056 51017= 201712170951 METAR KEWR 170951Z 03006KT 10SM OVC042 01/M06 A3027 RMK AO2 SLP248 T00061056= 201712171051 METAR KEWR 171051Z 03005KT 10SM FEW042 SCT050 OVC070 01/M06 A3026 RMK AO2 SLP245 T00061056= 201712171151 METAR KEWR 171151Z 02005KT 10SM BKN045 OVC070 00/M06 A3028 RMK AO2 SLP252 T00001056 10011 20000 53004= 201712171251 METAR KEWR 171251Z 02005KT 10SM BKN048 BKN070 00/M06 A3029 RMK AO2 SLP255 T00001056= 201712171351 METAR KEWR 171351Z 00000KT 10SM BKN048 BKN070 OVC100 01/M06 A3030 RMK AO2 SLP259 T00111056= 201712171451 METAR KEWR 171451Z 00000KT 10SM BKN050 BKN070 OVC100 01/M06 A3031 RMK AO2 SLP262 T00111056 53010= 201712171551 METAR KEWR 171551Z 04004KT 10SM BKN049 BKN070 OVC100 02/M05 A3029 RMK AO2 SLP257 T00171050= 201712171651 METAR KEWR 171651Z 00000KT 10SM BKN050 BKN070 OVC100 02/M05 A3029 RMK AO2 SLP256 T00171050= 201712171751 METAR KEWR 171751Z 00000KT 10SM FEW049 BKN100 BKN220 03/M04 A3026 RMK AO2 SLP245 T00331044 10033 20000 58017= 201712171851 METAR KEWR 171851Z 06004KT 10SM SCT049 BKN100 BKN210 03/M04 A3024 RMK AO2 SLP239 T00281044= 201712171951 METAR KEWR 171951Z 05004KT 10SM FEW049 BKN100 OVC210 03/M04 A3024 RMK AO2 SLP238 T00281044= 201712172051 METAR KEWR 172051Z 07003KT 10SM FEW049 SCT100 BKN210 BKN260 03/M04 A3024 RMK AO2 SLP239 T00281039 55007= 201712172151 METAR KEWR 172151Z 07003KT 10SM FEW049 SCT100 BKN200 BKN250 02/M04 A3024 RMK AO2 SLP237 T00221039= 201712172251 METAR KEWR 172251Z 00000KT 10SM FEW050 SCT140 BKN250 03/M03 A3025 RMK AO2 SLP243 T00331033= 201712172351 METAR KEWR 172351Z 00000KT 10SM FEW022 SCT120 BKN250 03/M03 A3028 RMK AO2 PRESRR SLP253 T00331028 10033 20022 53014= 201712180051 METAR KEWR 180051Z 04004KT 10SM SCT022 BKN120 BKN250 03/M03 A3026 RMK AO2 SLP247 T00281028= 201712180151 METAR KEWR 180151Z 03006KT 10SM OVC018 02/M02 A3025 RMK SLP241 T00221022= 201712180251 METAR KEWR 180251Z 10004KT 10SM OVC017 03/M02 A3023 RMK AO2 SLP237 T00281022 56016= 201712180351 METAR KEWR 180351Z 08004KT 10SM BKN017 OVC120 03/M03 A3022 RMK AO2 SLP231 T00281028= 201712180451 METAR KEWR 180451Z 08004KT 10SM OVC016 03/M03 A3020 RMK AO2 SLP226 T00281028 400330000= 201712180551 METAR KEWR 180551Z 06004KT 10SM OVC015 03/M02 A3019 RMK AO2 SLP223 T00281022 10033 20022 56014= 201712180651 METAR KEWR 180651Z 03005KT 10SM -RAPL OVC015 02/M02 A3019 RMK AO2 RAB35SNB17E45PLB29 SLP221 P0001 T00171022= 201712180751 METAR KEWR 180751Z 06005KT 6SM -RA SCT016 BKN028 OVC050 02/M01 A3017 RMK AO2 PLE28 SLP217 P0002 T00171011= 201712180851 METAR KEWR 180851Z 03004KT 9SM -RASN FEW014 SCT025 OVC060 02/M01 A3014 RMK AO2 PLB0759E18SNB41 SLP207 P0001 60004 T00171006 58016= 201712180951 METAR KEWR 180951Z 01006KT 10SM OVC012 01/M01 A3015 RMK AO2 RAE42SNE05 SLP208 P0000 T00111006= 201712181051 METAR KEWR 181051Z 02005KT 10SM OVC014 01/M02 A3014 RMK AO2 SLP205 T00111017= 201712181151 METAR KEWR 181151Z 01006KT 10SM BKN012 BKN020 OVC075 01/M02 A3013 RMK AO2 SLP203 CIG 010V015 931000 60004 70004 T00111017 10028 20011 58004= 201712181251 METAR KEWR 181251Z 02007KT 10SM BKN010 OVC075 01/M01 A3012 RMK AO2 SLP199 T00111011= 201712181351 METAR KEWR 181351Z 02005KT 9SM OVC009 02/M01 A3011 RMK AO2 SLP196 T00221006= 201712181451 METAR KEWR 181451Z 35006KT 9SM OVC009 03/00 A3011 RMK AO2 SLP195 T00330000 56008= 201712181551 METAR KEWR 181551Z 02004KT 9SM OVC008 04/00 A3008 RMK AO2 SLP186 T00390000= 201712181651 METAR KEWR 181651Z VRB03KT 8SM OVC008 06/02 A3005 RMK AO2 SLP175 CIG 007V010 T00610022= 201712181751 METAR KEWR 181751Z VRB04KT 8SM SCT008 BKN075 08/02 A3002 RMK AO2 SLP164 T00780022 10078 20011 58031= 201712181851 METAR KEWR 181851Z 27004KT 9SM FEW020 BKN070 BKN250 08/02 A2998 RMK AO2 SLP150 T00830017= 201712181951 METAR KEWR 181951Z 00000KT 9SM SCT070 BKN250 09/01 A2997 RMK AO2 SLP149 T00890011= 201712182051 METAR KEWR 182051Z 26008KT 9SM FEW070 BKN250 08/01 A2997 RMK AO2 SLP147 T00830006 56017= 201712182151 METAR KEWR 182151Z 21007KT 10SM FEW070 BKN250 08/02 A2997 RMK AO2 SLP147 T00780017= 201712182251 METAR KEWR 182251Z 24007KT 10SM BKN095 BKN250 08/02 A2997 RMK AO2 SLP149 T00780017= 201712182351 METAR KEWR 182351Z 22010KT 10SM BKN065 OVC095 08/01 A2997 RMK AO2 SLP148 T00780011 10089 20072 50001= 201712190051 METAR KEWR 190051Z 22008KT 9SM -RA OVC055 08/02 A2996 RMK AO2 RAB45 SLP146 P0000 T00780017= 201712190151 METAR KEWR 190151Z 23009KT 9SM BKN038 OVC080 08/02 A2996 RMK AO2 RAE0055 SLP146 P0000 T00780017= 201712190251 METAR KEWR 190251Z 22008KT 9SM FEW040 BKN075 07/01 A2996 RMK AO2 SLP143 60000 T00670011 58005= 201712190351 METAR KEWR 190351Z 22005KT 9SM BKN070 06/01 A2996 RMK AO2 SLP143 T00610011= 201712190451 METAR KEWR 190451Z 21005KT 9SM BKN060 06/02 A2993 RMK AO2 SLP135 T00610017 400890011= 201712190551 METAR KEWR 190551Z 24007KT 9SM BKN070 07/02 A2994 RMK AO2 SLP137 60000 T00720022 10083 20050 55006= 201712190651 METAR KEWR 190651Z 22008KT 9SM BKN070 07/03 A2993 RMK AO2 SLP135 T00670028= 201712190751 METAR KEWR 190751Z 24008KT 10SM BKN075 07/03 A2994 RMK AO2 SLP137 T00670028= 201712190851 METAR KEWR 190851Z 23007KT 10SM BKN075 06/02 A2992 RMK AO2 SLP132 T00610022 58005= 201712190951 METAR KEWR 190951Z 23007KT 10SM BKN075 06/02 A2991 RMK AO2 SLP128 T00610022= 201712191051 METAR KEWR 191051Z 22006KT 9SM BKN070 07/02 A2992 RMK AO2 SLP132 T00670022= 201712191151 METAR KEWR 191151Z 24006KT 9SM BKN060 BKN075 07/03 A2992 RMK AO2 SLP132 T00720028 10072 20061 55000 $= 201712191251 METAR KEWR 191251Z 22005KT 9SM BKN060 BKN075 BKN180 07/03 A2992 RMK AO2 SLP130 T00670028 $= 201712191351 METAR KEWR 191351Z 22007KT 10SM SCT050 BKN065 BKN250 08/03 A2993 RMK AO2 SLP133 T00830033 $= 201712191451 METAR KEWR 191451Z 24009KT 10SM FEW050 SCT065 BKN250 11/03 A2992 RMK AO2 SLP131 T01060033 56001 $= 201712191551 METAR KEWR 191551Z 24014G22KT 10SM FEW045 BKN060 BKN250 12/03 A2990 RMK AO2 SLP123 T01220033 $= 201712191651 METAR KEWR 191651Z 25014G21KT 10SM FEW038 BKN045 BKN060 BKN250 12/03 A2985 RMK AO2 PK WND 25026/1637 SLP107 T01220028 $= 201712191751 METAR KEWR 191751Z 25024G31KT 10SM SCT045 BKN060 BKN150 BKN250 13/02 A2982 RMK AO2 PK WND 25031/1747 SLP096 T01330017 10133 20067 58036 $= 201712191851 METAR KEWR 191851Z 24019G29KT 10SM FEW045 FEW060 BKN180 BKN250 13/01 A2979 RMK AO2 PK WND 25032/1809 SLP086 T01330011 $= 201712191951 METAR KEWR 191951Z 24013KT 10SM FEW045 SCT200 BKN250 13/01 A2978 RMK AO2 PK WND 25031/1919 SLP085 T01330011 $= 201712192051 METAR KEWR 192051Z 23015KT 10SM FEW045 SCT200 BKN250 13/01 A2976 RMK AO2 SLP076 T01330011 56019= 201712192151 METAR KEWR 192151Z 22011KT 10SM FEW045 FEW200 BKN250 12/01 A2976 RMK AO2 SLP077 T01220011= 201712192251 METAR KEWR 192251Z 22013KT 10SM FEW200 BKN250 12/02 A2977 RMK AO2 SLP079 T01170017= 201712192351 METAR KEWR 192351Z 23018G22KT 10SM FEW200 BKN250 12/02 A2977 RMK AO2 SLP080 T01170017 10139 20117 53004= 201712200051 METAR KEWR 200051Z 23012KT 10SM FEW200 BKN250 11/01 A2976 RMK AO2 SLP077 T01110011= 201712200151 METAR KEWR 200151Z 22013KT 10SM SCT250 10/01 A2974 RMK AO2 SLP071 T01000011 $= 201712200251 METAR KEWR 200251Z 23016KT 10SM FEW250 10/01 A2974 RMK AO2 SLP070 T01000011 56010 $= 201712200351 METAR KEWR 200351Z 23015KT 10SM FEW250 09/01 A2973 RMK AO2 PK WND 23027/0311 SLP066 T00940011 $= 201712200451 METAR KEWR 200451Z 23013KT 10SM FEW040 FEW250 09/01 A2971 RMK AO2 SLP062 T00940011 401390061 $= 201712200551 METAR KEWR 200551Z 23014KT 10SM FEW250 09/01 A2972 RMK AO2 SLP063 T00940006 10117 20089 55007 $= 201712200651 METAR KEWR 200651Z 24012KT 10SM FEW050 SCT070 SCT250 10/01 A2974 RMK AO2 SLP069 T01000006 $= 201712200751 METAR KEWR 200751Z 25010KT 10SM FEW050 BKN070 BKN250 09/01 A2975 RMK AO2 SLP074 T00940011 $= 201712200851 METAR KEWR 200851Z 28008KT 10SM FEW040 FEW060 SCT250 08/01 A2978 RMK AO2 SLP083 T00830011 53020 $= 201712200951 METAR KEWR 200951Z 28009KT 10SM FEW045 FEW250 08/M04 A2980 RMK AO2 SLP090 T00831044 $= 201712201051 METAR KEWR 201051Z 29012KT 10SM FEW050 08/M04 A2982 RMK AO2 SLP098 T00781044 $= 201712201151 METAR KEWR 201151Z 32014G19KT 10SM FEW050 SCT250 07/M06 A2987 RMK AO2 SLP113 T00671061 10100 20067 53030 $= 201712201251 METAR KEWR 201251Z 31004KT 10SM FEW050 BKN250 06/M05 A2990 RMK AO2 SLP123 T00611050 $= 201712201351 METAR KEWR 201351Z 30012KT 10SM SCT065 BKN250 07/M08 A2992 RMK AO2 SLP130 T00671078 $= 201712201451 METAR KEWR 201451Z 26007G18KT 10SM SCT065 BKN250 07/M08 A2994 RMK AO2 SLP138 T00671078 51025= 201712201551 METAR KEWR 201551Z 29012G20KT 10SM SCT060 OVC250 07/M08 A2993 RMK AO2 SLP136 T00721078= 201712201651 METAR KEWR 201651Z 29016G28KT 10SM SCT060 BKN250 08/M07 A2990 RMK AO2 PK WND 30028/1642 SLP126 T00781072= 201712201751 METAR KEWR 201751Z 29015G22KT 10SM SCT060 BKN250 08/M08 A2989 RMK AO2 PK WND 30026/1712 SLP122 T00831078 10083 20056 58017= 201712201851 METAR KEWR 201851Z 29012G22KT 10SM FEW060 SCT170 BKN250 07/M08 A2990 RMK AO2 PK WND 28027/1758 SLP124 T00721078= 201712201951 METAR KEWR 201951Z 30012KT 10SM FEW060 FEW170 BKN250 07/M08 A2991 RMK AO2 SLP129 T00721083= 201712202051 METAR KEWR 202051Z 32015G24KT 10SM FEW060 FEW170 SCT250 07/M09 A2994 RMK AO2 PK WND 31026/2036 SLP136 T00671089 53014= 201712202151 METAR KEWR 202151Z 31013KT 10SM FEW060 FEW170 SCT250 06/M08 A2996 RMK AO2 SLP145 T00561083= 201712202251 METAR KEWR 202251Z 33011KT 10SM FEW060 SCT250 05/M09 A2999 RMK AO2 SLP156 T00501094= 201712202351 METAR KEWR 202351Z 34010KT 10SM FEW250 04/M09 A3001 RMK AO2 SLP161 T00391089 10083 20039 51024= 201712210051 METAR KEWR 210051Z 34011KT 10SM FEW250 03/M09 A3003 RMK AO2 SLP167 T00331089= 201712210151 METAR KEWR 210151Z 31008KT 10SM FEW250 03/M09 A3004 RMK AO2 SLP170 T00281089= 201712210251 METAR KEWR 210251Z 32010KT 10SM FEW250 02/M09 A3005 RMK AO2 SLP174 T00221089 51014= 201712210351 METAR KEWR 210351Z 33008KT 10SM BKN250 02/M09 A3005 RMK AO2 SLP176 T00171089= 201712210451 METAR KEWR 210451Z 31010KT 10SM FEW250 01/M08 A3005 RMK AO2 SLP176 T00111083 401000011= 201712210551 METAR KEWR 210551Z 30004KT 10SM FEW250 01/M09 A3005 RMK AO2 SLP176 T00061089 10039 20006 51002= 201712210651 METAR KEWR 210651Z 33010KT 10SM FEW250 01/M08 A3007 RMK AO2 SLP181 T00061083= 201712210751 METAR KEWR 210751Z 30005KT 10SM FEW250 M01/M09 A3010 RMK AO2 SLP190 T10061089= 201712210851 METAR KEWR 210851Z 28006KT 10SM FEW160 FEW250 M01/M08 A3010 RMK AO2 SLP191 T10111083 51015= 201712210951 METAR KEWR 210951Z 29006KT 10SM BKN170 BKN250 M01/M08 A3011 RMK AO2 SLP196 T10061078= 201712211051 METAR KEWR 211051Z 27004KT 10SM BKN150 OVC200 00/M08 A3012 RMK AO2 SLP200 T00001083= 201712211151 METAR KEWR 211151Z 32006KT 10SM BKN160 01/M08 A3013 RMK AO2 SLP203 T00061083 10006 21011 51012= 201712211251 METAR KEWR 211251Z 31009KT 10SM SCT160 BKN200 01/M08 A3019 RMK AO2 SLP222 T00111078= 201712211351 METAR KEWR 211351Z 35011KT 10SM FEW040 FEW180 02/M08 A3020 RMK AO2 SLP225 T00221078= 201712211451 METAR KEWR 211451Z 34009KT 10SM FEW040 FEW160 03/M08 A3022 RMK AO2 SLP233 T00281078 51030= 201712211551 METAR KEWR 211551Z 33005KT 10SM FEW045 FEW200 03/M08 A3023 RMK AO2 SLP235 T00331078= 201712211651 METAR KEWR 211651Z VRB06KT 10SM FEW045 FEW200 04/M08 A3021 RMK AO2 SLP228 T00441083= 201712211751 METAR KEWR 211751Z VRB03KT 10SM FEW200 04/M08 A3019 RMK AO2 SLP221 T00441083 10056 20006 58012= 201712211851 METAR KEWR 211851Z VRB03KT 10SM FEW200 06/M08 A3019 RMK AO2 SLP223 T00561083= 201712211951 METAR KEWR 211951Z 28006KT 10SM FEW200 06/M08 A3019 RMK AO2 SLP222 T00561083= 201712212051 METAR KEWR 212051Z 31007KT 10SM FEW080 FEW200 04/M09 A3022 RMK AO2 SLP231 T00441089 53010= 201712212151 METAR KEWR 212151Z 32007KT 10SM FEW080 BKN200 BKN260 04/M09 A3023 RMK AO2 SLP237 T00391094= 201712212251 METAR KEWR 212251Z 36007KT 10SM FEW100 BKN200 BKN260 04/M09 A3024 RMK AO2 SLP239 T00391094= 201712212351 METAR KEWR 212351Z 35006KT 10SM FEW090 BKN170 BKN250 04/M10 A3026 RMK AO2 SLP246 T00391100 10056 20028 53015= 201712220051 METAR KEWR 220051Z 03005KT 10SM FEW090 SCT150 BKN200 BKN260 03/M09 A3027 RMK AO2 SLP249 T00331094= 201712220151 METAR KEWR 220151Z 03006KT 10SM FEW090 BKN150 BKN250 01/M09 A3028 RMK AO2 SLP253 T00111089= 201712220251 METAR KEWR 220251Z 03006KT 10SM FEW090 BKN170 BKN250 01/M09 A3028 RMK AO2 SLP254 T00111089 51008= 201712220351 METAR KEWR 220351Z 02005KT 10SM BKN100 BKN180 BKN250 02/M09 A3029 RMK AO2 SLP257 T00171089= 201712220451 METAR KEWR 220451Z 03004KT 10SM SCT100 BKN180 BKN250 02/M08 A3028 RMK AO2 SLP253 T00171083 400561011= 201712220551 METAR KEWR 220551Z 02004KT 10SM SCT100 BKN190 BKN250 02/M08 A3027 RMK AO2 SLP251 T00171083 10039 20006 58003= 201712220651 METAR KEWR 220651Z 02006KT 10SM SCT130 BKN190 BKN230 01/M08 A3029 RMK AO2 SLP255 T00111078= 201712220751 METAR KEWR 220751Z 36004KT 10SM BKN130 BKN190 BKN230 02/M07 A3030 RMK AO2 SLP259 T00171072= 201712220851 METAR KEWR 220851Z 02006KT 10SM BKN085 OVC130 02/M06 A3029 RMK AO2 SLP256 T00221061 50006= 201712220951 METAR KEWR 220951Z 02006KT 10SM BKN075 BKN120 OVC190 02/M06 A3028 RMK AO2 SLP253 T00171061= 201712221051 METAR KEWR 221051Z 02004KT 10SM OVC065 03/M06 A3029 RMK AO2 SLP256 T00281056= 201712221151 METAR KEWR 221151Z 06005KT 10SM FEW035 OVC060 03/M06 A3029 RMK AO2 SLP257 T00331056 10033 20006 53000= 201712221251 METAR KEWR 221251Z 02005KT 10SM FEW035 BKN055 OVC070 02/M06 A3028 RMK AO2 SLP251 T00221056= 201712221351 METAR KEWR 221351Z 03005KT 10SM BKN030 BKN055 OVC070 03/M05 A3027 RMK AO2 SLP251 T00281050= 201712221451 METAR KEWR 221451Z 02006KT 10SM BKN026 OVC055 04/M04 A3027 RMK AO2 SLP250 T00391044 56006= 201712221551 METAR KEWR 221551Z 02005KT 10SM BKN024 OVC033 04/M04 A3025 RMK AO2 SLP243 T00441044= 201712221651 METAR KEWR 221651Z 06007KT 10SM SCT021 BKN026 OVC037 05/M04 A3023 RMK AO2 SLP234 T00501039= 201712221751 METAR KEWR 221751Z 00000KT 10SM FEW021 SCT028 OVC065 07/M02 A3016 RMK AO2 SLP213 T00671022 10067 20022 58037= 201712221851 METAR KEWR 221851Z 01003KT 10SM FEW021 FEW028 OVC060 08/01 A3016 RMK AO2 SLP212 T00780006= 201712221951 METAR KEWR 221951Z 09004KT 10SM FEW022 BKN060 OVC150 08/02 A3013 RMK AO2 SLP202 T00830022= 201712222051 METAR KEWR 222051Z 00000KT 10SM FEW022 SCT050 BKN070 OVC200 09/04 A3014 RMK AO2 SLP205 T00890044 55008= 201712222151 METAR KEWR 222151Z 00000KT 10SM FEW020 SCT040 OVC060 09/05 A3014 RMK AO2 SLP206 T00940050= 201712222251 METAR KEWR 222251Z 01004KT 10SM FEW020 BKN042 OVC070 07/02 A3014 RMK AO2 SLP205 T00720022= 201712222351 METAR KEWR 222351Z 05004KT 10SM FEW020 BKN045 OVC060 07/02 A3014 RMK AO2 SLP207 T00720017 10094 20067 53002= 201712230051 METAR KEWR 230051Z 02005KT 10SM FEW020 FEW045 SCT075 OVC170 07/01 A3014 RMK AO2 SLP207 T00720011= 201712230151 METAR KEWR 230151Z 02005KT 10SM FEW020 FEW075 OVC180 07/01 A3014 RMK AO2 SLP205 T00670011= 201712230251 METAR KEWR 230251Z 02008KT 10SM FEW050 BKN080 OVC180 06/02 A3015 RMK AO2 SLP207 T00610017 53000= 201712230351 METAR KEWR 230351Z 04004KT 10SM FEW006 BKN080 OVC150 06/02 A3015 RMK AO2 SLP208 T00610022= 201712230451 METAR KEWR 230451Z 02005KT 10SM FEW006 SCT060 BKN100 OVC180 06/03 A3014 RMK AO2 SLP205 T00560028 400940006= 201712230551 METAR KEWR 230551Z 04008KT 8SM FEW006 BKN050 OVC070 05/03 A3009 RMK AO2 SLP188 T00500028 10083 20050 58020= 201712230651 METAR KEWR 230651Z 01004KT 9SM FEW006 OVC060 05/03 A3011 RMK AO2 SLP195 T00500028= 201712230751 METAR KEWR 230751Z 36006KT 7SM BKN010 OVC050 05/03 A3011 RMK AO2 SLP196 T00500028= 201712230851 METAR KEWR 230851Z 05003KT 7SM BKN008 OVC042 05/03 A3009 RMK AO2 SLP187 T00500033 58008= 201712230951 METAR KEWR 230951Z 04005KT 4SM -RA BR OVC008 05/04 A3007 RMK AO2 RAB02 SLP182 P0001 T00500039= 201712231051 METAR KEWR 231051Z 02004KT 3SM -RA BR OVC007 04/04 A3006 RMK AO2 SLP177 P0003 T00440039= 201712231151 METAR KEWR 231151Z 02007KT 2SM -RA BR OVC005 04/03 A3003 RMK AO2 TWR VIS 2 1/2 SLP169 P0002 60006 70006 T00390033 10056 20039 58019= 201712231251 METAR KEWR 231251Z 02009KT 2 1/2SM -RA BR OVC005 04/03 A3000 RMK AO2 SFC VIS 3 SLP158 P0001 T00390033= 201712231351 METAR KEWR 231351Z 04004KT 2 1/2SM -RA BR OVC005 04/04 A2996 RMK AO2 SLP143 P0004 T00440044= 201712231451 METAR KEWR 231451Z 02003KT 1 1/2SM -RA BR OVC005 06/05 A2995 RMK AO2 SFC VIS 1 3/4 SLP140 P0004 60009 T00560050 56028= 201712231551 METAR KEWR 231551Z 04007KT 1SM R04R/6000VP6000FT RA BR OVC003 04/04 A2987 RMK AO2 SLP113 P0006 T00440044= 201712231651 METAR KEWR 231651Z 03005KT 1 3/4SM -RA BR OVC003 05/04 A2981 RMK AO2 PRESFR SLP092 P0008 T00500044= 201712231751 METAR KEWR 231751Z 06007KT 1 3/4SM -RA BR OVC003 06/06 A2973 RMK AO2 PRESFR SLP067 P0010 60033 T00560056 10056 20039 56073= 201712231851 METAR KEWR 231851Z 02005KT 2 1/2SM BR OVC003 07/06 A2968 RMK AO2 RAE32 SLP048 P0002 T00670061= 201712231951 METAR KEWR 231951Z 01004KT 4SM BR BKN004 OVC015 08/07 A2965 RMK AO2 SLP039 T00780072= 201712232051 METAR KEWR 232051Z 04003KT 5SM BR SCT005 BKN019 OVC025 07/07 A2965 RMK AO2 SLP041 60002 T00720067 55026= 201712232151 METAR KEWR 232151Z 02003KT 6SM BR FEW005 SCT019 OVC027 08/07 A2966 RMK AO2 SLP044 T00780067= 201712232251 METAR KEWR 232251Z 02003KT 6SM -RA BR FEW019 OVC025 07/07 A2969 RMK AO2 RAB25 SLP053 P0001 T00720067= 201712232351 METAR KEWR 232351Z 35006KT 3SM -RA BR SCT008 BKN014 OVC023 09/08 A2974 RMK AO2 SLP069 P0006 60009 T00890078 10089 20056 53029= 201712240051 METAR KEWR 240051Z 32013G18KT 10SM FEW008 SCT018 OVC030 09/08 A2978 RMK AO2 RAE48 SLP082 P0003 T00940078= 201712240151 METAR KEWR 240151Z 32010G19KT 10SM FEW018 SCT034 OVC047 08/05 A2980 RMK AO2 RAB06E12B41E47 SLP091 P0000 T00780050= 201712240251 METAR KEWR 240251Z 33013G19KT 10SM FEW018 SCT047 BKN060 07/03 A2987 RMK AO2 SLP115 60003 T00720033 53046= 201712240351 METAR KEWR 240351Z 31011G22KT 10SM FEW018 FEW075 06/02 A2993 RMK AO2 SLP133 T00560017= 201712240451 METAR KEWR 240451Z 32013G20KT 10SM FEW024 04/01 A2996 RMK AO2 SLP145 T00440006 401000039= 201712240551 METAR KEWR 240551Z 34010KT 10SM FEW040 04/M01 A3001 RMK AO2 SLP161 60003 T00391006 10100 20039 51046= 201712240651 METAR KEWR 240651Z 31011G18KT 10SM FEW035 BKN250 04/M01 A3007 RMK AO2 SLP181 T00391006= 201712240751 METAR KEWR 240751Z 32011KT 10SM FEW035 SCT250 03/M02 A3008 RMK AO2 SLP185 T00281017= 201712240851 METAR KEWR 240851Z 32012KT 10SM FEW030 OVC230 03/M02 A3013 RMK AO2 SLP200 T00331022 51040= 201712240951 METAR KEWR 240951Z 32009KT 10SM FEW030 SCT200 BKN250 03/M02 A3014 RMK AO2 SLP205 T00331022= 201712241051 METAR KEWR 241051Z 34007KT 10SM SCT200 BKN250 03/M03 A3016 RMK AO2 SLP211 T00281028= 201712241151 METAR KEWR 241151Z 35013G19KT 10SM BKN200 BKN250 03/M02 A3017 RMK AO2 SLP215 70045 T00331022 10039 20028 51015= 201712241251 METAR KEWR 241251Z 32006KT 10SM BKN190 BKN240 03/M03 A3018 RMK AO2 SLP220 T00331028= 201712241351 METAR KEWR 241351Z 35012KT 10SM FEW025 BKN190 BKN240 03/M03 A3022 RMK AO2 SLP232 T00331033= 201712241451 METAR KEWR 241451Z 02009KT 10SM FEW025 BKN180 BKN250 04/M03 A3024 RMK AO2 SLP238 T00391033 53023= 201712241551 METAR KEWR 241551Z 03012KT 10SM FEW025 BKN190 BKN230 03/M03 A3022 RMK AO2 SLP234 T00331028= 201712241651 METAR KEWR 241651Z 03009KT 10SM FEW025 BKN170 BKN250 04/M04 A3021 RMK AO2 SLP228 T00391039= 201712241751 METAR KEWR 241751Z 02011KT 10SM FEW025 BKN160 OVC250 04/M04 A3018 RMK AO2 SLP219 T00441039 10044 20028 58019= 201712241851 METAR KEWR 241851Z 03007KT 10SM FEW030 BKN160 BKN250 04/M04 A3017 RMK AO2 SLP214 T00441039= 201712241951 METAR KEWR 241951Z 09005KT 10SM FEW030 SCT200 BKN250 05/M03 A3014 RMK AO2 SLP207 T00501033= 201712242051 METAR KEWR 242051Z 08009KT 10SM FEW030 SCT170 BKN200 BKN250 04/M04 A3012 RMK AO2 SLP200 T00441039 58020= 201712242151 METAR KEWR 242151Z 07005KT 10SM FEW030 SCT100 BKN200 BKN250 04/M04 A3012 RMK AO2 SLP200 T00441039= 201712242251 METAR KEWR 242251Z 07009G14KT 10SM SCT033 BKN090 BKN250 04/M04 A3011 RMK AO2 SLP194 T00391039= 201712242351 METAR KEWR 242351Z 06009KT 10SM BKN030 OVC090 04/M03 A3008 RMK AO2 SLP187 T00391033 10050 20039 58013= 201712250051 METAR KEWR 250051Z 07011KT 10SM OVC025 04/M03 A3005 RMK AO2 SLP174 T00391028= 201712250151 METAR KEWR 250151Z 06006KT 9SM -RA OVC022 03/M01 A3001 RMK AO2 RAB36 SLP161 CIG 020V025 P0000 T00331011= 201712250251 METAR KEWR 250251Z 06011KT 7SM -RA BKN019 OVC028 03/M01 A2997 RMK AO2 RAE26B46SNB0152E26 SLP147 P0000 60000 T00331006 58040 $= 201712250351 METAR KEWR 250351Z 06009KT 10SM OVC014 03/01 A2991 RMK AO2 RAE48 SLP129 CIG 012V016 P0000 T00280006 $= 201712250451 METAR KEWR 250451Z 05011KT 6SM BR OVC011 03/01 A2985 RMK AO2 RAB0355E11B39E49 SLP107 P0000 T00280011 400500028 $= 201712250551 METAR KEWR 250551Z 02011KT 7SM -RA OVC007 02/01 A2980 RMK AO2 RAB0457 PRESFR SLP090 CIG 006V009 931000 P0003 60003 T00220011 10039 20022 56057 $= 201712250651 METAR KEWR 250651Z 02012KT 4SM -RA BR OVC005 01/01 A2975 RMK AO2 SLP073 CIG 004V008 P0004 T00110006 $= 201712250751 METAR KEWR 250751Z 34008KT 4SM -RA BR OVC005 02/01 A2971 RMK AO2 SLP061 CIG 004V006 P0005 T00170011 $= 201712250851 METAR KEWR 250851Z 31006KT 7SM -RA BKN005 OVC025 02/01 A2967 RMK AO2 PRESFR SLP046 P0001 60010 T00170011 56044 $= 201712250951 METAR KEWR 250951Z 33005KT 7SM -RA BKN005 OVC016 02/02 A2966 RMK AO2 SLP041 CIG 004V006 P0001 T00220017 $= 201712251051 METAR KEWR 251051Z 27007KT 9SM -RASN FEW005 BKN015 OVC036 01/01 A2969 RMK AO2 SNB31 SLP054 P0004 T00110006 $= 201712251151 METAR KEWR 251151Z 25010KT 10SM -RA FEW006 FEW020 OVC045 02/01 A2971 RMK AO2 SNE00 SLP061 931001 P0002 60017 70020 T00170011 10022 20011 53015 $= 201712251251 METAR KEWR 251251Z 25018G24KT 10SM FEW014 SCT040 SCT100 02/01 A2973 RMK AO2 RAE23 SLP066 VCSH S P0000 T00220006 $= 201712251351 METAR KEWR 251351Z 26022G36KT 10SM FEW015 FEW040 FEW100 03/M03 A2976 RMK AO2 PK WND 26036/1345 SLP078 T00281033 $= 201712251451 METAR KEWR 251451Z 27023G39KT 9SM -SN FEW020 SCT040 03/M06 A2982 RMK AO2 PK WND 28044/1437 SNB42 SLP097 P0000 60000 T00281061 53037 $= 201712251551 METAR KEWR 251551Z 27031G39KT 10SM SCT049 03/M08 A2986 RMK AO2 PK WND 27043/1501 SNE04 SLP110 VIRGA P0000 T00281083 $= 201712251651 METAR KEWR 251651Z 26023G37KT 10SM BKN055 02/M09 A2988 RMK AO2 PK WND 28037/1553 SLP117 T00171094 $= 201712251751 METAR KEWR 251751Z 26020G27KT 10SM BKN055 03/M10 A2990 RMK AO2 PK WND 28035/1712 SLP124 931000 60000 T00331100 10033 20017 51027 $= 201712251851 METAR KEWR 251851Z 25021G32KT 10SM BKN055 02/M11 A2992 RMK AO2 PK WND 25035/1823 SLP132 VIRGA NW T00221111 $= 201712251951 METAR KEWR 251951Z 26022G31KT 10SM BKN065 BKN200 02/M12 A2996 RMK AO2 PK WND 28032/1912 SLP143 T00171122 $= 201712252051 METAR KEWR 252051Z 25019G26KT 10SM SCT065 SCT200 01/M13 A2999 RMK AO2 PK WND 26033/2022 SLP155 T00111128 53030 $= 201712252151 METAR KEWR 252151Z 25012G25KT 10SM FEW065 FEW200 01/M12 A3005 RMK AO2 PK WND 27027/2130 SLP173 T00061122 $= 201712252251 METAR KEWR 252251Z 25021G25KT 10SM FEW060 FEW200 00/M13 A3009 RMK AO2 PK WND 25026/2239 SLP190 T00001133 $= 201712252351 METAR KEWR 252351Z 26023G28KT 10SM BKN060 M01/M12 A3014 RMK AO2 PK WND 26029/2338 SLP207 T10061122 10033 21006 51052 $= 201712260051 METAR KEWR 260051Z 26018G26KT 10SM FEW060 FEW200 M01/M13 A3018 RMK AO2 PK WND 27029/0010 SLP217 T10111128 $= 201712260151 METAR KEWR 260151Z 26017G24KT 10SM FEW200 SCT250 M02/M13 A3021 RMK AO2 PK WND 26030/0130 SLP229 T10171128 $= 201712260251 METAR KEWR 260251Z 26019G25KT 10SM BKN250 M02/M13 A3023 RMK AO2 SLP236 T10221133 51029 $= 201712260351 METAR KEWR 260351Z 26015G24KT 10SM OVC250 M02/M14 A3025 RMK AO2 SLP242 T10221139 $= 201712260451 METAR KEWR 260451Z 27016G25KT 10SM OVC240 M02/M14 A3025 RMK AO2 PK WND 28026/0428 SLP243 T10221144 400331022 $= 201712260551 METAR KEWR 260551Z 27013KT 10SM BKN250 M02/M14 A3027 RMK AO2 PK WND 25026/0516 SLP248 T10221139 11006 21022 51012 $= 201712260651 METAR KEWR 260651Z 27013G21KT 10SM BKN230 M03/M17 A3027 RMK AO2 SLP249 T10281167 $= 201712260751 METAR KEWR 260751Z 27015G21KT 10SM BKN250 M03/M17 A3029 RMK AO2 SLP258 T10331172 $= 201712260851 METAR KEWR 260851Z 28012G24KT 10SM SCT250 M04/M17 A3029 RMK AO2 SLP258 T10391172 51010 $= 201712260951 METAR KEWR 260951Z 27012G18KT 10SM BKN210 M04/M17 A3030 RMK AO2 SLP261 T10391172 $= 201712261051 METAR KEWR 261051Z 26011KT 10SM BKN210 M04/M17 A3033 RMK AO2 SLP271 T10391172 $= 201712261151 METAR KEWR 261151Z 26013G19KT 10SM BKN180 BKN250 M04/M18 A3038 RMK AO2 SLP285 T10391178 11022 21039 53027 $= 201712261251 METAR KEWR 261251Z 26017G21KT 10SM FEW050 BKN180 BKN250 M04/M19 A3041 RMK AO2 SLP296 T10441189 $= 201712261351 METAR KEWR 261351Z 26015KT 10SM FEW050 SCT190 BKN250 M04/M19 A3042 RMK AO2 SLP299 T10441189 $= 201712261451 METAR KEWR 261451Z 26016G25KT 10SM FEW050 BKN150 BKN220 M03/M18 A3043 RMK AO2 SLP304 T10331183 51019 $= 201712261551 METAR KEWR 261551Z 27017KT 10SM FEW055 BKN170 BKN220 M03/M18 A3043 RMK AO2 SLP302 T10331183 $= 201712261651 METAR KEWR 261651Z 27018G26KT 10SM FEW055 SCT130 BKN170 M03/M18 A3039 RMK AO2 PK WND 26026/1647 SLP291 T10281183 $= 201712261751 METAR KEWR 261751Z 27014G22KT 10SM FEW055 FEW140 SCT220 M02/M18 A3039 RMK AO2 PK WND 25028/1716 SLP289 T10221178 11017 21044 58015 $= 201712261851 METAR KEWR 261851Z 28012G19KT 10SM FEW055 FEW170 M02/M18 A3038 RMK AO2 SLP286 T10171178 $= 201712261951 METAR KEWR 261951Z 28015G21KT 10SM FEW055 FEW150 M01/M18 A3039 RMK AO2 SLP288 T10111178 $= 201712262051 METAR KEWR 262051Z 26012G19KT 10SM FEW055 FEW150 M02/M18 A3038 RMK AO2 PK WND 28026/2026 SLP288 T10221178 56001 $= 201712262151 METAR KEWR 262151Z 28014KT 10SM FEW050 FEW250 M03/M17 A3041 RMK AO2 SLP297 T10281172 $= 201712262251 METAR KEWR 262251Z 27009KT 10SM FEW050 FEW250 M03/M17 A3043 RMK AO2 SLP304 T10331172 $= 201712262351 METAR KEWR 262351Z 28006KT 10SM FEW150 M04/M17 A3044 RMK AO2 SLP307 T10391167 11011 21039 51019 $= 201712270051 METAR KEWR 270051Z 28006KT 10SM FEW150 M04/M16 A3044 RMK AO2 SLP306 T10441161 $= 201712270151 METAR KEWR 270151Z 26004KT 10SM FEW150 M04/M16 A3045 RMK AO2 SLP309 T10441161 $= 201712270251 METAR KEWR 270251Z 26006KT 10SM FEW120 FEW150 SCT250 M04/M16 A3045 RMK AO2 SLP312 T10441156 53005 $= 201712270351 METAR KEWR 270351Z 24006KT 10SM FEW150 FEW250 M04/M16 A3046 RMK AO2 SLP313 T10441156 $= 201712270451 METAR KEWR 270451Z 28008KT 10SM FEW120 FEW150 SCT250 M05/M16 A3047 RMK AO2 SLP317 T10501156 410111056 $= 201712270551 METAR KEWR 270551Z 32009KT 10SM SCT150 SCT250 M06/M16 A3047 RMK AO2 SLP318 T10561156 11039 21056 51006 $= 201712270651 METAR KEWR 270651Z 32005KT 10SM SCT120 BKN160 BKN250 M06/M16 A3047 RMK AO2 SLP318 T10611161 $= 201712270751 METAR KEWR 270751Z 33008KT 10SM BKN110 OVC180 M06/M16 A3049 RMK AO2 SLP324 T10611161 $= 201712270851 METAR KEWR 270851Z 32008KT 10SM OVC100 M06/M16 A3049 RMK AO2 SLP325 T10611161 53007 $= 201712270951 METAR KEWR 270951Z 31008KT 10SM OVC110 M06/M17 A3050 RMK AO2 SLP326 T10611167 $= 201712271051 METAR KEWR 271051Z 32009KT 10SM OVC100 M07/M17 A3051 RMK AO2 SLP330 T10671172 $= 201712271151 METAR KEWR 271151Z 33010KT 10SM OVC100 M07/M17 A3051 RMK AO2 SLP332 T10671172 11056 21067 52007 $= 201712271251 METAR KEWR 271251Z 32011KT 10SM BKN100 BKN250 M07/M17 A3052 RMK AO2 SLP334 T10721172 $= 201712271351 METAR KEWR 271351Z 33010KT 10SM FEW040 BKN100 BKN250 M07/M17 A3052 RMK AO2 SLP334 T10671172 $= 201712271451 METAR KEWR 271451Z 31009KT 10SM FEW065 FEW080 FEW100 BKN250 M06/M17 A3053 RMK AO2 SLP338 T10611172 53006= 201712271551 METAR KEWR 271551Z 27009KT 10SM FEW050 FEW065 FEW100 SCT250 M04/M17 A3052 RMK AO2 SLP333 T10441172= 201712271651 METAR KEWR 271651Z 27010KT 10SM FEW055 FEW100 SCT250 M04/M18 A3049 RMK AO2 SLP323 T10391178= 201712271751 METAR KEWR 271751Z 27014G21KT 10SM FEW060 FEW100 SCT250 M03/M19 A3046 RMK AO2 SLP313 T10331189 11033 21072 58025= 201712271851 METAR KEWR 271851Z 28007G17KT 10SM FEW060 FEW100 FEW250 M04/M18 A3044 RMK AO2 SLP306 T10391183= 201712271951 METAR KEWR 271951Z 29013KT 10SM FEW060 FEW250 M04/M19 A3044 RMK AO2 SLP306 T10391189= 201712272051 METAR KEWR 272051Z 29011G20KT 10SM FEW060 FEW250 M04/M20 A3044 RMK AO2 SLP305 T10391200 56008= 201712272151 METAR KEWR 272151Z 33014G20KT 10SM FEW060 M05/M20 A3046 RMK AO2 SLP313 T10501200= 201712272251 METAR KEWR 272251Z 33011G18KT 10SM FEW060 M06/M19 A3049 RMK AO2 SLP322 T10561194= 201712272351 METAR KEWR 272351Z 31011G18KT 10SM FEW055 M06/M19 A3051 RMK AO2 SLP331 T10611194 11033 21061 53026= 201712280051 METAR KEWR 280051Z 32015G18KT 10SM FEW055 M07/M19 A3051 RMK AO2 SLP332 T10671189= 201712280151 METAR KEWR 280151Z 31011G18KT 10SM FEW055 M07/M19 A3052 RMK AO2 SLP333 T10721189= 201712280251 METAR KEWR 280251Z 31008KT 10SM FEW055 M08/M19 A3052 RMK AO2 SLP333 T10781189 51002= 201712280351 METAR KEWR 280351Z 30012KT 10SM FEW055 M08/M18 A3052 RMK AO2 SLP334 T10781183= 201712280451 METAR KEWR 280451Z 30010KT 10SM FEW250 M08/M18 A3051 RMK AO2 SLP330 T10831178 410331083= 201712280551 METAR KEWR 280551Z 30011KT 10SM FEW050 FEW250 M08/M18 A3050 RMK AO2 SLP326 T10831178 11061 21083 58007= 201712280651 METAR KEWR 280651Z 31012G21KT 10SM FEW055 FEW250 M09/M18 A3050 RMK AO2 SLP328 T10891178= 201712280751 METAR KEWR 280751Z 31013KT 10SM FEW050 FEW250 M09/M18 A3052 RMK AO2 SLP332 T10941178= 201712280851 METAR KEWR 280851Z 29012KT 10SM FEW050 M09/M17 A3052 RMK AO2 SLP334 T10941172 51008= 201712280951 METAR KEWR 280951Z 28011G18KT 10SM FEW050 M10/M18 A3052 RMK AO2 SLP335 T11001178= 201712281051 METAR KEWR 281051Z 29010G24KT 10SM FEW050 M10/M18 A3054 RMK AO2 SLP340 T11001183= 201712281151 METAR KEWR 281151Z 30014G20KT 10SM FEW050 FEW250 M11/M19 A3056 RMK AO2 SLP347 T11061189 11083 21106 53013= 201712281251 METAR KEWR 281251Z 31008KT 10SM FEW050 FEW250 M10/M19 A3057 RMK AO2 SLP350 T11001189= 201712281351 METAR KEWR 281351Z 32012KT 10SM FEW050 FEW250 M10/M19 A3058 RMK AO2 SLP355 T11001194= 201712281451 METAR KEWR 281451Z 32012G19KT 10SM FEW050 FEW250 M09/M21 A3059 RMK AO2 SLP357 T10891206 51010= 201712281551 METAR KEWR 281551Z 31014G24KT 10SM FEW055 FEW250 M08/M22 A3057 RMK AO2 PK WND 32026/1538 SLP352 T10831222= 201712281651 METAR KEWR 281651Z 31015G21KT 10SM FEW050 M07/M21 A3054 RMK AO2 SLP340 T10721211= 201712281751 METAR KEWR 281751Z 29016G24KT 10SM FEW055 M07/M22 A3050 RMK AO2 PK WND 30027/1740 SLP328 T10671222 11067 21106 58029= 201712281851 METAR KEWR 281851Z 33015KT 10SM FEW050 FEW250 M07/M23 A3049 RMK AO2 SLP323 T10721228= 201712281951 METAR KEWR 281951Z 29015G21KT 10SM FEW055 FEW250 M07/M22 A3049 RMK AO2 SLP324 T10671222= 201712282051 METAR KEWR 282051Z 30015G21KT 10SM FEW055 FEW250 M07/M22 A3051 RMK AO2 PK WND 28026/2014 SLP329 T10721222 53001= 201712282151 METAR KEWR 282151Z 29014G19KT 10SM FEW055 FEW250 M08/M22 A3051 RMK AO2 SLP332 T10781217= 201712282251 METAR KEWR 282251Z 30014G22KT 10SM FEW250 M08/M22 A3052 RMK AO2 SLP332 T10831217= 201712282351 METAR KEWR 282351Z 30013G21KT 10SM FEW250 M09/M22 A3052 RMK AO2 SLP333 T10891222 11067 21089 51004= 201712290051 METAR KEWR 290051Z 31017G23KT 10SM FEW250 M09/M22 A3051 RMK AO2 SLP331 T10941222= 201712290151 METAR KEWR 290151Z 32010G20KT 10SM FEW250 M10/M22 A3049 RMK AO2 SLP324 T11001217= 201712290251 METAR KEWR 290251Z 32011KT 10SM FEW250 M11/M22 A3047 RMK AO2 SLP316 T11061217 58017= 201712290351 METAR KEWR 290351Z 32009KT 10SM FEW250 M11/M21 A3045 RMK AO2 SLP312 T11061211= 201712290451 METAR KEWR 290451Z 30008G17KT 10SM FEW250 M11/M21 A3045 RMK AO2 SLP310 T11111206 410671111= 201712290551 METAR KEWR 290551Z 29007KT 10SM SCT160 BKN250 M11/M20 A3043 RMK AO2 SLP302 T11111200 11089 21111 58014= 201712290651 METAR KEWR 290651Z 29010KT 10SM BKN140 BKN250 M11/M19 A3041 RMK AO2 SLP296 T11111194= 201712290751 METAR KEWR 290751Z 32006KT 10SM SCT130 BKN160 BKN240 M11/M19 A3040 RMK AO2 SLP293 T11111194= 201712290851 METAR KEWR 290851Z 31009KT 10SM BKN110 BKN140 BKN180 M11/M19 A3039 RMK AO2 SLP290 T11111189 56013= 201712290951 METAR KEWR 290951Z 33007KT 10SM BKN100 OVC160 M11/M19 A3035 RMK AO2 SLP275 T11061189= 201712291051 METAR KEWR 291051Z 32010KT 10SM OVC090 M11/M19 A3035 RMK AO2 SLP275 T11061189= 201712291151 METAR KEWR 291151Z 33007KT 10SM OVC080 M11/M18 A3034 RMK AO2 SLP273 T11061183 11106 21111 56017= 201712291251 METAR KEWR 291251Z 30006KT 10SM FEW030 SCT080 BKN110 M11/M18 A3034 RMK AO2 SLP272 T11061178= 201712291351 METAR KEWR 291351Z 31008KT 10SM FEW035 SCT080 BKN100 M09/M17 A3033 RMK AO2 SLP268 T10891172= 201712291451 METAR KEWR 291451Z 32007KT 10SM FEW040 SCT090 M08/M18 A3032 RMK AO2 SLP266 T10781178 58007= 201712291551 METAR KEWR 291551Z 28006G16KT 10SM FEW045 FEW250 M07/M17 A3031 RMK AO2 SLP261 T10671172= 201712291651 METAR KEWR 291651Z 27011KT 10SM FEW050 BKN100 M05/M17 A3027 RMK AO2 SLP250 T10501167= 201712291751 METAR KEWR 291751Z 30013KT 10SM FEW050 BKN090 M05/M17 A3022 RMK AO2 SLP234 T10501167 11050 21106 58033= 201712291851 METAR KEWR 291851Z 30013KT 10SM SCT045 SCT090 M05/M17 A3021 RMK AO2 SLP229 T10501167= 201712291951 METAR KEWR 291951Z 31012KT 10SM SCT043 SCT090 M04/M16 A3022 RMK AO2 SLP233 T10441161= 201712292051 METAR KEWR 292051Z 29013G20KT 10SM FEW042 M06/M16 A3024 RMK AO2 SLP238 T10561161 53004= 201712292151 METAR KEWR 292151Z 31012KT 10SM FEW045 M06/M17 A3026 RMK AO2 SLP245 T10611167= 201712292251 METAR KEWR 292251Z 30012KT 10SM FEW045 FEW250 M07/M17 A3027 RMK AO2 SLP249 T10671172= 201712292351 METAR KEWR 292351Z 30009KT 10SM FEW045 FEW250 M07/M17 A3028 RMK AO2 SLP254 T10721167 11039 21072 51016= 201712300051 METAR KEWR 300051Z 31011KT 10SM FEW045 FEW250 M07/M17 A3029 RMK AO2 SLP257 T10721167= 201712300151 METAR KEWR 300151Z 28006KT 10SM FEW100 SCT250 M08/M17 A3030 RMK AO2 SLP259 T10781167= 201712300251 METAR KEWR 300251Z 28006KT 10SM FEW100 SCT250 M08/M17 A3028 RMK AO2 SLP252 T10831167 58002= 201712300351 METAR KEWR 300351Z 27008KT 10SM FEW120 SCT250 M08/M16 A3028 RMK AO2 SLP254 T10831161= 201712300451 METAR KEWR 300451Z 28006KT 10SM FEW120 BKN250 M08/M16 A3026 RMK AO2 SLP245 T10831156 410391111= 201712300551 METAR KEWR 300551Z 27008KT 10SM SCT170 BKN250 M09/M16 A3025 RMK AO2 SLP242 T10891156 11072 21089 58011= 201712300651 METAR KEWR 300651Z 25004KT 10SM SCT160 BKN250 M08/M16 A3021 RMK AO2 SLP230 T10831156= 201712300751 METAR KEWR 300751Z 22004KT 10SM BKN130 BKN250 M09/M14 A3021 RMK AO2 SLP228 T10891144= 201712300851 METAR KEWR 300851Z 23004KT 10SM SCT110 BKN250 M09/M14 A3019 RMK AO2 SLP223 T10891144 56018= 201712300951 METAR KEWR 300951Z 25004KT 10SM SCT090 BKN160 BKN250 M08/M14 A3017 RMK AO2 SLP215 T10831139= 201712301051 METAR KEWR 301051Z 00000KT 10SM BKN070 BKN160 M08/M14 A3015 RMK AO2 SLP210 T10781144= 201712301151 METAR KEWR 301151Z 21003KT 10SM OVC065 M08/M14 A3016 RMK AO2 SLP212 T10781139 11078 21094 55012= 201712301251 METAR KEWR 301251Z 22005KT 10SM OVC060 M07/M13 A3015 RMK AO2 SLP209 T10721133= 201712301351 METAR KEWR 301351Z 23008KT 10SM -SN OVC060 M07/M12 A3015 RMK AO2 SNB37 SLP209 PRESENT WX -SG P0000 T10721122= 201712301451 METAR KEWR 301451Z 21010KT 1 3/4SM -SN FEW009 BKN012 OVC036 M07/M11 A3012 RMK AO2 SLP197 P0000 60000 T10721106 58015= 201712301551 METAR KEWR 301551Z 22008KT 1 1/2SM R04R/4500VP6000FT -SN BKN014 OVC039 M07/M09 A3009 RMK AO2 SLP187 P0000 T10671094= 201712301651 METAR KEWR 301651Z 27005KT 1SM R04R/4500VP6000FT -SN BKN012 OVC022 M07/M09 A3004 RMK AO2 SLP171 P0002 T10671094 $= 201712301751 METAR KEWR 301751Z 24004KT 1SM R04R/5000VP6000FT -SN BR BKN010 BKN022 OVC035 M06/M08 A2998 RMK AO2 SFC VIS 1 1/2 SLP150 P0001 60003 T10611083 11061 21078 58048 $= 201712301851 METAR KEWR 301851Z 24005KT 4SM -SN SCT014 BKN023 OVC049 M06/M08 A2994 RMK AO2 SLP137 P0000 T10561083 $= 201712301951 METAR KEWR 301951Z 24008KT 8SM -SN BKN028 BKN037 OVC090 M06/M09 A2992 RMK AO2 SLP132 P0000 T10561089 $= 201712302051 METAR KEWR 302051Z 26008KT 10SM FEW019 BKN023 BKN080 M05/M09 A2992 RMK AO2 SNE07 SLP131 P0000 60000 T10501089 56018 $= 201712302151 METAR KEWR 302151Z 25008KT 10SM FEW023 FEW080 FEW130 M06/M10 A2994 RMK AO2 SLP138 T10561100 $= 201712302251 METAR KEWR 302251Z 27006KT 10SM CLR M06/M10 A2996 RMK AO2 SLP146 T10611100 $= 201712302351 METAR KEWR 302351Z 26008KT 10SM FEW060 M06/M10 A2998 RMK AO2 SLP153 931000 4/001 60000 T10611100 11050 21067 53021 $= 201712310051 METAR KEWR 310051Z 26008KT 8SM CLR M06/M10 A3000 RMK AO2 SLP158 T10611100 $= 201712310151 METAR KEWR 310151Z 26008KT 7SM SCT060 M07/M10 A3001 RMK AO2 SLP161 T10671100 $= 201712310251 METAR KEWR 310251Z 25008KT 200V260 8SM FEW060 SCT085 M07/M10 A3003 RMK AO2 SLP168 T10671100 53016 $= 201712310351 METAR KEWR 310351Z 28010KT 10SM FEW024 SCT070 M07/M11 A3005 RMK AO2 SLP173 T10671106 $= 201712310451 METAR KEWR 310451Z 26009KT 8SM FEW024 M08/M11 A3006 RMK AO2 SLP178 T10781111 410501094 $= 201712310551 METAR KEWR 310551Z 27011KT 10SM FEW030 M08/M12 A3008 RMK AO2 SLP183 4/001 T10781122 11061 21078 52016 $= 201712310651 METAR KEWR 310651Z 27010KT 10SM FEW035 M08/M13 A3008 RMK AO2 SLP186 T10781128 $= 201712310751 METAR KEWR 310751Z 27009KT 10SM FEW030 M08/M13 A3012 RMK AO2 SLP197 T10831133 $= 201712310851 METAR KEWR 310851Z 29012KT 10SM FEW035 M08/M14 A3014 RMK AO2 SLP205 T10831139 53022 $= 201712310951 METAR KEWR 310951Z 30013G22KT 10SM FEW035 M08/M15 A3016 RMK AO2 SLP214 T10831150 $= 201712311051 METAR KEWR 311051Z 31013G19KT 10SM FEW035 M09/M16 A3021 RMK AO2 SLP227 T10891161 $= 201712311151 METAR KEWR 311151Z 33016G25KT 10SM FEW035 SCT250 M09/M18 A3024 RMK AO2 SLP238 4/001 70003 T10941178 11078 21094 53033 $= 201712311251 METAR KEWR 311251Z 32019G27KT 10SM FEW035 SCT190 BKN250 M11/M19 A3024 RMK AO2 PK WND 32032/1226 SLP240 T11061194 $= 201712311351 METAR KEWR 311351Z 32016G23KT 10SM FEW035 BKN160 BKN250 M09/M19 A3028 RMK AO2 PK WND 31026/1310 SLP252 T10941189 $= 201712311451 METAR KEWR 311451Z 31020G34KT 10SM FEW040 BKN160 BKN250 M09/M19 A3031 RMK AO2 PK WND 30034/1451 SLP264 T10941194 53026 $= 201712311551 METAR KEWR 311551Z 30016G22KT 10SM FEW040 SCT140 BKN250 M09/M18 A3030 RMK AO2 PK WND 31030/1452 SLP258 T10891183 $= 201712311651 METAR KEWR 311651Z 32017G22KT 10SM FEW040 SCT140 BKN250 M09/M19 A3026 RMK AO2 PK WND 30027/1616 SLP247 T10891189 $= 201712311751 METAR KEWR 311751Z 33016G21KT 10SM FEW040 FEW130 BKN250 M09/M19 A3025 RMK AO2 SLP241 4/001 T10891189 11083 21106 58023 $= 201712311851 METAR KEWR 311851Z 32012KT 10SM FEW046 SCT110 BKN250 M09/M19 A3027 RMK AO2 SLP250 T10891189 $= 201712311951 METAR KEWR 311951Z 32013G20KT 10SM FEW045 SCT100 OVC250 M09/M19 A3029 RMK AO2 SLP254 T10891194 $= 201712312051 METAR KEWR 312051Z 33014G19KT 10SM FEW045 SCT100 BKN250 M09/M20 A3030 RMK AO2 SLP258 T10941200 51017 $= 201712312151 METAR KEWR 312151Z 31009G19KT 10SM FEW095 SCT250 M10/M20 A3030 RMK AO2 SLP258 T11001200 $= 201712312251 METAR KEWR 312251Z 30008KT 10SM FEW095 FEW250 M11/M20 A3031 RMK AO2 SLP263 T11061200 $= 201712312351 METAR KEWR 312351Z 32010G19KT 10SM FEW095 M11/M20 A3032 RMK AO2 SLP267 4/001 T11061200 11089 21106 53009 $=
