 201702010051 METAR KEWR 010051Z 36003KT 10SM FEW015 SCT080 BKN120 BKN250 M01/M03 A2984 RMK AO2 SLP102 T10111033= 201702010151 METAR KEWR 010151Z 00000KT 10SM FEW015 SCT070 BKN120 BKN250 M01/M03 A2984 RMK AO2 SLP103 T10061033= 201702010251 METAR KEWR 010251Z 31003KT 9SM BKN060 BKN120 00/M03 A2985 RMK AO2 SLP108 T00001028 53010= 201702010351 METAR KEWR 010351Z 00000KT 9SM BKN065 BKN120 M01/M03 A2984 RMK AO2 SLP105 T10061028= 201702010451 METAR KEWR 010451Z 00000KT 9SM BKN090 BKN130 M01/M03 A2984 RMK AO2 SLP104 T10061028 400001039= 201702010551 METAR KEWR 010551Z 00000KT 9SM BKN070 BKN110 M01/M03 A2985 RMK AO2 SLP108 T10061028 10000 21011 55000= 201702010651 METAR KEWR 010651Z 24005KT 8SM BKN055 BKN100 M01/M03 A2986 RMK AO2 SLP112 T10111028= 201702010751 METAR KEWR 010751Z 23006KT 8SM SCT060 BKN110 M01/M02 A2986 RMK AO2 SLP110 T10061022= 201702010851 METAR KEWR 010851Z 22007KT 9SM SCT060 BKN250 00/M02 A2987 RMK AO2 SLP114 T00001022 51007= 201702010951 METAR KEWR 010951Z 22011KT 9SM SCT060 BKN250 02/M02 A2987 RMK AO2 SLP115 T00171022= 201702011051 METAR KEWR 011051Z 23011KT 10SM SCT060 BKN170 02/M02 A2990 RMK AO2 SLP124 T00221022= 201702011151 METAR KEWR 011151Z 23010KT 10SM SCT050 BKN065 BKN180 03/M02 A2991 RMK AO2 SLP127 70003 T00331022 10044 21017 53013= 201702011251 METAR KEWR 011251Z 24012KT 10SM FEW060 SCT180 BKN250 03/M02 A2993 RMK AO2 SLP133 T00331022= 201702011351 METAR KEWR 011351Z 23015KT 10SM FEW060 SCT180 BKN250 04/M02 A2994 RMK AO2 SLP137 T00441022= 201702011451 METAR KEWR 011451Z 25011KT 10SM FEW040 FEW140 SCT200 BKN250 06/M03 A2994 RMK AO2 SLP139 T00561033 51012= 201702011551 METAR KEWR 011551Z 27011KT 10SM FEW040 SCT230 BKN250 07/M03 A2994 RMK AO2 SLP139 T00721028= 201702011651 METAR KEWR 011651Z 26011KT 10SM SCT055 BKN130 BKN250 09/M04 A2992 RMK AO2 SLP132 T00891039= 201702011751 METAR KEWR 011751Z 25014KT 10SM SCT060 BKN120 BKN230 BKN250 09/M04 A2991 RMK AO2 SLP126 T00891044 10094 20033 58013= 201702011851 METAR KEWR 011851Z 24013KT 10SM SCT065 BKN080 OVC120 09/M04 A2989 RMK AO2 SLP121 VIRGA W-NW T00891044= 201702011951 METAR KEWR 011951Z 26019G29KT 10SM FEW050 BKN065 OVC080 09/M04 A2991 RMK AO2 PK WND 27029/1945 SLP126 VIRGA T00891044= 201702012051 METAR KEWR 012051Z 27014G23KT 10SM FEW050 BKN060 BKN080 BKN250 08/M03 A2993 RMK AO2 PK WND 28027/2001 SLP134 T00781028 53008= 201702012151 METAR KEWR 012151Z 25012KT 10SM FEW050 SCT070 BKN180 BKN250 07/M02 A2994 RMK AO2 SLP139 T00721022= 201702012251 METAR KEWR 012251Z 27008KT 10SM FEW060 BKN170 BKN250 07/M02 A2997 RMK AO2 SLP148 T00671022= 201702012351 METAR KEWR 012351Z 29009KT 10SM FEW040 BKN070 BKN170 BKN250 06/M02 A3000 RMK AO2 SLP159 T00611017 10094 20061 53025= 201702020051 METAR KEWR 020051Z 28009KT 10SM FEW050 SCT080 BKN200 BKN250 06/M02 A3001 RMK AO2 SLP161 T00561022= 201702020151 METAR KEWR 020151Z 27010KT 10SM FEW070 BKN170 OVC220 05/M03 A3002 RMK AO2 SLP165 T00501028= 201702020251 METAR KEWR 020251Z 29012G15KT 10SM FEW080 BKN150 OVC200 05/M03 A3004 RMK AO2 SLP173 T00501028 53014= 201702020351 METAR KEWR 020351Z 29007KT 10SM FEW080 BKN180 04/M03 A3004 RMK AO2 SLP172 T00391028= 201702020451 METAR KEWR 020451Z 28006KT 10SM FEW150 SCT250 02/M03 A3005 RMK AO2 SLP174 T00221033 400941017= 201702020551 METAR KEWR 020551Z 26004KT 10SM FEW150 SCT250 02/M03 A3004 RMK AO2 SLP172 T00221033 10061 20022 58001= 201702020651 METAR KEWR 020651Z 29003KT 10SM SCT180 SCT250 01/M04 A3005 RMK AO2 SLP175 T00111039= 201702020751 METAR KEWR 020751Z 21005KT 10SM SCT180 SCT250 01/M04 A3006 RMK AO2 SLP180 T00061039= 201702020851 METAR KEWR 020851Z 21004KT 10SM BKN150 BKN220 01/M04 A3007 RMK AO2 SLP180 T00061039 51008= 201702020951 METAR KEWR 020951Z 23006KT 10SM BKN100 OVC200 01/M03 A3007 RMK AO2 SLP182 T00111028= 201702021051 METAR KEWR 021051Z 23007KT 10SM SCT100 BKN200 01/M03 A3005 RMK AO2 SLP176 T00111033= 201702021151 METAR KEWR 021151Z 23008KT 10SM OVC065 02/M03 A3007 RMK AO2 SLP181 T00221033 10022 20000 53001= 201702021251 METAR KEWR 021251Z 24007KT 10SM BKN055 BKN065 OVC100 03/M04 A3008 RMK AO2 SLP184 VIRGA S T00281039= 201702021351 METAR KEWR 021351Z 22008KT 10SM FEW040 BKN055 OVC065 03/M03 A3008 RMK AO2 SNB02E32 SLP185 P0000 T00281033= 201702021451 METAR KEWR 021451Z 26011KT 10SM FEW060 FEW100 FEW250 05/M03 A3008 RMK AO2 SLP184 60000 T00501033 50002= 201702021551 METAR KEWR 021551Z 28015G22KT 10SM FEW050 FEW070 BKN250 07/M07 A3007 RMK AO2 SLP181 T00671072= 201702021651 METAR KEWR 021651Z 28012G21KT 10SM FEW045 SCT060 BKN250 07/M08 A3004 RMK AO2 SLP171 T00721083= 201702021751 METAR KEWR 021751Z 27017G25KT 10SM FEW050 SCT065 BKN250 08/M08 A3003 RMK AO2 PK WND 26026/1721 SLP167 931000 60000 T00781083 10078 20017 58017= 201702021851 METAR KEWR 021851Z 29017G28KT 10SM SCT070 BKN250 08/M11 A3002 RMK AO2 PK WND 27031/1820 SLP165 T00781106= 201702021951 METAR KEWR 021951Z 24017G25KT 10SM FEW060 SCT080 BKN250 07/M08 A3003 RMK AO2 SLP168 VIRGA T00721083= 201702022051 METAR KEWR 022051Z 29015KT 10SM SCT060 BKN080 BKN250 06/M08 A3006 RMK AO2 PK WND 27027/2014 SLP179 VIRGA T00561083 53012= 201702022151 METAR KEWR 022151Z 26016G25KT 10SM FEW060 BKN080 BKN250 05/M08 A3008 RMK AO2 SLP186 VIRGA T00501078= 201702022251 METAR KEWR 022251Z 28015KT 10SM FEW065 BKN085 BKN250 04/M08 A3010 RMK AO2 SLP193 T00441078= 201702022351 METAR KEWR 022351Z 28010KT 10SM FEW040 FEW085 SCT250 03/M08 A3014 RMK AO2 SLP204 T00331083 10083 20033 53025= 201702030051 METAR KEWR 030051Z 27007KT 10SM FEW040 SCT250 03/M08 A3016 RMK AO2 SLP211 T00281078= 201702030151 METAR KEWR 030151Z 30008KT 10SM FEW040 FEW100 SCT250 02/M07 A3018 RMK AO2 SLP218 T00221072= 201702030251 METAR KEWR 030251Z 31007KT 10SM FEW040 SCT250 02/M08 A3019 RMK AO2 SLP222 T00171078 51019= 201702030351 METAR KEWR 030351Z 32006KT 10SM FEW040 SCT250 01/M07 A3020 RMK AO2 SLP227 T00061072= 201702030451 METAR KEWR 030451Z 30010KT 10SM SCT250 00/M10 A3020 RMK AO2 SLP227 T00001100 400831006= 201702030551 METAR KEWR 030551Z 29008KT 10SM FEW250 M01/M12 A3020 RMK AO2 SLP226 T10061122 10033 21006 50004= 201702030651 METAR KEWR 030651Z 29008KT 10SM FEW250 M02/M12 A3021 RMK AO2 SLP230 T10171117= 201702030751 METAR KEWR 030751Z 31010KT 10SM FEW250 M01/M14 A3022 RMK AO2 SLP232 T10111139= 201702030851 METAR KEWR 030851Z 33013G19KT 10SM SCT250 M02/M13 A3022 RMK AO2 SLP231 T10221133 50004= 201702030951 METAR KEWR 030951Z 32005KT 10SM SCT250 M03/M13 A3022 RMK AO2 SLP233 T10281133= 201702031051 METAR KEWR 031051Z VRB05KT 10SM SCT250 M03/M13 A3023 RMK AO2 SLP237 T10331133= 201702031151 METAR KEWR 031151Z 30005KT 10SM BKN240 M03/M13 A3024 RMK AO2 SLP240 T10331128 11006 21039 53010= 201702031251 METAR KEWR 031251Z 28004KT 10SM SCT200 BKN230 BKN260 M03/M13 A3025 RMK AO2 SLP242 T10281128= 201702031351 METAR KEWR 031351Z 28007KT 10SM FEW150 BKN190 BKN220 M02/M13 A3026 RMK AO2 SLP247 T10221128= 201702031451 METAR KEWR 031451Z 28009KT 10SM SCT140 BKN180 BKN250 M02/M13 A3025 RMK AO2 SLP243 T10171128 50003= 201702031551 METAR KEWR 031551Z 27009KT 10SM FEW130 BKN180 OVC250 M02/M13 A3024 RMK AO2 SLP239 T10171128= 201702031651 METAR KEWR 031651Z 29011KT 10SM SCT130 OVC250 M01/M12 A3020 RMK AO2 SLP224 T10061122= 201702031751 METAR KEWR 031751Z 27008KT 10SM FEW130 OVC250 00/M12 A3015 RMK AO2 SLP210 T00001122 10006 21033 58034= 201702031851 METAR KEWR 031851Z 27010KT 250V310 10SM FEW130 SCT190 OVC250 01/M12 A3012 RMK AO2 SLP199 T00061122= 201702031951 METAR KEWR 031951Z 26010KT 10SM FEW120 BKN200 BKN250 01/M12 A3010 RMK AO2 SLP193 T00111122= 201702032051 METAR KEWR 032051Z 26011KT 10SM FEW120 BKN180 OVC250 01/M12 A3010 RMK AO2 SLP192 T00111122 56018= 201702032151 METAR KEWR 032151Z 30009KT 10SM BKN120 BKN200 OVC250 01/M12 A3011 RMK AO2 SLP194 T00061122= 201702032251 METAR KEWR 032251Z 26011KT 10SM BKN110 OVC250 00/M12 A3012 RMK AO2 SLP199 T00001122= 201702032351 METAR KEWR 032351Z 29012G19KT 10SM FEW040 BKN100 OVC200 00/M12 A3014 RMK AO2 SLP206 T00001122 10017 20000 53015= 201702040051 METAR KEWR 040051Z 29013G18KT 10SM FEW040 SCT070 BKN110 OVC250 M01/M12 A3017 RMK AO2 SLP214 T10061122= 201702040151 METAR KEWR 040151Z 31011KT 10SM SCT050 BKN075 BKN110 OVC250 M01/M14 A3018 RMK AO2 SLP219 T10111139= 201702040251 METAR KEWR 040251Z 30015G21KT 10SM FEW050 SCT065 SCT110 BKN250 M02/M14 A3019 RMK AO2 SLP223 T10171144 51017= 201702040351 METAR KEWR 040351Z 32011G19KT 10SM BKN060 BKN110 M02/M14 A3021 RMK AO2 SLP229 T10171139= 201702040451 METAR KEWR 040451Z 32013G18KT 10SM BKN060 M02/M13 A3022 RMK AO2 PK WND 30029/0427 SLP234 T10221133 400171039= 201702040551 METAR KEWR 040551Z 32021G28KT 10SM SCT060 M03/M16 A3025 RMK AO2 PK WND 32028/0550 SLP244 T10331156 10000 21033 53021= 201702040651 METAR KEWR 040651Z 30012KT 10SM FEW060 M04/M17 A3027 RMK AO2 PK WND 32026/0606 SLP249 T10441167= 201702040751 METAR KEWR 040751Z 31016G24KT 10SM FEW050 M05/M17 A3029 RMK AO2 SLP256 T10501172= 201702040851 METAR KEWR 040851Z 29016KT 10SM CLR M05/M17 A3030 RMK AO2 SLP258 T10501167 51014= 201702040951 METAR KEWR 040951Z 30010KT 10SM CLR M06/M16 A3032 RMK AO2 SLP267 T10561161= 201702041051 METAR KEWR 041051Z 28009KT 10SM CLR M06/M16 A3034 RMK AO2 SLP272 T10611161= 201702041151 METAR KEWR 041151Z 27010KT 10SM FEW060 M06/M16 A3037 RMK AO2 SLP282 T10611156 11039 21061 53025= 201702041251 METAR KEWR 041251Z 28010KT 10SM CLR M05/M16 A3038 RMK AO2 SLP287 T10501156= 201702041351 METAR KEWR 041351Z 27013KT 10SM CLR M04/M16 A3041 RMK AO2 SLP295 T10391156= 201702041451 METAR KEWR 041451Z 27013KT 10SM CLR M03/M15 A3042 RMK AO2 SLP299 T10281150 51016= 201702041551 METAR KEWR 041551Z 26012G20KT 10SM FEW050 M01/M15 A3040 RMK AO2 SLP295 T10111150= 201702041651 METAR KEWR 041651Z 26009KT 10SM FEW055 M01/M14 A3038 RMK AO2 SLP286 T10061144= 201702041751 METAR KEWR 041751Z 25011KT 10SM FEW060 01/M14 A3034 RMK AO2 SLP274 T00111144 10011 21061 58025= 201702041851 METAR KEWR 041851Z 23009G18KT 10SM CLR 02/M14 A3031 RMK AO2 SLP264 T00171144= 201702041951 METAR KEWR 041951Z 24014KT 10SM CLR 02/M16 A3031 RMK AO2 SLP264 T00171156= 201702042051 METAR KEWR 042051Z 25013G21KT 10SM FEW250 02/M16 A3031 RMK AO2 SLP263 T00171156 56011= 201702042151 METAR KEWR 042151Z 26016KT 10SM BKN250 01/M16 A3030 RMK AO2 SLP261 T00111161= 201702042251 METAR KEWR 042251Z 25011KT 10SM BKN250 01/M15 A3031 RMK AO2 SLP262 T00061150= 201702042351 METAR KEWR 042351Z 23010KT 10SM BKN250 00/M14 A3032 RMK AO2 SLP265 T00001144 10022 20000 53002= 201702050051 METAR KEWR 050051Z 23009KT 10SM BKN230 M01/M14 A3031 RMK AO2 SLP264 T10061139= 201702050151 METAR KEWR 050151Z 24009KT 10SM BKN240 M01/M14 A3031 RMK AO2 SLP262 T10061139= 201702050251 METAR KEWR 050251Z 24008KT 10SM BKN230 M01/M14 A3030 RMK AO2 SLP260 T10061139 58004= 201702050351 METAR KEWR 050351Z 23007KT 10SM BKN160 OVC230 M01/M13 A3029 RMK AO2 SLP255 T10111133= 201702050451 METAR KEWR 050451Z 21005KT 10SM BKN150 OVC250 M02/M13 A3027 RMK AO2 SLP249 T10171128 400221061= 201702050551 METAR KEWR 050551Z 24005KT 10SM BKN150 OVC250 M01/M13 A3025 RMK AO2 SLP243 T10111133 10000 21017 58018= 201702050651 METAR KEWR 050651Z 23008KT 10SM BKN130 OVC200 M01/M12 A3024 RMK AO2 SLP240 T10111122= 201702050751 METAR KEWR 050751Z 22003KT 10SM BKN130 OVC200 M01/M11 A3021 RMK AO2 SLP229 T10111111= 201702050851 METAR KEWR 050851Z 18006KT 10SM BKN140 OVC200 M01/M10 A3018 RMK AO2 SLP220 T10111100 58022= 201702050951 METAR KEWR 050951Z 20008KT 10SM BKN150 OVC200 M01/M10 A3016 RMK AO2 SLP211 T10111100= 201702051051 METAR KEWR 051051Z 20008KT 10SM SCT130 OVC220 M01/M08 A3012 RMK AO2 SLP199 T10111083= 201702051151 METAR KEWR 051151Z 19009KT 10SM SCT130 BKN180 OVC220 M01/M07 A3011 RMK AO2 SLP195 T10061067 11006 21022 56025= 201702051251 METAR KEWR 051251Z 19010KT 10SM FEW130 BKN170 BKN240 00/M06 A3008 RMK AO2 SLP184 T00001061= 201702051351 METAR KEWR 051351Z 20010KT 10SM BKN100 BKN150 OVC200 01/M07 A3006 RMK AO2 SLP178 T00061067= 201702051451 METAR KEWR 051451Z 22007G15KT 10SM BKN100 OVC150 02/M07 A3003 RMK AO2 SLP167 T00171067 56027= 201702051551 METAR KEWR 051551Z 25011KT 10SM BKN090 BKN150 OVC220 02/M07 A3000 RMK AO2 SLP157 VIRGA NW-N T00221067= 201702051651 METAR KEWR 051651Z 22011KT 10SM BKN075 BKN100 OVC160 03/M07 A2996 RMK AO2 SLP144 VIRGA NW-N T00331072= 201702051751 METAR KEWR 051751Z 26009KT 10SM BKN090 BKN150 BKN210 04/M08 A2992 RMK AO2 PRESFR SLP130 VIRGA W-N T00441078 10044 21006 58037= 201702051851 METAR KEWR 051851Z 24007KT 10SM BKN060 BKN090 OVC150 06/M07 A2987 RMK AO2 SLP115 VIRGA OHD T00561067= 201702051951 METAR KEWR 051951Z 24012KT 10SM BKN070 BKN140 BKN220 06/M08 A2984 RMK AO2 SLP105 T00561083= 201702052051 METAR KEWR 052051Z 23010KT 10SM BKN055 OVC130 06/M09 A2985 RMK AO2 SLP108 T00561089 55022= 201702052151 METAR KEWR 052151Z 24012KT 10SM FEW060 FEW140 SCT200 06/M08 A2986 RMK AO2 SLP110 T00561083= 201702052251 METAR KEWR 052251Z COR 23008KT 10SM FEW140 FEW200 04/M08 A2988 RMK AO2 SLP119 T00391078 $= 201702052351 METAR KEWR 052351Z 23008KT 10SM FEW060 FEW250 04/M08 A2989 RMK AO2 SLP122 T00441078 10056 20033 $= 201702060051 METAR KEWR 060051Z 23009KT 10SM BKN070 04/M08 A2991 RMK AO2 SLP128 T00391078 $= 201702060151 METAR KEWR 060151Z 23008KT 10SM OVC060 04/M08 A2990 RMK AO2 SLP125 T00441078 $= 201702060251 METAR KEWR 060251Z 22009KT 10SM OVC060 04/M07 A2991 RMK AO2 SLP129 T00441072 51007 $= 201702060351 METAR KEWR 060351Z 23009KT 10SM BKN060 OVC100 05/M07 A2993 RMK AO2 SLP133 T00501067 $= 201702060451 METAR KEWR 060451Z 22008KT 10SM BKN055 BKN200 04/M06 A2994 RMK AO2 SLP137 T00391061 400561022 $= 201702060551 METAR KEWR 060551Z 24006KT 10SM BKN055 04/M06 A2994 RMK AO2 SLP137 T00391061 10050 20039 51008 $= 201702060651 METAR KEWR 060651Z 28009KT 10SM BKN055 04/M05 A2995 RMK AO2 SLP142 T00391050 $= 201702060751 METAR KEWR 060751Z 30006KT 10SM BKN055 05/M06 A2998 RMK AO2 SLP152 T00501056 $= 201702060851 METAR KEWR 060851Z 30007KT 10SM BKN050 04/M06 A3001 RMK AO2 SLP161 T00441056 53023 $= 201702060951 METAR KEWR 060951Z 31007G17KT 10SM BKN050 04/M06 A3003 RMK AO2 SLP166 T00441056 $= 201702061051 METAR KEWR 061051Z 29009KT 10SM FEW050 03/M06 A3006 RMK AO2 PRESRR SLP178 T00331061 $= 201702061151 METAR KEWR 061151Z 30007KT 10SM FEW050 SCT250 03/M07 A3009 RMK AO2 SLP189 T00331072 10050 20028 53028 $= 201702061251 METAR KEWR 061251Z 32008KT 10SM FEW050 SCT250 03/M06 A3011 RMK AO2 SLP195 T00331061 $= 201702061351 METAR KEWR 061351Z 31007KT 10SM FEW050 FEW250 04/M07 A3014 RMK AO2 SLP205 T00441067 $= 201702061451 METAR KEWR 061451Z 32012KT 10SM FEW050 05/M08 A3016 RMK AO2 SLP211 T00501078 52022 $= 201702061551 METAR KEWR 061551Z 26010G19KT 10SM FEW050 06/M07 A3015 RMK AO2 SLP208 T00611072 $= 201702061651 METAR KEWR 061651Z 29008KT 10SM FEW050 FEW250 07/M07 A3012 RMK AO2 SLP200 T00721072 $= 201702061751 METAR KEWR 061751Z 27009KT 10SM FEW050 FEW100 SCT250 08/M07 A3010 RMK AO2 SLP192 T00831072 10089 20028 58019 $= 201702061851 METAR KEWR 061851Z 23010G15KT 10SM FEW100 FEW250 09/M07 A3008 RMK AO2 SLP185 T00941067 $= 201702061951 METAR KEWR 061951Z 23010KT 10SM FEW250 10/M06 A3007 RMK AO2 SLP182 T01001061 $= 201702062051 METAR KEWR 062051Z 24017G22KT 10SM SCT250 11/M06 A3006 RMK AO2 SLP178 T01061061 56013 $= 201702062151 METAR KEWR 062151Z 23006KT 10SM SCT250 09/M06 A3005 RMK AO2 SLP176 T00941061 $= 201702062251 METAR KEWR 062251Z 13006KT 10SM SCT250 06/M01 A3007 RMK AO2 SLP181 T00611011 $= 201702062351 METAR KEWR 062351Z 00000KT 10SM SCT250 06/M01 A3007 RMK AO2 SLP183 T00561011 10106 20056 53005 $= 201702070051 METAR KEWR 070051Z 03003KT 10SM BKN250 05/M01 A3007 RMK AO2 SLP181 T00501006 $= 201702070151 METAR KEWR 070151Z 00000KT 10SM BKN250 04/M01 A3006 RMK AO2 SLP177 T00391006 $= 201702070251 METAR KEWR 070251Z 00000KT 10SM SCT250 04/M01 A3004 RMK AO2 SLP172 T00391006 58011 $= 201702070351 METAR KEWR 070351Z 00000KT 10SM BKN250 04/00 A3003 RMK AO2 SLP167 T00440000 $= 201702070451 METAR KEWR 070451Z 00000KT 10SM BKN250 04/M01 A3001 RMK AO2 SLP162 T00441006 401060028 $= 201702070551 METAR KEWR 070551Z 05003KT 10SM OVC250 02/M01 A2999 RMK AO2 SLP155 T00221006 10056 20022 58018 $= 201702070651 METAR KEWR 070651Z 01005KT 10SM FEW180 OVC250 02/M01 A2998 RMK AO2 SLP150 T00221006 $= 201702070751 METAR KEWR 070751Z 02007KT 10SM SCT180 BKN250 01/M01 A2997 RMK AO2 SLP146 T00061011 $= 201702070851 METAR KEWR 070851Z 02007KT 10SM SCT090 BKN150 OVC200 02/M01 A2994 RMK AO2 SLP137 T00171006 58018 $= 201702070951 METAR KEWR 070951Z 01006KT 10SM FEW065 BKN090 OVC120 02/00 A2993 RMK AO2 SLP136 T00220000 $= 201702071051 METAR KEWR 071051Z 36006KT 8SM -RA BKN060 OVC090 03/00 A2995 RMK AO2 RAB08E15B48 SLP140 P0000 T00280000 $= 201702071151 METAR KEWR 071151Z 35009KT 5SM -RA BR SCT050 OVC070 03/01 A2993 RMK AO2 SLP134 P0004 60004 70004 T00280011 10033 20006 58002 $= 201702071251 METAR KEWR 071251Z 01008KT 5SM -RA BR SCT015 BKN075 OVC100 03/02 A2992 RMK AO2 SLP131 P0001 T00280017 $= 201702071351 METAR KEWR 071351Z 03009KT 2 1/2SM -RA BR FEW015 SCT050 OVC070 03/02 A2993 RMK SLP135 T00330022 $= 201702071451 METAR KEWR 071451Z 02008KT 2 1/2SM BR SCT005 BKN046 OVC065 04/03 A2992 RMK SFC VIS 3 RAE13 SLP131 P0000 60003 T00390028 57003 $= 201702071551 METAR KEWR 071551Z 01011KT 2SM R04R/5000V6000FT RA BR SCT005 OVC044 04/03 A2995 RMK TWR VIS 2 1/2 RAB09 SLP131 SLP140 P0004 T00390028 $= 201702071651 METAR KEWR 071651Z VRB03KT 2 1/2SM RA BR BKN005 BKN055 OVC070 04/04 A2988 RMK BKN005 V SCT SLP118 P0015 T00440039 $= 201702071751 METAR KEWR 071751Z 02007KT 3SM -RA BR BKN008 OVC030 04/04 A2986 RMK SFC VIS 5 RAE18B45 SLP112 P0001 60023 T00440033 10050 20022 58019 $= 201702071851 METAR KEWR 071851Z 04008KT 6SM -RA BR BKN009 OVC030 04/03 A2983 RMK RAE05B50 CIG 008V010 SLP101 P0000 T00390028 $= 201702071951 METAR KEWR 071951Z 02009KT 6SM BR OVC008 04/03 A2983 RMK AO2 RAE07 SLP101 CIG 007V009 P0000 T00390028 $= 201702072051 METAR KEWR 072051Z 03008KT 6SM BR OVC008 04/03 A2980 RMK AO2 SLP092 CIG 007V009 60000 T00390028 56020 $= 201702072151 METAR KEWR 072151Z 04008KT 5SM BR OVC008 03/02 A2981 RMK AO2 SLP094 T00330022 $= 201702072251 METAR KEWR 072251Z 03008KT 5SM -RA BR OVC006 03/02 A2977 RMK AO2 RAB2157E28B46 SLP082 P0000 T00330022 $= 201702072351 METAR KEWR 072351Z 04008KT 5SM BR OVC005 04/03 A2976 RMK AO2 RAE01 SLP077 P0000 60000 T00390028 10044 20033 58015 $= 201702080051 METAR KEWR 080051Z 04008KT 3SM BR OVC004 04/03 A2972 RMK AO2 SLP065 T00390033 $= 201702080151 METAR KEWR 080151Z 02006KT 1/2SM R04R/P6000FT -DZ BR OVC002 04/03 A2970 RMK AO2 SFC VIS 2 DZB42 SLP057 P0000 T00390033 $= 201702080251 METAR KEWR 080251Z 03007KT 1/2SM R04R/P6000FT -DZ BR OVC003 04/03 A2967 RMK AO2 SFC VIS 1 1/2 SLP047 P0000 60000 T00390033 56030 $= 201702080351 METAR KEWR 080351Z 02007KT 1/2SM R04R/P6000FT -DZ BR OVC002 04/03 A2964 RMK AO2 SFC VIS 1 1/2 SLP035 P0000 T00390033 $= 201702080451 METAR KEWR 080451Z 01007KT 1/2SM R04R/5500VP6000FT BR OVC002 04/03 A2960 RMK AO2 SFC VIS 1 1/2 DZE33 SLP022 P0000 T00390033 400500006 $= 201702080551 METAR KEWR 080551Z 02006KT 1/2SM R04R/2200V2400FT BR OVC002 04/04 A2957 RMK AO2 SFC VIS 1 1/2 SLP011 60000 T00390039 10039 20033 56035 $= 201702080651 METAR KEWR 080651Z 02006KT 1/4SM R04R/1800V2000FT FG VV002 04/04 A2956 RMK AO2 SLP011 T00390039 $= 201702080751 METAR KEWR 080751Z 01004KT 1/4SM R04R/2400V3000FT -RA FG VV002 04/04 A2956 RMK AO2 RAB50 SLP009 P0000 T00390039 $= 201702080851 METAR KEWR 080851Z 00000KT 1 1/2SM BR BKN003 BKN025 OVC070 04/04 A2954 RMK AO2 SFC VIS 2 1/2 RAE50 SLP003 P0004 60004 T00440044 58009 $= 201702080951 METAR KEWR 080951Z 02003KT 3SM BR BKN004 BKN029 OVC050 04/03 A2953 RMK AO2 SFC VIS 4 RAB04E17 SLP000 P0000 T00390033 $= 201702081051 METAR KEWR 081051Z 35006KT 4SM BR SCT005 BKN070 BKN110 04/03 A2955 RMK AO2 SLP006 T00440033 $= 201702081151 METAR KEWR 081151Z 00000KT 5SM BR FEW007 SCT070 BKN220 05/04 A2957 RMK AO2 SLP013 60004 70027 T00500044 10056 20039 53010 $= 201702081251 METAR KEWR 081251Z 00000KT 5SM BR FEW007 SCT070 BKN220 06/04 A2958 RMK AO2 SLP016 T00560039 $= 201702081351 METAR KEWR 081351Z 21003KT 5SM BR FEW008 SCT060 BKN220 07/06 A2962 RMK AO2 SLP029 T00670056 $= 201702081451 METAR KEWR 081451Z 20008KT 5SM BR BKN050 BKN250 08/07 A2964 RMK AO2 SLP037 T00830067 53024= 201702081551 METAR KEWR 081551Z 23006KT 9SM FEW040 FEW055 BKN250 13/09 A2966 RMK AO2 SLP043 HAZE ALOFT VIS LWR NE-S T01280089= 201702081651 METAR KEWR 081651Z 27016KT 10SM FEW032 BKN250 17/07 A2965 RMK AO2 SLP039 T01720072= 201702081751 METAR KEWR 081751Z 29011G18KT 10SM FEW035 BKN250 18/06 A2964 RMK AO2 SLP036 T01780056 10178 20050 58001= 201702081851 METAR KEWR 081851Z 33010KT 10SM FEW055 BKN250 17/06 A2963 RMK AO2 SLP035 T01720056= 201702081951 METAR KEWR 081951Z 33010G14KT 10SM SCT050 BKN250 17/04 A2964 RMK AO2 SLP035 T01670039= 201702082051 METAR KEWR 082051Z 36013KT 10SM SCT045 SCT230 OVC260 14/04 A2966 RMK AO2 SLP042 T01440044 53006= 201702082151 METAR KEWR 082151Z 36014KT 10SM FEW035 BKN220 BKN260 13/03 A2970 RMK AO2 SLP056 T01280028= 201702082251 METAR KEWR 082251Z 36011KT 10SM FEW090 BKN180 BKN250 11/02 A2969 RMK AO2 SLP052 T01060017= 201702082351 METAR KEWR 082351Z 35012KT 10SM FEW090 BKN130 BKN180 10/01 A2971 RMK AO2 SLP061 T01000006 10183 20094 51019= 201702090051 METAR KEWR 090051Z 01012KT 10SM OVC160 09/00 A2972 RMK AO2 SLP062 T00890000= 201702090151 METAR KEWR 090151Z 35008KT 10SM OVC150 09/M01 A2973 RMK AO2 SLP066 T00891011= 201702090251 METAR KEWR 090251Z 36009KT 10SM SCT090 OVC140 08/M02 A2972 RMK AO2 SLP063 T00831017 50002= 201702090351 METAR KEWR 090351Z 02009KT 10SM FEW090 BKN140 OVC200 07/M01 A2970 RMK AO2 SLP057 T00721011= 201702090451 METAR KEWR 090451Z 02011KT 10SM SCT075 BKN090 OVC150 07/M01 A2970 RMK AO2 SLP057 T00671006 401830039= 201702090551 METAR KEWR 090551Z 04008KT 10SM SCT075 BKN090 OVC110 06/M01 A2965 RMK AO2 SLP040 T00561011 10100 20056 58023= 201702090651 METAR KEWR 090651Z 02012KT 10SM FEW070 BKN085 OVC110 05/M02 A2965 RMK AO2 SLP038 T00501017= 201702090751 METAR KEWR 090751Z 02014KT 10SM -RA SCT050 BKN070 OVC090 04/M02 A2959 RMK AO2 RAB41 SLP020 P0000 T00391017= 201702090851 METAR KEWR 090851Z 02016G24KT 8SM -RASN BKN040 OVC060 02/M02 A2958 RMK AO2 SNB22PLB22E50 SLP015 P0001 60001 T00221022 58025 $= 201702090951 METAR KEWR 090951Z 01019KT 1SM R04R/P6000FT -SN BR FEW008 BKN015 OVC042 00/M02 A2959 RMK AO2 SFC VIS 2 RAE17 SLP018 P0005 T00001017 $= 201702091051 METAR KEWR 091051Z 01018KT R04R/P6000FT -SNPL BKN007 BKN013 OVC032 M01/M02 A2959 RMK AO2 PK WND 01028/1020 SFC VIS 1 1/2 PLB34 SLP018 CIG 006V009 BKN007 V SCT P0006 T10061022 $= 201702091151 METAR KEWR 091151Z 36020KT 1/2SM SN VV006 M01/M02 A2958 RMK AO2 PK WND 36029/1138 PLE13 SLP016 SNINCR 1/2 931016 4/002 P0009 60021 70021 T10111022 10056 21011 50001 RVRNO $= 201702091251 METAR KEWR 091251Z 36019G26KT 1/2SM SN BKN004 OVC010 M01/M02 A2956 RMK AO2 PK WND 35026/1244 SLP010 SNINCR 1/3 CIG 003V006 P0009 T10111017 RVRNO $= 201702091351 METAR KEWR 091351Z 34020G25KT 1/4SM R04R/1400V2600FT +SN BLSN VV004 M02/M02 A2956 RMK AO2 SLP010 SNINCR 2/5 P0017 T10171017 $= 201702091451 METAR KEWR 091451Z 34022G29KT 1/4SM +SN BLSN VV007 M02/M02 A2955 RMK AO2 PK WND 33029/1443 SLP006 SNINCR 1/6 P0012 60038 T10221022 56009 RVRNO $= 201702091551 METAR KEWR 091551Z 34018G30KT 1/2SM R04R/1800V2400FT SN BLSN VV008 M02/M02 A2957 RMK AO2 PK WND 35030/1543 SLP011 SNINCR 1/7 P0010 T10171022 $= 201702091651 METAR KEWR 091651Z 33020G27KT 3/4SM R04R/3500V6000FT -SN BLSN SCT006 BKN012 OVC022 M02/M03 A2955 RMK AO2 PK WND 32027/1651 SLP006 SCT V BKN SNINCR 1/8 P0012 T10171033 $= 201702091751 METAR KEWR 091751Z 33019G26KT 2SM -SN BLSN SCT012 BKN023 OVC036 M02/M06 A2956 RMK AO2 PK WND 32030/1707 SFC VIS 2 1/2 SLP009 931061 4/008 933008 P0000 60060 T10171056 11011 21022 51003 $= 201702091851 METAR KEWR 091851Z 32021G28KT 4SM R04R/3500VP6000FT -SN BLSN SCT020 BKN033 OVC048 M03/M07 A2959 RMK AO2 PK WND 30032/1816 SLP020 P0000 T10281072 $= 201702091951 METAR KEWR 091951Z 31018G29KT 8SM -SN BLSN FEW025 BKN037 BKN047 M03/M10 A2964 RMK AO2 PK WND 30032/1910 SLP037 P0000 T10281100= 201702092051 METAR KEWR 092051Z 32021G32KT 10SM FEW025 SCT050 BKN080 M03/M13 A2969 RMK AO2 PK WND 31033/2041 SNE13 SLP052 PRESENT WX DRSN P0000 60000 T10281128 53043= 201702092151 METAR KEWR 092151Z 30029G41KT 10SM FEW030 SCT085 BKN110 M04/M14 A2973 RMK AO2 PK WND 30041/2151 SLP067 PRESENT WX DRSN T10391139= 201702092251 METAR KEWR 092251Z 31025G33KT 10SM FEW030 FEW085 SCT120 M04/M16 A2979 RMK AO2 PK WND 31036/2207 SLP088 PRESENT WX DRSN T10441161= 201702092351 METAR KEWR 092351Z 31017G28KT 10SM FEW035 FEW090 SCT120 M06/M16 A2985 RMK AO2 PK WND 32037/2326 SLP108 PRESENT WX DRSN 931001 4/007 60000 T10561161 11017 21056 53056= 201702100051 METAR KEWR 100051Z 31023G35KT 10SM FEW050 FEW110 M06/M17 A2991 RMK AO2 PK WND 30035/0034 SLP126 PRESRR PRESENT WX DRSN T10611167= 201702100151 METAR KEWR 100151Z 32017G25KT 10SM FEW050 SCT120 BKN150 M06/M18 A2997 RMK AO2 PK WND 32037/0056 SLP147 PRESENT WX DRSN T10611178= 201702100251 METAR KEWR 100251Z 31016G26KT 10SM FEW100 BKN130 M07/M17 A3002 RMK AO2 PK WND 32029/0152 SLP166 T10671172 53059= 201702100351 METAR KEWR 100351Z 30015G22KT 10SM FEW100 FEW130 M07/M16 A3006 RMK AO2 PK WND 32026/0308 SLP179 T10671156= 201702100451 METAR KEWR 100451Z 27007KT 10SM FEW120 M07/M15 A3010 RMK AO2 SLP193 T10721150 400611072= 201702100551 METAR KEWR 100551Z 24006KT 10SM FEW050 M08/M15 A3011 RMK AO2 SLP196 4/006 T10781150 11056 21078 51029= 201702100651 METAR KEWR 100651Z 25011KT 10SM FEW050 M07/M15 A3011 RMK AO2 SLP195 T10671150= 201702100751 METAR KEWR 100751Z 25011KT 10SM CLR M07/M14 A3012 RMK AO2 SLP198 T10721144= 201702100851 METAR KEWR 100851Z 25012KT 10SM CLR M07/M14 A3016 RMK AO2 SLP212 T10671144 53016= 201702100951 METAR KEWR 100951Z 26014KT 10SM CLR M06/M14 A3017 RMK AO2 SLP217 T10611139= 201702101051 METAR KEWR 101051Z 25012KT 10SM CLR M06/M14 A3021 RMK AO2 SLP228 T10611139= 201702101151 METAR KEWR 101151Z 24009KT 10SM FEW030 M06/M15 A3023 RMK AO2 SLP235 4/006 70060 T10611150 11056 21078 53023= 201702101251 METAR KEWR 101251Z 24010KT 10SM FEW035 M06/M14 A3024 RMK AO2 SLP239 T10561144= 201702101351 METAR KEWR 101351Z 26011G20KT 10SM FEW040 FEW250 M04/M13 A3025 RMK AO2 SLP243 T10441133= 201702101451 METAR KEWR 101451Z 25015G20KT 10SM FEW045 FEW250 M03/M13 A3025 RMK AO2 SLP243 T10331128 51008= 201702101551 METAR KEWR 101551Z 27017G25KT 10SM FEW045 FEW250 M02/M13 A3025 RMK AO2 SLP242 T10221128= 201702101651 METAR KEWR 101651Z 27015KT 10SM SCT055 BKN250 M01/M12 A3025 RMK AO2 PK WND 27027/1611 SLP242 T10111117= 201702101751 METAR KEWR 101751Z 27016G21KT 10SM SCT055 BKN250 M01/M11 A3023 RMK AO2 PK WND 28032/1723 SLP235 4/006 933006 T10061111 11006 21067 58007= 201702101851 METAR KEWR 101851Z 25014KT 10SM FEW060 BKN250 00/M12 A3021 RMK AO2 SLP230 T00001117= 201702101951 METAR KEWR 101951Z 25015G20KT 10SM FEW060 BKN250 M01/M12 A3022 RMK AO2 SLP232 T10061117= 201702102051 METAR KEWR 102051Z 24014KT 10SM FEW055 BKN250 M01/M12 A3022 RMK AO2 SLP232 T10061117 56004= 201702102151 METAR KEWR 102151Z 25016KT 10SM FEW055 FEW180 BKN250 M01/M11 A3022 RMK AO2 SLP234 T10111111= 201702102251 METAR KEWR 102251Z 22008KT 10SM FEW055 SCT100 SCT150 OVC250 M02/M11 A3021 RMK AO2 SLP230 T10171106= 201702102351 METAR KEWR 102351Z 22008KT 10SM FEW055 BKN100 BKN150 OVC250 M02/M10 A3020 RMK AO2 SLP226 4/005 T10171100 10000 21022 58005= 201702110051 METAR KEWR 110051Z 23010KT 10SM FEW060 BKN080 OVC120 M02/M09 A3019 RMK AO2 SLP221 T10171094= 201702110151 METAR KEWR 110151Z 22010KT 10SM FEW040 BKN050 OVC070 M02/M10 A3015 RMK AO2 SLP208 T10171100= 201702110251 METAR KEWR 110251Z 24007KT 10SM FEW040 SCT055 OVC100 M02/M08 A3016 RMK AO2 SNB00E46 SLP213 P0000 60000 T10221083 55014= 201702110351 METAR KEWR 110351Z 20004KT 10SM FEW040 SCT075 OVC100 M02/M08 A3015 RMK AO2 SLP208 T10221078= 201702110451 METAR KEWR 110451Z 14004KT 10SM SCT040 OVC090 M02/M08 A3010 RMK AO2 SLP192 T10171078 400001078= 201702110551 METAR KEWR 110551Z 00000KT 10SM FEW040 OVC090 M01/M08 A3007 RMK AO2 SLP182 931000 4/005 60000 T10061078 11006 21022 58030= 201702110651 METAR KEWR 110651Z 00000KT 10SM OVC070 00/M08 A3006 RMK AO2 SLP179 T00001078= 201702110751 METAR KEWR 110751Z 17004KT 10SM OVC075 01/M07 A3002 RMK AO2 SLP164 T00061067= 201702110851 METAR KEWR 110851Z 17004KT 10SM BKN080 OVC110 02/M04 A2999 RMK AO2 SLP154 T00221039 58028= 201702110951 METAR KEWR 110951Z 18005KT 10SM SCT070 OVC120 03/M04 A2997 RMK AO2 SLP149 T00281039= 201702111051 METAR KEWR 111051Z 21004KT 10SM BKN065 OVC110 01/M04 A2995 RMK AO2 SLP142 T00111039= 201702111151 METAR KEWR 111151Z 27003KT 10SM OVC065 01/M04 A2995 RMK AO2 SLP140 4/005 T00111044 10028 21006 56014= 201702111251 METAR KEWR 111251Z 22003KT 10SM OVC060 01/M04 A2996 RMK AO2 SLP143 T00111044= 201702111351 METAR KEWR 111351Z 25006KT 10SM SCT060 BKN230 02/M04 A2996 RMK AO2 SLP144 T00171044= 201702111451 METAR KEWR 111451Z 25005KT 10SM FEW060 BKN180 BKN250 03/M04 A2996 RMK AO2 SLP144 T00331044 51004= 201702111551 METAR KEWR 111551Z VRB03KT 10SM FEW060 BKN170 OVC260 04/M04 A2996 RMK AO2 SLP145 T00441044= 201702111651 METAR KEWR 111651Z 25008KT 10SM OVC150 05/M06 A2993 RMK AO2 SLP136 T00501056= 201702111751 METAR KEWR 111751Z 24004KT 10SM OVC140 06/M05 A2990 RMK AO2 SLP125 4/005 933005 T00611050 10061 20011 58019= 201702111851 METAR KEWR 111851Z 21004KT 10SM OVC130 05/M04 A2989 RMK AO2 SLP119 T00501039= 201702111951 METAR KEWR 111951Z 22004KT 10SM BKN130 BKN260 06/M03 A2991 RMK AO2 SLP128 T00561033= 201702112051 METAR KEWR 112051Z 27008KT 10SM BKN130 BKN260 08/M04 A2995 RMK AO2 SLP141 T00831039 53016= 201702112151 METAR KEWR 112151Z 24004KT 10SM SCT120 SCT190 BKN260 08/M04 A2995 RMK AO2 SLP142 T00831039= 201702112251 METAR KEWR 112251Z 12003KT 10SM BKN100 BKN190 OVC260 07/M03 A2997 RMK AO2 SLP148 T00721028= 201702112351 METAR KEWR 112351Z 04005KT 10SM SCT100 SCT190 OVC260 06/M02 A3000 RMK AO2 SLP158 4/003 T00611022 10089 20044 53016= 201702120051 METAR KEWR 120051Z 03005KT 10SM FEW100 BKN150 OVC240 06/M02 A3003 RMK AO2 SLP167 T00561017= 201702120151 METAR KEWR 120151Z 03006KT 10SM BKN110 BKN250 04/M02 A3005 RMK AO2 SLP175 T00391022= 201702120251 METAR KEWR 120251Z 00000KT 10SM SCT110 BKN250 04/M03 A3006 RMK AO2 SLP179 T00441028 51022= 201702120351 METAR KEWR 120351Z 00000KT 10SM FEW110 BKN200 BKN250 04/M03 A3008 RMK AO2 SLP184 T00391028= 201702120451 METAR KEWR 120451Z 03005KT 10SM FEW110 OVC180 03/M02 A3009 RMK AO2 SLP188 T00281022 400891011= 201702120551 METAR KEWR 120551Z 00000KT 10SM SCT120 OVC160 04/M01 A3010 RMK AO2 SLP193 4/003 T00441011 10067 20028 53014= 201702120651 METAR KEWR 120651Z 08004KT 10SM SCT120 OVC160 04/M02 A3011 RMK AO2 SLP195 T00441017= 201702120751 METAR KEWR 120751Z 04004KT 10SM OVC100 03/M01 A3009 RMK AO2 SLP188 T00331011= 201702120851 METAR KEWR 120851Z 07007KT 8SM -RA OVC070 03/M02 A3010 RMK AO2 SLP192 RAB04 P0000 60000 T00281017 55001= 201702120951 METAR KEWR 120951Z 08006KT 7SM -RA OVC060 02/M02 A3011 RMK AO2 SLP195 P0004 T00171022= 201702121051 METAR KEWR 121051Z 07008KT 7SM -RA BKN060 OVC075 01/M02 A3010 RMK AO2 SLP190 P0003 T00111022= 201702121151 METAR KEWR 121151Z 07007KT 7SM FEW017 BKN070 OVC090 01/M02 A3007 RMK AO2 RAE44 SLP180 4/003 P0001 60008 70008 T00111017 10044 20011 58012= 201702121251 METAR KEWR 121251Z 07006KT 7SM -RA SCT017 BKN042 OVC055 01/M02 A3007 RMK AO2 SLP182 RAB02 P0000 T00111022= 201702121351 METAR KEWR 121351Z 07008KT 040V110 8SM FEW017 BKN035 OVC042 01/M02 A3006 RMK AO2 SLP179 RAE21 P0000 T00111022= 201702121451 METAR KEWR 121451Z 04008KT 2SM -FZRAPL BR BKN011 OVC015 00/M02 A3003 RMK AO2 TWR VIS 2 1/2 SLP167 RAB08PLB32 P0003 60003 T00001017 58013= 201702121551 METAR KEWR 121551Z 03009KT 2 1/2SM -FZRAPL BR BKN008 OVC013 00/M02 A2997 RMK AO2 FZRAE15B38SNB15E38 SLP147 P0007 T00001017= 201702121651 METAR KEWR 121651Z 05006KT 2 1/2SM -FZRAPL BR BKN008 OVC013 00/M01 A2990 RMK AO2 PLE00B15 PRESFR SLP125 CIG 006V010 P0010 T00001006= 201702121751 METAR KEWR 121751Z 03009KT 2 1/2SM -RA BR BKN008 OVC014 01/M01 A2987 RMK AO2 RAB24FZRAE24PLE24 SLP113 931001 4/002 933004 P0006 60026 T00061006 10011 20000 58035= 201702121851 METAR KEWR 121851Z 02009KT 3SM -FZDZ BR BKN007 OVC011 00/M01 A2980 RMK AO2 SFC VIS 4 RAE05FZRAB05E42FZDZB42 SLP090 CIG 005V009 P0003 T00001011= 201702121951 METAR KEWR 121951Z 03008KT 3SM -DZ BR OVC007 01/M01 A2975 RMK AO2 SFC VIS 4 DZB42FZDZE42 SLP074 CIG 005V009 P0001 T00061006= 201702122051 METAR KEWR 122051Z 01010KT 3SM -RA BR OVC005 01/M01 A2972 RMK AO2 SFC VIS 4 DZE04RAB04 SLP064 CIG 004V007 P0001 60005 T00061006 56049= 201702122151 METAR KEWR 122151Z 35009KT 2SM BR OVC004 01/00 A2969 RMK AO2 SFC VIS 3 RAE05B20E48DZB05E20 SLP052 P0001 T00060000= 201702122251 METAR KEWR 122251Z 34011KT 2SM -DZ BR OVC005 02/01 A2970 RMK AO2 SFC VIS 4 RAB2156E2158B23E48DZB2158E23B48 SLP056 P0002 T00170006= 201702122351 METAR KEWR 122351Z 31009G16KT 3SM -DZ BR BKN007 OVC013 02/01 A2970 RMK AO2 SFC VIS 4 SLP057 CIG 005V009 4/002 P0001 60009 T00170011 10017 20000 55007= 201702130051 METAR KEWR 130051Z 30008KT 10SM SCT006 BKN012 OVC023 02/01 A2970 RMK AO2 DZE04 SLP058 P0000 T00220011= 201702130151 METAR KEWR 130151Z 29005KT 10SM FEW006 FEW023 FEW040 02/01 A2968 RMK AO2 SLP048 T00170006= 201702130251 METAR KEWR 130251Z 23005KT 10SM FEW015 FEW040 02/00 A2965 RMK AO2 SLP039 60000 T00170000 58017= 201702130351 METAR KEWR 130351Z 26004KT 10SM FEW015 FEW045 02/00 A2963 RMK AO2 SLP031 T00170000= 201702130451 METAR KEWR 130451Z 24009KT 10SM FEW015 FEW045 01/00 A2961 RMK AO2 SLP026 T00110000 400440000= 201702130551 METAR KEWR 130551Z 22008KT 10SM FEW015 FEW045 02/00 A2960 RMK AO2 SLP022 60000 T00170000 10022 20011 56017= 201702130651 METAR KEWR 130651Z 27019G26KT 10SM -RA BKN049 BKN065 OVC080 03/00 A2961 RMK AO2 PK WND 26026/0649 RAB51 SLP027 P0000 T00330000= 201702130751 METAR KEWR 130751Z 28015KT 10SM FEW027 SCT065 BKN110 03/M01 A2962 RMK AO2 PK WND 28031/0658 RAE18 SLP031 P0000 T00281011= 201702130851 METAR KEWR 130851Z 28018G24KT 10SM FEW040 BKN060 BKN110 03/M03 A2965 RMK AO2 PK WND 29033/0834 SLP039 60000 T00281028 53017= 201702130951 METAR KEWR 130951Z 29028G42KT 10SM FEW015 FEW040 SCT120 02/M06 A2968 RMK AO2 PK WND 29042/0949 SLP048 T00171056= 201702131051 METAR KEWR 131051Z 27018G25KT 10SM SCT043 SCT050 01/M05 A2972 RMK AO2 PK WND 29033/0955 SLP062 T00111050= 201702131151 METAR KEWR 131151Z 29009G17KT 10SM BKN045 BKN120 01/M06 A2974 RMK AO2 SLP071 4/002 60000 70035 T00111056 10033 20011 53032= 201702131251 METAR KEWR 131251Z 30017G30KT 10SM SCT045 SCT120 BKN250 01/M06 A2976 RMK AO2 PK WND 30030/1240 SLP077 T00111061= 201702131351 METAR KEWR 131351Z 29027G32KT 10SM -SN BKN040 BKN120 02/M05 A2978 RMK AO2 PK WND 29032/1350 SNB41 SLP083 P0000 T00171050= 201702131451 METAR KEWR 131451Z 31019G30KT 10SM -SN SCT036 BKN045 BKN120 02/M04 A2979 RMK AO2 PK WND 28036/1409 SLP085 P0000 60000 T00221044 51014= 201702131551 METAR KEWR 131551Z 32022G37KT 10SM BKN045 BKN055 03/M06 A2981 RMK AO2 PK WND 30037/1542 SNE31 SLP092 P0000 T00281061= 201702131651 METAR KEWR 131651Z 31023G31KT 10SM -SN BKN045 BKN055 03/M06 A2981 RMK AO2 PK WND 33040/1624 SNB49 SLP093 P0000 T00281061= 201702131751 METAR KEWR 131751Z 30018G34KT 10SM -SN BKN040 BKN055 02/M03 A2982 RMK AO2 PK WND 30034/1742 SLP096 SNE08B37 931000 4/002 933004 P0000 60000 T00221033 10033 20011 51010= 201702131851 METAR KEWR 131851Z 30020G30KT 10SM -SN FEW028 SCT040 BKN050 03/M06 A2982 RMK AO2 PK WND 30038/1819 SLP098 P0000 T00281056= 201702131951 METAR KEWR 131951Z 31019G30KT 10SM BKN042 BKN050 03/M06 A2984 RMK AO2 PK WND 32032/1904 SNE22 SLP104 P0000 T00281056= 201702132051 METAR KEWR 132051Z 32021G28KT 10SM BKN048 03/M07 A2988 RMK AO2 PK WND 32034/1953 SLP116 60000 T00281067 53020= 201702132151 METAR KEWR 132151Z 31022G33KT 10SM BKN050 02/M08 A2990 RMK AO2 PK WND 34043/2102 SLP125 T00221078= 201702132251 METAR KEWR 132251Z 32027G34KT 10SM SCT048 02/M07 A2991 RMK AO2 PK WND 32035/2210 SLP129 T00171072= 201702132351 METAR KEWR 132351Z 32020G26KT 10SM SCT044 01/M07 A2996 RMK AO2 PK WND 30033/2307 SLP145 931000 4/002 60000 T00061072 10033 20006 53029= 201702140051 METAR KEWR 140051Z 32018G22KT 10SM BKN040 01/M07 A2997 RMK AO2 PK WND 31031/2355 SLP146 T00061072= 201702140151 METAR KEWR 140151Z 30014KT 10SM FEW038 00/M07 A2998 RMK AO2 PK WND 30027/0138 SLP153 T00001072= 201702140251 METAR KEWR 140251Z 30012G20KT 10SM SCT036 M01/M08 A3000 RMK AO2 SLP157 T10061078 53012= 201702140351 METAR KEWR 140351Z 30015G22KT 10SM SCT035 M01/M08 A2999 RMK AO2 SLP155 T10061078= 201702140451 METAR KEWR 140451Z 31012G24KT 10SM FEW035 M01/M08 A3000 RMK AO2 PK WND 30030/0410 SLP157 T10111083 400331011= 201702140551 METAR KEWR 140551Z 32011G18KT 10SM FEW035 FEW250 M01/M08 A2998 RMK AO2 SLP150 4/002 T10111083 10006 21011 58008= 201702140651 METAR KEWR 140651Z 31009KT 10SM FEW035 SCT250 M01/M08 A2998 RMK AO2 SLP152 T10111083= 201702140751 METAR KEWR 140751Z 33003KT 10SM FEW035 FEW250 M01/M08 A2998 RMK AO2 SLP150 T10111083= 201702140851 METAR KEWR 140851Z 29004KT 10SM FEW200 M02/M09 A2998 RMK AO2 SLP151 T10221089 51002= 201702140951 METAR KEWR 140951Z 28004KT 10SM CLR M02/M09 A2999 RMK AO2 SLP153 T10221089= 201702141051 METAR KEWR 141051Z 30006KT 10SM SCT250 M02/M08 A2998 RMK AO2 SLP152 T10221083= 201702141151 METAR KEWR 141151Z 26006KT 10SM FEW040 BKN250 M02/M08 A3000 RMK AO2 SLP157 4/002 T10221083 11011 21028 53006= 201702141251 METAR KEWR 141251Z 26007KT 10SM FEW035 SCT230 BKN260 M02/M08 A3000 RMK AO2 SLP159 T10171078= 201702141351 METAR KEWR 141351Z 29004KT 10SM FEW035 SCT230 BKN260 M01/M07 A2999 RMK AO2 SLP153 T10061072= 201702141451 METAR KEWR 141451Z 29005KT 10SM FEW040 BKN220 OVC260 00/M07 A2996 RMK AO2 SLP143 T00001072 58014= 201702141551 METAR KEWR 141551Z 25010KT 10SM FEW035 BKN150 BKN180 OVC250 01/M07 A2995 RMK AO2 SLP140 T00061072= 201702141651 METAR KEWR 141651Z 22007KT 10SM FEW040 FEW160 BKN220 BKN250 01/M06 A2991 RMK AO2 SLP128 T00061061= 201702141751 METAR KEWR 141751Z 20009KT 10SM FEW160 SCT220 SCT250 02/M06 A2987 RMK AO2 SLP115 4/002 933003 T00221061 10022 21022 58028= 201702141851 METAR KEWR 141851Z 23010KT 10SM FEW160 FEW220 SCT250 04/M06 A2984 RMK AO2 SLP105 T00391056= 201702141951 METAR KEWR 141951Z 23008G17KT 10SM FEW220 FEW250 04/M06 A2981 RMK AO2 SLP095 T00441056= 201702142051 METAR KEWR 142051Z 24012KT 10SM FEW250 05/M06 A2981 RMK AO2 SLP095 T00501056 55020= 201702142151 METAR KEWR 142151Z 18008KT 10SM FEW250 05/M06 A2979 RMK AO2 SLP087 T00501056= 201702142251 METAR KEWR 142251Z 20007KT 10SM FEW250 04/M05 A2979 RMK AO2 SLP086 T00441050= 201702142351 METAR KEWR 142351Z 18006KT 10SM FEW250 04/M04 A2979 RMK AO2 SLP088 4/002 T00441044 10056 20022 55007= 201702150051 METAR KEWR 150051Z 18006KT 10SM SCT200 BKN250 04/M04 A2978 RMK AO2 SLP084 T00391044= 201702150151 METAR KEWR 150151Z 18007KT 10SM SCT190 BKN250 03/M04 A2979 RMK AO2 SLP086 T00331039= 201702150251 METAR KEWR 150251Z 19007KT 10SM FEW190 BKN250 03/M02 A2977 RMK AO2 SLP079 T00281022 58008= 201702150351 METAR KEWR 150351Z 19006KT 10SM FEW190 BKN250 02/M02 A2975 RMK AO2 SLP073 T00221022= 201702150451 METAR KEWR 150451Z 19005KT 10SM BKN250 02/M02 A2973 RMK AO2 SLP067 T00221022 400561028= 201702150551 METAR KEWR 150551Z 20004KT 10SM BKN250 01/M02 A2970 RMK AO2 SLP058 4/002 T00111022 10044 20011 58022= 201702150651 METAR KEWR 150651Z 18003KT 10SM BKN250 01/M02 A2969 RMK AO2 SLP053 T00111022= 201702150751 METAR KEWR 150751Z 00000KT 10SM BKN250 01/M03 A2965 RMK AO2 SLP041 T00111028= 201702150851 METAR KEWR 150851Z 00000KT 10SM BKN250 01/M03 A2962 RMK AO2 SLP029 T00061028 58028= 201702150951 METAR KEWR 150951Z 00000KT 10SM BKN250 01/M02 A2960 RMK AO2 SLP022 T00111017= 201702151051 METAR KEWR 151051Z 00000KT 10SM OVC240 01/M02 A2958 RMK AO2 SLP017 T00061022= 201702151151 METAR KEWR 151151Z 00000KT 10SM SCT240 01/M02 A2957 RMK AO2 SLP011 4/001 T00061017 10017 20000 56019= 201702151251 METAR KEWR 151251Z 00000KT 10SM BKN080 OVC250 02/M01 A2953 RMK AO2 SLP000 T00171006= 201702151351 METAR KEWR 151351Z 00000KT 10SM BKN085 OVC250 03/01 A2950 RMK AO2 SLP989 T00280006= 201702151451 METAR KEWR 151451Z 00000KT 9SM BKN085 OVC250 03/01 A2948 RMK AO2 SLP981 HAZE ALOFT VIS LWR NE-S T00330006 56029= 201702151551 METAR KEWR 151551Z VRB03KT 9SM SCT090 BKN220 OVC250 04/00 A2946 RMK AO2 SLP974 HAZE ALOFT VIS LWR NE-S T00440000= 201702151651 METAR KEWR 151651Z 22005KT 10SM SCT090 BKN230 OVC260 05/00 A2941 RMK AO2 SLP958 T00500000= 201702151751 METAR KEWR 151751Z 23007KT 10SM BKN070 BKN085 OVC250 06/M01 A2938 RMK AO2 SLP948 4/001 T00611006 10061 20006 58033= 201702151851 METAR KEWR 151851Z 21007KT 10SM FEW030 FEW075 SCT250 08/01 A2934 RMK AO2 SLP936 T00830006= 201702151951 METAR KEWR 151951Z 25011G17KT 10SM FEW030 FEW075 SCT250 11/M01 A2932 RMK AO2 SLP929 T01061011= 201702152051 METAR KEWR 152051Z 29017G28KT 10SM SCT050 SCT090 BKN250 08/M01 A2931 RMK AO2 PK WND 28028/2042 SLP926 T00831011 56022= 201702152151 METAR KEWR 152151Z 29016G31KT 9SM -RA BKN027 BKN080 BKN090 BKN250 04/00 A2934 RMK AO2 PK WND 29035/2140 RAB38 SLP935 BKN027 V SCT P0000 T00440000= 201702152251 METAR KEWR 152251Z 32016G28KT 9SM -RA SCT012 BKN026 BKN075 04/00 A2937 RMK AO2 PK WND 30028/2248 RAE01B40 SLP944 P0000 T00390000= 201702152351 METAR KEWR 152351Z 29013G24KT 10SM FEW014 SCT025 SCT100 BKN130 03/M01 A2940 RMK AO2 PK WND 32030/2303 RAE14 SLP954 P0000 60000 T00331006 10111 20033 53028= 201702160051 METAR KEWR 160051Z 29014G22KT 10SM SCT030 BKN110 03/M02 A2942 RMK AO2 PK WND 29026/0002 SLP963 T00331017= 201702160151 METAR KEWR 160151Z 29015G22KT 10SM FEW030 FEW100 03/M03 A2944 RMK AO2 SLP968 T00281028= 201702160251 METAR KEWR 160251Z 30012KT 10SM FEW030 02/M04 A2945 RMK AO2 SLP972 T00221044 51018= 201702160351 METAR KEWR 160351Z 29012G16KT 10SM FEW035 02/M05 A2946 RMK AO2 SLP976 T00221050= 201702160451 METAR KEWR 160451Z 29013KT 10SM FEW035 02/M05 A2947 RMK AO2 PK WND 28026/0441 SLP980 T00171050 401110000= 201702160551 METAR KEWR 160551Z 29016G30KT 10SM SCT037 01/M06 A2948 RMK AO2 PK WND 29030/0545 SLP983 T00111061 10033 20011 51011= 201702160651 METAR KEWR 160651Z 29017G22KT 10SM FEW037 01/M08 A2949 RMK AO2 PK WND 30028/0632 SLP986 T00111078= 201702160751 METAR KEWR 160751Z 29012KT 10SM FEW040 00/M08 A2949 RMK AO2 PK WND 29030/0702 SLP985 T00001083= 201702160851 METAR KEWR 160851Z 29010KT 10SM BKN040 M01/M08 A2950 RMK AO2 SLP989 T10061083 53005= 201702160951 METAR KEWR 160951Z 29016KT 10SM BKN045 00/M08 A2952 RMK AO2 SLP994 T00001083= 201702161051 METAR KEWR 161051Z 30016G24KT 10SM BKN043 00/M08 A2953 RMK AO2 SLP999 T00001083= 201702161151 METAR KEWR 161151Z 29012G21KT 10SM BKN043 M01/M09 A2955 RMK AO2 SLP007 T10061089 10011 21006 53018= 201702161251 METAR KEWR 161251Z 29017G21KT 10SM SCT041 M01/M09 A2958 RMK AO2 SLP016 VIRGA N T10061089= 201702161351 METAR KEWR 161351Z 30015G27KT 10SM SCT044 01/M09 A2960 RMK AO2 PK WND 31027/1345 SLP021 T00061094= 201702161451 METAR KEWR 161451Z 29012G20KT 10SM SCT044 01/M09 A2960 RMK AO2 SLP024 T00111094 51017= 201702161551 METAR KEWR 161551Z 28022G28KT 10SM SCT045 SCT250 02/M09 A2961 RMK AO2 PK WND 29030/1521 SLP025 T00221094= 201702161651 METAR KEWR 161651Z 30019G27KT 10SM FEW045 BKN250 02/M10 A2960 RMK AO2 PK WND 30028/1620 SLP024 T00221100= 201702161751 METAR KEWR 161751Z 30018G25KT 10SM FEW050 BKN250 03/M09 A2960 RMK AO2 PK WND 31028/1701 SLP022 T00331094 10033 21006 58002= 201702161851 METAR KEWR 161851Z 28020KT 10SM SCT050 BKN250 03/M09 A2961 RMK AO2 PK WND 33029/1809 SLP025 T00331094= 201702161951 METAR KEWR 161951Z 30022G27KT 10SM BKN046 BKN250 03/M09 A2962 RMK AO2 PK WND 28029/1917 SLP028 T00331089= 201702162051 METAR KEWR 162051Z 30025G33KT 10SM SCT047 SCT090 02/M10 A2964 RMK AO2 PK WND 29033/2046 SLP035 ACSL OHD T00221100 53012= 201702162151 METAR KEWR 162151Z 30013G22KT 10SM FEW048 SCT090 SCT250 01/M10 A2966 RMK AO2 PK WND 30031/2101 SLP043 T00111100= 201702162251 METAR KEWR 162251Z 31019G26KT 10SM FEW048 FEW090 SCT250 01/M11 A2969 RMK AO2 PK WND 31032/2155 SLP053 T00061106= 201702162351 METAR KEWR 162351Z 31014G25KT 10SM FEW048 FEW100 SCT250 00/M10 A2973 RMK AO2 PK WND 30027/2328 SLP066 T00001100 10033 20000 53031 $= 201702170051 METAR KEWR 170051Z 30020G26KT 10SM FEW048 FEW100 SCT250 M01/M11 A2975 RMK AO2 PK WND 28026/0051 SLP073 T10061106 $= 201702170151 METAR KEWR 170151Z 31018G23KT 10SM FEW045 FEW250 M01/M11 A2977 RMK AO2 PK WND 31026/0057 SLP080 T10061106 $= 201702170251 METAR KEWR 170251Z 32013G19KT 10SM FEW045 M01/M11 A2979 RMK AO2 PK WND 31027/0208 SLP086 T10111106 51020 $= 201702170351 METAR KEWR 170351Z 31012G21KT 10SM FEW040 M02/M10 A2980 RMK AO2 SLP091 T10171100 $= 201702170451 METAR KEWR 170451Z 31008G16KT 10SM SCT040 M02/M10 A2982 RMK AO2 SLP096 T10171100 400331017 $= 201702170551 METAR KEWR 170551Z 29011KT 10SM FEW040 M02/M10 A2983 RMK AO2 SLP100 T10221100 10000 21022 51014 $= 201702170651 METAR KEWR 170651Z 28011KT 10SM FEW040 M02/M10 A2984 RMK AO2 SLP105 T10221100 $= 201702170751 METAR KEWR 170751Z 28011KT 10SM FEW040 M03/M10 A2984 RMK AO2 SLP103 T10281100 $= 201702170851 METAR KEWR 170851Z 28006KT 10SM CLR M03/M11 A2984 RMK AO2 SLP104 T10281106 51004 $= 201702170951 METAR KEWR 170951Z 29009KT 10SM CLR M03/M10 A2986 RMK AO2 SLP109 T10281100 $= 201702171051 METAR KEWR 171051Z 30007KT 10SM CLR M03/M10 A2986 RMK AO2 SLP112 T10281100 $= 201702171151 METAR KEWR 171151Z 29009KT 10SM FEW040 SCT250 M03/M10 A2987 RMK AO2 SLP114 T10281100 11022 21028 51010 $= 201702171251 METAR KEWR 171251Z 29010G20KT 10SM FEW040 BKN250 M02/M10 A2989 RMK AO2 SLP119 T10221100 $= 201702171351 METAR KEWR 171351Z 29011KT 10SM BKN250 M01/M11 A2989 RMK AO2 SLP120 T10061106 $= 201702171451 METAR KEWR 171451Z 29014KT 10SM SCT250 01/M10 A2988 RMK AO2 SLP118 T00061100 50004= 201702171551 METAR KEWR 171551Z 29015G23KT 10SM FEW180 SCT250 02/M09 A2987 RMK AO2 SLP115 T00221094= 201702171651 METAR KEWR 171651Z 31015G21KT 10SM FEW180 SCT250 03/M10 A2986 RMK AO2 SLP110 T00331100= 201702171751 METAR KEWR 171751Z 28010G18KT 10SM FEW180 SCT250 05/M09 A2984 RMK AO2 SLP103 T00501094 10050 21028 58015= 201702171851 METAR KEWR 171851Z 29011G22KT 10SM FEW180 FEW250 06/M09 A2983 RMK AO2 SLP100 T00611094= 201702171951 METAR KEWR 171951Z 30014G22KT 10SM FEW180 SCT250 07/M10 A2982 RMK AO2 SLP097 T00671100= 201702172051 METAR KEWR 172051Z 30012G22KT 10SM FEW180 BKN250 07/M10 A2982 RMK AO2 SLP097 T00671100 56007= 201702172151 METAR KEWR 172151Z 31012G18KT 10SM FEW180 BKN250 06/M11 A2983 RMK AO2 SLP101 T00561106= 201702172251 METAR KEWR 172251Z 30010G18KT 10SM FEW180 BKN250 05/M10 A2985 RMK AO2 SLP108 T00501100= 201702172351 METAR KEWR 172351Z 29008KT 10SM FEW170 BKN250 04/M10 A2988 RMK AO2 SLP117 T00441100 10067 20044 53020= 201702180051 METAR KEWR 180051Z 31006KT 10SM FEW170 BKN250 04/M10 A2989 RMK AO2 SLP121 T00391100= 201702180151 METAR KEWR 180151Z 28006KT 10SM FEW150 BKN250 03/M09 A2990 RMK AO2 SLP124 T00331094= 201702180251 METAR KEWR 180251Z VRB04KT 10SM SCT150 BKN250 03/M10 A2991 RMK AO2 SLP127 T00331100 51011= 201702180351 METAR KEWR 180351Z 27006KT 10SM FEW150 BKN250 02/M10 A2991 RMK AO2 SLP127 T00221100= 201702180451 METAR KEWR 180451Z 30004KT 10SM SCT250 02/M09 A2990 RMK AO2 SLP124 T00171094 400671028= 201702180551 METAR KEWR 180551Z 00000KT 10SM SCT250 01/M09 A2990 RMK AO2 SLP123 T00111094 10044 20011 58004= 201702180651 METAR KEWR 180651Z 19003KT 10SM SCT250 01/M07 A2990 RMK AO2 SLP126 T00111067= 201702180751 METAR KEWR 180751Z 00000KT 10SM SCT250 01/M08 A2989 RMK AO2 SLP120 T00061078= 201702180851 METAR KEWR 180851Z 19004KT 10SM SCT250 00/M06 A2988 RMK AO2 SLP117 T00001061 58007= 201702180951 METAR KEWR 180951Z 00000KT 10SM FEW250 M01/M06 A2988 RMK AO2 SLP118 T10061061= 201702181051 METAR KEWR 181051Z 00000KT 10SM CLR 00/M06 A2987 RMK AO2 SLP115 T00001061= 201702181151 METAR KEWR 181151Z 21004KT 10SM CLR M01/M06 A2986 RMK AO2 SLP111 T10061061 10022 21006 58005= 201702181251 METAR KEWR 181251Z 21005KT 10SM FEW250 01/M06 A2986 RMK AO2 SLP111 T00111056= 201702181351 METAR KEWR 181351Z 20008KT 10SM FEW280 04/M06 A2986 RMK AO2 SLP111 T00441056= 201702181451 METAR KEWR 181451Z 22011KT 10SM SCT160 SCT280 08/M06 A2986 RMK AO2 SLP109 T00781056 58002= 201702181551 METAR KEWR 181551Z 21015G18KT 10SM FEW160 SCT280 10/M04 A2982 RMK AO2 SLP097 T01001039= 201702181651 METAR KEWR 181651Z 24010KT 10SM SCT280 13/M02 A2977 RMK AO2 SLP081 T01331022= 201702181751 METAR KEWR 181751Z 22012KT 10SM FEW170 SCT280 15/M01 A2972 RMK AO2 SLP063 T01501011 10150 21011 58046= 201702181851 METAR KEWR 181851Z 21010KT 10SM SCT280 17/M01 A2968 RMK AO2 SLP051 T01721006= 201702181951 METAR KEWR 181951Z 23012G19KT 10SM FEW200 BKN270 18/00 A2967 RMK AO2 SLP046 T01830000= 201702182051 METAR KEWR 182051Z 19009KT 10SM FEW200 BKN270 17/01 A2967 RMK AO2 SLP046 T01720011 56017= 201702182151 METAR KEWR 182151Z 23009KT 10SM SCT200 BKN270 17/01 A2966 RMK AO2 SLP044 T01720006= 201702182251 METAR KEWR 182251Z 20003KT 10SM SCT200 BKN270 16/01 A2967 RMK AO2 SLP045 T01560006 $= 201702182351 METAR KEWR 182351Z 20005KT 10SM FEW200 SCT270 14/01 A2966 RMK AO2 SLP044 T01440006 10189 20144 56001 $= 201702190051 METAR KEWR 190051Z 22010KT 10SM FEW200 BKN270 14/00 A2967 RMK AO2 SLP045 T01390000 $= 201702190151 METAR KEWR 190151Z 24008KT 10SM FEW200 BKN270 14/M01 A2967 RMK AO2 SLP048 T01441006 $= 201702190251 METAR KEWR 190251Z 22010KT 10SM FEW200 BKN270 12/00 A2968 RMK AO2 SLP048 T01170000 51004 $= 201702190351 METAR KEWR 190351Z 22007KT 10SM FEW200 BKN270 11/00 A2968 RMK AO2 SLP048 T01110000 $= 201702190451 METAR KEWR 190451Z 22006KT 10SM BKN270 11/00 A2967 RMK AO2 SLP048 T01110000 401891011 $= 201702190551 METAR KEWR 190551Z 22006KT 10SM FEW200 BKN250 10/01 A2968 RMK AO2 SLP050 T01000006 10150 20089 53002 $= 201702190651 METAR KEWR 190651Z 21007KT 10SM FEW180 BKN250 09/01 A2969 RMK AO2 SLP053 T00940006 $= 201702190751 METAR KEWR 190751Z 22009KT 10SM FEW120 SCT180 BKN250 11/01 A2970 RMK AO2 SLP058 T01060006 $= 201702190851 METAR KEWR 190851Z 22007KT 10SM BKN120 BKN180 BKN250 09/01 A2972 RMK AO2 SLP062 T00940006 53012 $= 201702190951 METAR KEWR 190951Z 25003KT 10SM SCT140 BKN250 09/00 A2972 RMK AO2 SLP064 T00940000 $= 201702191051 METAR KEWR 191051Z 23003KT 10SM SCT110 BKN150 BKN250 08/01 A2974 RMK AO2 SLP070 T00830006 $= 201702191151 METAR KEWR 191151Z 00000KT 10SM BKN120 BKN250 11/01 A2976 RMK AO2 SLP078 T01110006 10117 20083 53016 $= 201702191251 METAR KEWR 191251Z 21003KT 10SM BKN120 BKN200 BKN250 11/02 A2979 RMK AO2 SLP088 T01060017 $= 201702191351 METAR KEWR 191351Z 25005KT 10SM BKN110 BKN190 BKN250 13/02 A2981 RMK AO2 SLP095 T01330022 $= 201702191451 METAR KEWR 191451Z 25008KT 10SM SCT120 SCT190 BKN270 16/03 A2982 RMK AO2 SLP097 T01560028 51019 $= 201702191551 METAR KEWR 191551Z 28009KT 10SM FEW130 SCT200 BKN260 17/03 A2982 RMK AO2 SLP096 T01670028 $= 201702191651 METAR KEWR 191651Z 30009KT 10SM BKN220 BKN260 18/01 A2981 RMK AO2 SLP094 T01780011 $= 201702191751 METAR KEWR 191751Z 27011G19KT 10SM BKN220 BKN260 19/02 A2981 RMK AO2 SLP092 T01890017 10189 20106 58005 $= 201702191851 METAR KEWR 191851Z 28009G19KT 260V010 10SM FEW160 SCT220 SCT260 19/02 A2979 RMK AO2 SLP088 T01940022 $= 201702191951 METAR KEWR 191951Z 26012G20KT 10SM FEW160 FEW220 20/01 A2979 RMK AO2 SLP088 T02000006 $= 201702192051 METAR KEWR 192051Z 31012G18KT 10SM FEW160 FEW220 19/M01 A2982 RMK AO2 PK WND 29029/2018 SLP097 FU PLUME E DRFTG SE T01891011 53004 $= 201702192151 METAR KEWR 192151Z 29012G19KT 10SM FEW160 18/M01 A2984 RMK AO2 SLP104 T01831006 $= 201702192251 METAR KEWR 192251Z 32007G15KT 10SM CLR 17/M02 A2987 RMK AO2 SLP114 T01721017 $= 201702192351 METAR KEWR 192351Z 31005KT 10SM CLR 17/M01 A2988 RMK AO2 SLP119 T01721011 10206 20161 51022 $= 201702200051 METAR KEWR 200051Z 29006KT 10SM CLR 16/M01 A2990 RMK AO2 SLP125 T01611006 $= 201702200151 METAR KEWR 200151Z 31008KT 10SM CLR 15/00 A2993 RMK AO2 SLP135 T01500000 $= 201702200251 METAR KEWR 200251Z 35012KT 10SM CLR 13/M01 A2996 RMK AO2 SLP146 T01331006 53027 $= 201702200351 METAR KEWR 200351Z 31010KT 10SM CLR 13/M01 A2997 RMK AO2 SLP149 T01281006 $= 201702200451 METAR KEWR 200451Z 33015G21KT 10SM CLR 12/00 A2998 RMK AO2 SLP153 T01220000 402060083 $= 201702200551 METAR KEWR 200551Z 32018G22KT 10SM FEW250 11/01 A3001 RMK AO2 PK WND 32030/0525 SLP161 T01110006 10172 20111 53016 $= 201702200651 METAR KEWR 200651Z 32011KT 10SM BKN250 10/00 A3002 RMK AO2 SLP166 T01000000 $= 201702200751 METAR KEWR 200751Z 31010KT 10SM SCT250 09/00 A3003 RMK AO2 SLP167 T00890000 $= 201702200851 METAR KEWR 200851Z 29009KT 10SM FEW250 08/00 A3005 RMK AO2 SLP176 T00830000 53015 $= 201702200951 METAR KEWR 200951Z 29010G17KT 10SM FEW250 07/M01 A3008 RMK AO2 SLP185 T00721006 $= 201702201051 METAR KEWR 201051Z 30010G21KT 10SM CLR 07/M01 A3011 RMK AO2 SLP195 T00671006 $= 201702201151 METAR KEWR 201151Z 30011KT 10SM FEW250 07/M01 A3013 RMK AO2 SLP204 T00671006 10111 20061 51028 $= 201702201251 METAR KEWR 201251Z 28009KT 10SM FEW250 07/M01 A3016 RMK AO2 SLP212 T00721006 $= 201702201351 METAR KEWR 201351Z 31011KT 10SM FEW040 08/M01 A3018 RMK AO2 SLP220 T00831011 $= 201702201451 METAR KEWR 201451Z 33011KT 10SM FEW045 10/M02 A3020 RMK AO2 SLP224 T01001017 51020 $= 201702201551 METAR KEWR 201551Z VRB05KT 10SM FEW050 FEW250 11/M03 A3020 RMK AO2 SLP226 T01111028 $= 201702201651 METAR KEWR 201651Z VRB06G14KT 10SM FEW050 FEW250 12/M04 A3019 RMK AO2 SLP223 T01221044 $= 201702201751 METAR KEWR 201751Z 33010KT 10SM FEW065 FEW250 13/M07 A3018 RMK AO2 SLP220 T01281067 10128 20061 58004 $= 201702201851 METAR KEWR 201851Z 31015G21KT 10SM FEW250 13/M10 A3017 RMK AO2 SLP214 T01281100 $= 201702201951 METAR KEWR 201951Z 32017G23KT 10SM FEW250 13/M12 A3017 RMK AO2 SLP216 T01281122 $= 201702202051 METAR KEWR 202051Z 33016KT 10SM FEW250 12/M13 A3019 RMK AO2 SLP223 T01221133 53002 $= 201702202151 METAR KEWR 202151Z 31012G22KT 10SM FEW250 12/M14 A3021 RMK AO2 SLP230 T01171139 $= 201702202251 METAR KEWR 202251Z 33012KT 10SM FEW250 11/M15 A3025 RMK AO2 SLP242 T01061150 $= 201702202351 METAR KEWR 202351Z 01012KT 10SM FEW250 07/M11 A3029 RMK AO2 WSHFT 2310 SLP257 T00721106 10133 20072 53035 $= 201702210051 METAR KEWR 210051Z 02013KT 10SM FEW250 07/M10 A3031 RMK AO2 SLP263 T00671100 $= 201702210151 METAR KEWR 210151Z 02010KT 10SM FEW250 05/M10 A3033 RMK AO2 SLP271 T00501100 $= 201702210251 METAR KEWR 210251Z 02012KT 10SM FEW250 04/M09 A3034 RMK AO2 SLP272 T00441089 51015 $= 201702210351 METAR KEWR 210351Z 02012KT 10SM FEW250 03/M08 A3036 RMK AO2 SLP279 T00331083 $= 201702210451 METAR KEWR 210451Z 02009KT 10SM FEW250 03/M08 A3036 RMK AO2 SLP281 T00281083 401330028 $= 201702210551 METAR KEWR 210551Z 01010KT 10SM FEW250 02/M09 A3037 RMK AO2 SLP283 T00221094 10078 20022 51011 $= 201702210651 METAR KEWR 210651Z 03008KT 10SM FEW250 01/M09 A3037 RMK AO2 SLP283 T00111089 $= 201702210751 METAR KEWR 210751Z 03007KT 10SM FEW250 01/M09 A3036 RMK AO2 SLP280 T00061094 $= 201702210851 METAR KEWR 210851Z 01004KT 10SM FEW250 01/M09 A3037 RMK AO2 SLP282 T00061094 55001 $= 201702210951 METAR KEWR 210951Z 02006KT 10SM FEW250 M01/M09 A3038 RMK AO2 SLP287 T10061089 $= 201702211051 METAR KEWR 211051Z 03006KT 10SM FEW250 00/M09 A3038 RMK AO2 SLP285 T00001089 $= 201702211151 METAR KEWR 211151Z 35004KT 10SM BKN250 01/M09 A3038 RMK AO2 SLP286 T00061089 10028 21011 51004 $= 201702211251 METAR KEWR 211251Z 01004KT 10SM R04R/0500FT FEW150 BKN250 02/M08 A3040 RMK AO2 SLP293 T00221083 $= 201702211351 METAR KEWR 211351Z 00000KT 10SM FEW160 BKN250 04/M08 A3039 RMK AO2 SLP289 T00391078 $= 201702211451 METAR KEWR 211451Z VRB03KT 10SM SCT200 BKN250 06/M07 A3037 RMK AO2 SLP284 T00561072 58002= 201702211551 METAR KEWR 211551Z 16006KT 10SM FEW200 BKN250 06/M04 A3036 RMK AO2 SLP281 T00611039= 201702211651 METAR KEWR 211651Z 18005KT 10SM FEW200 OVC250 07/M02 A3035 RMK AO2 SLP275 T00671017= 201702211751 METAR KEWR 211751Z 13006KT 10SM FEW200 OVC250 07/M01 A3030 RMK AO2 SLP259 T00721011 10078 20006 58025= 201702211851 METAR KEWR 211851Z 12006KT 10SM SCT180 OVC260 07/M01 A3027 RMK AO2 SLP248 T00721006= 201702211951 METAR KEWR 211951Z VRB06KT 10SM SCT180 BKN210 OVC260 07/00 A3024 RMK AO2 SLP239 T00670000= 201702212051 METAR KEWR 212051Z 14007KT 10SM FEW180 SCT210 OVC260 07/00 A3023 RMK AO2 SLP237 T00670000 56022= 201702212151 METAR KEWR 212151Z 13009KT 10SM FEW170 SCT200 OVC260 07/00 A3020 RMK SLP227 T00670000= 201702212251 METAR KEWR 212251Z 15008KT 10SM FEW170 SCT200 OVC250 06/00 A3021 RMK SLP230 T00610000= 201702212351 METAR KEWR 212351Z 16006KT 10SM FEW170 BKN200 OVC250 06/00 A3019 RMK SLP223 T00610000 10078 20061 56014= 201702220051 METAR KEWR 220051Z 19007KT 10SM FEW170 SCT200 BKN250 05/M01 A3020 RMK SLP226 T00501006= 201702220151 METAR KEWR 220151Z 19006KT 10SM FEW160 BKN210 OVC260 06/00 A3019 RMK SLP223 T00560000= 201702220251 METAR KEWR 220251Z 18009KT 10SM FEW150 BKN210 OVC250 06/00 A3018 RMK SLP218 T00560000 58005= 201702220351 METAR KEWR 220351Z 20009KT 10SM BKN160 OVC220 06/01 A3015 RMK SLP208 T00560006= 201702220451 METAR KEWR 220451Z 21009KT 10SM BKN150 OVC200 05/01 A3013 RMK SLP202 T00500006 400781011= 201702220551 METAR KEWR 220551Z 18006KT 10SM OVC140 06/01 A3010 RMK SLP191 T00560011 10061 20050 58027= 201702220651 METAR KEWR 220651Z 19006KT 10SM BKN090 BKN120 OVC160 06/01 A3008 RMK SLP185 T00560011= 201702220751 METAR KEWR 220751Z 23004KT 10SM BKN100 OVC140 06/01 A3008 RMK SLP184 T00560011= 201702220851 METAR KEWR 220851Z 20005KT 10SM OVC090 06/01 A3007 RMK SLP183 T00560011 56008= 201702220951 METAR KEWR 220951Z 19005KT 10SM SCT090 BKN150 05/01 A3006 RMK AO2 RAB12E21 SLP178 P0000 T00500011= 201702221051 METAR KEWR 221051Z 18005KT 10SM BKN075 OVC120 06/02 A3006 RMK AO2 SLP180 T00560017= 201702221151 METAR KEWR 221151Z 19004KT 10SM FEW080 FEW120 BKN150 06/02 A3005 RMK AO2 SLP176 60000 T00560017 10056 20050 56007= 201702221251 METAR KEWR 221251Z VRB03KT 10SM BKN100 BKN150 06/02 A3005 RMK AO2 SLP176 T00560022= 201702221351 METAR KEWR 221351Z 23005KT 10SM FEW080 SCT110 BKN140 OVC250 07/03 A3004 RMK AO2 SLP172 T00670028 $= 201702221451 METAR KEWR 221451Z 23006KT 10SM FEW080 SCT110 BKN140 OVC250 08/03 A3004 RMK AO2 SLP170 T00830028 58005= 201702221551 METAR KEWR 221551Z 24007KT 10SM FEW080 SCT120 BKN150 OVC250 08/03 A3002 RMK AO2 SLP163 T00830028= 201702221651 METAR KEWR 221651Z 25005KT 10SM SCT095 SCT120 BKN150 OVC250 09/03 A2999 RMK AO2 SLP156 T00940028= 201702221751 METAR KEWR 221751Z 26005KT 10SM FEW100 SCT120 BKN170 OVC250 11/03 A2996 RMK AO2 SLP144 T01110028 10111 20056 58026= 201702221851 METAR KEWR 221851Z VRB03KT 10SM FEW120 SCT170 OVC250 12/03 A2992 RMK AO2 SLP132 T01220033= 201702221951 METAR KEWR 221951Z 19006KT 10SM BKN120 BKN180 BKN250 13/04 A2991 RMK AO2 SLP127 T01330039= 201702222051 METAR KEWR 222051Z VRB03KT 10SM SCT120 SCT180 BKN250 14/04 A2990 RMK AO2 SLP126 T01390039 56018= 201702222151 METAR KEWR 222151Z 15003KT 10SM FEW120 SCT170 BKN270 14/04 A2990 RMK AO2 SLP125 T01390044= 201702222251 METAR KEWR 222251Z 15005KT 10SM BKN100 BKN270 13/04 A2990 RMK AO2 SLP126 T01280044= 201702222351 METAR KEWR 222351Z 17003KT 10SM OVC110 12/05 A2990 RMK AO2 SLP126 T01220050 10150 20111 56000= 201702230051 METAR KEWR 230051Z VRB03KT 10SM BKN110 OVC270 11/04 A2990 RMK AO2 SLP126 T01060044= 201702230151 METAR KEWR 230151Z 00000KT 10SM SCT110 BKN270 11/06 A2991 RMK AO2 SLP128 T01060056= 201702230251 METAR KEWR 230251Z 16003KT 10SM FEW110 BKN270 10/06 A2991 RMK AO2 SLP127 T01000056 50001= 201702230351 METAR KEWR 230351Z 20003KT 10SM BKN270 09/05 A2989 RMK AO2 SLP122 T00940050= 201702230451 METAR KEWR 230451Z 00000KT 10SM BKN260 09/06 A2988 RMK AO2 SLP119 T00940056 401500050= 201702230551 METAR KEWR 230551Z 20005KT 10SM SCT250 09/06 A2988 RMK AO2 SLP117 T00890056 10122 20072 56009= 201702230651 METAR KEWR 230651Z 00000KT 10SM SCT250 09/05 A2989 RMK AO2 SLP119 T00890050= 201702230751 METAR KEWR 230751Z 17004KT 10SM SCT250 08/05 A2988 RMK AO2 SLP117 T00780050= 201702230851 METAR KEWR 230851Z 00000KT 9SM SCT250 08/05 A2988 RMK AO2 SLP116 T00780050 58002= 201702230951 METAR KEWR 230951Z 18003KT 8SM FEW250 06/05 A2988 RMK AO2 SLP116 T00610050= 201702231051 METAR KEWR 231051Z 19004KT 9SM FEW250 07/05 A2989 RMK AO2 SLP119 T00670050= 201702231151 METAR KEWR 231151Z 20003KT 5SM BR FEW250 07/06 A2989 RMK AO2 SLP122 T00670056 10089 20061 53006= 201702231251 METAR KEWR 231251Z 25007KT 1/4SM R04R/1800V4000FT FG OVC001 07/06 A2991 RMK AO2 SLP128 T00670061 $= 201702231351 METAR KEWR 231351Z 21004KT 1SM R04R/5500VP6000FT -DZ BR OVC003 08/07 A2991 RMK AO2 SFC VIS 1 1/4 DZB35 SLP129 CIG 002V004 P0000 T00780072 $= 201702231451 METAR KEWR 231451Z 16004KT 1 3/4SM BR BKN005 BKN010 09/09 A2991 RMK AO2 SFC VIS 3 DZE44 SLP126 CIG 004V006 P0000 60000 T00890089 50005 $= 201702231551 METAR KEWR 231551Z 21007KT 1 3/4SM BR BKN005 OVC010 11/09 A2989 RMK AO2 SFC VIS 3 SLP120 VIS E 2 CIG 004V006 T01060089 $= 201702231651 METAR KEWR 231651Z 24010KT 3SM BR BKN006 OVC010 12/10 A2987 RMK AO2 SFC VIS 5 SLP115 T01220100= 201702231751 METAR KEWR 231751Z 23009KT 9SM SCT008 BKN012 14/11 A2985 RMK AO2 SLP107 60000 T01440106 10144 20067 58019= 201702231851 METAR KEWR 231851Z 22008KT 10SM FEW010 SCT250 17/11 A2982 RMK AO2 SLP097 T01670111= 201702231951 METAR KEWR 231951Z 18008KT 10SM FEW040 FEW100 SCT250 18/11 A2980 RMK AO2 SLP091 T01830111= 201702232051 METAR KEWR 232051Z 18007KT 10SM FEW040 FEW100 SCT250 19/11 A2980 RMK AO2 SLP090 T01890111 56017= 201702232151 METAR KEWR 232151Z 12005KT 10SM FEW040 FEW100 SCT250 17/10 A2981 RMK AO2 SLP093 T01670100= 201702232251 METAR KEWR 232251Z 02005KT 10SM FEW080 SCT250 14/09 A2983 RMK AO2 SLP101 T01390089= 201702232351 METAR KEWR 232351Z 05004KT 10SM FEW060 SCT250 14/09 A2985 RMK AO2 SLP109 T01440094 10194 20139 53019= 201702240051 METAR KEWR 240051Z 14004KT 10SM FEW070 BKN250 14/09 A2986 RMK AO2 SLP109 T01390094= 201702240151 METAR KEWR 240151Z 20003KT 10SM FEW060 FEW080 BKN250 14/09 A2988 RMK AO2 SLP117 T01440094= 201702240251 METAR KEWR 240251Z 15003KT 10SM FEW060 SCT080 BKN250 15/11 A2988 RMK AO2 SLP118 T01500106 53009= 201702240351 METAR KEWR 240351Z 18004KT 10SM FEW060 FEW080 BKN250 14/10 A2989 RMK AO2 SLP120 T01440100= 201702240451 METAR KEWR 240451Z 21006KT 10SM BKN090 BKN250 13/09 A2990 RMK AO2 SLP124 T01280094 401940061= 201702240551 METAR KEWR 240551Z 21006KT 10SM BKN090 OVC250 14/10 A2990 RMK AO2 SLP125 T01390100 10156 20128 51007= 201702240651 METAR KEWR 240651Z 20006KT 10SM FEW090 SCT250 13/10 A2990 RMK AO2 SLP126 T01330100= 201702240751 METAR KEWR 240751Z 17004KT 10SM FEW090 SCT250 13/10 A2991 RMK AO2 SLP127 T01280100= 201702240851 METAR KEWR 240851Z 00000KT 10SM FEW090 FEW250 12/09 A2991 RMK AO2 SLP129 T01220094 53004= 201702240951 METAR KEWR 240951Z 00000KT 10SM FEW180 BKN250 12/10 A2993 RMK AO2 SLP133 T01220100= 201702241051 METAR KEWR 241051Z 16004KT 10SM FEW150 BKN200 12/10 A2992 RMK AO2 SLP132 T01220100= 201702241151 METAR KEWR 241151Z 00000KT 10SM FEW140 SCT200 12/10 A2993 RMK AO2 SLP134 T01170100 10144 20117 51005 $= 201702241251 METAR KEWR 241251Z 19003KT 10SM FEW130 FEW200 BKN250 14/11 A2994 RMK AO2 SLP137 T01390111 $= 201702241351 METAR KEWR 241351Z 21008KT 10SM FEW150 BKN250 16/12 A2995 RMK AO2 SLP140 T01610117 $= 201702241451 METAR KEWR 241451Z 22006KT 10SM FEW150 BKN250 19/13 A2995 RMK AO2 SLP141 T01890128 51007= 201702241551 METAR KEWR 241551Z 18008KT 10SM FEW090 SCT250 20/13 A2993 RMK AO2 SLP135 T02000128= 201702241651 METAR KEWR 241651Z 19011KT 10SM FEW035 SCT250 22/12 A2991 RMK AO2 SLP128 T02220122= 201702241751 METAR KEWR 241751Z 17011KT 10SM SCT045 BKN250 23/12 A2988 RMK AO2 SLP117 T02280117 10233 20117 58023= 201702241851 METAR KEWR 241851Z 13007KT 10SM SCT046 BKN250 22/12 A2986 RMK AO2 SLP111 T02220117= 201702241951 METAR KEWR 241951Z 13008KT 10SM SCT048 21/11 A2985 RMK AO2 SLP106 T02110111= 201702242051 METAR KEWR 242051Z 15007KT 10SM BKN055 BKN250 21/11 A2985 RMK AO2 SLP106 T02060111 56011= 201702242151 METAR KEWR 242151Z 16009KT 10SM SCT055 SCT100 BKN250 20/12 A2984 RMK AO2 SLP105 T02000117 $= 201702242251 METAR KEWR 242251Z 16007KT 10SM FEW050 SCT100 BKN250 19/12 A2984 RMK AO2 SLP105 T01940117 $= 201702242351 METAR KEWR 242351Z 16006KT 10SM FEW040 FEW100 SCT250 18/12 A2985 RMK AO2 SLP106 T01830117 10228 20183 55000 $= 201702250051 METAR KEWR 250051Z 18006KT 10SM FEW040 SCT250 18/13 A2985 RMK AO2 SLP108 T01780128 $= 201702250151 METAR KEWR 250151Z 16007KT 10SM FEW005 FEW250 16/13 A2985 RMK AO2 SLP109 T01610128 $= 201702250251 METAR KEWR 250251Z 17006KT 10SM FEW005 SCT250 16/13 A2985 RMK AO2 SLP108 T01610133 50002 $= 201702250351 METAR KEWR 250351Z 18006KT 10SM FEW005 SCT027 BKN050 BKN250 16/14 A2986 RMK AO2 SLP110 SCT V BKN T01560139 $= 201702250451 METAR KEWR 250451Z 18004KT 10SM FEW005 FEW029 SCT050 BKN250 15/13 A2985 RMK AO2 SLP106 T01500133 402330117 $= 201702250551 METAR KEWR 250551Z VRB03KT 10SM FEW005 BKN055 OVC250 15/13 A2984 RMK AO2 SLP103 T01500133 10183 20150 58005 $= 201702250651 METAR KEWR 250651Z 15004KT 10SM FEW004 SCT050 BKN065 14/13 A2983 RMK AO2 SLP099 T01440128 $= 201702250751 METAR KEWR 250751Z 17004KT 9SM FEW004 SCT055 BKN070 14/13 A2982 RMK AO2 SLP096 T01440128 $= 201702250851 METAR KEWR 250851Z 09003KT 9SM FEW004 FEW055 BKN075 12/10 A2980 RMK AO2 SLP089 T01170100 58014 $= 201702250951 METAR KEWR 250951Z 09003KT 7SM MIFG SCT003 11/09 A2979 RMK AO2 SLP086 T01060094 $= 201702251051 METAR KEWR 251051Z 09004KT 1/2SM R04R/3000VP6000FT FG BKN001 BKN006 OVC012 10/09 A2978 RMK AO2 SLP083 VIS S 1 T01000094 $= 201702251151 METAR KEWR 251151Z 07004KT 1/8SM R04R/1200V1600FT FG VV002 09/09 A2977 RMK AO2 SLP081 T00940089 10150 20094 56004 $= 201702251251 METAR KEWR 251251Z 10005KT 1/8SM R04R/P6000FT FG OVC002 09/09 A2976 RMK AO2 SFC VIS 1/4 SLP078 CIG 001V003 T00940094 $= 201702251351 METAR KEWR 251351Z 00000KT 5SM BR FEW005 SCT070 BKN270 12/10 A2975 RMK AO2 SLP072 T01170100 $= 201702251451 METAR KEWR 251451Z 08005KT 10SM FEW012 SCT070 BKN270 13/10 A2972 RMK AO2 SLP063 T01330100 58019 $= 201702251551 METAR KEWR 251551Z 08006KT 10SM FEW014 SCT070 BKN270 14/11 A2969 RMK AO2 SLP053 T01440106 $= 201702251651 METAR KEWR 251651Z 08007KT 10SM FEW020 SCT070 BKN270 18/12 A2967 RMK AO2 SLP045 T01780122 $= 201702251751 METAR KEWR 251751Z 12010G17KT 10SM SCT023 SCT070 BKN270 18/12 A2961 RMK AO2 SLP027 T01830122 10183 20094 58035 $= 201702251851 METAR KEWR 251851Z 14014G20KT 10SM SCT023 SCT070 BKN270 18/13 A2958 RMK AO2 SLP016 T01830128 $= 201702251951 METAR KEWR 251951Z 15013G21KT 10SM SCT023 SCT070 BKN270 19/13 A2953 RMK AO2 SLP999 T01890128 $= 201702252051 METAR KEWR 252051Z 14014G26KT 10SM FEW023 FEW070 SCT270 18/13 A2947 RMK AO2 PK WND 16026/2043 SLP977 T01780133 58050 $= 201702252151 METAR KEWR 252151Z 15013G20KT 10SM FEW020 FEW070 BKN270 17/13 A2947 RMK AO2 SLP978 T01670128 $= 201702252251 METAR KEWR 252251Z 18009KT 10SM -RA FEW065 BKN100 OVC200 16/13 A2948 RMK AO2 LTG DSNT SW-NW RAB51 SLP982 OCNL LTGIC DSNT W-DSNT NW CB DSNT W-DSNT NW MOV NE P0000 T01610133 $= 201702252351 METAR KEWR 252351Z 26013KT 5SM TSRA BR FEW012 SCT021 OVC050CB 13/11 A2955 RMK AO2 PK WND 25027/2329 WSHFT 2317 LTG DSNT ALQDS TSB03 SLP006 OCNL LTGIC VC NE-VC SE TS VC NE-VC SE MOV NE P0043 60043 T01330111 10189 20133 53028 $= 201702260051 METAR KEWR 260051Z 31016G25KT 7SM RA SCT019 BKN037 OVC060 11/09 A2960 RMK AO2 PK WND 29029/0028 RAE09B25 TSE04 SLP022 P0009 T01110089 $= 201702260151 METAR KEWR 260151Z 31010KT 10SM -RA FEW019 BKN075 OVC090 10/06 A2960 RMK AO2 SLP023 P0002 T01000061 $= 201702260251 METAR KEWR 260251Z 29011KT 10SM SCT100 BKN140 BKN250 10/05 A2960 RMK AO2 RAE06 SLP022 P0000 60011 T01000050 50016 $= 201702260351 METAR KEWR 260351Z 31018G25KT 10SM -RA FEW020 BKN035 BKN130 BKN250 09/04 A2963 RMK AO2 RAB50 SLP034 P0000 T00940039 $= 201702260451 METAR KEWR 260451Z 33016G25KT 10SM FEW027 SCT040 BKN060 BKN130 08/02 A2967 RMK AO2 PK WND 32027/0358 RAE15 SLP046 P0000 T00780017 401890078 $= 201702260551 METAR KEWR 260551Z 29018G28KT 10SM FEW034 SCT040 BKN070 BKN130 07/00 A2971 RMK AO2 PK WND 29028/0543 PRESRR SLP061 60011 T00670000 10133 20067 53040 $= 201702260651 METAR KEWR 260651Z 29015G26KT 10SM FEW034 OVC060 06/M01 A2973 RMK AO2 PK WND 30026/0647 SLP067 T00611006 $= 201702260751 METAR KEWR 260751Z 29013G19KT 10SM BKN034 OVC060 06/M01 A2976 RMK AO2 SLP077 T00561006 $= 201702260851 METAR KEWR 260851Z 31016G22KT 10SM FEW035 OVC050 05/M04 A2979 RMK AO2 RAB0757E06 SLP087 P0000 60000 T00501039 53025 $= 201702260951 METAR KEWR 260951Z 30013KT 10SM BKN045 04/M05 A2982 RMK AO2 PK WND 31026/0907 SLP099 T00391050 $= 201702261051 METAR KEWR 261051Z 30015G23KT 10SM SCT045 03/M08 A2987 RMK AO2 PK WND 30027/1018 PRESRR SLP115 T00281078 $= 201702261151 METAR KEWR 261151Z 30015G22KT 10SM BKN048 03/M08 A2991 RMK AO2 SLP127 60000 70054 T00281078 10061 20028 51040 $= 201702261251 METAR KEWR 261251Z 30011G19KT 10SM BKN047 03/M07 A2994 RMK AO2 SLP139 T00331072 $= 201702261351 METAR KEWR 261351Z 30019G29KT 10SM BKN049 04/M08 A2997 RMK AO2 PK WND 28029/1343 SLP148 T00391078 $= 201702261451 METAR KEWR 261451Z 29016G24KT 10SM BKN049 04/M09 A3000 RMK AO2 PK WND 29029/1406 SLP157 T00391089 51030 $= 201702261551 METAR KEWR 261551Z 29018G28KT 10SM BKN055 05/M09 A3001 RMK AO2 PK WND 28030/1457 SLP163 T00501089 $= 201702261651 METAR KEWR 261651Z 27020G26KT 10SM SCT055 06/M10 A3003 RMK AO2 PK WND 28027/1616 SLP168 T00561100 $= 201702261751 METAR KEWR 261751Z 29017G24KT 10SM SCT055 06/M09 A3002 RMK AO2 PK WND 27030/1652 SLP166 T00611094 10061 20028 50009 $= 201702261851 METAR KEWR 261851Z 28009G23KT 10SM SCT055 07/M09 A3004 RMK AO2 PK WND 29026/1802 SLP170 T00671089 $= 201702261951 METAR KEWR 261951Z 30013KT 10SM SCT060 07/M09 A3005 RMK AO2 PK WND 29026/1855 SLP173 T00671094 $= 201702262051 METAR KEWR 262051Z 26016G20KT 10SM FEW065 06/M10 A3007 RMK AO2 PK WND 28026/2020 SLP180 T00611100 53014 $= 201702262151 METAR KEWR 262151Z 26017KT 10SM SCT060 05/M09 A3010 RMK AO2 SLP190 T00501089 $= 201702262251 METAR KEWR 262251Z 25016KT 10SM SCT060 04/M09 A3014 RMK AO2 SLP204 T00441089 $= 201702262351 METAR KEWR 262351Z 26014KT 10SM BKN060 04/M09 A3018 RMK AO2 SLP218 T00391089 10072 20039 53038 $= 201702270051 METAR KEWR 270051Z 27011KT 10SM FEW060 03/M09 A3020 RMK AO2 SLP227 T00331089 $= 201702270151 METAR KEWR 270151Z 28009KT 10SM CLR 03/M09 A3023 RMK AO2 SLP235 T00281094 $= 201702270251 METAR KEWR 270251Z 25006KT 10SM CLR 03/M09 A3024 RMK AO2 SLP241 T00281094 51022 $= 201702270351 METAR KEWR 270351Z 25006KT 10SM CLR 02/M09 A3026 RMK AO2 SLP246 T00171094 $= 201702270451 METAR KEWR 270451Z 22006KT 10SM CLR 01/M08 A3028 RMK AO2 SLP253 T00061083 400780000 $= 201702270551 METAR KEWR 270551Z 18003KT 10SM CLR 01/M08 A3029 RMK AO2 SLP256 T00061078 10039 21006 51015 $= 201702270651 METAR KEWR 270651Z 00000KT 10SM CLR 01/M07 A3030 RMK AO2 SLP258 T00061072 $= 201702270751 METAR KEWR 270751Z 20003KT 10SM CLR 01/M07 A3031 RMK AO2 SLP263 T00061072 $= 201702270851 METAR KEWR 270851Z 22005KT 10SM CLR M01/M07 A3034 RMK AO2 SLP273 T10061072 53017 $= 201702270951 METAR KEWR 270951Z 23006KT 10SM CLR M01/M07 A3036 RMK AO2 SLP280 T10061072 $= 201702271051 METAR KEWR 271051Z 21008KT 10SM CLR M01/M07 A3038 RMK AO2 SLP287 T10111072 $= 201702271151 METAR KEWR 271151Z 21005KT 10SM FEW100 FEW260 M01/M07 A3037 RMK AO2 SLP284 T10111072 10011 21011 50012 $= 201702271251 METAR KEWR 271251Z 22007KT 10SM FEW100 BKN260 02/M06 A3041 RMK AO2 SLP297 T00171061 $= 201702271351 METAR KEWR 271351Z 21006KT 10SM FEW100 BKN260 04/M05 A3042 RMK AO2 SLP301 T00391050 $= 201702271451 METAR KEWR 271451Z 22012KT 10SM FEW100 BKN260 07/M04 A3043 RMK AO2 SLP305 T00721044 51021= 201702271551 METAR KEWR 271551Z 23015G20KT 10SM FEW100 SCT230 BKN260 09/M04 A3043 RMK AO2 SLP302 T00941044= 201702271651 METAR KEWR 271651Z 22011KT 10SM FEW100 SCT220 OVC260 11/M04 A3041 RMK AO2 SLP297 T01111044= 201702271751 METAR KEWR 271751Z 23010KT 10SM FEW100 SCT220 OVC260 12/M07 A3038 RMK AO2 SLP287 T01221067 10122 21011 58018= 201702271851 METAR KEWR 271851Z 23014KT 10SM FEW110 SCT150 SCT220 OVC260 12/M08 A3036 RMK AO2 SLP280 T01221078= 201702271951 METAR KEWR 271951Z 23014G19KT 10SM SCT095 OVC260 12/M07 A3036 RMK AO2 SLP278 T01221072= 201702272051 METAR KEWR 272051Z 22009KT 10SM FEW060 BKN090 OVC250 12/M06 A3035 RMK AO2 SLP277 T01221061 56010= 201702272151 METAR KEWR 272151Z 25012KT 10SM FEW060 BKN090 BKN180 BKN250 12/M06 A3036 RMK AO2 SLP281 T01171056= 201702272251 METAR KEWR 272251Z 24017KT 10SM FEW090 SCT120 SCT180 BKN250 11/M03 A3038 RMK AO2 SLP286 T01111033 $= 201702272351 METAR KEWR 272351Z 22011KT 10SM FEW090 BKN120 BKN180 BKN250 11/M02 A3039 RMK AO2 PK WND 24026/2252 SLP291 T01061022 10128 20106 53014 $= 201702280051 METAR KEWR 280051Z 23008KT 10SM FEW060 BKN095 BKN180 BKN250 10/M02 A3040 RMK AO2 SLP292 T01001022 $= 201702280151 METAR KEWR 280151Z 22005KT 10SM FEW080 SCT110 BKN250 09/M01 A3039 RMK AO2 SLP291 T00891011 $= 201702280251 METAR KEWR 280251Z 21003KT 10SM FEW080 SCT110 BKN250 08/M01 A3041 RMK AO2 SLP295 T00781006 53005 $= 201702280351 METAR KEWR 280351Z 19003KT 10SM FEW080 BKN150 OVC250 08/M01 A3040 RMK AO2 SLP292 T00831006 $= 201702280451 METAR KEWR 280451Z 15003KT 10SM SCT080 BKN140 OVC250 08/M01 A3039 RMK AO2 SLP289 T00781006 401281011 $= 201702280551 METAR KEWR 280551Z 19003KT 10SM BKN080 OVC140 07/M01 A3039 RMK AO2 SLP290 T00721006 10106 20067 55005 $= 201702280651 METAR KEWR 280651Z 00000KT 10SM OVC090 08/M01 A3038 RMK AO2 SLP285 T00781006 $= 201702280751 METAR KEWR 280751Z 17003KT 10SM OVC100 08/00 A3037 RMK AO2 SLP282 T00780000 $= 201702280851 METAR KEWR 280851Z 00000KT 10SM BKN090 OVC130 08/00 A3036 RMK AO2 SLP280 T00780000 56010 $= 201702280951 METAR KEWR 280951Z 00000KT 10SM OVC120 08/00 A3035 RMK AO2 SLP277 T00780000 $= 201702281051 METAR KEWR 281051Z 00000KT 10SM SCT095 OVC120 08/01 A3035 RMK AO2 SLP278 T00830011 $= 201702281151 METAR KEWR 281151Z 08003KT 10SM FEW095 BKN110 BKN250 08/02 A3034 RMK AO2 SLP274 T00830017 10089 20072 58006 $= 201702281251 METAR KEWR 281251Z 00000KT 10SM FEW030 SCT085 BKN120 BKN250 09/03 A3036 RMK AO2 SLP279 T00890028 $= 201702281351 METAR KEWR 281351Z 07006KT 10SM FEW080 FEW120 BKN250 10/03 A3035 RMK AO2 SLP275 T01000028 $= 201702281451 METAR KEWR 281451Z VRB03KT 10SM FEW080 SCT250 12/02 A3034 RMK AO2 SLP273 T01170022 58001 $= 201702281551 METAR KEWR 281551Z 07005KT 10SM FEW250 13/03 A3033 RMK AO2 SLP269 T01330028= 201702281651 METAR KEWR 281651Z 09006KT 10SM BKN250 14/04 A3029 RMK AO2 SLP257 HAZE ALOFT T01440044= 201702281751 METAR KEWR 281751Z 13004KT 10SM FEW035 BKN250 16/07 A3026 RMK AO2 SLP247 HAZE ALOFT T01560067 10156 20083 58025= 201702281851 METAR KEWR 281851Z 11008KT 10SM FEW013 FEW230 BKN260 14/09 A3022 RMK AO2 SLP232 HAZE ALOFT T01440089= 201702281951 METAR KEWR 281951Z 14008KT 10SM BKN009 OVC250 13/09 A3020 RMK AO2 SLP225 CIG 008V011 BKN V SCT T01280094= 201702282051 METAR KEWR 282051Z 12006KT 8SM BKN006 OVC010 13/10 A3017 RMK AO2 SLP215 T01280100 58017= 201702282151 METAR KEWR 282151Z 10009KT 1/4SM R04R/P6000FT -DZ BR OVC002 11/10 A3016 RMK AO2 SFC VIS 2 DZB02 SLP212 P0000 T01110100= 201702282251 METAR KEWR 282251Z 08005KT 1/4SM R04R/P6000FT -DZ BR BKN002 OVC005 11/09 A3016 RMK AO2 SFC VIS 1 1/2 SLP212 P0000 T01060094= 201702282351 METAR KEWR 282351Z VRB04KT 1SM R04R/P6000FT BR BKN003 OVC006 11/09 A3014 RMK AO2 SFC VIS 4 DZE35 SLP206 P0000 60000 T01060094 10156 20106 58009=
