 201701010051 METAR KEWR 010051Z 21009G18KT 10SM BKN090 OVC110 06/M04 A2994 RMK AO2 SLP139 T00611044= 201701010151 METAR KEWR 010151Z 20009KT 10SM FEW075 OVC095 06/M04 A2992 RMK AO2 SLP130 T00561044= 201701010251 METAR KEWR 010251Z 20010KT 10SM FEW070 OVC090 06/M04 A2991 RMK AO2 SLP128 T00561044 56015= 201701010351 METAR KEWR 010351Z 23010KT 10SM FEW060 OVC075 06/M04 A2991 RMK AO2 SLP127 T00611044= 201701010451 METAR KEWR 010451Z 22010KT 10SM BKN080 OVC095 07/M04 A2989 RMK AO2 SLP122 T00671039 400671017= 201701010551 METAR KEWR 010551Z 21013G18KT 10SM BKN060 OVC090 07/M04 A2989 RMK AO2 SLP122 T00671039 10067 20056 55006= 201701010651 METAR KEWR 010651Z 23009KT 10SM SCT060 OVC080 06/M03 A2990 RMK AO2 PK WND 22028/0555 RAB0555E13 SLP124 P0000 T00611028= 201701010751 METAR KEWR 010751Z 22007KT 10SM SCT055 OVC095 06/M03 A2991 RMK AO2 SLP127 T00611033= 201701010851 METAR KEWR 010851Z 23009KT 10SM FEW055 SCT100 06/M04 A2994 RMK AO2 SLP137 60000 T00561039 53015= 201701010951 METAR KEWR 010951Z 23010KT 10SM BKN060 BKN090 06/M04 A2996 RMK AO2 SLP144 T00611039= 201701011051 METAR KEWR 011051Z 23010KT 10SM FEW060 SCT100 05/M04 A3000 RMK AO2 SLP158 T00501039= 201701011151 METAR KEWR 011151Z 22011KT 10SM FEW060 04/M04 A3003 RMK AO2 SLP167 60000 T00441039 10067 20039 53030= 201701011251 METAR KEWR 011251Z 22008KT 10SM FEW060 04/M03 A3006 RMK AO2 SLP179 T00391033= 201701011351 METAR KEWR 011351Z 23010KT 10SM FEW043 FEW060 FEW250 07/M03 A3011 RMK AO2 SLP195 T00671033= 201701011451 METAR KEWR 011451Z 29011KT 10SM FEW042 FEW060 FEW250 08/M04 A3014 RMK AO2 PK WND 28026/1426 SLP207 T00831039 52040= 201701011551 METAR KEWR 011551Z 30013KT 10SM FEW045 FEW250 09/M04 A3017 RMK AO2 SLP214 T00891039= 201701011651 METAR KEWR 011651Z 32009G18KT 10SM FEW045 SCT250 09/M04 A3018 RMK AO2 SLP218 T00891039= 201701011751 METAR KEWR 011751Z 31009G18KT 10SM FEW045 SCT250 09/M06 A3018 RMK AO2 SLP219 T00941061 10100 20033 51013= 201701011851 METAR KEWR 011851Z 30010G20KT 10SM FEW045 FEW250 10/M08 A3019 RMK AO2 SLP223 T01001078= 201701011951 METAR KEWR 011951Z 30009KT 10SM FEW045 FEW250 10/M08 A3022 RMK AO2 SLP232 T01001083= 201701012051 METAR KEWR 012051Z 31008KT 280V360 10SM FEW200 FEW250 09/M08 A3026 RMK AO2 SLP245 T00941083 53025= 201701012151 METAR KEWR 012151Z 31007KT 10SM FEW200 FEW250 08/M08 A3030 RMK AO2 SLP259 T00831083= 201701012251 METAR KEWR 012251Z 34008KT 10SM FEW200 FEW250 07/M08 A3032 RMK AO2 SLP266 T00721083= 201701012351 METAR KEWR 012351Z 03005KT 10SM FEW250 05/M08 A3035 RMK AO2 SLP276 T00501078 10100 20044 51031= 201701020051 METAR KEWR 020051Z 06003KT 10SM FEW250 06/M07 A3038 RMK AO2 SLP287 T00561072= 201701020151 METAR KEWR 020151Z 04004KT 10SM FEW250 04/M07 A3040 RMK AO2 SLP293 T00441072= 201701020251 METAR KEWR 020251Z 02003KT 10SM FEW250 03/M07 A3043 RMK AO2 SLP304 T00331067 52028= 201701020351 METAR KEWR 020351Z 03005KT 10SM SCT250 02/M06 A3043 RMK AO2 SLP304 T00221056= 201701020451 METAR KEWR 020451Z 02004KT 10SM BKN250 02/M06 A3042 RMK AO2 SLP301 T00171056 401000006= 201701020551 METAR KEWR 020551Z 03005KT 10SM BKN250 01/M06 A3043 RMK AO2 SLP303 T00061056 10056 20000 55001= 201701020651 METAR KEWR 020651Z 04004KT 10SM BKN250 02/M05 A3044 RMK AO2 SLP308 T00221050= 201701020751 METAR KEWR 020751Z 03007KT 10SM OVC250 02/M04 A3044 RMK AO2 SLP308 T00171044= 201701020851 METAR KEWR 020851Z 02004KT 10SM BKN180 OVC220 01/M04 A3046 RMK AO2 SLP312 T00061039 51009= 201701020951 METAR KEWR 020951Z 01006KT 10SM SCT150 BKN170 OVC200 01/M03 A3047 RMK AO2 SLP316 T00111033= 201701021051 METAR KEWR 021051Z 02005KT 10SM FEW080 BKN140 OVC170 02/M03 A3048 RMK AO2 SLP320 T00171033= 201701021151 METAR KEWR 021151Z 02007KT 10SM -RAPL SCT065 BKN090 OVC110 02/M03 A3048 RMK AO2 SLP320 RAB36PLB49 P0000 60000 T00221028 10028 20000 51008= 201701021251 METAR KEWR 021251Z 02007KT 10SM -RA SCT070 OVC080 02/M01 A3048 RMK AO2 PLE1155 SLP321 P0001 T00171011= 201701021351 METAR KEWR 021351Z 02006KT 9SM -RA FEW025 BKN060 OVC080 02/00 A3049 RMK AO2 SLP325 P0002 T00220000= 201701021451 METAR KEWR 021451Z 02010KT 10SM FEW035 BKN060 OVC090 03/00 A3050 RMK AO2 RAE22B39E50 SLP328 P0000 60003 T00280000 53008= 201701021551 METAR KEWR 021551Z 02007KT 8SM -RA SCT020 OVC050 04/02 A3048 RMK AO2 RAB02 SLP322 P0000 T00390017= 201701021651 METAR KEWR 021651Z 07005KT 8SM -RA SCT022 BKN038 OVC046 06/03 A3045 RMK AO2 RAE04B27 SLP310 P0001 T00560028= 201701021751 METAR KEWR 021751Z 06006KT 8SM -RA SCT020 OVC038 06/03 A3042 RMK AO2 SLP302 931000 P0001 60005 T00560028 10056 20017 58027= 201701021851 METAR KEWR 021851Z 03009KT 5SM -RA BR SCT017 BKN035 OVC050 04/03 A3040 RMK AO2 SLP294 P0002 T00440028= 201701021951 METAR KEWR 021951Z 03008KT 5SM -RA BR FEW008 BKN015 OVC024 05/04 A3040 RMK AO2 SLP294 P0004 T00500039= 201701022051 METAR KEWR 022051Z 05011KT 4SM -RA BR FEW008 BKN015 OVC040 05/03 A3040 RMK AO2 SLP294 P0001 60007 T00500033 56008= 201701022151 METAR KEWR 022151Z 05008KT 3SM -RA BR FEW008 BKN015 OVC034 04/03 A3039 RMK AO2 SLP290 P0004 T00440033= 201701022251 METAR KEWR 022251Z 04008KT 3SM -RA BR BKN007 OVC015 04/03 A3038 RMK AO2 SLP285 P0003 T00390033= 201701022351 METAR KEWR 022351Z 02010KT 3SM -RA BR FEW004 BKN006 OVC012 04/03 A3037 RMK AO2 SLP282 P0001 60015 T00390033 10056 20039 56012= 201701030051 METAR KEWR 030051Z 02010KT 3SM -DZ BR BKN004 OVC010 04/03 A3035 RMK AO2 RAE2356DZB2356 SLP278 P0001 T00390033= 201701030151 METAR KEWR 030151Z 03012KT 5SM -DZ BR BKN004 BKN008 OVC013 04/03 A3031 RMK AO2 SLP263 P0000 T00440033= 201701030251 METAR KEWR 030251Z 04008KT 6SM -DZ BR BKN005 OVC009 04/03 A3029 RMK AO2 SLP257 P0000 60001 T00440033 58024= 201701030351 METAR KEWR 030351Z 03010KT 2 1/2SM -RA BR BKN004 BKN007 OVC014 04/03 A3030 RMK AO2 DZE0259RAB0259 SLP258 P0003 T00390033= 201701030451 METAR KEWR 030451Z 04011KT 3SM -RA BR BKN005 BKN008 OVC012 04/03 A3026 RMK AO2 SLP246 P0004 T00390033 400560000= 201701030551 METAR KEWR 030551Z 04010KT 5SM -RA BR BKN006 OVC012 04/03 A3022 RMK AO2 SLP233 P0003 60011 T00440033 10044 20039 58025= 201701030651 METAR KEWR 030651Z 04011KT 4SM -RA BR SCT005 BKN008 OVC012 04/03 A3022 RMK AO2 SLP232 P0000 T00390033= 201701030751 METAR KEWR 030751Z 03011KT 3SM -RA BR BKN005 OVC010 04/03 A3019 RMK AO2 SLP224 P0001 T00390033= 201701030851 METAR KEWR 030851Z 02012KT 3SM -RA BR BKN003 OVC007 04/03 A3015 RMK AO2 SLP209 P0001 60002 T00390033 58024= 201701030951 METAR KEWR 030951Z 03012KT 3SM -DZ BR BKN003 OVC006 04/04 A3013 RMK AO2 RAE14DZB14 SLP201 P0000 T00390039= 201701031051 METAR KEWR 031051Z 04011KT 4SM -DZ BR BKN004 OVC008 04/04 A3011 RMK AO2 SLP195 P0001 T00440039= 201701031151 METAR KEWR 031151Z 04012KT 4SM -DZ BR BKN006 OVC010 04/04 A3007 RMK AO2 SLP181 CIG 005V008 P0000 60003 70034 T00440039 10044 20039 58028= 201701031251 METAR KEWR 031251Z 04014KT 5SM -DZ BR OVC007 04/04 A3004 RMK AO2 SLP170 CIG 005V009 P0000 T00440039= 201701031351 METAR KEWR 031351Z 04012KT 1 1/2SM -DZ BR OVC005 05/04 A3002 RMK AO2 SFC VIS 1 3/4 SLP164 CIG 004V007 P0000 T00500044= 201701031451 METAR KEWR 031451Z 04011KT 1 1/2SM -DZ BR OVC005 05/04 A2999 RMK AO2 SFC VIS 2 1/2 SLP156 CIG 004V007 P0001 60001 T00500044 56026= 201701031551 METAR KEWR 031551Z 04009KT 1 1/2SM -RA BR OVC006 06/05 A2994 RMK AO2 SFC VIS 2 DZE22RAB22 PRESFR SLP138 CIG 005V008 P0002 T00560050= 201701031651 METAR KEWR 031651Z 04010KT 3SM -RA BR BKN006 OVC012 06/05 A2986 RMK AO2 SLP112 CIG 005V008 P0005 T00560050= 201701031751 METAR KEWR 031751Z 04013G19KT 3SM -RA BR BKN007 OVC011 06/05 A2979 RMK AO2 PRESFR SLP086 CIG 006V009 P0006 60014 T00610050 10061 20044 58069= 201701031851 METAR KEWR 031851Z 03011KT 7SM -RA BKN009 OVC012 07/06 A2973 RMK AO2 SLP065 CIG 007V010 P0005 T00670056= 201701031951 METAR KEWR 031951Z 03014KT 1 1/4SM -DZ BR OVC007 06/06 A2969 RMK AO2 SFC VIS 1 3/4 RAE41DZB41 SLP054 CIG 006V009 P0000 T00610056= 201701032051 METAR KEWR 032051Z 02011KT 1 1/4SM RA BR BKN007 OVC011 06/06 A2966 RMK AO2 SFC VIS 1 3/4 DZE12RAB12 SLP042 P0004 60009 T00610056 56044= 201701032151 METAR KEWR 032151Z 03013KT 10SM BKN009 OVC014 07/06 A2960 RMK AO2 RAE41 SLP024 VCSH P0007 T00670056= 201701032251 METAR KEWR 032251Z 03012KT 2SM -RA BR OVC007 07/06 A2961 RMK AO2 RAB03 SLP025 CIG 005V009 P0002 T00670061= 201701032351 METAR KEWR 032351Z 03011KT 2SM -DZ BR BKN006 OVC012 07/06 A2956 RMK AO2 RAE23DZB23 SLP009 P0001 60019 T00670061 10067 20061 56033= 201701040051 METAR KEWR 040051Z 36012KT 2SM -DZ BR OVC005 06/06 A2952 RMK AO2 SFC VIS 2 1/2 RAB10E23 SLP996 P0001 T00610056= 201701040151 METAR KEWR 040151Z 36008KT 2SM -DZ BR OVC005 06/06 A2951 RMK AO2 SFC VIS 2 1/2 SLP993 P0000 T00560056= 201701040251 METAR KEWR 040251Z 33006KT 2SM -DZ BR OVC005 06/06 A2951 RMK AO2 SFC VIS 3 SLP991 CIG 004V006 P0000 60001 T00560056 56019= 201701040351 METAR KEWR 040351Z 34006KT 6SM -RA BR BKN006 OVC010 06/06 A2949 RMK AO2 DZE01RAB01 SLP986 P0002 T00610056= 201701040451 METAR KEWR 040451Z 28006KT 8SM SCT006 BKN010 OVC015 06/04 A2950 RMK AO2 RAE33 SLP988 P0002 T00560044 400670039= 201701040551 METAR KEWR 040551Z 28007KT 9SM FEW010 BKN013 OVC017 06/04 A2947 RMK AO2 SLP980 60005 T00560044 10067 20056 58010= 201701040651 METAR KEWR 040651Z 26006KT 10SM BKN010 OVC013 06/05 A2947 RMK AO2 SLP978 T00560050= 201701040751 METAR KEWR 040751Z 24006KT 10SM OVC008 06/05 A2945 RMK AO2 SLP972 T00560050= 201701040851 METAR KEWR 040851Z 24008KT 10SM BKN008 OVC012 06/04 A2946 RMK AO2 SLP976 T00560044 55004= 201701040951 METAR KEWR 040951Z 23008KT 10SM BKN006 OVC010 06/04 A2946 RMK AO2 RAB20E29 SLP974 P0000 T00560044= 201701041051 METAR KEWR 041051Z 22008KT 8SM OVC007 05/05 A2946 RMK AO2 SLP976 T00500050= 201701041151 METAR KEWR 041151Z 23009KT 6SM BR BKN007 OVC015 06/05 A2948 RMK AO2 SLP984 60000 70038 T00560050 10056 20050 53010= 201701041251 METAR KEWR 041251Z 24009KT 6SM BR BKN008 OVC015 07/05 A2949 RMK AO2 SLP984 T00670050= 201701041351 METAR KEWR 041351Z 24011KT 7SM BKN016 BKN036 BKN100 OVC250 07/06 A2950 RMK AO2 SLP989 T00720056= 201701041451 METAR KEWR 041451Z 27007KT 7SM FEW012 BKN022 OVC035 08/06 A2950 RMK AO2 SLP990 T00830056 51006= 201701041551 METAR KEWR 041551Z 24008KT 10SM FEW015 BKN027 OVC250 09/06 A2951 RMK AO2 SLP992 CIG 025V030 T00940056= 201701041651 METAR KEWR 041651Z 25012KT 10SM SCT016 OVC027 09/06 A2951 RMK AO2 SLP991 CIG 025V029 T00940061= 201701041751 METAR KEWR 041751Z 25016G22KT 10SM FEW020 SCT027 BKN032 11/05 A2949 RMK AO2 SLP985 SCT V BKN T01110050 10111 20056 58007= 201701041851 METAR KEWR 041851Z 26024G31KT 10SM FEW029 BKN038 BKN250 11/03 A2949 RMK AO2 PK WND 25031/1850 SLP985 T01110033= 201701041951 METAR KEWR 041951Z 27024G36KT 10SM SCT039 BKN250 11/M01 A2950 RMK AO2 PK WND 28036/1949 SLP988 T01111011= 201701042051 METAR KEWR 042051Z 26017G32KT 10SM FEW040 SCT075 SCT250 10/M03 A2953 RMK AO2 PK WND 27039/2010 SLP998 T01001033 53014= 201701042151 METAR KEWR 042151Z 26022G31KT 10SM FEW040 FEW075 SCT250 09/M06 A2954 RMK AO2 PK WND 28032/2056 SLP003 T00891061= 201701042251 METAR KEWR 042251Z 26011G21KT 10SM FEW050 FEW250 08/M06 A2957 RMK AO2 SLP012 T00781056= 201701042351 METAR KEWR 042351Z 26011G19KT 10SM FEW050 07/M06 A2960 RMK AO2 PK WND 25029/2323 SLP022 T00671061 10122 20067 53024= 201701050051 METAR KEWR 050051Z 26020G28KT 10SM CLR 05/M10 A2964 RMK AO2 PK WND 28033/0028 SLP036 T00501100= 201701050151 METAR KEWR 050151Z 26020G27KT 10SM CLR 03/M13 A2967 RMK AO2 PK WND 26034/0104 SLP046 T00331133= 201701050251 METAR KEWR 050251Z 26020G25KT 10SM CLR 02/M14 A2970 RMK AO2 PK WND 26030/0153 SLP056 T00221139 51034= 201701050351 METAR KEWR 050351Z 25015G23KT 10SM FEW050 02/M13 A2973 RMK AO2 PK WND 26028/0258 SLP067 T00171133= 201701050451 METAR KEWR 050451Z 26015KT 10SM FEW050 01/M13 A2975 RMK AO2 PK WND 28028/0417 SLP073 T00061128 401220006= 201701050551 METAR KEWR 050551Z 26017G25KT 10SM FEW050 00/M13 A2977 RMK AO2 PK WND 27028/0528 SLP081 T00001128 10067 20000 51025= 201701050651 METAR KEWR 050651Z 25015G25KT 10SM CLR M01/M13 A2980 RMK AO2 SLP090 T10111133= 201701050751 METAR KEWR 050751Z 25015KT 10SM CLR M02/M13 A2983 RMK AO2 SLP102 T10171128= 201701050851 METAR KEWR 050851Z 26018KT 10SM CLR M02/M13 A2985 RMK AO2 SLP109 T10171133 51027= 201701050951 METAR KEWR 050951Z 26014KT 10SM CLR M02/M14 A2989 RMK AO2 PK WND 28026/0902 SLP121 T10221139= 201701051051 METAR KEWR 051051Z 25014KT 10SM FEW055 M03/M14 A2992 RMK AO2 SLP132 T10281139= 201701051151 METAR KEWR 051151Z 23011KT 10SM FEW055 M03/M14 A2995 RMK AO2 SLP141 T10331144 10000 21033 51033= 201701051251 METAR KEWR 051251Z 26014KT 10SM FEW075 BKN260 M03/M14 A2996 RMK AO2 SLP143 T10281144= 201701051351 METAR KEWR 051351Z 25013G21KT 10SM FEW065 BKN170 OVC260 M03/M14 A2998 RMK AO2 SLP152 T10281139= 201701051451 METAR KEWR 051451Z 26016KT 10SM FEW060 SCT160 OVC260 M02/M14 A3001 RMK AO2 SLP161 T10221139 53020= 201701051551 METAR KEWR 051551Z 28016G22KT 10SM BKN095 BKN120 OVC160 M02/M14 A2998 RMK AO2 SLP152 VIRGA T10171139= 201701051651 METAR KEWR 051651Z 25013KT 10SM FEW095 SCT160 OVC260 M01/M14 A2998 RMK AO2 SLP150 T10111139= 201701051751 METAR KEWR 051751Z 26009KT 10SM FEW160 FEW230 OVC260 00/M14 A2994 RMK AO2 SLP137 T00001139 10006 21033 58024= 201701051851 METAR KEWR 051851Z 26013KT 10SM FEW140 FEW190 BKN260 01/M13 A2993 RMK AO2 SLP136 T00061133= 201701051951 METAR KEWR 051951Z 26008KT 10SM FEW150 SCT190 OVC260 01/M13 A2994 RMK AO2 SLP136 T00061133= 201701052051 METAR KEWR 052051Z 23009KT 10SM BKN130 OVC260 00/M13 A2993 RMK AO2 SLP136 T00001128 56001= 201701052151 METAR KEWR 052151Z 25009KT 10SM BKN130 BKN220 OVC260 00/M12 A2993 RMK AO2 SLP135 T00001122= 201701052251 METAR KEWR 052251Z 24009KT 10SM SCT075 BKN095 OVC170 M01/M12 A2996 RMK AO2 SLP145 T10061122= 201701052351 METAR KEWR 052351Z 24010KT 10SM SCT075 OVC100 M01/M11 A2996 RMK AO2 SLP144 T10061111 10006 21006 52008= 201701060051 METAR KEWR 060051Z 25010G17KT 10SM FEW075 BKN100 OVC150 00/M11 A2998 RMK AO2 SLP152 T00001111= 201701060151 METAR KEWR 060151Z 24010KT 10SM SCT080 OVC110 00/M11 A2998 RMK AO2 SLP152 T00001111= 201701060251 METAR KEWR 060251Z 24007KT 10SM BKN060 OVC075 M01/M11 A2998 RMK AO2 SLP150 T10061111 50006= 201701060351 METAR KEWR 060351Z 23006KT 10SM SCT060 BKN080 BKN110 OVC190 M01/M11 A2997 RMK AO2 SLP147 T10061106= 201701060451 METAR KEWR 060451Z 23009KT 9SM -SN SCT030 BKN050 OVC080 M01/M07 A2997 RMK AO2 SNB19 SLP146 P0000 T10111067 400061033= 201701060551 METAR KEWR 060551Z 26005KT 1 1/2SM -SN BR FEW006 BKN012 OVC018 M02/M04 A2997 RMK AO2 TWR VIS 2 SLP148 931003 P0002 60002 T10221039 10000 21022 55002= 201701060651 METAR KEWR 060651Z 32004KT 1 1/2SM R04R/6000VP6000FT -SN BR BKN008 OVC016 M02/M03 A2996 RMK AO2 TWR VIS 2 SLP145 SNINCR 1/1 P0002 T10221033= 201701060751 METAR KEWR 060751Z 03003KT 2 1/2SM -SN BR SCT008 OVC018 M03/M04 A2995 RMK AO2 SLP141 P0002 T10281039= 201701060851 METAR KEWR 060851Z 03004KT 3SM -SN FEW008 SCT040 OVC090 M03/M04 A2994 RMK AO2 SFC VIS 8 SLP137 P0000 60004 T10281044 58011= 201701060951 METAR KEWR 060951Z 34005KT 3SM -SN BR FEW012 BKN050 OVC080 M02/M04 A2995 RMK AO2 SFC VIS 6 SLP141 P0000 T10221044= 201701061051 METAR KEWR 061051Z 36005KT 10SM -SN FEW015 OVC080 M02/M05 A2997 RMK AO2 PRESRR SLP146 P0000 T10221050= 201701061151 METAR KEWR 061151Z 34009KT 9SM -SN BKN017 OVC080 M02/M06 A3001 RMK AO2 SNE41B48 SLP162 BKN V SCT 931013 4/001 P0000 60004 70006 T10171061 11017 21028 53025= 201701061251 METAR KEWR 061251Z 03007KT 9SM -SN FEW017 SCT027 OVC095 M02/M05 A3001 RMK AO2 SLP161 SCT V BKN P0000 T10221050= 201701061351 METAR KEWR 061351Z 01009KT 10SM FEW020 FEW030 BKN095 M02/M08 A3005 RMK AO2 SNE27 SLP175 P0000 T10171078= 201701061451 METAR KEWR 061451Z 32008KT 10SM FEW028 BKN090 BKN120 BKN250 M01/M09 A3007 RMK AO2 SLP181 60000 T10061094 53019= 201701061551 METAR KEWR 061551Z 32007KT 10SM FEW028 FEW090 SCT250 00/M10 A3007 RMK AO2 SLP182 T00001100= 201701061651 METAR KEWR 061651Z 34007KT 10SM FEW032 FEW090 SCT250 00/M10 A3005 RMK AO2 SLP175 T00001100= 201701061751 METAR KEWR 061751Z 28006KT 10SM FEW035 BKN250 01/M09 A3006 RMK AO2 SLP178 931000 4/001 60000 T00111089 10011 21022 55003= 201701061851 METAR KEWR 061851Z 29007KT 10SM SCT047 SCT140 SCT230 BKN250 01/M11 A3005 RMK AO2 SLP174 T00061106= 201701061951 METAR KEWR 061951Z 31009G17KT 10SM FEW050 BKN110 BKN190 BKN250 01/M11 A3007 RMK AO2 SLP181 T00061111 $= 201701062051 METAR KEWR 062051Z 33007KT 10SM FEW050 BKN120 OVC250 00/M12 A3009 RMK AO2 SLP190 T00001122 53012 $= 201701062151 METAR KEWR 062151Z 32007KT 10SM FEW050 BKN120 BKN250 00/M13 A3013 RMK AO2 SLP201 T00001128 $= 201701062251 METAR KEWR 062251Z 30010G16KT 10SM FEW050 SCT120 BKN140 BKN250 00/M12 A3017 RMK AO2 SLP215 T00001122= 201701062351 METAR KEWR 062351Z 32007KT 10SM FEW050 BKN130 OVC250 M01/M13 A3020 RMK AO2 SLP225 T10061128 10011 21006 51035= 201701070051 METAR KEWR 070051Z 34013KT 10SM FEW050 BKN130 BKN160 OVC250 M02/M13 A3022 RMK AO2 SLP234 T10171128= 201701070151 METAR KEWR 070151Z 34011KT 10SM FEW050 BKN130 BKN150 OVC250 M02/M13 A3024 RMK AO2 SLP239 T10221133= 201701070251 METAR KEWR 070251Z 35013KT 10SM FEW060 BKN130 BKN170 OVC250 M03/M14 A3025 RMK AO2 SLP242 T10281139 51017= 201701070351 METAR KEWR 070351Z 36012KT 10SM SCT170 BKN250 M03/M14 A3025 RMK AO2 SLP243 T10331139= 201701070451 METAR KEWR 070451Z 36009KT 10SM SCT170 OVC240 M04/M14 A3029 RMK AO2 SLP254 T10391144 400111039= 201701070551 METAR KEWR 070551Z 36010KT 10SM OVC200 M04/M14 A3028 RMK AO2 SLP254 T10391144 11006 21039 50012= 201701070651 METAR KEWR 070651Z 01009KT 10SM OVC170 M04/M13 A3030 RMK AO2 SLP260 T10391133= 201701070751 METAR KEWR 070751Z 02008KT 10SM OVC120 M04/M12 A3032 RMK AO2 SLP267 T10441122= 201701070851 METAR KEWR 070851Z 02008KT 10SM OVC120 M04/M13 A3032 RMK AO2 SLP266 T10441128 50013= 201701070951 METAR KEWR 070951Z 02010KT 10SM OVC110 M04/M13 A3033 RMK AO2 SLP271 T10441128= 201701071051 METAR KEWR 071051Z 01012KT 10SM OVC100 M04/M14 A3031 RMK AO2 SLP263 T10441144= 201701071151 METAR KEWR 071151Z 02013KT 10SM OVC090 M05/M14 A3029 RMK AO2 SLP255 T10501139 11039 21050 58011= 201701071251 METAR KEWR 071251Z 01013KT 10SM BKN065 OVC090 M05/M14 A3031 RMK AO2 SLP261 VIRGA T10501144= 201701071351 METAR KEWR 071351Z 02013KT 7SM -SN OVC040 M05/M13 A3031 RMK AO2 SNB25 SLP263 P0000 T10501128= 201701071451 METAR KEWR 071451Z 01014KT 1 1/4SM R04R/5000VP6000FT -SN OVC020 M06/M10 A3030 RMK AO2 SLP260 P0000 60000 T10611100 50004= 201701071551 METAR KEWR 071551Z 01011KT 1/2SM R04R/2800V3500FT SN FZFG OVC011 M07/M08 A3028 RMK AO2 SLP253 SNINCR 1/1 P0002 T10671083= 201701071651 METAR KEWR 071651Z 36016KT 1/2SM R04R/3000V4500FT SN FZFG BKN011 OVC020 M07/M09 A3022 RMK AO2 PRESFR SLP232 P0004 T10671089= 201701071751 METAR KEWR 071751Z 36016G23KT 3/4SM R04R/4000V5000FT -SN BR BKN014 BKN025 OVC035 M07/M09 A3019 RMK AO2 SLP222 931016 4/002 933002 P0001 60007 T10671089 11044 21067 58037= 201701071851 METAR KEWR 071851Z 35018KT 3/4SM R04R/4000V5000FT -SN BR BKN014 OVC021 M06/M08 A3016 RMK AO2 PRESFR SLP211 P0002 T10611083= 201701071951 METAR KEWR 071951Z 36012KT 1/2SM R04R/2600V4000FT SN FZFG VV009 M07/M08 A3017 RMK AO2 SLP215 SNINCR 1/3 P0003 T10671083= 201701072051 METAR KEWR 072051Z 34014KT 3/4SM R04R/4000V5000FT -SN BR VV009 M06/M08 A3014 RMK AO2 SLP204 SNINCR 1/4 P0004 60009 T10611083 56018= 201701072151 METAR KEWR 072151Z 35012G21KT 1 1/4SM R04R/6000VP6000FT -SN BR BKN013 OVC024 M06/M08 A3015 RMK AO2 SLP207 SNINCR 1/5 P0005 T10611083= 201701072251 METAR KEWR 072251Z 35016KT 1 1/4SM -SN BR BKN014 OVC024 M06/M08 A3014 RMK AO2 SLP205 P0006 T10611078= 201701072351 METAR KEWR 072351Z 34014KT 1 1/2SM -SN BR BKN014 OVC024 M06/M08 A3015 RMK AO2 SLP207 931039 4/006 P0001 60021 T10611083 11061 21067 51003= 201701080051 METAR KEWR 080051Z 33013KT 2SM -SN BR FEW014 SCT024 OVC030 M06/M08 A3014 RMK AO2 SLP204 P0001 T10611083= 201701080151 METAR KEWR 080151Z 31010KT 4SM -SN FEW024 BKN040 OVC050 M06/M09 A3014 RMK AO2 SLP205 P0003 T10561089= 201701080251 METAR KEWR 080251Z 33010KT 10SM FEW014 SCT050 OVC110 M06/M09 A3015 RMK AO2 SNE15 SLP209 P0000 60004 T10561094 53002= 201701080351 METAR KEWR 080351Z 32009KT 10SM FEW018 BKN065 OVC110 M06/M11 A3016 RMK AO2 SLP213 DRSN T10561106= 201701080451 METAR KEWR 080451Z 32012KT 10SM FEW018 SCT065 M06/M13 A3017 RMK AO2 SLP215 DRSN T10611133 410331067= 201701080551 METAR KEWR 080551Z 31009KT 10SM FEW065 M07/M13 A3018 RMK AO2 SLP220 DRSN 931003 4/006 60004 T10671133 11050 21067 52010= 201701080651 METAR KEWR 080651Z 30012KT 10SM FEW065 M07/M14 A3021 RMK AO2 SLP228 T10721139= 201701080751 METAR KEWR 080751Z 31008KT 10SM FEW150 M08/M14 A3023 RMK AO2 SLP234 T10781139= 201701080851 METAR KEWR 080851Z 31010KT 10SM FEW035 M08/M14 A3023 RMK AO2 SLP237 T10781144 51017= 201701080951 METAR KEWR 080951Z 28006KT 10SM FEW035 M08/M15 A3024 RMK AO2 SLP240 T10831150= 201701081051 METAR KEWR 081051Z 27008KT 10SM FEW070 M09/M15 A3026 RMK AO2 SLP246 T10891150= 201701081151 METAR KEWR 081151Z 25007KT 10SM FEW035 FEW070 M09/M15 A3028 RMK AO2 SLP253 4/005 70032 T10891150 11067 21089 53016= 201701081251 METAR KEWR 081251Z 27011KT 10SM FEW035 FEW070 M09/M16 A3029 RMK AO2 SLP255 T10941156= 201701081351 METAR KEWR 081351Z 27015KT 10SM FEW035 FEW070 M08/M16 A3030 RMK AO2 SLP260 T10781156= 201701081451 METAR KEWR 081451Z 28015KT 10SM FEW035 M07/M16 A3031 RMK AO2 SLP263 T10721156 53010= 201701081551 METAR KEWR 081551Z 28015G23KT 10SM BKN045 M06/M15 A3031 RMK AO2 SLP262 T10611150= 201701081651 METAR KEWR 081651Z 29020G28KT 10SM BKN048 M06/M14 A3029 RMK AO2 PK WND 27028/1644 SLP255 T10561144= 201701081751 METAR KEWR 081751Z 28023G28KT 10SM SCT050 BKN065 M05/M14 A3028 RMK AO2 PK WND 28031/1717 SLP253 4/004 933004 T10501139 11050 21094 58010= 201701081851 METAR KEWR 081851Z 31019G27KT 10SM SCT050 SCT065 M04/M15 A3029 RMK AO2 PK WND 28027/1808 SLP256 VIRGA NW T10391150= 201701081951 METAR KEWR 081951Z 29014KT 10SM BKN050 BKN070 M04/M16 A3032 RMK AO2 PK WND 28032/1926 SLP265 VIRGA OHD T10391156= 201701082051 METAR KEWR 082051Z 30015G28KT 10SM SCT050 BKN070 BKN090 M04/M17 A3035 RMK AO2 PK WND 32028/2045 SLP277 VIRGA OHD T10391172 53024= 201701082151 METAR KEWR 082151Z 29017G26KT 10SM FEW040 SCT060 SCT090 M05/M17 A3039 RMK AO2 PK WND 28030/2128 SLP290 VIRGA T10501172= 201701082251 METAR KEWR 082251Z 29016G21KT 10SM FEW040 SCT060 M06/M17 A3043 RMK AO2 PK WND 28031/2218 SLP304 VIRGA N T10561172= 201701082351 METAR KEWR 082351Z 29010G15KT 10SM FEW040 FEW070 M06/M17 A3047 RMK AO2 SLP318 4/004 T10611167 11033 21061 53041= 201701090051 METAR KEWR 090051Z 31009KT 10SM FEW040 SCT070 M07/M17 A3051 RMK AO2 SLP332 VIRGA T10671172= 201701090151 METAR KEWR 090151Z 31012G21KT 10SM FEW040 M07/M18 A3055 RMK AO2 SLP344 T10671178= 201701090251 METAR KEWR 090251Z 29009G19KT 10SM CLR M07/M17 A3058 RMK AO2 SLP353 T10721172 51035= 201701090351 METAR KEWR 090351Z 29012G18KT 10SM CLR M08/M18 A3061 RMK AO2 SLP364 T10781178= 201701090451 METAR KEWR 090451Z 29009G18KT 10SM CLR M08/M18 A3062 RMK AO2 SLP368 T10831183 410331094= 201701090551 METAR KEWR 090551Z 29009KT 10SM CLR M09/M18 A3063 RMK AO2 SLP370 4/004 T10891178 11061 21089 51017= 201701090651 METAR KEWR 090651Z 28008KT 10SM CLR M09/M18 A3066 RMK AO2 SLP380 T10941183= 201701090751 METAR KEWR 090751Z 28007KT 10SM CLR M11/M18 A3067 RMK AO2 SLP385 T11061183= 201701090851 METAR KEWR 090851Z 29008KT 10SM CLR M11/M18 A3068 RMK AO2 SLP387 T11111178 51017= 201701090951 METAR KEWR 090951Z 28007KT 10SM CLR M11/M18 A3069 RMK AO2 SLP390 T11111178= 201701091051 METAR KEWR 091051Z 26004KT 10SM CLR M11/M17 A3070 RMK AO2 SLP394 T11061172= 201701091151 METAR KEWR 091151Z 25006KT 10SM SCT250 M11/M17 A3070 RMK AO2 SLP394 4/003 T11061172 11083 21111 50006= 201701091251 METAR KEWR 091251Z 26006KT 10SM BKN250 M10/M17 A3071 RMK AO2 SLP399 T11001172= 201701091351 METAR KEWR 091351Z 29005KT 10SM FEW150 BKN250 M08/M17 A3074 RMK AO2 SLP409 T10831167= 201701091451 METAR KEWR 091451Z 28008KT 10SM FEW150 OVC250 M08/M16 A3078 RMK AO2 SLP420 T10781161 53027= 201701091551 METAR KEWR 091551Z 25005KT 10SM SCT130 OVC250 M07/M16 A3075 RMK AO2 SLP412 T10671161= 201701091651 METAR KEWR 091651Z 00000KT 10SM SCT140 OVC250 M06/M16 A3072 RMK AO2 SLP400 T10611161= 201701091751 METAR KEWR 091751Z 24005KT 10SM FEW100 SCT120 OVC250 M06/M16 A3070 RMK AO2 SLP396 4/003 933002 T10611156 11061 21106 56025= 201701091851 METAR KEWR 091851Z 23010KT 10SM FEW075 SCT095 OVC250 M06/M16 A3070 RMK AO2 SLP395 T10561156= 201701091951 METAR KEWR 091951Z 24006KT 10SM BKN100 BKN250 M06/M15 A3068 RMK AO2 SLP387 T10561150= 201701092051 METAR KEWR 092051Z 19008KT 10SM FEW080 BKN100 BKN250 M05/M14 A3068 RMK AO2 SLP387 T10501139 56008= 201701092151 METAR KEWR 092151Z 18007KT 10SM FEW100 BKN150 BKN250 M05/M14 A3067 RMK AO2 SLP383 T10501139= 201701092251 METAR KEWR 092251Z 19008KT 10SM FEW110 BKN140 BKN250 M06/M14 A3068 RMK AO2 SLP388 T10561139= 201701092351 METAR KEWR 092351Z 17004KT 10SM FEW110 SCT150 BKN250 M06/M13 A3068 RMK AO2 SLP388 4/003 T10561128 11050 21061 53001= 201701100051 METAR KEWR 100051Z 19004KT 10SM FEW110 SCT160 BKN250 M06/M13 A3068 RMK AO2 SLP388 T10611133= 201701100151 METAR KEWR 100151Z 21009KT 10SM FEW110 SCT250 M07/M14 A3068 RMK AO2 SLP387 T10721139= 201701100251 METAR KEWR 100251Z 21006KT 10SM FEW100 SCT250 M08/M14 A3069 RMK AO2 SLP391 T10781139 53003= 201701100351 METAR KEWR 100351Z 22006KT 10SM SCT250 M07/M14 A3068 RMK AO2 SLP389 T10721139= 201701100451 METAR KEWR 100451Z 23007KT 10SM SCT250 M08/M14 A3066 RMK AO2 SLP382 T10831139 410501111= 201701100551 METAR KEWR 100551Z 22006KT 10SM SCT250 M08/M14 A3065 RMK AO2 SLP379 4/002 T10831139 11056 21094 58012= 201701100651 METAR KEWR 100651Z 21003KT 10SM FEW200 SCT250 M08/M13 A3065 RMK AO2 SLP377 T10831133= 201701100751 METAR KEWR 100751Z 00000KT 10SM FEW100 FEW200 SCT250 M08/M13 A3064 RMK AO2 SLP375 T10781133= 201701100851 METAR KEWR 100851Z 00000KT 10SM FEW100 SCT200 BKN250 M08/M13 A3063 RMK AO2 SLP370 T10781133 58008= 201701100951 METAR KEWR 100951Z 00000KT 10SM OVC200 M08/M13 A3065 RMK AO2 SLP376 T10831128= 201701101051 METAR KEWR 101051Z 00000KT 10SM OVC170 M08/M12 A3064 RMK AO2 SLP375 T10781122= 201701101151 METAR KEWR 101151Z 00000KT 10SM FEW170 BKN200 OVC240 M07/M12 A3064 RMK AO2 SLP374 4/002 T10671117 11067 21094 50004= 201701101251 METAR KEWR 101251Z 00000KT 10SM FEW160 BKN190 OVC250 M07/M11 A3064 RMK AO2 SLP375 T10671111= 201701101351 METAR KEWR 101351Z 00000KT 10SM FEW150 SCT220 OVC250 M06/M10 A3065 RMK AO2 SLP376 T10561100= 201701101451 METAR KEWR 101451Z 17004KT 10SM FEW130 SCT180 OVC250 M04/M09 A3064 RMK AO2 SLP374 T10391094 50000= 201701101551 METAR KEWR 101551Z 00000KT 10SM FEW120 SCT180 BKN210 OVC250 M02/M10 A3062 RMK AO2 SLP369 T10221100= 201701101651 METAR KEWR 101651Z 20004KT 10SM FEW170 SCT210 BKN250 M01/M11 A3058 RMK AO2 SLP353 T10111111= 201701101751 METAR KEWR 101751Z 17004KT 10SM BKN095 BKN140 OVC250 M01/M08 A3053 RMK AO2 SLP338 4/002 933001 T10061083 11006 21072 58036= 201701101851 METAR KEWR 101851Z 14004KT 10SM BKN085 BKN110 OVC250 01/M07 A3050 RMK AO2 SLP327 T00061072= 201701101951 METAR KEWR 101951Z 10003KT 10SM BKN075 OVC100 02/M05 A3047 RMK AO2 SLP316 VIRGA T00171050= 201701102051 METAR KEWR 102051Z 14007KT 10SM FEW015 BKN060 OVC085 03/M02 A3045 RMK AO2 SLP311 T00281022 56027= 201701102151 METAR KEWR 102151Z VRB04KT 10SM FEW015 BKN065 OVC100 03/M02 A3044 RMK AO2 SLP307 T00281017= 201701102251 METAR KEWR 102251Z 15004KT 10SM FEW015 SCT080 OVC110 03/M01 A3042 RMK AO2 SLP299 T00281011= 201701102351 METAR KEWR 102351Z 16005KT 10SM FEW015 SCT090 OVC110 03/M01 A3038 RMK AO2 SLP288 4/002 T00331006 10033 21006 58023= 201701110051 METAR KEWR 110051Z 16005KT 10SM FEW015 BKN060 OVC100 03/01 A3035 RMK AO2 SLP277 T00330006= 201701110151 METAR KEWR 110151Z 17006KT 10SM FEW015 OVC065 04/01 A3031 RMK AO2 SLP264 T00440011= 201701110251 METAR KEWR 110251Z 17007KT 10SM FEW012 BKN043 OVC075 05/02 A3027 RMK AO2 SLP250 T00500017 58039= 201701110351 METAR KEWR 110351Z 18010KT 10SM FEW014 BKN030 OVC060 06/02 A3024 RMK AO2 SLP240 T00610022= 201701110451 METAR KEWR 110451Z 19008KT 10SM FEW014 BKN027 OVC050 06/03 A3021 RMK AO2 SLP228 T00610028 400671094= 201701110551 METAR KEWR 110551Z 20004KT 10SM FEW014 BKN022 OVC035 05/02 A3020 RMK AO2 SLP224 4/001 T00500022 10067 20033 56025= 201701110651 METAR KEWR 110651Z 18008KT 5SM RA BR BKN015 OVC030 05/03 A3020 RMK AO2 RAB11 SLP226 P0005 T00500033= 201701110751 METAR KEWR 110751Z 20008KT 4SM RA BR SCT015 BKN025 OVC048 05/04 A3019 RMK AO2 SLP222 P0017 T00500039= 201701110851 METAR KEWR 110851Z 21015G25KT 7SM -RA SCT011 BKN015 OVC028 07/06 A3017 RMK AO2 RAE28B44 SLP215 P0007 60029 T00720056 58009= 201701110951 METAR KEWR 110951Z 22015G22KT 10SM FEW011 BKN018 OVC023 07/05 A3018 RMK AO2 PK WND 22026/0906 RAE15 SLP218 P0001 T00720050= 201701111051 METAR KEWR 111051Z 24013KT 10SM BKN019 OVC190 07/04 A3021 RMK AO2 SLP228 T00670039= 201701111151 METAR KEWR 111151Z 23014KT 10SM FEW017 FEW200 06/03 A3025 RMK AO2 SLP244 60030 70030 T00560033 10072 20044 53028= 201701111251 METAR KEWR 111251Z 23011KT 10SM FEW017 FEW200 05/03 A3028 RMK AO2 SLP253 T00500028= 201701111351 METAR KEWR 111351Z 22008KT 10SM FEW017 06/03 A3031 RMK AO2 SLP263 T00610033= 201701111451 METAR KEWR 111451Z 23014G19KT 10SM SCT250 07/03 A3033 RMK AO2 SLP270 T00720028 51026= 201701111551 METAR KEWR 111551Z 24009KT 10SM BKN250 09/03 A3033 RMK AO2 SLP269 T00890033= 201701111651 METAR KEWR 111651Z 22006KT 10SM BKN250 09/03 A3031 RMK AO2 SLP262 T00890033= 201701111751 METAR KEWR 111751Z 23012KT 10SM BKN230 OVC260 09/03 A3031 RMK AO2 SLP264 T00940033 10094 20044 55007= 201701111851 METAR KEWR 111851Z 25006KT 10SM BKN200 OVC260 11/03 A3030 RMK AO2 SLP258 T01060033= 201701111951 METAR KEWR 111951Z 20006KT 10SM BKN200 BKN230 BKN260 12/03 A3028 RMK AO2 SLP253 T01170033= 201701112051 METAR KEWR 112051Z 18004KT 10SM FEW200 SCT230 BKN260 11/03 A3029 RMK AO2 SLP255 T01060033 55008= 201701112151 METAR KEWR 112151Z 14004KT 10SM BKN220 OVC260 09/03 A3028 RMK AO2 SLP252 T00940033= 201701112251 METAR KEWR 112251Z 15004KT 10SM BKN170 OVC220 08/04 A3029 RMK AO2 SLP256 T00830039= 201701112351 METAR KEWR 112351Z 15005KT 10SM BKN130 OVC170 09/05 A3027 RMK AO2 SLP249 T00890050 10117 20083 58006= 201701120051 METAR KEWR 120051Z 00000KT 10SM BKN060 BKN090 OVC120 09/05 A3025 RMK AO2 SLP243 T00890050= 201701120151 METAR KEWR 120151Z 22003KT 10SM -RA BKN060 OVC090 09/05 A3025 RMK AO2 RAB16E28B49 SLP244 P0000 T00890050= 201701120251 METAR KEWR 120251Z VRB03KT 4SM RA BR OVC060 08/06 A3024 RMK AO2 PRESFR SLP239 P0006 60006 T00830061 56010= 201701120351 METAR KEWR 120351Z 18004KT 4SM RA BR FEW015 OVC040 08/06 A3022 RMK AO2 SLP232 P0011 T00780061 $= 201701120451 METAR KEWR 120451Z 17008KT 4SM -RA BR BKN008 BKN012 OVC030 08/07 A3018 RMK AO2 SLP218 P0009 T00780067 401170044 $= 201701120551 METAR KEWR 120551Z 20009KT 5SM -RA BR BKN008 OVC011 08/08 A3016 RMK AO2 SLP212 P0005 60031 T00830078 10094 20072 56026 $= 201701120651 METAR KEWR 120651Z 21007KT 5SM -RA BR SCT008 OVC011 09/08 A3015 RMK AO2 RAE05B45 SLP209 P0001 T00940083 $= 201701120751 METAR KEWR 120751Z 22008KT 7SM -RA BKN012 OVC050 10/09 A3014 RMK AO2 RAE22B51 SLP206 P0001 T01000089 $= 201701120851 METAR KEWR 120851Z 20009KT 9SM BKN012 BKN018 OVC024 11/09 A3013 RMK AO2 RAE00 SLP201 P0001 60003 T01060094 58011 $= 201701120951 METAR KEWR 120951Z 20011KT 9SM BKN014 OVC021 11/09 A3010 RMK AO2 SLP193 T01110094 $= 201701121051 METAR KEWR 121051Z 20011KT 10SM OVC015 11/09 A3008 RMK AO2 RAB41E50 SLP186 P0001 T01110094 $= 201701121151 METAR KEWR 121151Z 19013KT 10SM BKN015 BKN055 12/09 A3008 RMK AO2 SLP184 P0001 60005 70036 T01170094 10117 20083 56017 $= 201701121251 METAR KEWR 121251Z 21009KT 10SM FEW015 SCT055 BKN110 BKN250 12/10 A3008 RMK AO2 SLP186 T01170100 $= 201701121351 METAR KEWR 121351Z 21008KT 10SM FEW015 FEW055 BKN110 BKN250 12/11 A3009 RMK AO2 SLP189 T01220106 $= 201701121451 METAR KEWR 121451Z 21012KT 10SM FEW016 FEW050 BKN100 OVC250 14/11 A3008 RMK AO2 SLP187 T01390111 58000 $= 201701121551 METAR KEWR 121551Z 22017G25KT 10SM FEW018 SCT100 BKN160 BKN220 BKN260 16/11 A3006 RMK AO2 SLP177 T01560111= 201701121651 METAR KEWR 121651Z 22016G27KT 10SM FEW020 SCT120 BKN140 OVC250 17/12 A3003 RMK AO2 PK WND 23027/1648 SLP168 T01720117= 201701121751 METAR KEWR 121751Z 23017G21KT 10SM FEW023 SCT035 BKN150 BKN250 18/12 A3000 RMK AO2 PK WND 23026/1657 RAB26E35 SLP159 P0000 60000 T01780117 10183 20111 56028 $= 201701121851 METAR KEWR 121851Z 22015G21KT 10SM FEW025 FEW040 SCT095 BKN250 19/11 A2998 RMK AO2 SLP151 T01940111 $= 201701121951 METAR KEWR 121951Z 21016G21KT 10SM FEW035 SCT095 BKN150 BKN210 OVC250 19/11 A2996 RMK AO2 PK WND 23027/1902 SLP146 VIRGA T01890111 $= 201701122051 METAR KEWR 122051Z 22014G21KT 10SM FEW035 SCT095 BKN150 BKN210 BKN250 18/11 A2998 RMK AO2 SLP151 T01830111 55008 $= 201701122151 METAR KEWR 122151Z 22010KT 10SM -RA FEW040 SCT100 BKN150 BKN250 18/11 A2999 RMK AO2 RAB34 SLP153 P0000 T01780106 $= 201701122251 METAR KEWR 122251Z 21016KT 10SM FEW040 BKN085 BKN170 BKN250 18/11 A2999 RMK AO2 RAE22 SLP154 P0000 T01830106 $= 201701122351 METAR KEWR 122351Z 22013KT 10SM FEW070 SCT120 BKN170 BKN250 18/11 A3001 RMK AO2 SLP162 60000 T01780106 10194 20178 53011 $= 201701130051 METAR KEWR 130051Z 25009KT 10SM SCT070 BKN100 BKN160 OVC250 18/11 A3004 RMK AO2 SLP171 T01830106 $= 201701130251 METAR KEWR 130251Z 23010KT 10SM FEW060 SCT090 BKN120 OVC200 17/11 A3006 RMK AO2 SLP180 T01720106 51018 $= 201701130351 METAR KEWR 130351Z 23014KT 10SM FEW045 BKN055 BKN085 BKN200 17/11 A3007 RMK AO2 SLP182 T01670106 $= 201701130551 METAR KEWR 130551Z 24011KT 10SM SCT040 BKN100 BKN200 BKN250 15/12 A3010 RMK AO2 RAB03E41 SLP191 P0000 60000 T01500117 10183 20150 53011 $= 201701130651 METAR KEWR 130651Z 24008KT 10SM FEW040 SCT100 SCT200 BKN250 14/12 A3012 RMK AO2 SLP200 T01440117 $= 201701130751 METAR KEWR 130751Z 27010KT 10SM FEW035 SCT100 BKN150 BKN250 14/11 A3015 RMK AO2 SLP210 T01440111 $= 201701130851 METAR KEWR 130851Z 25008KT 10SM FEW040 FEW130 BKN250 13/10 A3016 RMK AO2 SLP212 T01330100 51022 $= 201701130951 METAR KEWR 130951Z 28006KT 10SM FEW035 BKN250 12/08 A3020 RMK AO2 SLP226 T01220083 $= 201701131051 METAR KEWR 131051Z 33010KT 10SM BKN028 BKN150 BKN250 12/08 A3025 RMK AO2 PRESRR SLP242 T01220078 $= 201701131151 METAR KEWR 131151Z 31015G22KT 10SM FEW026 SCT150 SCT250 11/05 A3029 RMK AO2 SLP258 T01060050 10156 20106 53045 $= 201701131251 METAR KEWR 131251Z 31016KT 10SM FEW030 FEW150 BKN250 09/03 A3034 RMK AO2 SLP272 T00940028 $= 201701131351 METAR KEWR 131351Z 34013G18KT 10SM FEW035 FEW170 BKN250 09/02 A3038 RMK AO2 SLP288 T00890017 $= 201701131451 METAR KEWR 131451Z 34018G23KT 10SM FEW035 BKN250 08/M01 A3042 RMK AO2 SLP299 T00831011 51041= 201701131551 METAR KEWR 131551Z 31012KT 10SM FEW050 BKN250 09/M03 A3042 RMK AO2 SLP301 T00891033= 201701131651 METAR KEWR 131651Z 34018G24KT 10SM FEW050 SCT250 09/M04 A3042 RMK AO2 SLP301 T00941044= 201701131751 METAR KEWR 131751Z 32015G25KT 10SM FEW055 BKN250 09/M06 A3044 RMK AO2 PK WND 32028/1739 SLP306 T00891061 10106 20083 53007= 201701131851 METAR KEWR 131851Z 31010G21KT 10SM FEW065 BKN250 08/M05 A3045 RMK AO2 SLP311 T00831050= 201701131951 METAR KEWR 131951Z 31012G21KT 10SM FEW180 BKN250 08/M06 A3048 RMK AO2 PK WND 30027/1928 SLP322 T00831061= 201701132051 METAR KEWR 132051Z 34011KT 10SM FEW180 BKN250 07/M09 A3051 RMK AO2 SLP330 T00671089 53025= 201701132151 METAR KEWR 132151Z 33010G21KT 10SM FEW180 BKN250 06/M11 A3056 RMK AO2 SLP346 T00561106= 201701132251 METAR KEWR 132251Z 32015G21KT 10SM FEW180 BKN250 04/M11 A3060 RMK AO2 SLP361 T00391111= 201701132351 METAR KEWR 132351Z 33017G25KT 10SM FEW170 BKN250 03/M12 A3061 RMK AO2 SLP366 T00281117 10094 20028 51036= 201701140051 METAR KEWR 140051Z 34015G20KT 10SM FEW150 BKN200 BKN260 02/M11 A3064 RMK AO2 PK WND 34028/2354 SLP376 T00221106= 201701140151 METAR KEWR 140151Z 34013G19KT 10SM FEW150 SCT200 OVC260 02/M10 A3066 RMK AO2 SLP382 T00171100= 201701140251 METAR KEWR 140251Z 34018G24KT 10SM BKN140 OVC250 01/M10 A3068 RMK AO2 SLP389 T00111100 51023= 201701140351 METAR KEWR 140351Z 35011KT 10SM BKN140 OVC200 01/M10 A3068 RMK AO2 SLP389 T00061100= 201701140451 METAR KEWR 140451Z 35010KT 10SM BKN130 OVC200 01/M10 A3070 RMK AO2 SLP393 T00061100 401610006= 201701140551 METAR KEWR 140551Z 34008KT 10SM BKN130 BKN200 OVC250 00/M10 A3069 RMK AO2 SLP392 T00001100 10028 20000 50003= 201701140651 METAR KEWR 140651Z 36006KT 10SM BKN140 OVC200 00/M10 A3071 RMK AO2 SLP398 T00001100= 201701140751 METAR KEWR 140751Z 02006KT 10SM SCT140 OVC200 00/M09 A3071 RMK AO2 SLP397 T00001094= 201701140851 METAR KEWR 140851Z 02008KT 10SM SCT130 BKN170 OVC220 M01/M09 A3071 RMK AO2 SLP397 T10061089 51005= 201701140951 METAR KEWR 140951Z 02008KT 10SM SCT120 OVC180 M02/M09 A3070 RMK AO2 SLP394 T10171094= 201701141051 METAR KEWR 141051Z 02009KT 10SM SCT120 BKN180 OVC250 M02/M09 A3069 RMK AO2 SLP390 T10221094= 201701141151 METAR KEWR 141151Z 01006KT 10SM SCT110 BKN200 OVC250 M02/M09 A3069 RMK AO2 SLP393 T10221094 10000 21022 55004= 201701141251 METAR KEWR 141251Z 02006KT 10SM FEW110 BKN150 OVC270 M02/M09 A3069 RMK AO2 SLP392 T10171094= 201701141351 METAR KEWR 141351Z 01007KT 10SM FEW120 BKN160 OVC270 M01/M10 A3069 RMK AO2 SLP390 T10111100= 201701141451 METAR KEWR 141451Z 04003KT 10SM SCT160 OVC270 M01/M10 A3068 RMK AO2 SLP388 T10061100 57004= 201701141551 METAR KEWR 141551Z VRB03KT 10SM SCT170 BKN270 01/M08 A3065 RMK AO2 SLP378 T00061083= 201701141651 METAR KEWR 141651Z 07004KT 10SM SCT100 BKN160 BKN270 01/M09 A3060 RMK AO2 SLP362 T00061089= 201701141751 METAR KEWR 141751Z 18006KT 10SM FEW060 BKN090 BKN160 OVC260 01/M08 A3057 RMK AO2 SLP352 VIRGA T00061078 10011 21022 58036= 201701141851 METAR KEWR 141851Z 15004KT 10SM OVC065 01/M09 A3053 RMK AO2 PRESFR SLP338 VIRGA T00061089= 201701141951 METAR KEWR 141951Z 18005KT 1SM R04R/4000VP6000FT -SN BKN011 OVC017 M02/M06 A3053 RMK AO2 SNB06 SLP336 P0001 T10171056= 201701142051 METAR KEWR 142051Z 00000KT 1SM R04R/5500VP6000FT -SN BR BKN014 BKN025 OVC055 M02/M03 A3050 RMK AO2 SLP328 SNINCR 1/1 P0004 60005 T10171033 56024= 201701142151 METAR KEWR 142151Z 00000KT 1 3/4SM -SN BR SCT014 BKN025 OVC055 M02/M03 A3047 RMK AO2 SLP316 P0001 T10171033= 201701142251 METAR KEWR 142251Z 20003KT 3SM -SN BR SCT030 OVC047 M02/M03 A3045 RMK AO2 SLP311 P0002 T10171028= 201701142351 METAR KEWR 142351Z 18003KT 3SM -SN BR SCT026 OVC048 M01/M03 A3043 RMK AO2 SLP302 931013 4/001 P0001 60009 T10111028 10006 21022 56026= 201701150051 METAR KEWR 150051Z 00000KT 3SM -SN BR FEW009 SCT034 OVC045 M01/M02 A3041 RMK AO2 SFC VIS 5 SLP295 P0001 T10111022= 201701150151 METAR KEWR 150151Z 28004KT 6SM -SN BR BKN008 BKN013 OVC045 M01/M02 A3039 RMK AO2 SLP289 P0000 T10061022= 201701150251 METAR KEWR 150251Z 27004KT 6SM BR FEW008 OVC015 M01/M02 A3037 RMK AO2 SNE37 SLP283 P0000 60001 T10061022 56019= 201701150351 METAR KEWR 150351Z 26004KT 8SM FEW008 OVC015 00/M02 A3034 RMK AO2 SLP274 T00001022= 201701150451 METAR KEWR 150451Z 27004KT 10SM FEW008 OVC015 M01/M02 A3032 RMK AO2 SLP267 T10061022 400111022= 201701150551 METAR KEWR 150551Z 27004KT 10SM FEW015 BKN023 OVC050 00/M02 A3030 RMK AO2 SLP260 931001 4/001 60001 T00001022 10000 21011 56022= 201701150651 METAR KEWR 150651Z 25004KT 10SM FEW018 SCT028 OVC055 00/M02 A3029 RMK AO2 SLP256 T00001022= 201701150751 METAR KEWR 150751Z 25006KT 10SM FEW028 BKN060 OVC080 00/M03 A3029 RMK AO2 SLP255 T00001028= 201701150851 METAR KEWR 150851Z 26004KT 10SM FEW055 SCT080 M01/M03 A3028 RMK AO2 SLP254 T10061028 56006= 201701150951 METAR KEWR 150951Z 31005KT 10SM FEW055 SCT075 M01/M03 A3029 RMK AO2 SLP255 T10111033= 201701151051 METAR KEWR 151051Z 31005KT 10SM SCT075 M01/M04 A3030 RMK AO2 SLP260 T10061044= 201701151151 METAR KEWR 151151Z 28003KT 10SM FEW075 M02/M06 A3032 RMK AO2 SLP267 4/001 70010 T10171056 10000 21017 53013= 201701151251 METAR KEWR 151251Z 27005KT 10SM FEW075 M01/M06 A3035 RMK AO2 SLP277 T10111061= 201701151351 METAR KEWR 151351Z 31005KT 10SM FEW250 00/M07 A3038 RMK AO2 SLP285 T00001067= 201701151451 METAR KEWR 151451Z 32011KT 10SM FEW250 01/M06 A3038 RMK AO2 SLP287 T00111061 51021= 201701151551 METAR KEWR 151551Z 32011KT 10SM FEW040 FEW250 02/M06 A3038 RMK AO2 SLP286 T00171061= 201701151651 METAR KEWR 151651Z 32012G19KT 10SM FEW035 FEW200 SCT250 03/M06 A3036 RMK AO2 SLP279 T00281056= 201701151751 METAR KEWR 151751Z 32010KT 10SM FEW035 FEW200 SCT260 04/M06 A3034 RMK AO2 SLP272 4/001 T00391056 10039 21017 58016= 201701151851 METAR KEWR 151851Z 32008KT 10SM FEW035 FEW200 BKN260 04/M06 A3033 RMK AO2 SLP268 T00391061= 201701151951 METAR KEWR 151951Z 31007G18KT 10SM FEW200 BKN260 05/M06 A3033 RMK AO2 SLP269 T00501061= 201701152051 METAR KEWR 152051Z 30006KT 10SM BKN250 04/M06 A3034 RMK AO2 SLP273 T00441061 53001= 201701152151 METAR KEWR 152151Z 30008G14KT 10SM FEW200 BKN250 03/M07 A3035 RMK AO2 SLP276 T00281067= 201701152251 METAR KEWR 152251Z 32008KT 10SM FEW200 BKN250 03/M07 A3038 RMK AO2 SLP285 T00281067= 201701152351 METAR KEWR 152351Z 32006KT 10SM BKN250 02/M07 A3038 RMK AO2 SLP288 T00221067 10050 20022 51015= 201701160051 METAR KEWR 160051Z 32005KT 10SM SCT250 02/M07 A3039 RMK AO2 SLP288 T00171072= 201701160151 METAR KEWR 160151Z 31004KT 10SM FEW250 01/M07 A3042 RMK AO2 SLP298 T00111067= 201701160251 METAR KEWR 160251Z 30005KT 10SM CLR 00/M07 A3041 RMK AO2 SLP297 T00001072 50009= 201701160351 METAR KEWR 160351Z 31004KT 10SM CLR 00/M07 A3042 RMK AO2 SLP300 T00001067= 201701160451 METAR KEWR 160451Z 32003KT 10SM CLR 00/M07 A3042 RMK AO2 SLP301 T00001072 400501017= 201701160551 METAR KEWR 160551Z 34006KT 10SM CLR M01/M07 A3043 RMK AO2 SLP303 T10111072 10022 21011 51006= 201701160651 METAR KEWR 160651Z 35007KT 10SM CLR M02/M08 A3045 RMK AO2 SLP310 T10171078= 201701160751 METAR KEWR 160751Z 02005KT 10SM CLR M03/M08 A3046 RMK AO2 SLP313 T10281078= 201701160851 METAR KEWR 160851Z 02005KT 10SM CLR M04/M08 A3045 RMK AO2 SLP310 T10391083 50008= 201701160951 METAR KEWR 160951Z 03004KT 10SM CLR M03/M07 A3044 RMK AO2 SLP308 T10281072= 201701161051 METAR KEWR 161051Z 03005KT 10SM FEW250 M03/M07 A3045 RMK AO2 SLP311 T10281072= 201701161151 METAR KEWR 161151Z 03005KT 10SM FEW250 M03/M08 A3046 RMK AO2 SLP314 T10331078 11011 21039 53004= 201701161251 METAR KEWR 161251Z 00000KT 10SM SCT250 M02/M07 A3046 RMK AO2 SLP315 T10221067= 201701161351 METAR KEWR 161351Z 00000KT 10SM SCT250 01/M07 A3048 RMK AO2 SLP319 T00061067= 201701161451 METAR KEWR 161451Z 00000KT 10SM SCT250 02/M06 A3048 RMK AO2 SLP320 T00171061 52006= 201701161551 METAR KEWR 161551Z 22004KT 10SM SCT250 03/M06 A3047 RMK AO2 SLP316 T00281056= 201701161651 METAR KEWR 161651Z 23004KT 10SM BKN250 04/M06 A3044 RMK AO2 SLP308 T00441061= 201701161751 METAR KEWR 161751Z 27007KT 10SM BKN250 06/M06 A3040 RMK AO2 SLP293 T00561061 10056 21039 58026= 201701161851 METAR KEWR 161851Z 25005KT 10SM BKN250 06/M06 A3037 RMK AO2 SLP283 T00611061= 201701161951 METAR KEWR 161951Z 20007KT 10SM FEW100 BKN250 06/M06 A3036 RMK AO2 SLP279 T00611056= 201701162051 METAR KEWR 162051Z 23009KT 10SM FEW080 FEW150 BKN250 06/M05 A3036 RMK AO2 SLP279 T00561050 56014= 201701162151 METAR KEWR 162151Z 23008KT 10SM FEW080 SCT140 BKN250 05/M04 A3035 RMK AO2 SLP277 T00501044= 201701162251 METAR KEWR 162251Z 25007KT 10SM FEW080 BKN150 BKN250 05/M04 A3035 RMK AO2 SLP276 T00501044= 201701162351 METAR KEWR 162351Z 23008KT 10SM FEW080 BKN130 OVC250 05/M04 A3034 RMK AO2 SLP274 T00501044 10067 20044 58005= 201701170051 METAR KEWR 170051Z 22006KT 10SM SCT025 BKN110 OVC180 05/M04 A3034 RMK AO2 SLP273 T00501044= 201701170151 METAR KEWR 170151Z 22007KT 10SM FEW025 BKN090 OVC110 04/M04 A3033 RMK AO2 SLP271 T00441044= 201701170251 METAR KEWR 170251Z 22007KT 10SM FEW025 OVC090 04/M04 A3032 RMK AO2 SLP268 T00441044 58006= 201701170351 METAR KEWR 170351Z 24007KT 10SM OVC070 04/M04 A3032 RMK AO2 SLP265 T00441044= 201701170451 METAR KEWR 170451Z 24007KT 10SM OVC065 04/M04 A3030 RMK AO2 RAB30E42 SLP258 P0000 T00441039 400671039= 201701170551 METAR KEWR 170551Z 23010KT 10SM OVC060 04/M04 A3028 RMK AO2 SLP254 60000 T00441039 10050 20044 58014= 201701170651 METAR KEWR 170651Z 24006KT 10SM BKN050 OVC080 04/M04 A3027 RMK AO2 SLP248 T00441039= 201701170751 METAR KEWR 170751Z 23008KT 10SM OVC045 04/M03 A3026 RMK AO2 SLP246 T00391033= 201701170851 METAR KEWR 170851Z 22006KT 10SM OVC045 04/M03 A3025 RMK AO2 SLP241 T00441033 56013= 201701170951 METAR KEWR 170951Z 23006KT 10SM BKN035 OVC070 04/M03 A3023 RMK AO2 SLP235 T00391033= 201701171051 METAR KEWR 171051Z 22005KT 10SM SCT031 OVC085 04/M03 A3022 RMK AO2 SLP233 T00391033= 201701171151 METAR KEWR 171151Z 22007KT 10SM SCT033 BKN085 OVC100 04/M03 A3023 RMK AO2 SLP234 T00391028 10044 20033 55007= 201701171251 METAR KEWR 171251Z 00000KT 10SM BKN027 BKN038 OVC080 04/M03 A3022 RMK AO2 SLP233 T00441028= 201701171351 METAR KEWR 171351Z 26004KT 10SM -RA BKN026 OVC034 05/M03 A3023 RMK AO2 RAB51 SLP236 P0000 T00501028= 201701171451 METAR KEWR 171451Z 19004KT 5SM -RA BKN026 OVC035 04/00 A3023 RMK AO2 SLP236 P0002 60002 T00390000 53002= 201701171551 METAR KEWR 171551Z 15003KT 5SM -RA BKN023 OVC030 03/01 A3022 RMK AO2 SLP231 P0000 T00330011= 201701171651 METAR KEWR 171651Z 17003KT 3SM -RA BR BKN025 OVC035 04/02 A3018 RMK AO2 SFC VIS 4 SLP218 CIG 023V028 P0001 T00390017= 201701171751 METAR KEWR 171751Z 00000KT 2SM -RA BR SCT008 BKN012 OVC020 04/02 A3015 RMK AO2 SFC VIS 2 1/2 SLP208 BKN V SCT P0006 60009 T00390022 10050 20033 58028= 201701171851 METAR KEWR 171851Z 06004KT 3SM BR FEW006 OVC011 04/02 A3012 RMK AO2 SFC VIS 5 RAE18DZB18E47 SLP200 P0000 T00440022= 201701171951 METAR KEWR 171951Z 09006KT 3SM -RA BR FEW006 SCT013 OVC019 04/02 A3010 RMK AO2 RAB12 SLP191 SCT V BKN P0002 T00440022= 201701172051 METAR KEWR 172051Z 08005KT 5SM BR OVC014 04/02 A3009 RMK AO2 SLP190 CIG 012V016 P0000 60002 T00440022 56018 $= 201701172151 METAR KEWR 172151Z 10007KT 5SM BR BKN008 OVC012 05/03 A3009 RMK AO2 SLP187 T00500028 $= 201701172251 METAR KEWR 172251Z 10005KT 3SM +RA BR BKN007 OVC012 05/03 A3008 RMK AO2 RAB29 SLP186 P0010 T00500028 $= 201701172351 METAR KEWR 172351Z 06006KT 2SM -RA BR BKN005 OVC010 04/04 A3005 RMK AO2 SFC VIS 2 1/2 SLP176 P0016 60028 T00440039 10050 20039 58014 $= 201701180051 METAR KEWR 180051Z 05005KT 2SM RA BR BKN005 OVC010 04/04 A3004 RMK AO2 SFC VIS 2 1/2 SLP171 P0007 T00440039 $= 201701180151 METAR KEWR 180151Z 03006KT 2SM -RA BR OVC006 05/04 A3002 RMK AO2 SFC VIS 3 SLP166 CIG 005V007 P0006 T00500039 $= 201701180251 METAR KEWR 180251Z 03008KT 2SM -RA BR OVC005 04/04 A3000 RMK AO2 SFC VIS 3 SLP159 P0001 60014 T00440039 58018 $= 201701180351 METAR KEWR 180351Z 02008KT 2SM -DZ BR OVC005 04/03 A2998 RMK AO2 SFC VIS 3 RAE13DZB13 SLP150 P0000 T00390033 $= 201701180451 METAR KEWR 180451Z 01009KT 2SM -RA BR BKN003 OVC006 04/03 A2996 RMK AO2 SFC VIS 2 1/2 DZE34RAB34 SLP145 P0001 T00390033 400500033 $= 201701180551 METAR KEWR 180551Z 02007KT 2SM -DZ BR OVC003 04/03 A2992 RMK AO2 SFC VIS 2 1/2 RAE08DZB08 SLP130 P0001 60016 T00390033 10050 20039 58029 $= 201701180651 METAR KEWR 180651Z 02009KT 2SM -DZ BR OVC003 04/03 A2991 RMK AO2 SFC VIS 2 1/2 SLP126 P0000 T00390033 $= 201701180751 METAR KEWR 180751Z 01009KT 2SM -DZ BR OVC003 04/03 A2990 RMK AO2 SFC VIS 3 DZE13B43RAB13E43 SLP124 P0000 T00390033 $= 201701180851 METAR KEWR 180851Z 01009KT 2SM -RA BR BKN004 BKN008 OVC014 03/03 A2991 RMK AO2 SFC VIS 4 DZE27RAB27 SLP127 P0004 60004 T00330033 55003 $= 201701180951 METAR KEWR 180951Z 01006KT 2 1/2SM BR OVC004 03/03 A2987 RMK AO2 SFC VIS 6 RAE19DZB19E44 SLP116 P0000 T00330033 $= 201701181051 METAR KEWR 181051Z 36009KT 7SM OVC005 04/03 A2990 RMK AO2 SLP125 T00390033 $= 201701181151 METAR KEWR 181151Z 01008KT 7SM OVC005 04/03 A2991 RMK AO2 SLP126 60004 70057 T00390033 10039 20033 55000 $= 201701181251 METAR KEWR 181251Z 36009KT 3SM BR OVC005 04/03 A2992 RMK AO2 SFC VIS 5 SLP130 T00440033 $= 201701181351 METAR KEWR 181351Z 02011KT 3SM -DZ BR OVC004 04/03 A2993 RMK AO2 DZB47 SLP133 P0000 T00440033 $= 201701181451 METAR KEWR 181451Z 01011KT 3SM -DZ BR OVC005 04/04 A2993 RMK AO2 SFC VIS 4 SLP136 CIG 004V007 P0000 60000 T00440039 51009= 201701181551 METAR KEWR 181551Z 01008KT 9SM OVC007 05/04 A2993 RMK AO2 DZE12 SLP136 CIG 005V009 P0000 T00500039= 201701181651 METAR KEWR 181651Z 01013KT 10SM OVC007 05/04 A2991 RMK AO2 SLP127 CIG 006V009 T00500039= 201701181751 METAR KEWR 181751Z 02008KT 10SM OVC009 06/04 A2992 RMK AO2 SLP132 CIG 008V011 60000 T00560039 10056 20039 55004= 201701181851 METAR KEWR 181851Z 36008KT 10SM OVC011 06/03 A2994 RMK AO2 SLP139 T00560033= 201701181951 METAR KEWR 181951Z 02008KT 10SM OVC011 06/03 A2996 RMK AO2 SLP143 T00560033= 201701182051 METAR KEWR 182051Z 02010KT 10SM FEW009 BKN017 OVC080 06/03 A2996 RMK AO2 SLP144 T00560033 51012= 201701182151 METAR KEWR 182151Z 35009KT 10SM FEW009 BKN013 OVC055 06/03 A3000 RMK AO2 SLP157 T00560028= 201701182251 METAR KEWR 182251Z 35009KT 10SM FEW007 BKN015 OVC055 06/02 A3002 RMK AO2 SLP166 T00560022= 201701182351 METAR KEWR 182351Z 35008KT 10SM BKN015 BKN045 OVC070 06/03 A3005 RMK AO2 SLP173 T00560028 10056 20050 51029= 201701190051 METAR KEWR 190051Z 01006KT 10SM FEW015 BKN065 05/02 A3004 RMK AO2 SLP170 T00500022= 201701190151 METAR KEWR 190151Z 01005KT 10SM FEW010 FEW035 BKN070 04/02 A3003 RMK AO2 SLP169 T00440017= 201701190251 METAR KEWR 190251Z 31005KT 10SM FEW015 BKN050 05/02 A3004 RMK AO2 SLP170 T00500022 55003= 201701190351 METAR KEWR 190351Z 36005KT 10SM FEW015 SCT035 BKN065 05/02 A3003 RMK AO2 SLP169 T00500022= 201701190451 METAR KEWR 190451Z 32004KT 10SM FEW015 SCT035 BKN065 04/02 A3002 RMK AO2 SLP164 T00440022 400560033= 201701190551 METAR KEWR 190551Z 33003KT 10SM FEW015 FEW035 BKN065 04/02 A3002 RMK AO2 SLP165 T00440022 10056 20033 55005= 201701190651 METAR KEWR 190651Z 28003KT 10SM FEW015 BKN060 04/02 A3003 RMK AO2 SLP169 T00390022= 201701190751 METAR KEWR 190751Z 00000KT 10SM FEW025 BKN045 OVC060 04/03 A3003 RMK AO2 SLP167 T00390028= 201701190851 METAR KEWR 190851Z 00000KT 10SM -RA FEW025 OVC050 04/03 A3004 RMK AO2 RAB50 SLP170 P0000 60000 T00440028 51005= 201701190951 METAR KEWR 190951Z 23004KT 10SM FEW025 BKN050 05/03 A3002 RMK AO2 RAE0856B14E49 SLP165 P0000 T00500028= 201701191051 METAR KEWR 191051Z 00000KT 10SM SCT025 BKN045 04/03 A3002 RMK AO2 SLP165 T00440028= 201701191151 METAR KEWR 191151Z 27004KT 10SM SCT022 SCT050 04/02 A3004 RMK AO2 SLP170 60000 T00390022 10050 20028 55000= 201701191251 METAR KEWR 191251Z 25006KT 10SM FEW025 SCT050 SCT250 04/03 A3005 RMK AO2 SLP174 T00440028= 201701191451 METAR KEWR 191451Z 32010KT 10SM FEW027 SCT045 SCT250 08/02 A3006 RMK AO2 SLP180 T00780017 51009= 201701191551 METAR KEWR 191551Z 32009G21KT 10SM FEW027 SCT050 SCT250 08/02 A3004 RMK AO2 SLP173 T00830017= 201701191651 METAR KEWR 191651Z 30012G20KT 10SM SCT027 SCT250 09/02 A3002 RMK AO2 SLP165 T00940022= 201701191751 METAR KEWR 191751Z 33008KT 10SM BKN029 BKN250 09/02 A3000 RMK AO2 SLP159 T00890017 10100 20039 57021= 201701191851 METAR KEWR 191851Z 34009KT 290V360 10SM BKN027 OVC250 08/02 A3000 RMK AO2 SLP157 T00830017= 201701191951 METAR KEWR 191951Z 31010G17KT 10SM OVC025 08/01 A3000 RMK AO2 SLP158 T00780011= 201701192051 METAR KEWR 192051Z 31009G14KT 10SM OVC025 07/01 A3000 RMK AO2 SLP156 T00720011 58002= 201701192151 METAR KEWR 192151Z 29009G16KT 10SM BKN026 07/01 A3001 RMK AO2 SLP162 T00720011= 201701192251 METAR KEWR 192251Z 31009KT 10SM BKN027 BKN250 07/01 A3002 RMK AO2 SLP164 T00670006= 201701192351 METAR KEWR 192351Z 30006KT 10SM FEW028 SCT035 BKN250 06/00 A3004 RMK AO2 SLP171 T00610000 10089 20061 53015= 201701200051 METAR KEWR 200051Z 29006KT 10SM BKN034 BKN250 06/00 A3005 RMK AO2 SLP174 T00610000= 201701200151 METAR KEWR 200151Z 33008KT 10SM FEW034 BKN250 06/00 A3004 RMK AO2 SLP170 T00560000= 201701200251 METAR KEWR 200251Z 03007KT 10SM FEW034 BKN250 04/M01 A3002 RMK AO2 SLP164 T00391006 58007= 201701200351 METAR KEWR 200351Z 33004KT 10SM SCT032 BKN250 04/00 A3002 RMK AO2 SLP165 T00440000= 201701200451 METAR KEWR 200451Z 00000KT 10SM BKN028 OVC200 05/01 A3003 RMK AO2 SLP167 T00500006 401000028= 201701200551 METAR KEWR 200551Z 00000KT 10SM OVC028 04/01 A3003 RMK AO2 SLP169 T00440006 10061 20033 53005= 201701200651 METAR KEWR 200651Z 03004KT 10SM OVC028 06/01 A3003 RMK AO2 SLP167 T00560011= 201701200751 METAR KEWR 200751Z 00000KT 10SM OVC028 06/01 A3002 RMK AO2 SLP166 T00560011= 201701200851 METAR KEWR 200851Z 00000KT 10SM OVC028 06/01 A3002 RMK AO2 SLP166 T00560006 56003= 201701200951 METAR KEWR 200951Z 06003KT 10SM OVC028 06/00 A3002 RMK AO2 SLP163 T00560000= 201701201051 METAR KEWR 201051Z 08003KT 10SM OVC028 05/M01 A3000 RMK AO2 SLP159 T00501006= 201701201151 METAR KEWR 201151Z 05004KT 10SM OVC029 05/00 A3000 RMK AO2 SLP159 T00500000 10056 20044 56007= 201701201251 METAR KEWR 201251Z VRB03KT 10SM OVC029 06/00 A3001 RMK AO2 SLP160 T00560000= 201701201351 METAR KEWR 201351Z 09003KT 10SM OVC028 06/00 A3002 RMK AO2 SLP163 T00560000= 201701201451 METAR KEWR 201451Z 08004KT 10SM OVC027 06/00 A3001 RMK AO2 SLP162 T00610000 50003= 201701201551 METAR KEWR 201551Z VRB04KT 10SM OVC025 06/00 A3002 RMK AO2 SLP166 T00610000= 201701201651 METAR KEWR 201651Z 13005KT 10SM OVC027 07/01 A2998 RMK AO2 SLP152 T00670006= 201701201751 METAR KEWR 201751Z 13005KT 10SM FEW018 BKN023 OVC028 07/01 A2996 RMK AO2 SLP146 T00670011 10072 20050 58016= 201701201851 METAR KEWR 201851Z 12004KT 10SM FEW020 BKN026 OVC160 07/02 A2994 RMK AO2 SLP137 BKN V SCT T00670017= 201701201951 METAR KEWR 201951Z 16005KT 7SM -RA BKN024 BKN035 BKN110 OVC160 07/02 A2993 RMK AO2 RAB45 SLP136 P0000 T00670017= 201701202051 METAR KEWR 202051Z 16005KT 4SM -RA BR FEW012 BKN020 OVC040 06/03 A2994 RMK AO2 SLP138 P0005 60005 T00560033 55008= 201701202151 METAR KEWR 202151Z 14004KT 5SM -RA BR FEW009 BKN020 OVC040 06/04 A2993 RMK AO2 SLP135 P0005 T00560039= 201701202251 METAR KEWR 202251Z 14006KT 6SM -RA BR BKN007 OVC022 06/04 A2993 RMK AO2 SLP135 BKN007 V SCT P0003 T00560039= 201701202351 METAR KEWR 202351Z 12005KT 9SM BKN007 BKN022 OVC044 06/04 A2993 RMK AO2 RAE28 SLP134 BKN007 V SCT P0000 60013 T00560039 10067 20056 56003= 201701210051 METAR KEWR 210051Z 15003KT 10SM SCT007 OVC025 06/04 A2993 RMK AO2 SLP133 T00560039= 201701210151 METAR KEWR 210151Z 00000KT 6SM -DZ BR SCT007 OVC012 06/04 A2993 RMK AO2 DZB32 SLP134 P0000 T00560039= 201701210251 METAR KEWR 210251Z 00000KT 2SM -DZ BR BKN006 OVC010 06/04 A2993 RMK AO2 SFC VIS 3 SLP133 P0000 60000 T00560044 57001= 201701210351 METAR KEWR 210351Z 00000KT 2SM -DZ BR BKN006 OVC010 06/04 A2992 RMK AO2 SFC VIS 2 1/2 SLP133 P0001 T00560044= 201701210451 METAR KEWR 210451Z 22003KT 2SM -DZ BR BKN005 OVC010 06/05 A2993 RMK AO2 SFC VIS 3 SLP134 P0000 T00560050 400720044= 201701210551 METAR KEWR 210551Z 21004KT 2SM -DZ BR OVC005 06/05 A2993 RMK AO2 SFC VIS 3 SLP133 P0000 60001 T00560050 10056 20050 58000= 201701210651 METAR KEWR 210651Z 22006KT 2SM BR SCT005 OVC008 06/04 A2992 RMK AO2 SFC VIS 5 DZE10 SLP131 P0000 T00560044= 201701210751 METAR KEWR 210751Z 23004KT 4SM BR BKN006 OVC010 06/05 A2991 RMK AO2 SLP126 T00560050= 201701210851 METAR KEWR 210851Z 23006KT 4SM BR BKN006 OVC010 06/05 A2990 RMK AO2 SLP125 60000 T00610050 56008= 201701210951 METAR KEWR 210951Z 23006KT 4SM BR OVC006 06/05 A2990 RMK AO2 SLP123 T00560050= 201701211051 METAR KEWR 211051Z 22006KT 4SM BR OVC006 06/05 A2989 RMK AO2 SLP120 T00610050= 201701211151 METAR KEWR 211151Z 23007KT 5SM BR OVC006 06/05 A2989 RMK AO2 SLP122 60000 70014 T00610050 10061 20056 55003= 201701211251 METAR KEWR 211251Z 23007KT 5SM BR BKN006 OVC080 06/05 A2989 RMK AO2 SLP119 T00610050= 201701211351 METAR KEWR 211351Z 24011KT 6SM BR OVC006 06/05 A2989 RMK AO2 SLP121 T00610050= 201701211451 METAR KEWR 211451Z 24007KT 6SM BR OVC006 07/06 A2990 RMK AO2 SLP123 T00670056 53002= 201701211551 METAR KEWR 211551Z 26006KT 6SM BR OVC006 07/06 A2989 RMK AO2 SLP120 T00720056= 201701211651 METAR KEWR 211651Z 25009KT 6SM BR OVC006 07/06 A2987 RMK AO2 SLP115 T00720056= 201701211751 METAR KEWR 211751Z 25005KT 7SM OVC006 08/06 A2983 RMK AO2 SLP101 T00780061 10078 20061 58022= 201701211851 METAR KEWR 211851Z 23007KT 8SM OVC008 08/06 A2981 RMK AO2 SLP094 T00830061= 201701211951 METAR KEWR 211951Z 24006KT 6SM BR OVC007 08/06 A2942 RMK SLP099 T00830061= 201701212051 METAR KEWR 212051Z 24007KT 8SM OVC008 08/07 A2982 RMK SLP096 T00830067 56005= 201701212151 METAR KEWR 212151Z 22006KT 7SM OVC007 08/07 A2982 RMK SLP096 T00830067= 201701212251 METAR KEWR 212251Z 23006KT 6SM BR OVC005 08/07 A2981 RMK SLP095 T00780067= 201701212351 METAR KEWR 212351Z 22005KT 6SM BR OVC005 08/07 A2982 RMK SLP096 T00830072= 201701220051 METAR KEWR 220051Z 23007KT 1SM R04R/P6000FT BR OVC003 08/07 A2982 RMK AO2 SFC VIS 3 SLP098 T00780072= 201701220151 METAR KEWR 220151Z 28004KT 1SM R04R/P6000FT BR OVC003 08/07 A2979 RMK AO2 SFC VIS 3 SLP088 T00780072= 201701220251 METAR KEWR 220251Z 24008KT 1SM R04R/4000VP6000FT BR OVC002 07/07 A2981 RMK AO2 SLP094 T00720067 55002= 201701220351 METAR KEWR 220351Z 25008KT 1/8SM R04R/P6000FT BR OVC002 07/07 A2982 RMK AO2 SFC VIS 1 1/2 SLP096 T00720067= 201701220451 METAR KEWR 220451Z 30005KT 1 1/2SM BR OVC002 07/07 A2978 RMK AO2 SLP084 T00670067 400890056= 201701220551 METAR KEWR 220551Z 22004KT 1 1/2SM BR OVC002 07/07 A2979 RMK AO2 SLP087 T00670067 10078 20067 55007= 201701220651 METAR KEWR 220651Z 19003KT 2SM BR OVC002 07/07 A2976 RMK AO2 SLP077 T00670067= 201701220751 METAR KEWR 220751Z 26003KT 3SM BR OVC003 07/07 A2975 RMK AO2 SLP074 T00670067= 201701220851 METAR KEWR 220851Z 00000KT 4SM BR OVC003 07/06 A2972 RMK AO2 SLP064 T00670061 58023= 201701220951 METAR KEWR 220951Z 00000KT 1 1/2SM BR OVC003 07/06 A2973 RMK AO2 SFC VIS 3 SLP065 T00670061= 201701221051 METAR KEWR 221051Z 00000KT 1/2SM R04R/4000VP6000FT FG OVC003 07/07 A2974 RMK AO2 SLP069 T00670067= 201701221151 METAR KEWR 221151Z 31004KT 1/2SM R04R/P6000FT BR OVC003 07/06 A2974 RMK AO2 SFC VIS 2 SLP071 T00670061 10067 20067 53005= 201701221251 METAR KEWR 221251Z 03005KT 1 1/2SM BR BKN005 OVC009 07/06 A2972 RMK AO2 SFC VIS 3 SLP064 T00670061= 201701221351 METAR KEWR 221351Z 02006KT 1/4SM R04R/P6000FT BR BKN002 OVC005 07/07 A2973 RMK AO2 SFC VIS 3/4 SLP065 T00720067= 201701221451 METAR KEWR 221451Z 01006KT 1/4SM R04R/5000VP6000FT -DZ FG OVC002 08/07 A2974 RMK AO2 SFC VIS 1/2 DZB36 SLP072 P0000 60000 T00780072 53001= 201701221551 METAR KEWR 221551Z 02007KT 1/4SM R04R/6000VP6000FT BR OVC003 08/08 A2974 RMK AO2 SFC VIS 1 1/4 DZE16 SLP071 P0000 T00830078= 201701221651 METAR KEWR 221651Z 04006KT 1/2SM R04R/P6000FT BR OVC004 08/08 A2972 RMK AO2 SFC VIS 2 1/2 SLP064 T00830078= 201701221751 METAR KEWR 221751Z VRB03KT 1SM R04R/P6000FT BR OVC008 09/07 A2969 RMK AO2 SFC VIS 4 SLP055 60000 T00940072 10094 20067 58017= 201701221851 METAR KEWR 221851Z 03009KT 6SM HZ OVC012 09/07 A2968 RMK AO2 SLP049 T00940067= 201701221951 METAR KEWR 221951Z 04009KT 7SM OVC013 09/06 A2969 RMK AO2 SLP052 T00940061= 201701222051 METAR KEWR 222051Z 04009KT 5SM -RA OVC015 09/07 A2971 RMK AO2 RAB11 SLP060 P0000 60000 T00940067 53005= 201701222151 METAR KEWR 222151Z 02009KT 3SM -RA BR OVC020 09/07 A2972 RMK AO2 RAE34B51 SLP065 P0000 T00890072= 201701222251 METAR KEWR 222251Z 02010KT 6SM BR OVC025 09/08 A2973 RMK AO2 RAE27 SLP065 P0000 T00890078= 201701222351 METAR KEWR 222351Z 04007KT 8SM OVC028 09/07 A2974 RMK AO2 SLP071 60000 T00940072 10100 20089 52011= 201701230051 METAR KEWR 230051Z 05005KT 9SM OVC028 09/07 A2974 RMK AO2 SLP070 T00940072= 201701230151 METAR KEWR 230151Z 05007KT 10SM BKN025 OVC030 10/06 A2976 RMK AO2 SLP078 T01000061= 201701230251 METAR KEWR 230251Z 05015G21KT 10SM BKN022 OVC028 09/05 A2979 RMK AO2 SLP086 T00940050 53015= 201701230351 METAR KEWR 230351Z 05015G22KT 10SM BKN018 OVC025 08/05 A2980 RMK AO2 SLP090 T00830050= 201701230451 METAR KEWR 230451Z 05018G27KT 10SM BKN017 OVC021 08/04 A2981 RMK AO2 PK WND 04029/0435 SLP094 T00780044 401000067= 201701230551 METAR KEWR 230551Z 06017G28KT 10SM BKN014 OVC018 07/04 A2981 RMK AO2 PK WND 05030/0505 SLP094 T00720039 10100 20072 51008= 201701230651 METAR KEWR 230651Z 05015G23KT 10SM BKN014 OVC018 07/04 A2983 RMK AO2 SLP099 T00670039= 201701230751 METAR KEWR 230751Z 06018G27KT 10SM BKN012 OVC014 07/04 A2981 RMK AO2 PK WND 07027/0732 RAB27E38 SLP095 P0000 T00670039= 201701230851 METAR KEWR 230851Z 06015G22KT 10SM OVC011 06/04 A2982 RMK AO2 PK WND 05027/0804 SLP096 60000 T00610039 51003= 201701230951 METAR KEWR 230951Z 05015G24KT 10SM BKN012 OVC015 06/03 A2982 RMK AO2 PK WND 07028/0914 SLP098 T00610033= 201701231051 METAR KEWR 231051Z 06015G30KT 10SM BKN012 BKN015 OVC017 06/02 A2982 RMK AO2 PK WND 06030/1043 SLP098 T00610022= 201701231151 METAR KEWR 231151Z 06014G26KT 10SM FEW012 BKN018 OVC025 06/02 A2982 RMK AO2 PK WND 08032/1122 SLP098 60000 T00560017 10072 20056 51002= 201701231251 METAR KEWR 231251Z 05020G31KT 10SM FEW018 BKN021 OVC026 06/01 A2984 RMK AO2 PK WND 07035/1200 SLP104 T00560011= 201701231351 METAR KEWR 231351Z 07024G32KT 10SM SCT018 BKN024 OVC029 06/00 A2983 RMK AO2 PK WND 05034/1339 SLP099 T00560000= 201701231451 METAR KEWR 231451Z 06023G35KT 10SM FEW018 OVC025 05/M01 A2983 RMK AO2 PK WND 05036/1415 SLP102 T00501006 51003= 201701231551 METAR KEWR 231551Z 05024G33KT 10SM FEW018 OVC025 05/M01 A2983 RMK AO2 PK WND 04036/1533 SLP101 T00501011= 201701231651 METAR KEWR 231651Z 05026G36KT 10SM BKN026 OVC032 05/M01 A2978 RMK AO2 PK WND 06036/1650 SLP084 CIG 024V029 T00501006= 201701231751 METAR KEWR 231751Z 06021G43KT 10SM OVC026 05/M01 A2973 RMK AO2 PK WND 04043/1745 SLP066 T00501006 10061 20050 58036= 201701231851 METAR KEWR 231851Z 05018G40KT 10SM -RA BKN026 OVC049 05/M01 A2970 RMK AO2 PK WND 08040/1847 RAB00E28B51 SLP058 P0000 T00501006= 201701231951 METAR KEWR 231951Z 05023G37KT 10SM OVC027 05/M01 A2968 RMK AO2 PK WND 06045/1854 RAE32 SLP048 CIG 025V030 P0000 T00501006= 201701232051 METAR KEWR 232051Z 05027G38KT 6SM -RA BKN024 OVC035 04/00 A2967 RMK AO2 PK WND 06038/2050 RAB12 SLP046 P0000 60000 T00440000 56021= 201701232151 METAR KEWR 232151Z 04020G35KT 6SM -RA OVC022 04/00 A2965 RMK AO2 PK WND 04042/2055 SLP041 P0000 T00390000= 201701232251 METAR KEWR 232251Z 03012G21KT 4SM RAPL BR FEW014 OVC020 03/01 A2967 RMK AO2 PK WND 04036/2154 PLB41 SLP045 P0013 T00330011= 201701232351 METAR KEWR 232351Z 03017G23KT 4SM +RAPL BR BKN015 BKN022 OVC030 03/01 A2964 RMK AO2 PK WND 04027/2306 PLE05B37 SLP037 931000 P0014 60027 T00330011 10050 20033 58009= 201701240051 METAR KEWR 240051Z 03020G28KT 5SM RA BR FEW008 BKN014 OVC020 03/01 A2962 RMK AO2 PK WND 04029/0032 PLE20 SLP029 P0020 T00280011= 201701240151 METAR KEWR 240151Z 03018G25KT 4SM +RA BR FEW008 BKN012 OVC020 03/02 A2961 RMK AO2 PK WND 02031/0121 SLP026 P0021 T00280017= 201701240251 METAR KEWR 240251Z 04022G29KT 4SM RA BR FEW008 BKN014 OVC025 03/02 A2956 RMK AO2 PK WND 04029/0247 PRESFR SLP008 P0021 60062 T00330017 58029= 201701240351 METAR KEWR 240351Z 04018G26KT 4SM RA BR FEW008 BKN014 OVC020 03/02 A2952 RMK AO2 PK WND 04029/0329 PRESFR SLP994 P0020 T00330017= 201701240451 METAR KEWR 240451Z 03022G29KT 6SM RA BR BKN014 BKN020 OVC030 03/02 A2947 RMK AO2 PK WND 02031/0435 SLP977 P0013 T00330017 400780028= 201701240551 METAR KEWR 240551Z 02017KT 4SM RA BR SCT010 BKN014 OVC020 03/02 A2943 RMK AO2 PK WND 04030/0529 SLP964 931000 P0016 60111 T00330017 10039 20028 56044= 201701240651 METAR KEWR 240651Z 02018G27KT 8SM -RA BKN012 BKN020 OVC028 03/02 A2937 RMK AO2 PK WND 03028/0623 SLP945 P0011 T00330017= 201701240751 METAR KEWR 240751Z 01017KT 9SM -RA BKN014 OVC022 03/02 A2937 RMK AO2 PK WND 02026/0726 SLP944 P0004 T00330017= 201701240851 METAR KEWR 240851Z 01016KT 4SM -RA BR BKN012 OVC018 03/02 A2937 RMK AO2 SLP944 P0005 60020 T00280017 56020= 201701240951 METAR KEWR 240951Z 01017KT 3SM -RA BR SCT007 BKN011 OVC016 03/02 A2938 RMK AO2 SLP948 P0004 T00280017= 201701241051 METAR KEWR 241051Z 01017KT 4SM -RA BR SCT008 BKN012 OVC018 02/01 A2937 RMK AO2 SLP946 P0002 T00220011= 201701241151 METAR KEWR 241151Z 36016G25KT 5SM -DZ BR BKN008 OVC015 02/01 A2936 RMK AO2 PK WND 36028/1137 RAE48DZB48 SLP941 CIG 007V010 P0000 60026 70164 T00220011 10033 20022 58003= 201701241251 METAR KEWR 241251Z 36019G25KT 2SM -DZ BR BKN008 OVC015 02/01 A2935 RMK AO2 PK WND 35029/1222 SFC VIS 3 SLP940 CIG 007V010 P0000 T00220011= 201701241351 METAR KEWR 241351Z 36019G25KT 2SM -DZ BR BKN008 OVC013 03/02 A2937 RMK AO2 PK WND 01028/1254 SFC VIS 5 SLP943 CIG 007V010 P0000 T00280017= 201701241451 METAR KEWR 241451Z 36017KT 3SM -DZ BKN010 OVC016 03/02 A2937 RMK AO2 PK WND 36029/1417 SFC VIS 10 SLP944 CIG 009V012 P0000 60000 T00330017 53003= 201701241551 METAR KEWR 241551Z 35016G24KT 10SM -RA BKN012 OVC019 03/02 A2937 RMK AO2 PK WND 01028/1454 DZE15RAB49 SLP944 CIG 010V015 P0000 T00330017= 201701241651 METAR KEWR 241651Z 34014G22KT 10SM -RA OVC014 03/02 A2935 RMK AO2 SLP937 CIG 012V016 P0001 T00330017= 201701241751 METAR KEWR 241751Z 34018G23KT 3SM -RA BR BKN011 OVC018 03/02 A2933 RMK AO2 SFC VIS 4 SLP930 CIG 009V014 P0001 60002 T00280017 10033 20022 58014= 201701241851 METAR KEWR 241851Z 33016G23KT 3SM RA BR BKN011 OVC022 03/02 A2934 RMK AO2 PK WND 34026/1830 SFC VIS 4 SLP933 BKN V SCT P0011 T00330017= 201701241951 METAR KEWR 241951Z 33018G25KT 10SM -RA FEW009 BKN015 OVC032 04/02 A2934 RMK AO2 PK WND 33028/1910 SLP936 CIG 013V017 P0006 T00390017= 201701242051 METAR KEWR 242051Z 33009KT 2 1/2SM -RA BR FEW008 BKN017 OVC033 04/02 A2936 RMK AO2 SFC VIS 3 SLP940 P0010 60027 T00390022 53010= 201701242151 METAR KEWR 242151Z 31009KT 9SM -RA FEW008 SCT015 BKN037 04/03 A2937 RMK AO2 SLP946 P0005 T00440028= 201701242251 METAR KEWR 242251Z 32014G24KT 10SM FEW008 FEW015 BKN037 04/02 A2940 RMK AO2 RAE08 SLP954 P0000 T00440017= 201701242351 METAR KEWR 242351Z 32018G26KT 10SM -RA FEW008 BKN030 OVC042 05/01 A2941 RMK AO2 PK WND 31028/2325 RAB25 SLP959 P0000 60032 T00500006 10050 20028 51019= 201701250051 METAR KEWR 250051Z 32015G25KT 10SM -RA FEW008 SCT030 OVC065 05/01 A2943 RMK AO2 PK WND 35031/0018 SLP964 P0000 T00500006= 201701250151 METAR KEWR 250151Z 32014G22KT 6SM -RASN BR FEW008 BKN025 OVC045 03/01 A2946 RMK AO2 SNB17 SLP975 P0002 T00330011= 201701250251 METAR KEWR 250251Z 30014G21KT 10SM -RA FEW008 SCT040 OVC070 03/01 A2946 RMK AO2 SNE49 SLP974 P0002 60004 T00330006 51016= 201701250351 METAR KEWR 250351Z 30016G22KT 10SM -RASN FEW008 SCT050 OVC080 03/00 A2948 RMK AO2 SNB21PLB26E39 SLP981 P0000 T00330000= 201701250451 METAR KEWR 250451Z 30020G27KT 10SM BKN027 BKN095 BKN250 03/M02 A2949 RMK AO2 PK WND 30027/0450 RAE20SNE20 SLP984 P0000 T00281017 400500022= 201701250551 METAR KEWR 250551Z 31012G21KT 10SM BKN030 OVC100 03/M02 A2950 RMK AO2 SLP990 931000 60004 T00331017 10050 20028 52016= 201701250651 METAR KEWR 250651Z 32016G24KT 10SM BKN032 OVC100 03/M02 A2953 RMK AO2 SLP999 T00331022= 201701250751 METAR KEWR 250751Z 31012G17KT 10SM BKN032 BKN150 03/M02 A2955 RMK AO2 SLP006 T00331017= 201701250851 METAR KEWR 250851Z 30020G28KT 10SM BKN029 BKN150 03/M02 A2957 RMK AO2 PK WND 31028/0844 SLP014 T00331017 51024= 201701250951 METAR KEWR 250951Z 31016KT 10SM SCT029 SCT150 03/M02 A2959 RMK AO2 PK WND 29030/0905 SLP020 T00331022= 201701251051 METAR KEWR 251051Z 29015G25KT 10SM SCT029 03/M03 A2960 RMK AO2 PK WND 29027/1018 SLP024 T00281028= 201701251151 METAR KEWR 251151Z 29011G19KT 10SM FEW029 SCT034 03/M02 A2962 RMK AO2 SLP028 70038 T00281022 10033 20028 51015= 201701251251 METAR KEWR 251251Z 28015KT 10SM SCT034 04/M02 A2964 RMK AO2 SLP036 T00391017= 201701251351 METAR KEWR 251351Z 30012G22KT 10SM SCT034 06/M01 A2965 RMK AO2 SLP040 T00561011= 201701251451 METAR KEWR 251451Z 28013G24KT 10SM SCT034 07/M01 A2967 RMK AO2 PK WND 29026/1439 SLP046 T00721006 51017= 201701251551 METAR KEWR 251551Z 28014G21KT 10SM FEW037 09/M01 A2967 RMK AO2 SLP046 T00891006= 201701251651 METAR KEWR 251651Z 27020G25KT 10SM FEW037 09/M01 A2966 RMK AO2 PK WND 30026/1636 SLP044 T00891006= 201701251751 METAR KEWR 251751Z 29015G23KT 10SM SCT040 10/01 A2965 RMK AO2 PK WND 29027/1735 SLP039 T01000006 10100 20028 58007= 201701251851 METAR KEWR 251851Z 30015G22KT 10SM SCT040 10/01 A2965 RMK AO2 SLP041 T01000006= 201701251951 METAR KEWR 251951Z 30011KT 10SM FEW042 11/01 A2967 RMK AO2 SLP046 T01060006= 201701252051 METAR KEWR 252051Z 26008KT 10SM FEW042 11/00 A2966 RMK AO2 SLP042 T01060000 50003= 201701252151 METAR KEWR 252151Z 26009KT 10SM FEW042 FEW100 11/00 A2966 RMK AO2 SLP044 T01060000= 201701252251 METAR KEWR 252251Z 26005KT 10SM FEW040 SCT100 10/01 A2967 RMK AO2 SLP045 T01000006= 201701252351 METAR KEWR 252351Z 22003KT 10SM SCT100 SCT200 09/01 A2965 RMK AO2 SLP040 T00940006 10111 20089 58002= 201701260051 METAR KEWR 260051Z 00000KT 10SM BKN130 OVC200 09/01 A2964 RMK AO2 SLP038 T00890011= 201701260151 METAR KEWR 260151Z 19006KT 10SM BKN120 OVC180 09/02 A2963 RMK AO2 SLP034 T00890017= 201701260251 METAR KEWR 260251Z 21008KT 10SM BKN120 BKN180 08/02 A2962 RMK AO2 SLP030 T00780017 58009= 201701260351 METAR KEWR 260351Z 22006KT 10SM BKN090 OVC150 08/02 A2960 RMK AO2 SLP022 T00830022= 201701260451 METAR KEWR 260451Z 19008KT 10SM BKN080 BKN130 08/02 A2956 RMK AO2 SLP010 T00830017 401110028= 201701260551 METAR KEWR 260551Z 22003KT 10SM BKN080 OVC120 08/02 A2954 RMK AO2 SLP001 T00780017 10094 20078 58029= 201701260651 METAR KEWR 260651Z 00000KT 10SM OVC080 08/02 A2952 RMK AO2 SLP996 T00780017= 201701260751 METAR KEWR 260751Z 23004KT 10SM SCT070 BKN130 07/02 A2951 RMK AO2 SLP991 T00720017= 201701260851 METAR KEWR 260851Z 20006KT 10SM SCT065 BKN160 07/02 A2946 RMK AO2 SLP976 T00720017 58025= 201701260951 METAR KEWR 260951Z 22003KT 10SM SCT065 BKN160 08/02 A2945 RMK AO2 SLP971 T00780022= 201701261051 METAR KEWR 261051Z 19004KT 10SM BKN120 08/02 A2944 RMK AO2 SLP970 T00780022= 201701261151 METAR KEWR 261151Z 23003KT 10SM BKN100 OVC140 07/02 A2945 RMK AO2 SLP971 T00720022 10083 20067 55004= 201701261251 METAR KEWR 261251Z 24004KT 10SM BKN065 BKN100 OVC150 08/03 A2944 RMK AO2 SLP968 T00830028= 201701261351 METAR KEWR 261351Z VRB04KT 7SM -RA BKN060 OVC090 08/04 A2945 RMK AO2 RAB12 SLP973 P0001 T00830044= 201701261451 METAR KEWR 261451Z 16003KT 7SM -RA SCT049 BKN060 OVC075 08/05 A2943 RMK AO2 SLP966 P0001 60002 T00780050 58006= 201701261551 METAR KEWR 261551Z 19004KT 9SM -RA FEW040 SCT065 BKN085 BKN130 08/06 A2940 RMK AO2 RAE00B27 SLP954 P0001 T00780056= 201701261651 METAR KEWR 261651Z 18007KT 10SM FEW025 SCT040 BKN080 09/06 A2937 RMK AO2 RAE1554 SLP946 P0000 T00890061= 201701261751 METAR KEWR 261751Z 28022G29KT 10SM FEW030 SCT050 SCT075 BKN140 12/05 A2933 RMK AO2 PK WND 27029/1750 SLP933 60003 T01220050 10122 20072 58033= 201701261851 METAR KEWR 261851Z 27020G33KT 10SM FEW047 SCT055 13/01 A2934 RMK AO2 PK WND 27036/1840 SLP934 T01330006= 201701261951 METAR KEWR 261951Z 28026G35KT 10SM FEW055 BKN065 11/M01 A2937 RMK AO2 PK WND 29035/1946 SLP946 T01111011= 201701262051 METAR KEWR 262051Z 27022G36KT 10SM FEW050 BKN060 09/M03 A2942 RMK AO2 PK WND 25036/2045 SLP961 T00941033 53027= 201701262151 METAR KEWR 262151Z 28023G31KT 10SM BKN060 08/M04 A2944 RMK AO2 PK WND 28037/2122 SLP968 T00831039= 201701262251 METAR KEWR 262251Z 26021G27KT 10SM BKN055 07/M03 A2947 RMK AO2 PK WND 27034/2208 SLP978 T00721028= 201701262351 METAR KEWR 262351Z 26014G26KT 10SM BKN050 07/M03 A2948 RMK AO2 PK WND 26030/2252 SLP983 T00721028 10133 20072 51022= 201701270051 METAR KEWR 270051Z 25015G22KT 10SM SCT050 07/M03 A2950 RMK AO2 PK WND 27032/0002 SLP990 T00671028= 201701270151 METAR KEWR 270151Z 26021G30KT 10SM FEW050 07/M02 A2952 RMK AO2 PK WND 26030/0151 SLP995 T00671022= 201701270251 METAR KEWR 270251Z 26019G27KT 10SM FEW050 07/M02 A2955 RMK AO2 PK WND 26031/0229 SLP004 T00671022 53021= 201701270351 METAR KEWR 270351Z 27015G25KT 10SM FEW040 SCT250 06/M02 A2957 RMK PK WND 26028/0259 SLP014 T00311022= 201701270451 METAR KEWR 270451Z 25012KT 10SM FEW040 FEW100 SCT250 06/M03 A2959 RMK AO2 SLP021 T00561028 401330056= 201701270551 METAR KEWR 270551Z 26013KT 10SM SCT050 SCT250 06/M03 A2961 RMK AO2 SLP025 T00561028 10072 20056 51021= 201701270651 METAR KEWR 270651Z 24013KT 10SM FEW050 FEW250 05/M03 A2963 RMK AO2 SLP032 T00501028= 201701270751 METAR KEWR 270751Z 24012KT 10SM BKN065 BKN250 05/M02 A2963 RMK AO2 SLP032 T00501022= 201701270851 METAR KEWR 270851Z 25014KT 10SM FEW065 SCT250 05/M03 A2963 RMK AO2 SLP033 T00501028 51008= 201701270951 METAR KEWR 270951Z 25013KT 10SM SCT065 05/M03 A2964 RMK AO2 SLP036 T00501033= 201701271051 METAR KEWR 271051Z 25016G25KT 10SM BKN065 06/M04 A2965 RMK AO2 SLP039 T00561039= 201701271151 METAR KEWR 271151Z 26019G24KT 10SM BKN065 05/M04 A2966 RMK AO2 PK WND 26026/1057 SLP041 70003 T00501044 10056 20044 51008= 201701271251 METAR KEWR 271251Z 25017G24KT 10SM BKN070 05/M05 A2967 RMK AO2 PK WND 25026/1155 SLP045 T00501050= 201701271351 METAR KEWR 271351Z 25022G31KT 10SM BKN065 05/M04 A2968 RMK AO2 PK WND 24031/1345 SLP049 VIRGA T00501044= 201701271451 METAR KEWR 271451Z 27021G30KT 10SM FEW035 BKN065 06/M05 A2968 RMK AO2 PK WND 26030/1448 SLP049 VIRGA T00561050 51007= 201701271551 METAR KEWR 271551Z 26021G25KT 10SM SCT047 BKN060 06/M06 A2967 RMK AO2 PK WND 26031/1505 SLP046 T00611056= 201701271651 METAR KEWR 271651Z 27018G22KT 10SM FEW048 BKN055 06/M06 A2964 RMK AO2 PK WND 26028/1623 SLP036 T00611061= 201701271751 METAR KEWR 271751Z 26017KT 10SM FEW045 BKN060 BKN250 05/M04 A2961 RMK AO2 PK WND 28026/1736 SLP027 T00501044 10072 20050 58022= 201701271851 METAR KEWR 271851Z 25021G28KT 10SM FEW047 BKN055 BKN070 08/M06 A2959 RMK AO2 PK WND 25036/1838 SLP018 VIRGA T00781056= 201701271951 METAR KEWR 271951Z 26020G27KT 10SM FEW045 BKN060 06/M05 A2958 RMK AO2 PK WND 24030/1940 SLP017 VIRGA T00561050= 201701272051 METAR KEWR 272051Z 25017G22KT 10SM FEW045 OVC060 06/M06 A2960 RMK AO2 PK WND 26026/1956 SLP022 VIRGA T00561056 55005= 201701272151 METAR KEWR 272151Z 26017KT 10SM FEW045 OVC060 05/M06 A2961 RMK AO2 PK WND 27030/2115 SLP025 VIRGA T00501056= 201701272251 METAR KEWR 272251Z 26013KT 10SM -SN FEW040 OVC060 05/M06 A2962 RMK AO2 PK WND 26027/2221 SNB28 SLP028 P0000 T00501061= 201701272351 METAR KEWR 272351Z 26021G27KT 10SM -SN FEW040 BKN055 04/M04 A2962 RMK AO2 PK WND 25027/2351 SNE14B48 SLP031 931000 P0000 60000 T00441044 10078 20044 51009= 201701280051 METAR KEWR 280051Z 26014G23KT 10SM FEW040 SCT055 BKN080 04/M05 A2964 RMK AO2 PK WND 27027/2356 SNE11 SLP035 P0000 T00391050= 201701280151 METAR KEWR 280151Z 25014G19KT 10SM FEW040 BKN070 03/M05 A2965 RMK AO2 SLP038 T00331050= 201701280251 METAR KEWR 280251Z 25014G22KT 10SM FEW040 BKN070 03/M05 A2965 RMK AO2 SLP040 60000 T00331050 51008= 201701280351 METAR KEWR 280351Z 25011KT 10SM FEW045 SCT070 02/M06 A2966 RMK AO2 SLP042 T00221056= 201701280451 METAR KEWR 280451Z 24013KT 10SM FEW040 SCT070 02/M07 A2965 RMK AO2 SLP040 T00221067 400780022= 201701280551 METAR KEWR 280551Z 24013KT 10SM BKN065 02/M06 A2965 RMK AO2 SLP039 931000 60000 T00171061 10044 20011 50000= 201701280651 METAR KEWR 280651Z 25015KT 10SM OVC060 02/M07 A2965 RMK AO2 SLP040 T00221067= 201701280751 METAR KEWR 280751Z 25012KT 10SM BKN060 02/M07 A2965 RMK AO2 SLP040 T00171072= 201701280851 METAR KEWR 280851Z 26018G22KT 10SM SCT060 02/M07 A2965 RMK AO2 SLP040 T00171072 50000= 201701280951 METAR KEWR 280951Z 25014KT 10SM OVC060 02/M07 A2965 RMK AO2 SLP040 T00171072= 201701281051 METAR KEWR 281051Z 23011KT 10SM OVC055 01/M07 A2966 RMK AO2 SLP043 T00111067= 201701281151 METAR KEWR 281151Z 23014KT 10SM BKN060 01/M07 A2968 RMK AO2 SLP050 T00111067 10022 20011 53010= 201701281251 METAR KEWR 281251Z 23014KT 10SM BKN060 02/M06 A2970 RMK AO2 SLP056 T00171061= 201701281351 METAR KEWR 281351Z 24017KT 10SM BKN060 02/M06 A2971 RMK AO2 SLP060 T00171056= 201701281451 METAR KEWR 281451Z 24015G21KT 10SM OVC070 03/M05 A2972 RMK AO2 SLP062 T00281050 51012= 201701281551 METAR KEWR 281551Z 25014KT 10SM FEW036 OVC065 04/M06 A2971 RMK AO2 SLP062 T00391056= 201701281651 METAR KEWR 281651Z 26013G19KT 10SM BKN042 OVC065 03/M06 A2970 RMK AO2 SLP055 VIRGA T00331056= 201701281751 METAR KEWR 281751Z 26015KT 10SM -SN BKN035 OVC046 03/M05 A2967 RMK AO2 SNB1658 SLP047 931000 P0000 60000 T00331050 10039 20006 58015= 201701281851 METAR KEWR 281851Z 29011KT 10SM -SN BKN035 OVC046 03/M04 A2967 RMK AO2 SNE31B48 SLP046 P0000 T00281044= 201701281951 METAR KEWR 281951Z 26014KT 10SM BKN035 OVC041 03/M06 A2968 RMK AO2 SNE1858 SLP050 P0000 T00281056= 201701282051 METAR KEWR 282051Z 26013KT 10SM BKN041 OVC049 03/M05 A2969 RMK AO2 SLP053 60000 T00281050 53006= 201701282151 METAR KEWR 282151Z 26011KT 10SM SCT041 OVC049 03/M06 A2970 RMK AO2 SLP057 T00281056= 201701282251 METAR KEWR 282251Z 27009KT 10SM FEW041 OVC047 03/M06 A2971 RMK AO2 SLP061 T00281061= 201701282351 METAR KEWR 282351Z 26009KT 10SM OVC046 03/M06 A2973 RMK AO2 SLP067 931000 60000 T00281061 10033 20028 53014= 201701290051 METAR KEWR 290051Z 25009KT 10SM OVC050 03/M06 A2975 RMK AO2 SLP073 T00281061= 201701290151 METAR KEWR 290151Z 24006KT 10SM OVC055 03/M06 A2975 RMK AO2 SLP075 T00281061= 201701290251 METAR KEWR 290251Z 21006KT 10SM BKN065 OVC080 02/M06 A2975 RMK AO2 SLP073 T00171056 50006= 201701290351 METAR KEWR 290351Z 23006KT 10SM SCT065 BKN095 02/M05 A2975 RMK AO2 SLP073 T00221050= 201701290451 METAR KEWR 290451Z 18004KT 10SM BKN060 BKN100 02/M05 A2973 RMK AO2 SLP067 T00171050 400390006= 201701290551 METAR KEWR 290551Z 19005KT 10SM SCT050 BKN075 BKN100 01/M04 A2972 RMK AO2 SLP063 T00111039 10033 20006 58010= 201701290651 METAR KEWR 290651Z 17003KT 10SM SCT050 BKN060 BKN100 01/M04 A2971 RMK AO2 SLP059 T00111039= 201701290751 METAR KEWR 290751Z 24005KT 10SM FEW050 SCT090 BKN200 00/M04 A2971 RMK AO2 SLP061 T00001044= 201701290851 METAR KEWR 290851Z 25005KT 10SM FEW100 SCT250 00/M05 A2970 RMK AO2 SLP058 T00001050 56005= 201701290951 METAR KEWR 290951Z 21006KT 10SM SCT060 BKN250 M01/M04 A2972 RMK AO2 SLP062 T10061044= 201701291051 METAR KEWR 291051Z 19003KT 10SM BKN050 OVC200 00/M04 A2971 RMK AO2 SLP061 T00001044= 201701291151 METAR KEWR 291151Z 21005KT 10SM SCT050 BKN080 OVC200 M01/M04 A2971 RMK AO2 SLP060 T10061044 10017 21011 50002= 201701291251 METAR KEWR 291251Z 23008KT 10SM BKN085 BKN200 01/M03 A2972 RMK AO2 SLP064 T00111033= 201701291351 METAR KEWR 291351Z 24010KT 10SM BKN080 BKN250 03/M04 A2974 RMK AO2 SLP069 T00281039= 201701291451 METAR KEWR 291451Z 28017KT 10SM FEW080 BKN250 04/M07 A2974 RMK AO2 SLP071 T00441072 51012= 201701291551 METAR KEWR 291551Z 26016KT 10SM FEW050 SCT200 BKN250 04/M10 A2974 RMK AO2 PK WND 28026/1452 SLP069 T00441100= 201701291651 METAR KEWR 291651Z 29017KT 10SM FEW050 FEW080 BKN220 06/M12 A2972 RMK AO2 SLP064 T00611117= 201701291751 METAR KEWR 291751Z 27009G16KT 10SM FEW060 FEW090 SCT220 BKN260 07/M11 A2969 RMK AO2 SLP053 T00671111 10072 21006 58018= 201701291851 METAR KEWR 291851Z 28017G22KT 10SM FEW060 FEW090 SCT220 SCT260 07/M11 A2967 RMK AO2 SLP047 T00671111= 201701291951 METAR KEWR 291951Z 28016G21KT 10SM FEW065 SCT090 SCT200 BKN260 07/M10 A2968 RMK AO2 SLP050 T00671100= 201701292051 METAR KEWR 292051Z 27012KT 10SM BKN065 BKN090 BKN220 06/M09 A2970 RMK AO2 SLP056 T00611094 53002= 201701292151 METAR KEWR 292151Z 25011KT 10SM BKN070 BKN250 05/M10 A2971 RMK AO2 SLP061 T00501100= 201701292251 METAR KEWR 292251Z 25008KT 10SM BKN075 BKN250 04/M09 A2973 RMK AO2 SLP065 T00441089= 201701292351 METAR KEWR 292351Z 25008KT 10SM FEW050 SCT075 SCT250 03/M09 A2974 RMK AO2 SLP069 T00331089 10072 20033 51013= 201701300051 METAR KEWR 300051Z 22007KT 10SM OVC075 03/M07 A2974 RMK AO2 SLP071 T00281072= 201701300151 METAR KEWR 300151Z 24009KT 10SM OVC075 03/M07 A2974 RMK AO2 SLP070 T00281072= 201701300251 METAR KEWR 300251Z 24007KT 10SM FEW070 SCT250 02/M07 A2974 RMK AO2 SLP068 T00221072 58001= 201701300351 METAR KEWR 300351Z 26006KT 10SM FEW070 SCT250 01/M07 A2974 RMK AO2 SLP070 T00111067= 201701300451 METAR KEWR 300451Z 27005KT 10SM FEW070 SCT250 01/M07 A2974 RMK AO2 SLP069 T00111067 400721011= 201701300551 METAR KEWR 300551Z 29005KT 10SM BKN090 BKN120 OVC250 01/M06 A2974 RMK AO2 SLP069 T00061061 10039 20006 51001= 201701300651 METAR KEWR 300651Z 27003KT 10SM BKN075 OVC095 01/M06 A2974 RMK AO2 SLP068 T00111061= 201701300751 METAR KEWR 300751Z 35010KT 10SM SCT075 OVC095 01/M07 A2974 RMK AO2 SLP069 T00111072= 201701300851 METAR KEWR 300851Z 34013KT 10SM BKN080 OVC095 00/M07 A2975 RMK AO2 SLP072 T00001072 53003= 201701300951 METAR KEWR 300951Z 35008KT 10SM BKN070 OVC150 M01/M07 A2975 RMK AO2 SLP074 T10061072= 201701301051 METAR KEWR 301051Z 01006KT 10SM FEW070 SCT095 BKN250 M01/M07 A2976 RMK AO2 SLP077 T10111072= 201701301151 METAR KEWR 301151Z 01006KT 10SM FEW060 SCT100 BKN120 OVC250 M01/M07 A2976 RMK AO2 SLP078 T10111072 10017 21017 51006= 201701301251 METAR KEWR 301251Z 36009KT 10SM SCT060 BKN100 BKN140 OVC250 00/M09 A2977 RMK AO2 SLP080 T00001089= 201701301351 METAR KEWR 301351Z 35010KT 10SM FEW060 BKN100 BKN140 BKN250 01/M10 A2978 RMK AO2 SLP085 T00061100= 201701301451 METAR KEWR 301451Z 36006KT 10SM FEW060 BKN110 BKN150 BKN250 01/M11 A2980 RMK AO2 SLP090 T00111111 53011= 201701301551 METAR KEWR 301551Z 32011G20KT 10SM FEW050 SCT090 BKN150 BKN250 02/M13 A2981 RMK AO2 SLP094 T00171128= 201701301651 METAR KEWR 301651Z 31010G22KT 10SM FEW050 SCT120 BKN180 BKN250 02/M12 A2980 RMK AO2 SLP090 T00221122= 201701301751 METAR KEWR 301751Z 32012KT 10SM FEW050 FEW120 SCT180 BKN250 03/M12 A2978 RMK AO2 SLP083 T00281122 10039 21017 58007= 201701301851 METAR KEWR 301851Z 30017G23KT 10SM FEW050 SCT170 BKN250 03/M12 A2977 RMK AO2 PK WND 27026/1832 SLP081 T00331122= 201701301951 METAR KEWR 301951Z 29017G21KT 10SM SCT065 SCT170 SCT250 04/M12 A2978 RMK AO2 PK WND 29027/1928 SLP085 T00441122= 201701302051 METAR KEWR 302051Z 29013G21KT 10SM SCT065 SCT170 SCT250 02/M13 A2980 RMK AO2 SLP091 T00221128 53008= 201701302151 METAR KEWR 302151Z 34012KT 10SM FEW065 FEW150 02/M13 A2982 RMK AO2 SLP099 T00221128= 201701302251 METAR KEWR 302251Z 32011KT 10SM FEW070 FEW150 02/M14 A2986 RMK AO2 SLP110 T00171139= 201701302351 METAR KEWR 302351Z 32009KT 10SM FEW070 01/M13 A2989 RMK AO2 SLP121 T00111133 10044 20011 53030= 201701310051 METAR KEWR 310051Z 31006KT 10SM FEW070 01/M13 A2992 RMK AO2 SLP131 T00061128= 201701310151 METAR KEWR 310151Z 31007KT 10SM SCT080 00/M13 A2994 RMK AO2 SLP138 T00001128= 201701310251 METAR KEWR 310251Z 31008KT 10SM BKN070 00/M13 A2997 RMK AO2 SLP146 T00001128 51025= 201701310351 METAR KEWR 310351Z 30007KT 10SM BKN080 M01/M13 A2997 RMK AO2 SLP149 T10061128= 201701310451 METAR KEWR 310451Z 31006KT 10SM SCT075 M01/M13 A2997 RMK AO2 SLP149 T10111128 400441017= 201701310551 METAR KEWR 310551Z 31006KT 10SM FEW070 M02/M13 A2998 RMK AO2 SLP150 T10171128 10011 21017 51004= 201701310651 METAR KEWR 310651Z 33005KT 10SM SCT055 M02/M13 A2997 RMK AO2 SLP149 T10171128= 201701310751 METAR KEWR 310751Z 31005KT 10SM OVC045 M02/M13 A3002 RMK AO2 SLP163 T10171128= 201701310851 METAR KEWR 310851Z 03003KT 10SM SCT028 OVC045 M02/M12 A3001 RMK AO2 SLP160 T10171117 50010= 201701310951 METAR KEWR 310951Z 21005KT 10SM OVC028 M03/M07 A2999 RMK AO2 SLP154 T10281072= 201701311051 METAR KEWR 311051Z 22004KT 10SM SCT030 SCT044 BKN170 M04/M08 A2999 RMK AO2 SLP153 T10391078= 201701311151 METAR KEWR 311151Z 22004KT 10SM FEW025 SCT130 BKN200 BKN260 M04/M08 A2997 RMK AO2 SLP146 T10391083 11011 21039 58014= 201701311251 METAR KEWR 311251Z 16003KT 10SM FEW025 SCT130 BKN200 BKN260 M02/M08 A2996 RMK AO2 SLP144 T10221083= 201701311351 METAR KEWR 311351Z 13003KT 10SM FEW030 BKN070 BKN170 OVC250 M02/M09 A2995 RMK AO2 SLP140 T10171094= 201701311451 METAR KEWR 311451Z 15007KT 10SM -SN SCT017 BKN033 OVC048 M01/M09 A2994 RMK AO2 SNB45 SLP137 P0000 60000 T10111089 58009= 201701311551 METAR KEWR 311551Z 12006KT 1 1/2SM R04R/4000VP6000FT -SN SCT008 OVC015 M03/M06 A2991 RMK AO2 PRESFR SLP128 P0001 T10281056= 201701311651 METAR KEWR 311651Z 10005KT 6SM -SN SCT007 BKN025 OVC065 M02/M05 A2987 RMK AO2 SLP114 BKN V SCT P0001 T10221050= 201701311751 METAR KEWR 311751Z 10007KT 2SM R04R/4000VP6000FT -SN SCT007 BKN013 OVC024 M01/M04 A2981 RMK AO2 SLP094 9310043 P0000 60002 T10111039 11011 21039 58043= 201701311851 METAR KEWR 311851Z 06009KT 2SM -SN FEW007 SCT011 OVC016 M01/M03 A2978 RMK AO2 SLP082 P0001 T10061033 $= 201701311951 METAR KEWR 311951Z 06008KT 6SM -SN FEW008 BKN013 OVC050 M01/M03 A2975 RMK AO2 SLP075 P0000 T10061033= 201701312051 METAR KEWR 312051Z 07005KT 5SM -SN FEW008 BKN013 OVC035 00/M03 A2977 RMK AO2 SLP079 P0000 60001 T00001028 55016= 201701312151 METAR KEWR 312151Z 02007KT 7SM -SN FEW008 BKN013 OVC065 M01/M03 A2980 RMK AO2 SLP089 P0000 T10061028= 201701312251 METAR KEWR 312251Z 35006KT 9SM FEW008 BKN014 OVC075 M01/M03 A2982 RMK AO2 SNE09 SLP095 P0000 T10061028= 201701312351 METAR KEWR 312351Z 02004KT 10SM FEW008 SCT015 OVC080 M01/M03 A2982 RMK AO2 SLP098 931001 4/001 60001 T10061028 10000 21011 51020=
