 201707010051 METAR KEWR 010051Z 19013KT 10SM TS FEW050CB SCT070 BKN130 BKN250 29/20 A2993 RMK AO2 LTG DSNT W AND NW TSB50 SLP136 OCNL LTGCG VC W TS VC W MOV E T02940200= 201707010151 METAR KEWR 010151Z 21016G23KT 10SM FEW045 SCT075 SCT110 BKN140 BKN250 29/20 A2996 RMK AO2 TSE24 SLP146 T02890200= 201707010251 METAR KEWR 010251Z 21013G21KT 10SM -RA SCT048 BKN070 BKN090 BKN160 BKN250 28/20 A2996 RMK AO2 RAB50 SLP146 P0000 60000 T02780200 51015= 201707010351 METAR KEWR 010351Z 24008KT 10SM FEW042 SCT095 BKN160 BKN250 25/20 A2996 RMK RAE37 SLP144 P0000 T02500200= 201707010451 METAR KEWR 010451Z 00000KT 10SM FEW095 FEW160 BKN200 25/21 A2996 RMK AO2 SLP144 T02500206 403280228= 201707010551 METAR KEWR 010551Z 19008KT 10SM FEW100 SCT150 BKN250 25/21 A2995 RMK AO2 SLP142 60000 T02500206 10306 20239 57004= 201707010651 METAR KEWR 010651Z 20011KT 10SM FEW100 SCT150 SCT250 24/21 A2994 RMK AO2 SLP137 T02440206= 201707010751 METAR KEWR 010751Z 18007KT 10SM FEW100 FEW150 SCT250 24/20 A2993 RMK AO2 SLP135 T02440200= 201707010851 METAR KEWR 010851Z 19009KT 10SM FEW150 BKN190 BKN250 24/21 A2994 RMK AO2 SLP137 T02390206 55005= 201707010951 METAR KEWR 010951Z 20009KT 10SM FEW090 SCT130 BKN160 BKN200 24/21 A2995 RMK AO2 SLP141 VIRGA T02440211= 201707011051 METAR KEWR 011051Z 19009KT 10SM FEW090 BKN130 BKN150 BKN200 25/22 A2996 RMK AO2 RAB04E49 SLP144 VCSH P0000 T02500217= 201707011151 METAR KEWR 011151Z 18007KT 10SM SCT020 SCT090 BKN140 BKN200 26/22 A2996 RMK AO2 SLP146 60000 T02560217 10256 20239 51009= 201707011251 METAR KEWR 011251Z 16007KT 10SM SCT020 BKN140 26/22 A2996 RMK AO2 SLP145 T02610222= 201707011351 METAR KEWR 011351Z 18008KT 10SM BKN021 BKN120 27/23 A2994 RMK AO2 SLP137 T02720228= 201707011451 METAR KEWR 011451Z 17008KT 10SM BKN021 BKN130 28/22 A2993 RMK AO2 SLP135 T02830222 58012= 201707011551 METAR KEWR 011551Z 18010KT 8SM -RA BKN026 BKN045 BKN130 27/22 A2992 RMK AO2 RAB45 SLP132 P0000 T02720217= 201707011651 METAR KEWR 011651Z VRB03KT 10SM -RA SCT028 BKN055 BKN070 BKN130 28/22 A2990 RMK AO2 RAE23B49 SLP126 P0000 T02830217= 201707011751 METAR KEWR 011751Z 18010KT 10SM SCT030 BKN045TCU OVC065 29/22 A2988 RMK AO2 RAE09 SLP119 TCU N VCSH P0000 60000 T02940222 10294 20256 58016= 201707011851 METAR KEWR 011851Z 16006KT 4SM R04R/3500VP6000FT RA BR BKN015 BKN030 OVC037TCU 25/23 A2988 RMK AO2 LTG DSNT SE AND S RAB30 SLP119 TCU OHD-N-E P0027 T02500233= 201707011951 METAR KEWR 011951Z 18008KT 10SM FEW027 SCT036 SCT070 28/23 A2986 RMK AO2 LTG DSNT E RAE1858 TSE00B02E18 SLP111 CB DSNT E MOV NE P0000 T02780233= 201707012051 METAR KEWR 012051Z 12007KT 10SM SCT033 BKN041 BKN060 29/23 A2984 RMK AO2 SLP105 60027 T02890233 58015= 201707012151 METAR KEWR 012151Z 16006KT 10SM -RA SCT033 BKN065 BKN100 BKN250 28/23 A2985 RMK AO2 LTG DSNT W AND NW RAB43 SLP107 CB DSNT SW-DSNT W MOV E P0000 T02830228= 201707012251 METAR KEWR 012251Z 21023G27KT 4SM R04R/3500VP6000FT -TSRA FEW035 BKN050CB BKN250 27/23 A2986 RMK AO2 PK WND 22027/2251 LTG DSNT ALQDS RAE2153B48 TSB33 SLP112 OCNL LTGIC VC SW-VC NW TS VC SW-VC NW MOV E P0000 T02720228= 201707012351 METAR KEWR 012351Z 23007KT 10SM FEW020 SCT049 SCT100 BKN250 23/21 A2988 RMK AO2 LTG DSNT N AND NE RAE41 TSE30 SLP119 VCSH P0020 60047 T02330211 10294 20228 53014= 201707020051 METAR KEWR 020051Z 23007KT 10SM FEW020 SCT190 BKN250 23/21 A2988 RMK AO2 SLP117 T02280206= 201707020151 METAR KEWR 020151Z 23007KT 10SM FEW020 FEW190 SCT250 22/21 A2989 RMK AO2 SLP121 T02220206= 201707020251 METAR KEWR 020251Z 23010KT 10SM BKN008 22/21 A2992 RMK AO2 SLP130 T02220206 53011= 201707020351 METAR KEWR 020351Z 23006KT 10SM SCT008 22/21 A2991 RMK AO2 SLP129 T02220211= 201707020451 METAR KEWR 020451Z 24010KT 10SM BKN008 22/21 A2991 RMK AO2 SLP129 T02220211 402940217= 201707020551 METAR KEWR 020551Z 24009KT 10SM BKN006 22/21 A2991 RMK AO2 SLP129 T02170211 10233 20217 57001= 201707020651 METAR KEWR 020651Z 25008KT 10SM BKN006 21/21 A2991 RMK AO2 SLP127 T02110211= 201707020751 METAR KEWR 020751Z 25010KT 10SM BKN006 21/21 A2992 RMK AO2 SLP130 T02110211= 201707020851 METAR KEWR 020851Z 25008KT 10SM BKN006 21/21 A2993 RMK AO2 SLP134 T02110211 53005= 201707020951 METAR KEWR 020951Z 24005KT 9SM FEW006 SCT150 BKN250 21/21 A2995 RMK AO2 SLP141 T02060206= 201707021051 METAR KEWR 021051Z 26006KT 8SM FEW009 SCT150 SCT250 21/21 A2997 RMK AO2 SLP148 T02110211= 201707021151 METAR KEWR 021151Z 26004KT 10SM FEW009 FEW150 FEW250 24/22 A2998 RMK AO2 SLP153 70047 T02390217 10239 20206 51019= 201707021251 METAR KEWR 021251Z 31008KT 10SM FEW009 FEW150 FEW250 26/20 A2999 RMK AO2 SLP154 T02610200= 201707021351 METAR KEWR 021351Z 33005KT 10SM FEW009 FEW150 FEW250 28/18 A2999 RMK AO2 SLP153 T02780183= 201707021451 METAR KEWR 021451Z 28008KT 10SM FEW050 FEW150 29/18 A2999 RMK AO2 SLP154 T02890183 51001= 201707021551 METAR KEWR 021551Z 25008KT 10SM SCT045 SCT150 29/19 A2998 RMK AO2 SLP153 T02940189= 201707021651 METAR KEWR 021651Z 28009KT 10SM SCT045 31/18 A2997 RMK AO2 SLP149 T03110178= 201707021751 METAR KEWR 021751Z 26015G19KT 10SM SCT055 32/17 A2997 RMK AO2 SLP148 T03170167 10317 20239 58006= 201707021851 METAR KEWR 021851Z 26014G21KT 10SM SCT060 32/16 A2996 RMK AO2 SLP146 T03220156= 201707021951 METAR KEWR 021951Z 25014G20KT 10SM SCT060 32/16 A2995 RMK AO2 SLP142 T03220161= 201707022051 METAR KEWR 022051Z 21010KT 10SM SCT060 31/18 A2993 RMK AO2 SLP134 T03110178 58014= 201707022151 METAR KEWR 022151Z 23014KT 10SM FEW040 SCT060 BKN140 31/17 A2992 RMK AO2 SLP133 T03060167= 201707022251 METAR KEWR 022251Z 24013KT 10SM FEW040 SCT060 BKN130 31/16 A2993 RMK AO2 SLP136 T03110161= 201707022351 METAR KEWR 022351Z 25013KT 10SM FEW060 FEW110 BKN250 31/16 A2994 RMK AO2 SLP139 T03060161 10322 20306 53005= 201707030051 METAR KEWR 030051Z 23008KT 10SM FEW060 SCT130 BKN250 29/17 A2995 RMK AO2 SLP140 T02890167= 201707030151 METAR KEWR 030151Z 23008KT 10SM SCT150 BKN250 28/17 A2996 RMK AO2 SLP144 T02830172= 201707030251 METAR KEWR 030251Z 23009KT 10SM FEW120 BKN250 28/18 A2995 RMK AO2 SLP142 T02830183 50003= 201707030351 METAR KEWR 030351Z 26009KT 10SM FEW120 BKN250 27/18 A2995 RMK AO2 SLP142 T02720183= 201707030451 METAR KEWR 030451Z 23007KT 10SM FEW120 BKN250 26/18 A2995 RMK AO2 SLP141 T02610183 403220206= 201707030551 METAR KEWR 030551Z 28003KT 10SM FEW120 BKN250 26/18 A2995 RMK AO2 SLP141 T02560183 10306 20250 55001= 201707030651 METAR KEWR 030651Z 26005KT 10SM FEW120 BKN250 24/18 A2994 RMK AO2 SLP139 T02440183= 201707030751 METAR KEWR 030751Z 21003KT 10SM SCT250 23/18 A2994 RMK AO2 SLP138 T02330183= 201707030851 METAR KEWR 030851Z 24005KT 10SM FEW250 23/19 A2996 RMK AO2 SLP143 T02280189 53002= 201707030951 METAR KEWR 030951Z 23005KT 10SM FEW250 23/18 A2996 RMK AO2 SLP145 T02280183= 201707031051 METAR KEWR 031051Z 27005KT 10SM FEW090 SCT250 24/18 A2998 RMK AO2 SLP150 T02390183= 201707031151 METAR KEWR 031151Z 28009KT 10SM FEW090 BKN250 26/17 A2998 RMK AO2 SLP151 T02610172 10261 20217 51008= 201707031251 METAR KEWR 031251Z 31008KT 10SM FEW090 BKN250 28/16 A2998 RMK AO2 SLP153 T02830161= 201707031351 METAR KEWR 031351Z 28007KT 10SM FEW070 BKN250 29/15 A2999 RMK AO2 SLP155 T02890150= 201707031451 METAR KEWR 031451Z 32008KT 10SM FEW070 BKN250 30/14 A2999 RMK AO2 SLP153 T03000144 50002= 201707031551 METAR KEWR 031551Z 30005KT 10SM FEW070 BKN250 31/15 A2997 RMK AO2 SLP150 T03060150= 201707031651 METAR KEWR 031651Z 26010KT 10SM FEW060 FEW100 BKN250 32/15 A2996 RMK AO2 SLP145 T03170150= 201707031751 METAR KEWR 031751Z 28014G20KT 10SM FEW060 SCT140 BKN250 32/16 A2995 RMK AO2 SLP142 T03170161 10322 20261 56011= 201707031851 METAR KEWR 031851Z 30012G17KT 10SM SCT060 SCT140 BKN250 31/16 A2995 RMK AO2 SLP141 T03060156= 201707031951 METAR KEWR 031951Z 25013G18KT 10SM FEW055 SCT080 BKN150 32/16 A2995 RMK AO2 SLP141 TCU DSNT W T03220161= 201707032051 METAR KEWR 032051Z 32016G24KT 10SM -TSRA SCT055CB BKN070 BKN100 29/17 A2996 RMK AO2 WSHFT 2027 RAB45 TSB38 SLP145 OCNL LTGICCG VC NE-VC E TS VC NE-VC E MOV E CB OHD MOV E P0000 60000 T02890172 53004= 201707032151 METAR KEWR 032151Z 32006KT 10SM FEW055 BKN075 BKN110 29/17 A2995 RMK AO2 RAE10 TSE02 SLP142 CB DSNT E MOV E P0000 T02940172= 201707032251 METAR KEWR 032251Z 31007KT 10SM FEW055 FEW075 SCT120 BKN250 30/16 A2995 RMK AO2 SLP141 TCU DSNT E-DSNT SE T03000156= 201707032351 METAR KEWR 032351Z 29006KT 10SM FEW060 FEW100 BKN250 29/16 A2997 RMK AO2 SLP147 60000 T02890156 10322 20272 53002= 201707040051 METAR KEWR 040051Z 27005KT 10SM FEW045 FEW100 BKN250 28/16 A2998 RMK AO2 SLP150 TCU DSNT W T02830161= 201707040151 METAR KEWR 040151Z 24003KT 10SM FEW045 FEW080 SCT250 28/16 A2999 RMK AO2 SLP155 TCU DSNT NW T02780161= 201707040251 METAR KEWR 040251Z 25005KT 10SM FEW040 SCT060 BKN120 BKN250 27/17 A2999 RMK AO2 TSB34E49 SLP156 OCNL LTGIC DSNT NE CB DSNT NE MOV E T02720167 51009= 201707040351 METAR KEWR 040351Z 05006KT 10SM FEW060 FEW120 SCT250 26/19 A3000 RMK AO2 SLP158 T02560189= 201707040451 METAR KEWR 040451Z 03006KT 10SM FEW070 FEW140 BKN250 23/18 A3000 RMK AO2 SLP158 T02330183 403220217= 201707040551 METAR KEWR 040551Z 01006KT 10SM FEW070 FEW140 SCT250 23/19 A3000 RMK AO2 SLP157 T02280189 10294 20228 50001= 201707040651 METAR KEWR 040651Z 02007KT 10SM BKN070 22/19 A3000 RMK AO2 SLP158 T02220189= 201707040751 METAR KEWR 040751Z 02011KT 10SM SCT070 SCT100 22/18 A3000 RMK AO2 SLP159 T02220178= 201707040851 METAR KEWR 040851Z 02010KT 10SM BKN070 BKN100 BKN250 23/15 A3002 RMK AO2 SLP166 T02280150 53009= 201707040951 METAR KEWR 040951Z 03008KT 10SM FEW070 SCT100 SCT140 BKN250 22/14 A3003 RMK AO2 SLP169 T02220144= 201707041051 METAR KEWR 041051Z 01007KT 10SM FEW050 SCT080 BKN120 BKN250 23/16 A3006 RMK AO2 SLP179 TCU DSNT SE T02280161= 201707041151 METAR KEWR 041151Z 02007KT 10SM SCT070 BKN120 BKN250 23/15 A3008 RMK AO2 SLP185 TCU DSNT SW T02280150 10228 20217 53019= 201707041251 METAR KEWR 041251Z 02008KT 10SM SCT070 BKN090 BKN120 BKN250 23/14 A3009 RMK AO2 SLP189 TCU DSNT SW T02330144= 201707041351 METAR KEWR 041351Z 02006KT 10SM FEW040 SCT070 BKN110 BKN200 BKN250 25/15 A3009 RMK AO2 RAB08E13 SLP188 VCSH SE P0000 T02500150= 201707041451 METAR KEWR 041451Z 05006KT 10SM FEW050 BKN080 BKN130 BKN250 26/13 A3009 RMK AO2 SLP187 60000 T02560133 50002= 201707041551 METAR KEWR 041551Z VRB04KT 10SM FEW070 SCT100 BKN130 BKN250 27/13 A3008 RMK AO2 SLP184 T02720128= 201707041651 METAR KEWR 041651Z VRB05KT 10SM FEW060 FEW100 SCT130 28/12 A3006 RMK AO2 SLP179 T02780122= 201707041751 METAR KEWR 041751Z VRB05KT 10SM FEW060 SCT120 SCT250 29/13 A3004 RMK AO2 SLP173 60000 T02890133 10294 20228 58015= 201707041851 METAR KEWR 041851Z VRB04KT 10SM SCT060 BKN110 BKN250 29/14 A3004 RMK AO2 SLP170 T02890144= 201707041951 METAR KEWR 041951Z 26009KT 10SM SCT060 BKN110 BKN250 29/14 A3004 RMK AO2 SLP171 T02890144= 201707042051 METAR KEWR 042051Z 09006KT 10SM FEW060 BKN070 BKN110 29/14 A3003 RMK AO2 SLP170 T02890139 56003= 201707042151 METAR KEWR 042151Z 18003KT 10SM FEW060 SCT075 BKN100 28/14 A3003 RMK AO2 SLP167 T02830144= 201707042251 METAR KEWR 042251Z 10005KT 10SM SCT065 BKN100 29/14 A3004 RMK AO2 SLP170 T02890139= 201707042351 METAR KEWR 042351Z 12005KT 10SM BKN065 BKN100 27/14 A3006 RMK AO2 SLP179 T02670144 10311 20267 53009= 201707050051 METAR KEWR 050051Z 14003KT 10SM BKN065 BKN100 27/13 A3007 RMK AO2 SLP182 T02670133= 201707050151 METAR KEWR 050151Z 17005KT 10SM FEW065 SCT075 BKN090 26/13 A3010 RMK AO2 SLP191 T02560133= 201707050251 METAR KEWR 050251Z VRB03KT 10SM FEW065 FEW075 BKN090 25/14 A3011 RMK AO2 SLP194 T02500139 51015= 201707050351 METAR KEWR 050351Z 16004KT 10SM FEW065 FEW075 BKN090 24/13 A3011 RMK AO2 SLP195 T02440128= 201707050451 METAR KEWR 050451Z 00000KT 10SM FEW090 24/13 A3011 RMK AO2 SLP194 T02440128 403110217= 201707050551 METAR KEWR 050551Z 04003KT 10SM FEW250 24/15 A3011 RMK AO2 SLP194 T02390150 10267 20233 50000= 201707050651 METAR KEWR 050651Z 01004KT 10SM SCT250 22/16 A3011 RMK AO2 SLP194 T02170156= 201707050751 METAR KEWR 050751Z 02007KT 10SM BKN075 BKN250 22/16 A3012 RMK AO2 SLP197 T02170156= 201707050851 METAR KEWR 050851Z 02009KT 10SM SCT075 SCT250 21/16 A3012 RMK AO2 SLP199 T02110156 53005= 201707050951 METAR KEWR 050951Z 02007KT 10SM FEW075 FEW250 21/15 A3014 RMK AO2 SLP206 T02060150= 201707051051 METAR KEWR 051051Z 02005KT 10SM FEW080 SCT250 22/15 A3016 RMK AO2 SLP211 T02220150= 201707051151 METAR KEWR 051151Z 02006KT 10SM FEW080 SCT180 BKN250 24/15 A3018 RMK AO2 SLP220 T02390150 10239 20206 53021= 201707051251 METAR KEWR 051251Z 05009KT 10SM BKN100 BKN200 BKN250 26/14 A3019 RMK AO2 SLP224 T02560139= 201707051351 METAR KEWR 051351Z 04007KT 10SM SCT100 SCT200 BKN250 27/14 A3019 RMK AO2 SLP221 T02670139= 201707051451 METAR KEWR 051451Z 05004KT 10SM FEW100 FEW180 BKN250 27/14 A3019 RMK AO2 SLP224 T02720139 51004= 201707051551 METAR KEWR 051551Z VRB04KT 10SM FEW060 SCT100 SCT180 BKN250 28/15 A3019 RMK AO2 SLP223 T02780150= 201707051651 METAR KEWR 051651Z 12010G15KT 10SM BKN070 BKN200 BKN250 29/12 A3019 RMK AO2 SLP221 T02890122= 201707051751 METAR KEWR 051751Z 17010G18KT 10SM FEW070 FEW130 BKN260 28/16 A3018 RMK AO2 SLP220 T02780161 10294 20244 58003= 201707051851 METAR KEWR 051851Z 15007KT 110V170 10SM FEW070 SCT130 SCT260 27/14 A3019 RMK AO2 SLP222 T02720144= 201707051951 METAR KEWR 051951Z 14010KT 10SM FEW070 FEW120 SCT270 27/13 A3018 RMK AO2 SLP221 T02670128= 201707052051 METAR KEWR 052051Z 15007KT 110V180 10SM FEW070 FEW120 FEW270 27/11 A3018 RMK AO2 SLP218 T02670106 58002= 201707052151 METAR KEWR 052151Z 14010G16KT 10SM FEW100 FEW260 26/12 A3017 RMK AO2 SLP217 T02610117= 201707052251 METAR KEWR 052251Z VRB05G14KT 10SM FEW250 25/13 A3018 RMK AO2 SLP218 T02500128= 201707052351 METAR KEWR 052351Z 14007KT 10SM FEW250 24/13 A3018 RMK AO2 SLP220 T02440133 10278 20244 53001= 201707060051 METAR KEWR 060051Z 14006KT 10SM FEW070 SCT250 23/15 A3019 RMK AO2 SLP221 T02330150= 201707060151 METAR KEWR 060151Z 14005KT 10SM FEW070 SCT250 23/16 A3020 RMK AO2 SLP227 T02280156= 201707060251 METAR KEWR 060251Z 15005KT 10SM FEW080 SCT250 23/16 A3020 RMK AO2 SLP225 T02280161 50006= 201707060351 METAR KEWR 060351Z 15004KT 10SM BKN085 23/17 A3019 RMK AO2 SLP222 T02280167= 201707060451 METAR KEWR 060451Z VRB05KT 10SM BKN085 22/17 A3017 RMK AO2 SLP215 T02220172 402940206= 201707060551 METAR KEWR 060551Z 16003KT 10SM BKN100 22/17 A3017 RMK AO2 SLP215 T02170172 10244 20217 55010= 201707060651 METAR KEWR 060651Z 14005KT 10SM FEW110 BKN190 22/18 A3015 RMK AO2 SLP207 T02220178= 201707060751 METAR KEWR 060751Z 10003KT 10SM SCT110 BKN180 OVC250 22/18 A3014 RMK AO2 SLP205 T02220178= 201707060851 METAR KEWR 060851Z 13003KT 10SM FEW110 BKN180 OVC250 22/17 A3013 RMK AO2 SLP204 T02220172 56012= 201707060951 METAR KEWR 060951Z 13004KT 10SM SCT120 OVC200 22/17 A3013 RMK AO2 SLP203 T02220172= 201707061051 METAR KEWR 061051Z 09006KT 10SM BKN110 OVC200 23/17 A3013 RMK AO2 SLP203 T02280172= 201707061151 METAR KEWR 061151Z 12005KT 10SM BKN110 OVC200 23/17 A3014 RMK AO2 SLP206 T02280167 10228 20217 53002= 201707061251 METAR KEWR 061251Z VRB06KT 10SM BKN110 OVC200 23/17 A3014 RMK AO2 RAB1157E09 SLP207 P0000 T02280167= 201707061351 METAR KEWR 061351Z 11005KT 10SM -RA BKN110 BKN190 OVC250 23/17 A3015 RMK AO2 RAB06 SLP207 P0000 T02280167= 201707061451 METAR KEWR 061451Z VRB05KT 10SM FEW050 SCT090 BKN110 BKN200 23/17 A3015 RMK AO2 RAE49 SLP208 P0000 60000 T02330172 51002= 201707061551 METAR KEWR 061551Z 13009KT 10SM FEW060 SCT100 BKN130 BKN250 24/16 A3013 RMK AO2 RAB1459E32 SLP202 P0000 T02390161= 201707061651 METAR KEWR 061651Z 13006KT 10SM FEW050 SCT110 BKN140 BKN250 24/15 A3012 RMK AO2 RAB18E34 SLP199 P0000 T02440150= 201707061751 METAR KEWR 061751Z 16008G14KT 10SM FEW050 SCT110 BKN140 BKN250 24/16 A3011 RMK AO2 SLP195 60000 T02440156 10244 20228 56013= 201707061851 METAR KEWR 061851Z 14010KT 10SM FEW050 SCT120 BKN150 BKN250 25/16 A3009 RMK SLP190 T02500156= 201707061951 METAR KEWR 061951Z VRB05KT 10SM FEW050 SCT130 BKN180 BKN250 26/13 A3007 RMK AO2 SLP182 T02560133= 201707062051 METAR KEWR 062051Z 17010KT 10SM FEW050 SCT120 BKN170 BKN250 24/13 A3005 RMK AO2 SLP174 T02440128 58021= 201707062151 METAR KEWR 062151Z 17007KT 10SM FEW050 SCT075 SCT120 BKN170 BKN250 24/14 A3003 RMK AO2 SLP169 T02390139= 201707062251 METAR KEWR 062251Z 13005KT 10SM FEW050 SCT080 BKN150 BKN250 23/18 A3002 RMK AO2 SLP165 T02330178= 201707062351 METAR KEWR 062351Z 12005KT 10SM FEW030 BKN080 BKN140 BKN250 23/18 A3001 RMK AO2 SLP163 T02280183 10256 20228 56011= 201707070051 METAR KEWR 070051Z 11005KT 10SM FEW028 BKN075 BKN140 OVC250 23/18 A3000 RMK AO2 SLP160 T02280183= 201707070151 METAR KEWR 070151Z VRB06KT 10SM FEW028 BKN075 OVC140 22/18 A3000 RMK AO2 SLP158 T02220183= 201707070251 METAR KEWR 070251Z 13005KT 10SM -RA BKN014 BKN028 OVC040 22/19 A2999 RMK AO2 RAB49 SLP154 P0000 60000 T02220189 58009= 201707070351 METAR KEWR 070351Z 09006KT 10SM BKN012 BKN028 OVC060 22/19 A2996 RMK AO2 RAE49 SLP146 P0000 T02220189= 201707070451 METAR KEWR 070451Z 09005KT 10SM -RA BKN012 OVC034 22/19 A2994 RMK AO2 RAB31 SLP140 P0000 T02220194 402560217= 201707070551 METAR KEWR 070551Z 07006KT 10SM -RA OVC012 23/20 A2992 RMK AO2 RAE04B30 SLP131 P0000 60000 T02280200 10228 20222 58023= 201707070651 METAR KEWR 070651Z 09005KT 6SM RA BR OVC010 22/20 A2990 RMK AO2 SLP124 P0003 T02220200= 201707070751 METAR KEWR 070751Z 04006KT 10SM -RA BKN010 OVC025 21/21 A2987 RMK AO2 SLP115 P0020 T02110206= 201707070851 METAR KEWR 070851Z 04008KT 6SM -DZ BR OVC007 21/20 A2985 RMK AO2 RAE03DZB42 SLP106 P0000 60023 T02110200 58025= 201707070951 METAR KEWR 070951Z 03007KT 9SM OVC007 21/20 A2983 RMK AO2 DZE49 SLP101 P0000 T02110200= 201707071051 METAR KEWR 071051Z 02007KT 2SM -RA BR OVC005 21/21 A2982 RMK AO2 SFC VIS 5 RAB50 SLP097 P0000 T02060206= 201707071151 METAR KEWR 071151Z 05006KT 2SM -RA BR OVC005 21/21 A2980 RMK AO2 SFC VIS 4 SLP090 P0001 60024 70024 T02060206 10228 20206 58016= 201707071251 METAR KEWR 071251Z 04007KT 2SM -RA BR OVC005 21/21 A2978 RMK AO2 SFC VIS 6 LTG DSNT NW RAE21B45 SLP082 P0001 T02060206= 201707071351 METAR KEWR 071351Z 33015KT 1/2SM R04R/5000VP6000FT -RA BR OVC005 20/20 A2978 RMK AO2 SFC VIS 2 RAE06B38 SLP083 P0001 T02000200= 201707071451 METAR KEWR 071451Z 36011KT 1 1/2SM R04R/3500VP6000FT +RA BR BKN006 OVC015 19/19 A2978 RMK AO2 SLP083 P0125 60127 T01940194 55006= 201707071551 METAR KEWR 071551Z 01014KT 8SM R04R/5000VP6000FT -RA SCT008 BKN045 OVC055 20/20 A2976 RMK AO2 TSB12E37 SLP078 SCT V BKN P0011 T02000200= 201707071651 METAR KEWR 071651Z 02015KT 10SM FEW008 BKN013 BKN050 22/21 A2977 RMK AO2 RAE18 SLP079 P0001 T02170211= 201707071751 METAR KEWR 071751Z 03010KT 10SM BKN016 BKN055 BKN075 24/20 A2976 RMK AO2 SLP078 60139 T02390200 10239 20189 56005= 201707071851 METAR KEWR 071851Z 03011G20KT 10SM FEW018 BKN026 BKN075 26/19 A2976 RMK AO2 SLP076 T02560194= 201707071951 METAR KEWR 071951Z 03008KT 10SM FEW025 BKN035 BKN075 26/19 A2973 RMK AO2 SLP068 T02610194= 201707072051 METAR KEWR 072051Z 00000KT 10SM FEW035 SCT041 SCT250 28/19 A2972 RMK AO2 SLP063 T02830194 58015= 201707072151 METAR KEWR 072151Z 00000KT 10SM FEW040 SCT250 28/18 A2971 RMK AO2 SLP062 T02780178= 201707072251 METAR KEWR 072251Z 23009KT 10SM FEW045 SCT100 SCT250 28/18 A2972 RMK AO2 SLP064 CB DSNT NW MOV SE T02830183= 201707072351 METAR KEWR 072351Z 15006KT 10SM FEW030 SCT045CB SCT100 BKN250 27/19 A2972 RMK AO2 SLP065 CB NW MOV SE T02670194 10283 20239 53002= 201707080051 METAR KEWR 080051Z 30007G23KT 3SM +RA FEW015 BKN045CB BKN090 BKN250 24/20 A2974 RMK AO2 SFC VIS 4 RAB39 SLP069 VIS E 2 1/2 CB OHD MOV SE P0007 T02390200= 201707080151 METAR KEWR 080151Z 12004KT 10SM FEW020 SCT045 BKN065 BKN180 BKN250 23/21 A2974 RMK AO2 RAE35 SLP071 OCNL LTGIC DSNT NW-DSNT N CB DSNT NW-DSNT N MOV E P0045 T02330211= 201707080251 METAR KEWR 080251Z 11003KT 10SM FEW015 BKN045 BKN065 OVC160 24/21 A2975 RMK AO2 RAB40E49 SLP072 P0000 60052 T02390211 51008= 201707080351 METAR KEWR 080351Z 04005KT 10SM SCT050 BKN120 BKN200 23/22 A2975 RMK AO2 SLP073 T02330217= 201707080451 METAR KEWR 080451Z 07003KT 10SM FEW020 SCT080 BKN120 BKN250 23/21 A2975 RMK AO2 SLP073 T02330206 402830189= 201707080551 METAR KEWR 080551Z 21003KT 10SM FEW080 FEW120 SCT250 22/21 A2974 RMK AO2 SLP071 60052 T02220206 10267 20217 58001= 201707080651 METAR KEWR 080651Z 24009KT 10SM FEW020 FEW100 SCT250 22/19 A2975 RMK AO2 SLP074 T02170194= 201707080751 METAR KEWR 080751Z 21005KT 10SM FEW100 SCT250 21/19 A2974 RMK AO2 SLP069 T02060189= 201707080851 METAR KEWR 080851Z 22007KT 10SM FEW100 SCT250 21/19 A2974 RMK AO2 SLP072 T02060189 53001= 201707080951 METAR KEWR 080951Z 23004KT 10SM FEW040 FEW100 SCT250 21/19 A2975 RMK AO2 SLP073 T02060189= 201707081051 METAR KEWR 081051Z 24004KT 10SM FEW050 SCT120 SCT250 22/19 A2974 RMK AO2 SLP070 T02170194= 201707081151 METAR KEWR 081151Z 22005KT 10SM SCT140 SCT270 24/20 A2975 RMK AO2 SLP074 70191 T02390200 10239 20200 53002= 201707081251 METAR KEWR 081251Z 21006KT 10SM FEW100 BKN150 BKN280 25/20 A2976 RMK AO2 SLP077 T02500200= 201707081351 METAR KEWR 081351Z 25010KT 10SM SCT100 BKN130 BKN280 27/20 A2977 RMK AO2 SLP079 T02670200= 201707081451 METAR KEWR 081451Z 27011G17KT 10SM FEW032 SCT100 BKN130 BKN280 28/20 A2977 RMK AO2 SLP081 T02830200 51006= 201707081551 METAR KEWR 081551Z 24011KT 10SM FEW045 SCT130 SCT280 30/18 A2975 RMK AO2 SLP075 T03000178= 201707081651 METAR KEWR 081651Z 26014G20KT 10SM FEW050 FEW130 BKN280 30/17 A2975 RMK AO2 SLP073 T03000172= 201707081751 METAR KEWR 081751Z 28020KT 10SM FEW048 FEW150 BKN280 29/18 A2974 RMK AO2 SLP072 T02940178 10306 20239 56009= 201707081851 METAR KEWR 081851Z 24017G24KT 10SM SCT045 BKN280 30/18 A2974 RMK AO2 SLP070 T03000183= 201707081951 METAR KEWR 081951Z 24018G23KT 10SM SCT045 BKN280 30/18 A2973 RMK AO2 PK WND 25027/1924 SLP067 T03000178= 201707082051 METAR KEWR 082051Z 27018KT 10SM SCT045 BKN280 29/17 A2973 RMK AO2 PK WND 25027/2013 SLP068 T02940167 55003= 201707082151 METAR KEWR 082151Z 25016G22KT 10SM SCT045 BKN260 29/18 A2974 RMK AO2 SLP071 TCU DSNT SW AND DSNT NW T02890178= 201707082251 METAR KEWR 082251Z 27013G22KT 10SM FEW045 BKN120 BKN260 28/18 A2976 RMK AO2 SLP077 T02780178= 201707082351 METAR KEWR 082351Z 27009G18KT 10SM FEW045 BKN110 BKN260 27/17 A2978 RMK AO2 SLP085 VCSH T02720172 10306 20272 53017= 201707090051 METAR KEWR 090051Z 33012KT 10SM FEW045 BKN120 BKN260 27/17 A2980 RMK AO2 SLP091 T02670172= 201707090151 METAR KEWR 090151Z 30009KT 10SM FEW045 BKN120 BKN260 26/16 A2984 RMK AO2 SLP104 T02560156= 201707090251 METAR KEWR 090251Z 29005KT 10SM FEW045 SCT120 SCT190 BKN260 24/16 A2986 RMK AO2 SLP111 T02440156 53026= 201707090351 METAR KEWR 090351Z 32007KT 10SM FEW140 BKN180 BKN260 24/15 A2987 RMK AO2 SLP113 T02440150= 201707090451 METAR KEWR 090451Z 32010KT 10SM FEW140 FEW180 FEW260 24/14 A2988 RMK AO2 SLP117 T02390144 403060200= 201707090551 METAR KEWR 090551Z 33007KT 10SM SCT060 SCT180 SCT260 23/14 A2990 RMK AO2 SLP123 T02280139 10272 20228 53012= 201707090651 METAR KEWR 090651Z 33006KT 10SM BKN060 23/12 A2990 RMK AO2 SLP124 T02280122= 201707090751 METAR KEWR 090751Z 33007KT 10SM SCT065 22/12 A2991 RMK AO2 SLP127 T02170117= 201707090851 METAR KEWR 090851Z 32005KT 10SM SCT065 21/11 A2992 RMK AO2 SLP131 T02110111 53008= 201707090951 METAR KEWR 090951Z VRB04KT 10SM FEW065 21/12 A2994 RMK AO2 SLP139 T02060117= 201707091051 METAR KEWR 091051Z 28004KT 10SM FEW065 21/12 A2997 RMK AO2 SLP148 T02110122= 201707091151 METAR KEWR 091151Z 31010KT 10SM CLR 23/11 A2999 RMK AO2 SLP154 T02280106 10233 20200 51023= 201707091251 METAR KEWR 091251Z 33009KT 10SM CLR 24/11 A3000 RMK AO2 SLP160 T02390106= 201707091351 METAR KEWR 091351Z 32011KT 10SM CLR 25/10 A3001 RMK AO2 SLP162 T02500100= 201707091451 METAR KEWR 091451Z VRB04KT 10SM FEW050 26/11 A3002 RMK AO2 SLP165 T02560111 51011= 201707091551 METAR KEWR 091551Z VRB05KT 10SM SCT055 27/11 A3003 RMK AO2 SLP167 T02670111= 201707091651 METAR KEWR 091651Z 23008G20KT 10SM BKN060 28/11 A3002 RMK AO2 SLP166 T02780111= 201707091751 METAR KEWR 091751Z 28012G16KT 10SM BKN065 27/11 A3001 RMK AO2 SLP163 T02720106 10283 20222 58002= 201707091851 METAR KEWR 091851Z 22007G18KT 10SM SCT065 28/12 A3001 RMK AO2 SLP162 T02830117= 201707091951 METAR KEWR 091951Z 26014G20KT 10SM BKN070 28/12 A3001 RMK AO2 SLP163 T02830117= 201707092051 METAR KEWR 092051Z 25012G17KT 10SM SCT070 28/10 A3001 RMK AO2 SLP161 T02830100 57002= 201707092151 METAR KEWR 092151Z 24012G16KT 10SM SCT070 28/11 A3000 RMK AO2 SLP158 T02780111= 201707092251 METAR KEWR 092251Z 25008G16KT 230V300 10SM FEW070 27/11 A3000 RMK AO2 SLP159 T02720106= 201707092351 METAR KEWR 092351Z 26008KT 10SM FEW070 27/09 A3001 RMK AO2 SLP162 T02670094 10289 20267 53001= 201707100051 METAR KEWR 100051Z 24009KT 10SM FEW070 26/10 A3002 RMK AO2 SLP164 T02560100= 201707100151 METAR KEWR 100151Z 26006KT 10SM CLR 25/11 A3003 RMK AO2 SLP168 T02500106= 201707100251 METAR KEWR 100251Z 26007KT 10SM CLR 24/11 A3004 RMK AO2 SLP172 T02440106 53009= 201707100351 METAR KEWR 100351Z 24006KT 10SM CLR 23/11 A3005 RMK AO2 SLP176 T02330111= 201707100451 METAR KEWR 100451Z 25006KT 10SM CLR 22/12 A3006 RMK AO2 SLP177 T02220117 402890200= 201707100551 METAR KEWR 100551Z 20005KT 10SM CLR 20/12 A3006 RMK AO2 SLP178 T02000122 10267 20200 51006= 201707100651 METAR KEWR 100651Z 22005KT 10SM CLR 20/12 A3006 RMK AO2 SLP179 T02000122= 201707100751 METAR KEWR 100751Z 24005KT 10SM CLR 19/12 A3006 RMK AO2 SLP180 T01940122= 201707100851 METAR KEWR 100851Z 19004KT 10SM CLR 19/13 A3005 RMK AO2 SLP175 T01940128 58003= 201707100951 METAR KEWR 100951Z 22004KT 10SM FEW250 18/13 A3005 RMK AO2 SLP177 T01780128= 201707101051 METAR KEWR 101051Z 21004KT 10SM FEW060 FEW250 20/13 A3005 RMK AO2 SLP176 T02000133= 201707101151 METAR KEWR 101151Z 24006KT 10SM FEW060 FEW250 23/13 A3006 RMK AO2 SLP179 T02280128 10228 20178 53004= 201707101251 METAR KEWR 101251Z 22008KT 10SM BKN080 BKN250 23/13 A3007 RMK AO2 SLP183 T02330128= 201707101351 METAR KEWR 101351Z 25008KT 10SM BKN080 BKN250 26/13 A3007 RMK AO2 SLP182 T02610133= 201707101451 METAR KEWR 101451Z 21008KT 10SM BKN075 BKN090 BKN250 27/14 A3007 RMK AO2 SLP183 T02670139 51004= 201707101551 METAR KEWR 101551Z 18009KT 10SM FEW060 BKN090 BKN250 28/14 A3006 RMK AO2 SLP180 T02780144= 201707101651 METAR KEWR 101651Z 18007G16KT 130V220 10SM FEW060 SCT085 BKN250 28/15 A3004 RMK AO2 SLP173 T02830150= 201707101751 METAR KEWR 101751Z 16009G19KT 10SM SCT055 BKN080 BKN250 28/16 A3004 RMK AO2 SLP170 T02830161 10289 20228 56013= 201707101851 METAR KEWR 101851Z 13009G19KT 10SM SCT055 SCT070 BKN250 29/18 A3001 RMK AO2 SLP160 T02890178= 201707101951 METAR KEWR 101951Z 21012G19KT 10SM SCT055 BKN100 BKN250 30/18 A2998 RMK AO2 SLP152 T03000183= 201707102051 METAR KEWR 102051Z 21014G20KT 10SM SCT055 SCT070 BKN250 30/18 A2997 RMK AO2 SLP147 TCU DSNT W AND DSNT NW T03000178 56024= 201707102151 METAR KEWR 102151Z 19013G18KT 10SM SCT055 BKN070 BKN100 BKN250 29/17 A2995 RMK AO2 SLP141 TCU DSNT N T02890172= 201707102251 METAR KEWR 102251Z 22012G20KT 10SM FEW055 SCT080 BKN110 BKN250 29/18 A2994 RMK AO2 SLP139 VCSH T02890183= 201707102351 METAR KEWR 102351Z 20013KT 10SM SCT050 SCT080 BKN110 BKN250 28/18 A2995 RMK AO2 SLP143 T02830178 10306 20283 55004= 201707110051 METAR KEWR 110051Z 17010KT 10SM SCT050TCU SCT100 SCT250 27/18 A2996 RMK AO2 SLP143 TCU SW VCSH T02720178= 201707110151 METAR KEWR 110151Z 18007KT 10SM FEW050 SCT090 SCT250 26/18 A2997 RMK AO2 RAB03E10 SLP148 P0000 T02610183= 201707110251 METAR KEWR 110251Z 19010KT 10SM FEW050 SCT075 SCT180 BKN250 26/18 A2998 RMK AO2 SLP151 60000 T02560183 53007= 201707110351 METAR KEWR 110351Z 19008KT 10SM FEW060 SCT160 BKN230 25/19 A2997 RMK AO2 SLP149 T02500194= 201707110451 METAR KEWR 110451Z 20008KT 10SM SCT050 BKN110 BKN180 BKN250 24/20 A2996 RMK AO2 SLP144 T02440200 403060178= 201707110551 METAR KEWR 110551Z 19008KT 10SM SCT050 BKN090 BKN160 BKN230 24/21 A2994 RMK AO2 SLP139 60000 T02440206 10283 20244 58012= 201707110651 METAR KEWR 110651Z 19007KT 10SM FEW050 BKN110 OVC190 24/21 A2993 RMK AO2 SLP134 T02440206= 201707110751 METAR KEWR 110751Z 18005KT 10SM FEW050 BKN100 OVC180 24/20 A2992 RMK AO2 LTG DSNT NW-NE RAB11E23 SLP130 OCNL LTGIC DSNT N CB DSNT N MOV NE P0000 T02440200= 201707110851 METAR KEWR 110851Z 20005KT 10SM FEW020 SCT090 BKN180 23/20 A2991 RMK AO2 SLP129 60000 T02330200 56010= 201707110951 METAR KEWR 110951Z 22007KT 10SM FEW020 SCT090 SCT180 BKN250 23/21 A2991 RMK AO2 SLP129 T02330206= 201707111051 METAR KEWR 111051Z 25008KT 10SM FEW020 FEW090 SCT180 BKN250 24/21 A2993 RMK AO2 SLP135 T02390211= 201707111151 METAR KEWR 111151Z 25007KT 10SM FEW020 SCT090 BKN250 26/21 A2994 RMK AO2 SLP137 60000 T02560211 10256 20233 53008= 201707111251 METAR KEWR 111251Z 26008KT 10SM -RA SCT025 BKN110 BKN140 BKN250 26/19 A2995 RMK AO2 RAB50 SLP143 P0000 T02610189= 201707111351 METAR KEWR 111351Z 24011KT 10SM FEW025 BKN100 BKN130 BKN250 26/19 A2995 RMK AO2 RAE01B32E44 SLP142 P0000 T02560189= 201707111451 METAR KEWR 111451Z 25011KT 10SM FEW032 SCT140 BKN160 BKN250 28/19 A2995 RMK AO2 SLP140 60000 T02830194 50003= 201707111551 METAR KEWR 111551Z 25013KT 10SM SCT035 SCT150 BKN220 BKN250 29/19 A2994 RMK AO2 SLP138 T02890194= 201707111651 METAR KEWR 111651Z 24011KT 10SM SCT041 SCT210 BKN250 29/19 A2994 RMK AO2 SLP137 T02940194= 201707111751 METAR KEWR 111751Z 24010KT 10SM SCT044 BKN140 OVC250 30/20 A2993 RMK AO2 SLP134 60000 T03000200 10306 20250 58006= 201707111851 METAR KEWR 111851Z 26009KT 230V320 10SM SCT050 BKN110 OVC140 31/19 A2993 RMK AO2 SLP134 T03060194= 201707111951 METAR KEWR 111951Z 26007G18KT 10SM FEW055 SCT110 SCT160 BKN250 31/21 A2993 RMK AO2 SLP134 T03110206= 201707112051 METAR KEWR 112051Z 20007KT 10SM -TSRA FEW025 SCT045CB BKN100 BKN250 26/22 A2992 RMK AO2 PK WND 22028/2036 LTG DSNT S RAB38 TSB40 SLP131 OCNL LTGCG VC E TS VC E MOV E P0004 60004 T02560217 58002= 201707112151 METAR KEWR 112151Z 24007KT 10SM FEW045 SCT090 BKN130 BKN250 29/22 A2992 RMK AO2 LTG DSNT NE AND E RAE2053 TSE10 SLP130 CB DSNT NE-DSNT E AND DSNT SE MOV E TCU DSNT N P0000 T02890217= 201707112251 METAR KEWR 112251Z 24009KT 10SM FEW040 BKN090 BKN130 BKN250 29/22 A2993 RMK AO2 SLP135 CB DSNT NE-DSNT E MOV E TCU DSNT NW T02890217= 201707112351 METAR KEWR 112351Z 26006KT 10SM FEW040 SCT090 SCT130 BKN250 29/22 A2993 RMK AO2 SLP135 CB DSNT NW MOV E 60004 T02940217 10317 20244 53004= 201707120051 METAR KEWR 120051Z 28005KT 10SM FEW045 FEW090 SCT250 28/21 A2993 RMK AO2 SLP134 T02830206= 201707120151 METAR KEWR 120151Z 29005KT 10SM FEW090 SCT250 28/21 A2995 RMK AO2 SLP141 T02830206= 201707120251 METAR KEWR 120251Z 00000KT 10SM FEW090 FEW250 28/21 A2993 RMK AO2 SLP136 T02780211 50001= 201707120351 METAR KEWR 120351Z 14003KT 10SM SCT250 27/22 A2994 RMK AO2 SLP137 T02670217= 201707120451 METAR KEWR 120451Z 00000KT 10SM BKN250 26/22 A2994 RMK AO2 SLP137 T02610217 403170233= 201707120551 METAR KEWR 120551Z 22007KT 10SM BKN250 26/22 A2995 RMK AO2 SLP141 T02560217 10294 20250 53005= 201707120651 METAR KEWR 120651Z 22005KT 10SM BKN250 26/21 A2995 RMK AO2 SLP143 T02560211= 201707120751 METAR KEWR 120751Z 22005KT 10SM FEW120 BKN250 25/21 A2995 RMK AO2 SLP142 T02500211= 201707120851 METAR KEWR 120851Z 23007KT 10SM SCT120 BKN170 BKN250 25/21 A2996 RMK AO2 SLP144 T02500206 52003= 201707120951 METAR KEWR 120951Z 23009KT 10SM FEW100 BKN160 BKN220 24/21 A2996 RMK AO2 SLP144 T02440206= 201707121051 METAR KEWR 121051Z 26006KT 10SM SCT160 BKN230 25/21 A2996 RMK AO2 SLP146 T02500206= 201707121151 METAR KEWR 121151Z 25009KT 10SM SCT160 BKN230 26/20 A2998 RMK AO2 SLP152 70004 T02560200 10261 20244 53008= 201707121251 METAR KEWR 121251Z 23011KT 10SM BKN150 BKN230 27/21 A2999 RMK AO2 SLP156 T02670211= 201707121351 METAR KEWR 121351Z 24012KT 10SM FEW045 BKN180 BKN250 27/21 A2999 RMK AO2 SLP156 T02720206= 201707121451 METAR KEWR 121451Z 23009G17KT 10SM FEW030 SCT190 BKN250 29/22 A2999 RMK AO2 SLP154 T02940217 50002= 201707121551 METAR KEWR 121551Z 26011KT 10SM SCT035 BKN250 31/21 A2998 RMK AO2 WSHFT 1459 SLP152 T03110206= 201707121651 METAR KEWR 121651Z 26013KT 10SM SCT040 BKN250 32/20 A2997 RMK AO2 SLP148 T03170200= 201707121751 METAR KEWR 121751Z 25013KT 10SM SCT055 BKN210 BKN250 31/20 A2996 RMK AO2 SLP144 T03110200 10322 20256 58010= 201707121851 METAR KEWR 121851Z 26010G16KT 10SM SCT047 SCT055 SCT075 BKN210 BKN250 32/20 A2994 RMK AO2 SLP138 T03220200= 201707121951 METAR KEWR 121951Z 24014KT 10SM SCT049 SCT065 BKN160 BKN250 32/20 A2994 RMK AO2 PK WND 26026/1919 SLP137 T03170200= 201707122051 METAR KEWR 122051Z 24018G24KT 10SM SCT055 BKN110 BKN160 BKN250 31/21 A2993 RMK AO2 SLP134 TCU DSNT NE T03110206 56009= 201707122151 METAR KEWR 122151Z 25015G27KT 10SM FEW050 SCT100 SCT150 BKN250 32/21 A2994 RMK AO2 PK WND 24028/2112 SLP139 TCU DSNT N T03170206= 201707122251 METAR KEWR 122251Z 26013G21KT 10SM FEW030 FEW050 BKN090 BKN150 BKN250 31/21 A2995 RMK AO2 PK WND 25027/2154 SLP140 CB DSNT NW MOV SE T03060206= 201707122351 METAR KEWR 122351Z 23012KT 10SM FEW030 SCT050 BKN090 BKN150 BKN250 31/21 A2995 RMK AO2 SLP141 CB DSNT NE AND DSNT NW MOV SE T03060211 10328 20306 51006= 201707130051 METAR KEWR 130051Z 26012KT 10SM FEW030 SCT050CB BKN080 OVC200 30/21 A2998 RMK AO2 SLP153 CB OHD MOV SE T03000206= 201707130151 METAR KEWR 130151Z 26009KT 10SM FEW050 SCT100 BKN200 28/23 A3000 RMK AO2 RAB0055E08B29E39 SLP157 OCNL LTGIC DSNT E CB DSNT E MOV SE P0001 T02780228= 201707130251 METAR KEWR 130251Z 29005KT 10SM SCT120 BKN200 BKN250 27/22 A3000 RMK AO2 SLP159 60001 T02720222 51018= 201707130351 METAR KEWR 130351Z 27004KT 10SM FEW080 BKN150 BKN250 27/22 A3000 RMK AO2 SLP159 T02720222= 201707130451 METAR KEWR 130451Z 23005KT 10SM FEW080 BKN150 BKN250 26/22 A3000 RMK AO2 SLP157 T02610217 403280244= 201707130551 METAR KEWR 130551Z 23007G15KT 10SM SCT080 BKN190 BKN230 27/22 A2999 RMK AO2 SLP156 60001 T02670217 10306 20261 58003= 201707130651 METAR KEWR 130651Z 23006KT 10SM SCT150 BKN190 27/22 A2999 RMK AO2 SLP154 T02670217= 201707130751 METAR KEWR 130751Z 21005KT 10SM FEW150 BKN210 26/22 A2998 RMK AO2 SLP151 T02560217= 201707130851 METAR KEWR 130851Z 23008KT 10SM FEW150 SCT200 BKN250 26/22 A2998 RMK AO2 SLP153 T02610222 55003= 201707130951 METAR KEWR 130951Z 24007KT 10SM FEW150 SCT200 BKN250 26/22 A2999 RMK AO2 SLP155 T02610217= 201707131051 METAR KEWR 131051Z 22007KT 10SM SCT075 SCT150 BKN250 27/22 A3000 RMK AO2 SLP158 T02670222= 201707131151 METAR KEWR 131151Z 23007KT 10SM FEW150 BKN250 28/21 A2999 RMK AO2 SLP155 70001 T02780211 10278 20256 50002= 201707131251 METAR KEWR 131251Z 23011KT 10SM FEW150 BKN250 30/21 A2999 RMK AO2 SLP156 T03000211= 201707131351 METAR KEWR 131351Z 26009KT 10SM FEW150 BKN250 32/21 A2998 RMK AO2 SLP151 T03220211= 201707131451 METAR KEWR 131451Z 27009KT 10SM FEW170 BKN250 33/21 A2997 RMK AO2 SLP147 T03330211 58008= 201707131551 METAR KEWR 131551Z 25014KT 10SM FEW045 SCT150 BKN250 34/21 A2996 RMK AO2 SLP146 T03390211= 201707131651 METAR KEWR 131651Z 24012KT 10SM SCT050 BKN160 BKN250 33/21 A2996 RMK AO2 SLP145 T03280211= 201707131751 METAR KEWR 131751Z 28013KT 10SM SCT050 BKN200 OVC250 33/22 A2995 RMK AO2 SLP142 T03330217 10339 20278 58005= 201707131851 METAR KEWR 131851Z 26012KT 10SM FEW050 BKN200 OVC250 32/22 A2995 RMK AO2 SLP142 T03220217= 201707131951 METAR KEWR 131951Z 27011KT 10SM FEW050 SCT130 BKN200 OVC250 32/22 A2994 RMK AO2 LTG DSNT S AND SW SLP139 T03170222= 201707132051 METAR KEWR 132051Z 26012KT 10SM FEW045 SCT140 BKN170 OVC250 31/22 A2995 RMK AO2 LTG DSNT ALQDS SLP140 T03110217 55002= 201707132151 METAR KEWR 132151Z 28009KT 6SM -RA FEW040 BKN080 BKN120 OVC200 27/24 A2996 RMK AO2 LTG DSNT S AND SW RAB10 SLP146 P0003 T02720239= 201707132251 METAR KEWR 132251Z 31007KT 10SM -RA FEW014 FEW027 BKN090 BKN140 OVC250 26/21 A2999 RMK AO2 WSHFT 2152 LTG DSNT SE SLP154 P0000 T02610206= 201707132351 METAR KEWR 132351Z 23007KT 10SM FEW014 SCT025 BKN050 BKN130 OVC250 26/21 A2999 RMK AO2 RAE05 SLP156 P0000 60003 T02610211 10333 20261 51016= 201707140051 METAR KEWR 140051Z 18003KT 10SM FEW020 SCT055 BKN100 BKN140 BKN250 25/22 A2999 RMK AO2 RAB2359E26 SLP156 P0000 T02500222= 201707140151 METAR KEWR 140151Z 29005KT 10SM FEW015 BKN048 BKN130 BKN250 25/22 A3000 RMK AO2 SLP160 T02500222= 201707140251 METAR KEWR 140251Z VRB05KT 10SM FEW015 BKN042 BKN130 BKN250 25/22 A3001 RMK AO2 SLP161 60000 T02500217 53005= 201707140351 METAR KEWR 140351Z 03004KT 10SM SCT011 SCT027 BKN044 26/22 A3002 RMK AO2 SLP165 T02560217= 201707140451 METAR KEWR 140451Z 11011KT 10SM OVC008 23/21 A3002 RMK AO2 SLP164 T02280211 403390228= 201707140551 METAR KEWR 140551Z 11010G16KT 8SM OVC008 22/21 A3002 RMK AO2 SLP165 60000 T02220206 10261 20222 51004= 201707140651 METAR KEWR 140651Z 09006KT 8SM -DZ OVC008 22/20 A3004 RMK AO2 RAB21E30DZB49 SLP171 P0000 T02170200= 201707140751 METAR KEWR 140751Z 07008KT 9SM -RA OVC007 22/20 A3004 RMK AO2 DZE22RAB40 SLP171 P0000 T02170200= 201707140851 METAR KEWR 140851Z 09008KT 9SM -RA OVC008 21/19 A3004 RMK AO2 SLP171 P0000 60000 T02110194 50006= 201707140951 METAR KEWR 140951Z 09008KT 9SM OVC007 21/19 A3006 RMK AO2 RAE16 SLP180 P0000 T02060189= 201707141051 METAR KEWR 141051Z 06007KT 2SM -RA BR OVC004 19/19 A3007 RMK AO2 DZB02E22RAB22 SLP183 CIG 003V006 P0001 T01940189= 201707141148 METAR KEWR 141148Z 07007KT 3SM -TSRA BR BKN006CB OVC015 19/18 A3008 RMK AO2 SFC VIS 4 TSE42B47 SLP184 OCNL LTGIC VC E TSB42 VC E MOV E P0012 60013 70016 T01890183 10222 20189 51004= 201707141151 METAR KEWR 141151Z COR 07007KT 7SM -TSRA BKN006CB OVC015 19/18 A3008 RMK AO2 SLP184 OCNL LTGIC VC E TSB42 VC E MOV E P0012 60013 70016 T01890183 10222 20189 51004= 201707141251 METAR KEWR 141251Z 05006KT 10SM SCT006 OVC009 19/18 A3009 RMK AO2 RAE26 TSE06 SLP187 P0000 T01890183 $= 201707141351 METAR KEWR 141351Z 05005KT 6SM -RA BR BKN007 OVC015 19/18 A3009 RMK AO2 RAB00 SLP187 P0002 T01940183 $= 201707141451 METAR KEWR 141451Z 09008KT 10SM -RA BKN008 BKN016 OVC030 19/18 A3008 RMK AO2 SLP185 CIG 007V010 P0004 60006 T01940183 50001 $= 201707141551 METAR KEWR 141551Z 11004KT 10SM OVC009 20/18 A3007 RMK AO2 RAE00B17E40 SLP183 CIG 008V010 P0000 T02000183 $= 201707141651 METAR KEWR 141651Z 16004KT 10SM OVC009 20/19 A3006 RMK AO2 SLP180 T02000189 $= 201707141751 METAR KEWR 141751Z 00000KT 10SM -RA OVC007 20/19 A3006 RMK AO2 RAB1656 SLP180 CIG 006V009 P0000 60006 T02000189 10200 20189 56005 $= 201707141851 METAR KEWR 141851Z 12006KT 4SM RA BR OVC007 20/19 A3004 RMK AO2 RAE1752B16 SLP170 CIG 006V008 P0004 T02000189 $= 201707141951 METAR KEWR 141951Z 14006KT 6SM -RA BR OVC007 20/19 A3001 RMK AO2 PRESFR SLP161 CIG 006V009 P0003 T02000194 $= 201707142051 METAR KEWR 142051Z VRB04KT 9SM -RA OVC007 21/21 A3000 RMK AO2 SLP158 CIG 005V008 P0004 60011 T02060206 56022 $= 201707142151 METAR KEWR 142151Z 06005KT 10SM OVC007 21/21 A2999 RMK AO2 RAE2059 SLP156 P0000 T02110206 $= 201707142251 METAR KEWR 142251Z 09008KT 8SM OVC007 21/21 A3000 RMK AO2 SLP157 T02110206 $= 201707142351 METAR KEWR 142351Z 08005KT 7SM OVC005 21/20 A2999 RMK AO2 SLP156 60011 T02060200 10211 20200 56002 $= 201707150051 METAR KEWR 150051Z 12006KT 5SM -RA BR OVC004 21/21 A2998 RMK AO2 DZB19E48RAB48 SLP152 P0000 T02060206 $= 201707150151 METAR KEWR 150151Z 09006KT 3SM -DZ BR BKN003 OVC005 21/21 A2999 RMK AO2 RAE0059DZB0059 SLP156 P0000 T02060206 $= 201707150251 METAR KEWR 150251Z 09005KT 5SM -DZ BR OVC004 20/20 A2998 RMK AO2 SLP152 P0000 60000 T02000200 56004 $= 201707150351 METAR KEWR 150351Z 07004KT 6SM -DZ BR OVC004 20/20 A2996 RMK AO2 RAB29E44 SLP145 P0000 T02000200 $= 201707150451 METAR KEWR 150451Z 04005KT 6SM -DZ BR OVC004 21/21 A2995 RMK AO2 SLP143 P0000 T02060206 402280189 $= 201707150551 METAR KEWR 150551Z 09003KT 4SM -RA BR BKN003 OVC006 20/20 A2995 RMK AO2 DZE15RAB15 SLP143 P0001 60001 T02000200 10206 20200 56010 $= 201707150651 METAR KEWR 150651Z 05004KT 4SM -DZ BR BKN004 OVC007 20/20 A2994 RMK AO2 RAE0559DZB0559 SLP137 P0000 T02000200 $= 201707150751 METAR KEWR 150751Z 05004KT 5SM -DZ BR OVC004 20/20 A2993 RMK AO2 SLP133 P0000 T02000200 $= 201707150851 METAR KEWR 150851Z 03008KT 3SM -DZ BR BKN003 OVC006 19/19 A2993 RMK AO2 SLP134 P0000 60000 T01940194 55009 $= 201707150951 METAR KEWR 150951Z 05005KT 4SM BR BKN003 BKN007 BKN250 19/19 A2992 RMK AO2 DZE50 SLP130 P0000 T01940194 $= 201707151051 METAR KEWR 151051Z 34007KT 7SM OVC004 19/19 A2995 RMK AO2 SLP143 T01940194 $= 201707151151 METAR KEWR 151151Z 35003KT 8SM BKN007 BKN024 BKN250 21/21 A2995 RMK AO2 SLP142 60000 70018 T02060206 10206 20194 53008 $= 201707151251 METAR KEWR 151251Z 30004KT 9SM BKN008 BKN021 22/21 A2995 RMK AO2 SLP142 BKN008 V SCT T02220206 $= 201707151351 METAR KEWR 151351Z VRB06KT 10SM BKN014 BKN100 BKN300 24/21 A2994 RMK AO2 SLP138 CIG 012V016 T02390206 $= 201707151451 METAR KEWR 151451Z VRB03KT 10SM SCT022 BKN100 BKN300 26/20 A2994 RMK AO2 SLP136 T02610200 58005 $= 201707151551 METAR KEWR 151551Z 31007KT 10SM SCT028 BKN090 BKN300 28/20 A2993 RMK AO2 SLP136 T02780200 $= 201707151651 METAR KEWR 151651Z 29006G14KT 10SM SCT040 BKN085 BKN300 29/18 A2992 RMK AO2 SLP131 T02890183 $= 201707151751 METAR KEWR 151751Z 31015G20KT 10SM SCT040 BKN085 BKN300 28/18 A2990 RMK AO2 SLP125 T02830178 10300 20206 58012 $= 201707151851 METAR KEWR 151851Z 29008G21KT 10SM SCT050 BKN080 BKN300 30/16 A2989 RMK AO2 SLP121 T03000156 $= 201707151951 METAR KEWR 151951Z 30011KT 10SM SCT065 SCT090 30/16 A2988 RMK AO2 SLP119 T03000161 $= 201707152051 METAR KEWR 152051Z 29011G16KT 10SM SCT065 SCT090 29/16 A2988 RMK AO2 SLP118 T02940156 56007 $= 201707152151 METAR KEWR 152151Z 32014G18KT 10SM SCT065 BKN085 29/16 A2988 RMK AO2 SLP116 T02940161 $= 201707152251 METAR KEWR 152251Z 33013G18KT 10SM SCT060 SCT080 28/16 A2988 RMK AO2 SLP117 T02830161 $= 201707152351 METAR KEWR 152351Z 35012KT 10SM FEW060 SCT080 27/16 A2989 RMK AO2 SLP120 T02720156 10311 20272 53002 $= 201707160051 METAR KEWR 160051Z 34010KT 10SM FEW055 SCT080 27/16 A2990 RMK AO2 SLP124 T02670156 $= 201707160151 METAR KEWR 160151Z 32007KT 10SM FEW080 26/16 A2993 RMK AO2 SLP133 T02560156 $= 201707160251 METAR KEWR 160251Z 32008KT 10SM FEW080 25/16 A2993 RMK AO2 SLP135 T02500156 51015 $= 201707160351 METAR KEWR 160351Z 30006KT 10SM FEW080 24/16 A2994 RMK AO2 SLP137 T02390161 $= 201707160451 METAR KEWR 160451Z 31006KT 10SM CLR 23/16 A2993 RMK AO2 SLP134 T02280161 403110194 $= 201707160551 METAR KEWR 160551Z 29005KT 10SM CLR 22/16 A2993 RMK AO2 SLP135 T02220161 10272 20222 50000 $= 201707160651 METAR KEWR 160651Z 21003KT 10SM CLR 21/16 A2993 RMK AO2 SLP134 T02110161 $= 201707160751 METAR KEWR 160751Z 26004KT 10SM CLR 21/17 A2993 RMK AO2 SLP133 T02110167 $= 201707160851 METAR KEWR 160851Z 27006KT 10SM CLR 21/17 A2994 RMK AO2 SLP137 T02060167 53002 $= 201707160951 METAR KEWR 160951Z 24003KT 10SM CLR 20/17 A2995 RMK AO2 SLP142 T02000167 $= 201707161051 METAR KEWR 161051Z 28004KT 10SM FEW250 22/17 A2996 RMK AO2 SLP146 T02170167 $= 201707161151 METAR KEWR 161151Z 30004KT 10SM FEW250 23/17 A2997 RMK AO2 SLP148 T02280172 10228 20200 51011 $= 201707161251 METAR KEWR 161251Z 04003KT 10SM FEW250 24/17 A2997 RMK AO2 SLP148 T02440167 $= 201707161351 METAR KEWR 161351Z 32003KT 10SM FEW025 FEW250 27/17 A2996 RMK AO2 SLP145 T02670167 $= 201707161451 METAR KEWR 161451Z VRB05KT 10SM FEW050 FEW250 27/17 A2996 RMK AO2 SLP146 T02720172 55002 $= 201707161551 METAR KEWR 161551Z VRB05KT 10SM SCT050 SCT250 28/16 A2995 RMK AO2 SLP142 T02830161= 201707161651 METAR KEWR 161651Z 00000KT 10SM SCT050 SCT250 29/17 A2995 RMK AO2 SLP140 T02890167= 201707161751 METAR KEWR 161751Z 24007KT 10SM SCT055 SCT250 30/16 A2994 RMK AO2 SLP137 T03000161 10306 20228 56009= 201707161851 METAR KEWR 161851Z 15008KT 10SM SCT060 SCT250 29/17 A2993 RMK AO2 SLP136 T02890172= 201707161951 METAR KEWR 161951Z 15010KT 10SM BKN055 BKN250 28/17 A2994 RMK AO2 SLP137 T02830172= 201707162051 METAR KEWR 162051Z 15008KT 10SM SCT055 SCT250 29/18 A2994 RMK AO2 SLP137 T02890183 56001 $= 201707162151 METAR KEWR 162151Z 16009KT 10SM SCT055 SCT260 29/18 A2993 RMK AO2 SLP134 T02890183 $= 201707162251 METAR KEWR 162251Z 17008KT 10SM FEW055 SCT260 27/19 A2994 RMK AO2 SLP137 T02720189 $= 201707162351 METAR KEWR 162351Z 15008KT 10SM FEW060 FEW260 27/19 A2995 RMK AO2 SLP140 T02720194 10306 20272 53003 $= 201707170051 METAR KEWR 170051Z 16006KT 10SM FEW060 FEW260 26/19 A2996 RMK AO2 SLP146 T02610194 $= 201707170151 METAR KEWR 170151Z 16006KT 10SM FEW250 26/19 A2999 RMK AO2 SLP154 T02560189 $= 201707170251 METAR KEWR 170251Z 16005KT 10SM FEW250 25/19 A2999 RMK AO2 SLP156 T02500189 51016 $= 201707170351 METAR KEWR 170351Z 15003KT 10SM FEW250 24/19 A3000 RMK AO2 SLP157 T02440189 $= 201707170451 METAR KEWR 170451Z 18003KT 10SM FEW250 23/19 A3000 RMK AO2 SLP158 T02280189 403060200 $= 201707170551 METAR KEWR 170551Z 16003KT 10SM FEW250 23/19 A3000 RMK AO2 SLP157 T02330189 10272 20222 50001 $= 201707170651 METAR KEWR 170651Z 23006KT 10SM FEW070 22/19 A2999 RMK AO2 SLP156 T02170189 $= 201707170751 METAR KEWR 170751Z 20005KT 10SM FEW070 22/19 A3000 RMK AO2 SLP157 T02170189 $= 201707170851 METAR KEWR 170851Z 22003KT 10SM FEW070 FEW200 22/19 A3000 RMK AO2 SLP158 T02170189 53001 $= 201707170951 METAR KEWR 170951Z 21003KT 10SM FEW070 SCT150 SCT250 22/19 A3002 RMK AO2 SLP166 T02170194 $= 201707171051 METAR KEWR 171051Z 00000KT 10SM FEW070 SCT150 SCT250 23/20 A3003 RMK AO2 SLP168 T02280200 $= 201707171151 METAR KEWR 171151Z 20003KT 10SM FEW065 FEW180 SCT250 25/19 A3004 RMK AO2 SLP171 T02500194 10256 20211 51013 $= 201707171251 METAR KEWR 171251Z 16003KT 10SM FEW070 SCT250 26/19 A3004 RMK AO2 SLP172 T02610194 $= 201707171351 METAR KEWR 171351Z 17004KT 10SM FEW035 BKN250 27/19 A3005 RMK AO2 SLP174 T02720194 $= 201707171451 METAR KEWR 171451Z 16006KT 10SM FEW040 BKN250 28/18 A3005 RMK AO2 SLP174 T02830178 50003 $= 201707171551 METAR KEWR 171551Z 17007G14KT 10SM SCT040 BKN250 29/19 A3005 RMK AO2 SLP174 T02890189 $= 201707171651 METAR KEWR 171651Z 14007KT 090V160 10SM FEW045 BKN250 29/19 A3005 RMK AO2 SLP174 T02890194= 201707171751 METAR KEWR 171751Z 16010KT 120V180 10SM FEW045 BKN250 29/19 A3003 RMK AO2 SLP168 T02890194 10294 20250 58006= 201707171851 METAR KEWR 171851Z 13010G19KT 10SM FEW045 BKN250 28/21 A3003 RMK AO2 SLP167 T02830211= 201707171951 METAR KEWR 171951Z 15013G18KT 10SM FEW030 BKN250 28/22 A3002 RMK AO2 SLP167 T02830217= 201707172051 METAR KEWR 172051Z 14011G18KT 10SM FEW028 SCT120 BKN250 28/22 A3001 RMK AO2 SLP163 T02830217 58005= 201707172151 METAR KEWR 172151Z 15008KT 110V180 10SM FEW028 SCT120 BKN250 28/21 A3003 RMK AO2 LTG DSNT W SLP167 CB DSNT NW MOV NE T02780206= 201707172251 METAR KEWR 172251Z 14008KT 10SM FEW028 SCT120 SCT200 BKN250 27/22 A3004 RMK AO2 LTG DSNT N AND NW SLP171 CB DSNT NW-DSNT N MOV NE T02720217= 201707172351 METAR KEWR 172351Z VRB04KT 10SM FEW025 SCT120 BKN200 BKN250 27/22 A3006 RMK AO2 LTG DSNT N SLP178 CB DSNT N MOV NE T02670222 10294 20267 53015= 201707180051 METAR KEWR 180051Z 11006KT 10SM FEW025 FEW045 SCT120 BKN190 BKN250 26/22 A3005 RMK AO2 TSB07E40 SLP174 T02610222= 201707180151 METAR KEWR 180151Z 14006KT 10SM FEW010 BKN045 BKN180 BKN250 26/23 A3005 RMK AO2 SLP176 T02560228= 201707180251 METAR KEWR 180251Z 17006KT 10SM FEW010 FEW048 SCT180 BKN250 26/23 A3005 RMK AO2 SLP176 T02560228 55002= 201707180351 METAR KEWR 180351Z 18007KT 10SM SCT015 SCT025 BKN060 BKN250 24/22 A3007 RMK AO2 SLP183 T02440222= 201707180451 METAR KEWR 180451Z 18007KT 10SM FEW015 BKN025 BKN060 24/22 A3007 RMK AO2 SLP180 T02440217 402940211= 201707180551 METAR KEWR 180551Z 18005KT 10SM FEW025 SCT065 SCT250 24/21 A3007 RMK AO2 SLP181 T02390211 10267 20239 51005= 201707180651 METAR KEWR 180651Z 18006KT 10SM FEW065 FEW250 23/21 A3007 RMK AO2 SLP180 T02330211= 201707180751 METAR KEWR 180751Z 00000KT 10SM FEW070 FEW250 23/21 A3007 RMK AO2 SLP181 T02330206= 201707180851 METAR KEWR 180851Z 17003KT 10SM FEW070 FEW250 23/21 A3007 RMK AO2 SLP181 T02330211 53000= 201707180951 METAR KEWR 180951Z 20004KT 10SM FEW030 FEW070 SCT250 23/21 A3008 RMK SLP185 T02280211= 201707181051 METAR KEWR 181051Z 00000KT 10SM FEW030 FEW070 SCT250 24/22 A3008 RMK AO2 SLP186 T02390217= 201707181151 METAR KEWR 181151Z 00000KT 10SM SCT012 BKN250 24/22 A3010 RMK AO2 SLP194 T02440217 10244 20222 53013= 201707181251 METAR KEWR 181251Z 20004KT 10SM SCT015 BKN080 BKN250 26/22 A3011 RMK AO2 SLP196 T02610217= 201707181351 METAR KEWR 181351Z 00000KT 10SM SCT018 SCT080 BKN250 27/21 A3011 RMK AO2 SLP195 T02720211= 201707181451 METAR KEWR 181451Z 22005KT 10SM SCT025 SCT250 28/22 A3010 RMK AO2 SLP193 T02780217 58001= 201707181551 METAR KEWR 181551Z 20005KT 10SM SCT028 SCT250 29/21 A3010 RMK AO2 SLP191 T02940211= 201707181651 METAR KEWR 181651Z 14006KT 10SM SCT030 29/21 A3008 RMK AO2 SLP185 T02940206= 201707181751 METAR KEWR 181751Z 13008KT 10SM FEW035 SCT250 29/21 A3006 RMK AO2 SLP179 T02940211 10306 20244 58014= 201707181851 METAR KEWR 181851Z 15007KT 120V180 10SM FEW035TCU SCT250 31/22 A3005 RMK AO2 SLP176 TCU DSNT S T03060217= 201707181951 METAR KEWR 181951Z 15009G16KT 10SM FEW035 SCT250 31/21 A3004 RMK AO2 SLP173 T03060211= 201707182051 METAR KEWR 182051Z 16011KT 10SM FEW040 SCT250 29/21 A3004 RMK AO2 SLP171 T02940206 56008= 201707182151 METAR KEWR 182151Z 13010KT 10SM FEW040 SCT250 29/21 A3004 RMK AO2 SLP171 T02940206= 201707182251 METAR KEWR 182251Z 16006KT 10SM FEW040 SCT250 30/22 A3004 RMK AO2 SLP171 T03000217= 201707182351 METAR KEWR 182351Z 16008KT 10SM FEW040 SCT250 28/21 A3003 RMK AO2 SLP170 T02830211 10306 20283 58001= 201707190051 METAR KEWR 190051Z 18010KT 10SM FEW040 FEW120 SCT250 28/21 A3004 RMK AO2 SLP174 T02780211= 201707190151 METAR KEWR 190151Z 18008KT 10SM FEW040 FEW120 SCT250 27/22 A3005 RMK AO2 SLP177 T02720217= 201707190251 METAR KEWR 190251Z 20009KT 10SM FEW250 26/22 A3006 RMK AO2 SLP178 T02610217 51008= 201707190351 METAR KEWR 190351Z 20010KT 10SM FEW250 26/22 A3007 RMK AO2 SLP181 T02610217= 201707190451 METAR KEWR 190451Z 21007KT 10SM FEW250 25/22 A3006 RMK AO2 SLP179 T02500222 403060222= 201707190551 METAR KEWR 190551Z 23008KT 10SM FEW250 25/22 A3006 RMK AO2 SLP178 T02500222 10283 20250 58000= 201707190651 METAR KEWR 190651Z 22006KT 10SM FEW250 25/22 A3005 RMK AO2 SLP174 T02500217= 201707190751 METAR KEWR 190751Z 21007KT 10SM FEW250 24/22 A3004 RMK AO2 SLP172 T02440217= 201707190851 METAR KEWR 190851Z 23006KT 10SM FEW080 24/22 A3004 RMK AO2 SLP171 T02440222 56006= 201707190951 METAR KEWR 190951Z 22006KT 10SM SCT250 24/22 A3004 RMK AO2 SLP172 T02390222= 201707191051 METAR KEWR 191051Z 23008KT 10SM SCT250 25/22 A3004 RMK AO2 SLP173 T02500222= 201707191151 METAR KEWR 191151Z 24006KT 9SM FEW008 FEW250 26/23 A3005 RMK AO2 SLP176 T02610228 10261 20239 50004= 201707191251 METAR KEWR 191251Z 26008KT 9SM FEW008 FEW250 28/23 A3006 RMK AO2 SLP177 T02780228= 201707191351 METAR KEWR 191351Z 25005KT 9SM FEW025 FEW250 30/21 A3004 RMK AO2 SLP171 T03000206= 201707191451 METAR KEWR 191451Z 28011KT 10SM FEW045 SCT250 32/19 A3004 RMK AO2 SLP171 T03170194 58005= 201707191551 METAR KEWR 191551Z 31008G14KT 10SM FEW060 FEW095 33/16 A3003 RMK AO2 SLP168 T03280161= 201707191651 METAR KEWR 191651Z 28005G15KT 10SM FEW065 33/16 A3001 RMK AO2 SLP163 T03330161= 201707191751 METAR KEWR 191751Z 26011G22KT 10SM FEW075 34/16 A2999 RMK AO2 SLP156 T03440161 10350 20261 58016= 201707191851 METAR KEWR 191851Z 27012G18KT 10SM FEW070 SCT250 35/17 A2998 RMK AO2 PK WND 27027/1812 SLP152 T03500167= 201707191951 METAR KEWR 191951Z 24010G18KT 10SM SCT065 SCT250 33/17 A2997 RMK AO2 SLP147 T03330172= 201707192051 METAR KEWR 192051Z 25013KT 10SM SCT065 SCT250 34/17 A2995 RMK AO2 SLP142 T03440172 58014= 201707192151 METAR KEWR 192151Z 26013G17KT 10SM SCT060 SCT250 34/18 A2995 RMK AO2 SLP140 T03440178= 201707192251 METAR KEWR 192251Z 28011KT 10SM FEW060 SCT150 SCT250 33/18 A2995 RMK AO2 SLP141 T03330183= 201707192351 METAR KEWR 192351Z 26008KT 10SM FEW060 SCT150 SCT250 32/19 A2995 RMK AO2 SLP141 T03220189 10350 20322 55001= 201707200051 METAR KEWR 200051Z 25009KT 10SM BKN060 BKN150 BKN250 32/19 A2997 RMK AO2 SLP149 T03170194= 201707200151 METAR KEWR 200151Z 31009KT 10SM -RA SCT060 BKN090 BKN240 31/21 A2998 RMK AO2 RAB49 SLP150 P0000 T03060206= 201707200251 METAR KEWR 200251Z 27007KT 10SM SCT060 SCT090 BKN240 31/21 A2998 RMK AO2 RAE0159 SLP151 P0000 60000 T03060206 51010= 201707200351 METAR KEWR 200351Z 28006KT 10SM SCT070 BKN150 BKN250 29/21 A2998 RMK AO2 SLP153 T02940211= 201707200451 METAR KEWR 200451Z 22007KT 10SM FEW070 SCT150 SCT250 28/21 A2998 RMK AO2 SLP151 T02830211 403500239= 201707200551 METAR KEWR 200551Z 24007KT 10SM SCT060 SCT150 SCT250 28/21 A2998 RMK AO2 SLP150 60000 T02780211 10322 20272 58001= 201707200651 METAR KEWR 200651Z 29004KT 10SM SCT050 SCT150 SCT250 27/21 A2997 RMK AO2 SLP148 T02720211= 201707200751 METAR KEWR 200751Z 22004KT 10SM FEW050 FEW150 SCT250 27/21 A2996 RMK AO2 SLP146 T02670211= 201707200851 METAR KEWR 200851Z 27005KT 10SM FEW150 FEW250 27/21 A2996 RMK AO2 SLP144 T02670211 56005= 201707200951 METAR KEWR 200951Z 27003KT 10SM FEW150 SCT250 26/22 A2996 RMK AO2 SLP144 T02560217= 201707201051 METAR KEWR 201051Z 26003KT 9SM FEW150 BKN250 27/22 A2997 RMK AO2 SLP147 T02670217= 201707201151 METAR KEWR 201151Z 00000KT 9SM FEW150 BKN250 27/22 A2997 RMK AO2 SLP150 T02720217 10283 20250 53005= 201707201251 METAR KEWR 201251Z 28004KT 9SM FEW150 BKN250 28/22 A2998 RMK AO2 SLP151 T02830217= 201707201351 METAR KEWR 201351Z 25005KT 10SM BKN250 31/21 A2998 RMK AO2 SLP151 T03110211= 201707201451 METAR KEWR 201451Z 10SM FEW040 BKN250 33/21 A2997 RMK AO2 SLP148 T03330206 58002= 201707201551 METAR KEWR 201551Z 22007KT 180V240 10SM FEW050 BKN250 34/19 A2995 RMK AO2 SLP143 T03440189= 201707201651 METAR KEWR 201651Z 30013G16KT 10SM SCT060 BKN250 35/19 A2993 RMK AO2 SLP136 T03500194= 201707201751 METAR KEWR 201751Z 27008G20KT 10SM SCT060 BKN250 36/19 A2991 RMK AO2 SLP127 T03560194 10356 20272 58021= 201707201851 METAR KEWR 201851Z 26008G14KT 10SM FEW065 SCT250 35/18 A2989 RMK AO2 SLP120 T03500183= 201707201951 METAR KEWR 201951Z 28016G21KT 10SM FEW065 BKN250 36/16 A2988 RMK AO2 SLP117 T03610156= 201707202051 METAR KEWR 202051Z 27015G19KT 10SM FEW070 BKN250 35/17 A2987 RMK AO2 SLP114 T03500172 56013= 201707202151 METAR KEWR 202151Z 27009KT 10SM FEW065 SCT200 BKN250 33/17 A2986 RMK AO2 SLP110 T03330172= 201707202251 METAR KEWR 202251Z 28010KT 10SM FEW060 SCT160 OVC250 33/19 A2986 RMK AO2 SLP112 CB DSNT NW MOV SE T03280189= 201707202351 METAR KEWR 202351Z 29008KT 10SM FEW060 SCT100 BKN160 OVC250 32/19 A2988 RMK AO2 SLP118 OCNL LTGIC DSNT SW-DSNT W CB DSNT SW-DSNT W MOV SE T03220194 10367 20322 53003= 201707210051 METAR KEWR 210051Z 24011KT 10SM -RA FEW055 OVC130 27/21 A2989 RMK AO2 LTG DSNT S RAB17 SLP120 OCNL LTGIC DSNT S CB DSNT S MOV SE P0000 T02670206= 201707210151 METAR KEWR 210151Z 27009KT 10SM FEW055 BKN150 OVC210 26/21 A2989 RMK AO2 RAE03 SLP122 P0000 T02560206= 201707210251 METAR KEWR 210251Z 24005KT 10SM FEW060 SCT160 BKN250 25/21 A2988 RMK AO2 SLP117 60000 T02500206 58000= 201707210351 METAR KEWR 210351Z 23006KT 10SM FEW060 FEW160 SCT250 24/21 A2988 RMK AO2 SLP117 T02440211= 201707210451 METAR KEWR 210451Z 26006KT 10SM FEW060 FEW150 SCT250 24/21 A2989 RMK AO2 SLP120 T02440206 403670244= 201707210551 METAR KEWR 210551Z 25006KT 10SM SCT055 SCT085 BKN250 24/21 A2989 RMK AO2 SLP121 60000 T02440206 10322 20244 53004= 201707210651 METAR KEWR 210651Z 26005KT 10SM BKN050 BKN250 24/21 A2988 RMK AO2 SLP119 T02440206= 201707210751 METAR KEWR 210751Z 26004KT 10SM BKN047 BKN250 24/21 A2988 RMK AO2 SLP116 T02440206= 201707210851 METAR KEWR 210851Z 27006KT 10SM BKN050 BKN250 24/21 A2988 RMK AO2 SLP118 T02440206 55003= 201707210951 METAR KEWR 210951Z 31003KT 10SM SCT050 BKN250 25/20 A2989 RMK AO2 SLP120 T02500200= 201707211051 METAR KEWR 211051Z 27003KT 10SM FEW050 SCT120 BKN250 26/20 A2990 RMK AO2 SLP124 T02560200= 201707211151 METAR KEWR 211151Z 27006KT 10SM FEW090 SCT250 27/21 A2991 RMK AO2 SLP126 T02670206 10267 20239 53008= 201707211251 METAR KEWR 211251Z 28006KT 10SM SCT095 BKN250 28/21 A2992 RMK AO2 SLP133 T02830206= 201707211351 METAR KEWR 211351Z 29010G18KT 10SM FEW050 SCT095 SCT250 29/20 A2992 RMK AO2 SLP132 T02940200= 201707211451 METAR KEWR 211451Z 30007KT 10SM FEW040 FEW095 SCT250 31/20 A2991 RMK AO2 SLP129 T03060200 50002= 201707211551 METAR KEWR 211551Z 31009G18KT 280V350 10SM FEW040 FEW100 SCT250 32/18 A2991 RMK AO2 SLP126 T03220183= 201707211651 METAR KEWR 211651Z 31007G16KT 10SM FEW040 BKN250 32/17 A2989 RMK AO2 SLP121 T03220167= 201707211751 METAR KEWR 211751Z 31007G20KT 260V360 10SM FEW045 BKN250 34/16 A2988 RMK AO2 SLP117 T03390156 10339 20261 58012= 201707211851 METAR KEWR 211851Z 31011G18KT 10SM FEW045 BKN250 34/17 A2986 RMK AO2 SLP113 T03390167= 201707211951 METAR KEWR 211951Z 28011G18KT 10SM FEW060 BKN250 34/18 A2986 RMK AO2 SLP112 T03390178= 201707212051 METAR KEWR 212051Z 27012G17KT 10SM FEW055 BKN250 34/19 A2986 RMK AO2 SLP110 T03390189 56007= 201707212151 METAR KEWR 212151Z 25011KT 10SM FEW045 BKN250 33/19 A2985 RMK AO2 SLP109 T03280189= 201707212251 METAR KEWR 212251Z 26011KT 10SM FEW050 BKN250 33/18 A2985 RMK AO2 SLP107 T03280183= 201707212351 METAR KEWR 212351Z 26007KT 10SM FEW050 BKN250 31/19 A2985 RMK AO2 SLP106 T03110189 10344 20311 56004= 201707220051 METAR KEWR 220051Z 23005KT 10SM BKN250 31/19 A2984 RMK AO2 SLP106 T03110194= 201707220151 METAR KEWR 220151Z 25006KT 10SM BKN250 31/20 A2986 RMK AO2 SLP110 T03060200= 201707220251 METAR KEWR 220251Z 24008KT 10SM BKN250 31/21 A2987 RMK AO2 SLP114 T03060206 53008= 201707220351 METAR KEWR 220351Z 25008KT 10SM BKN250 29/21 A2987 RMK AO2 SLP113 T02940206= 201707220451 METAR KEWR 220451Z 25008KT 10SM FEW060 BKN250 29/21 A2986 RMK AO2 SLP112 T02890211 403440239= 201707220551 METAR KEWR 220551Z 25008KT 10SM FEW060 BKN250 28/22 A2986 RMK AO2 SLP110 T02830217 10311 20283 58004= 201707220651 METAR KEWR 220651Z 31006KT 10SM FEW060 BKN250 28/21 A2986 RMK AO2 SLP112 T02780211= 201707220751 METAR KEWR 220751Z 34009KT 10SM FEW060 BKN090 BKN250 27/21 A2986 RMK AO2 SLP110 T02720206= 201707220851 METAR KEWR 220851Z 01012KT 10SM SCT065 BKN090 OVC250 26/19 A2986 RMK AO2 SLP110 T02610194 58001= 201707220951 METAR KEWR 220951Z 36007KT 10SM SCT090 OVC250 26/19 A2987 RMK AO2 SLP113 T02560194= 201707221051 METAR KEWR 221051Z 35004KT 10SM FEW090 BKN250 27/18 A2987 RMK AO2 SLP116 T02670183= 201707221151 METAR KEWR 221151Z 35009KT 10SM FEW120 SCT250 28/15 A2988 RMK AO2 SLP119 T02780150 10283 20250 53009= 201707221251 METAR KEWR 221251Z 01008KT 10SM FEW120 BKN250 29/14 A2989 RMK AO2 SLP121 T02890144= 201707221351 METAR KEWR 221351Z 01009KT 10SM FEW120 FEW180 BKN250 30/12 A2988 RMK AO2 SLP119 T03000122= 201707221451 METAR KEWR 221451Z 10SM FEW120 FEW180 BKN250 31/13 A2988 RMK AO2 SLP117 T03110128 58003= 201707221551 METAR KEWR 221551Z 00000KT 10SM FEW045 FEW150 BKN250 32/12 A2987 RMK AO2 SLP114 T03220122= 201707221651 METAR KEWR 221651Z VRB04KT 10SM FEW050 FEW120 BKN190 BKN250 31/12 A2984 RMK AO2 SLP106 T03110122= 201707221751 METAR KEWR 221751Z 16007KT 10SM FEW050 FEW140 BKN180 BKN250 31/17 A2983 RMK AO2 SLP100 T03110167 10328 20278 58017= 201707221851 METAR KEWR 221851Z 16006KT 10SM FEW050 FEW130 BKN190 BKN250 32/16 A2981 RMK AO2 SLP093 T03220161= 201707221951 METAR KEWR 221951Z 18005KT 10SM FEW050 BKN190 BKN250 32/17 A2978 RMK AO2 SLP085 T03220172= 201707222051 METAR KEWR 222051Z 15007KT 10SM FEW050 BKN180 BKN250 31/18 A2977 RMK AO2 SLP081 T03060183 56019= 201707222151 METAR KEWR 222151Z 14004KT 10SM FEW055 SCT140 BKN190 OVC250 30/18 A2976 RMK AO2 SLP079 T03000178= 201707222251 METAR KEWR 222251Z 08008KT 9SM -RA FEW055 SCT090 BKN120 BKN180 OVC250 28/19 A2976 RMK AO2 RAB37 SLP076 P0000 T02830194= 201707222351 METAR KEWR 222351Z 12006KT 10SM FEW050 SCT090 BKN120 BKN200 OVC250 27/20 A2976 RMK AO2 RAE48 SLP078 P0000 60000 T02670200 10333 20267 55003= 201707230051 METAR KEWR 230051Z 16005KT 10SM -RA SCT060 BKN110 OVC150 27/22 A2977 RMK AO2 RAB45 SLP081 P0000 T02670217= 201707230151 METAR KEWR 230151Z 18005KT 9SM -RA FEW008 BKN060 OVC100 25/23 A2977 RMK AO2 SLP079 P0000 T02500233= 201707230251 METAR KEWR 230251Z 16005KT 3SM +RA BR SCT008 BKN040 OVC055 24/23 A2976 RMK AO2 SLP078 P0003 60003 T02440228 50000= 201707230351 METAR KEWR 230351Z 04007KT 3SM +RA BR FEW017 SCT024 OVC045 23/21 A2974 RMK AO2 SLP071 P0022 T02280211= 201707230451 METAR KEWR 230451Z 06005KT 4SM RA BR FEW012 SCT026 OVC044 22/21 A2975 RMK AO2 SLP072 P0014 T02170211 403330217 $= 201707230551 METAR KEWR 230551Z 07003KT 4SM BR FEW007 BKN013 OVC028 22/22 A2974 RMK AO2 RAE46 SLP069 P0001 60040 T02170217 10267 20217 56009 $= 201707230651 METAR KEWR 230651Z 07004KT 5SM BR FEW007 BKN023 OVC033 21/21 A2973 RMK AO2 RAB0553E09 SLP067 P0001 T02110206 $= 201707230751 METAR KEWR 230751Z 00000KT 9SM FEW007 FEW023 OVC044 22/21 A2973 RMK AO2 SLP068 T02170206 $= 201707230851 METAR KEWR 230851Z 00000KT 9SM FEW012 OVC060 21/21 A2975 RMK AO2 SLP073 60001 T02110206 53004 $= 201707230951 METAR KEWR 230951Z 00000KT 9SM FEW012 SCT030 OVC060 22/21 A2975 RMK AO2 RAB32E44 SLP075 P0000 T02170211 $= 201707231051 METAR KEWR 231051Z 00000KT 8SM FEW015 FEW030 OVC060 22/21 A2975 RMK AO2 RAB0952E25 SLP073 P0003 T02170211 $= 201707231151 METAR KEWR 231151Z 00000KT 8SM FEW012 BKN060 OVC075 22/21 A2977 RMK AO2 SLP082 60004 70044 T02220206 10222 20211 53009 $= 201707231251 METAR KEWR 231251Z 17004KT 9SM FEW022 SCT055 OVC075 23/19 A2979 RMK AO2 SLP086 T02280194 $= 201707231351 METAR KEWR 231351Z 00000KT 10SM BKN025 OVC120 24/19 A2979 RMK AO2 SLP089 BKN V SCT T02440194 $= 201707231451 METAR KEWR 231451Z VRB03KT 10SM SCT025 SCT095 BKN120 26/20 A2980 RMK AO2 SLP091 T02560200 51009 $= 201707231551 METAR KEWR 231551Z 14007KT 9SM SCT026 SCT075 BKN095 26/20 A2980 RMK AO2 SLP091 T02610200 $= 201707231651 METAR KEWR 231651Z 16008KT 9SM -RA SCT027 OVC075 25/19 A2983 RMK AO2 RAB51 SLP100 P0000 T02500189 $= 201707231751 METAR KEWR 231751Z 16007KT 10SM FEW023 SCT036 OVC075 26/19 A2983 RMK AO2 RAE20 SLP100 P0000 60000 T02560194 10267 20222 53009 $= 201707231851 METAR KEWR 231851Z 17005KT 10SM FEW025 SCT036 OVC070 26/20 A2982 RMK AO2 SLP097 T02610200 $= 201707231951 METAR KEWR 231951Z VRB05KT 10SM FEW028 BKN065 BKN120 27/19 A2981 RMK AO2 SLP094 T02670189 $= 201707232051 METAR KEWR 232051Z 15009G17KT 10SM FEW026 OVC070 26/19 A2982 RMK AO2 SLP097 T02560189 55003 $= 201707232151 METAR KEWR 232151Z 13009G14KT 10SM FEW025 FEW060 BKN080 BKN250 26/19 A2982 RMK AO2 SLP099 T02560194 $= 201707232251 METAR KEWR 232251Z 13006KT 10SM SCT023 BKN060 BKN075 24/19 A2983 RMK AO2 SLP099 T02440194 $= 201707232351 METAR KEWR 232351Z 13008KT 10SM SCT017 BKN075 BKN240 24/19 A2984 RMK AO2 SLP104 SCT V BKN T02390194 10272 20239 53006 $= 201707240051 METAR KEWR 240051Z 12008KT 10SM SCT017 BKN075 OVC240 24/20 A2985 RMK AO2 SLP107 T02390200 $= 201707240151 METAR KEWR 240151Z 15008KT 10SM SCT017 SCT023 BKN085 OVC250 24/19 A2986 RMK AO2 SLP111 T02390194 $= 201707240251 METAR KEWR 240251Z 11010KT 10SM -RA FEW015 SCT070 BKN110 OVC250 23/20 A2984 RMK AO2 RAB0154 SLP104 P0000 60000 T02330200 50000 $= 201707240351 METAR KEWR 240351Z 10007KT 10SM FEW015 SCT070 BKN110 OVC250 23/19 A2985 RMK AO2 RAE51 SLP108 P0000 T02330189 $= 201707240451 METAR KEWR 240451Z 11011G16KT 10SM FEW015 BKN055 BKN110 OVC250 24/19 A2984 RMK AO2 SLP103 T02390189 402720211 $= 201707240551 METAR KEWR 240551Z 12008G15KT 10SM SCT020 BKN026 OVC055 23/19 A2982 RMK AO2 SLP096 60000 T02330189 10239 20233 58008 $= 201707240651 METAR KEWR 240651Z 11009KT 10SM BKN020 BKN026 OVC045 23/19 A2979 RMK AO2 SLP088 T02330189 $= 201707240751 METAR KEWR 240751Z 08012G18KT 10SM SCT020 BKN026 OVC045 23/18 A2977 RMK AO2 SLP081 T02330183 $= 201707240851 METAR KEWR 240851Z 09012KT 4SM RA BR BKN018 BKN026 OVC034 22/19 A2977 RMK AO2 RAB08 SLP081 P0008 60008 T02170194 56015 $= 201707240951 METAR KEWR 240951Z 07008KT 4SM -RA BR BKN008 BKN018 OVC028 21/19 A2975 RMK AO2 SLP075 P0023 T02110194 $= 201707241051 METAR KEWR 241051Z 05008KT 9SM SCT007 BKN012 OVC025 21/20 A2976 RMK AO2 RAE28 SLP076 CIG 010V015 P0001 T02110200 $= 201707241151 METAR KEWR 241151Z 05008KT 10SM FEW006 BKN010 OVC025 22/20 A2975 RMK AO2 SLP075 CIG 009V012 60032 70032 T02170200 10233 20211 50001 $= 201707241251 METAR KEWR 241251Z 05008KT 6SM -RA BR FEW006 OVC009 22/20 A2975 RMK AO2 RAB27 SLP072 CIG 008V010 P0000 T02170200 $= 201707241351 METAR KEWR 241351Z 02019KT 2 1/2SM R04R/3500VP6000FT +RA BR OVC008 20/19 A2973 RMK AO2 SLP066 CIG 006V010 P0007 T02000194 $= 201707241451 METAR KEWR 241451Z 36018G24KT 9SM -RA BKN009 BKN015 OVC039 19/18 A2978 RMK AO2 SLP085 CIG 008V011 BKN008 V SCT P0051 60058 T01890183 53009 $= 201707241551 METAR KEWR 241551Z 02015G22KT 10SM -RA SCT009 BKN015 OVC036 20/18 A2979 RMK AO2 PK WND 03028/1538 RAE1455B51 SLP088 CIG 013V016 SCT V BKN P0000 T02000178= 201707241651 METAR KEWR 241651Z 01017KT 10SM SCT009 BKN013 OVC035 20/16 A2983 RMK AO2 PK WND 01026/1637 RAE04 SLP099 P0000 T02000156= 201707241751 METAR KEWR 241751Z 01013KT 10SM OVC017 19/15 A2984 RMK AO2 SLP103 60058 T01940150 10217 20183 53018= 201707241851 METAR KEWR 241851Z 36012KT 10SM OVC019 21/16 A2984 RMK AO2 SLP104 T02110156= 201707241951 METAR KEWR 241951Z 03011KT 10SM OVC021 21/16 A2984 RMK AO2 SLP105 T02110156= 201707242051 METAR KEWR 242051Z 04008KT 10SM BKN022 22/16 A2985 RMK AO2 SLP106 T02170156 53003= 201707242151 METAR KEWR 242151Z 06007KT 10SM BKN025 BKN250 22/16 A2985 RMK AO2 SLP109 T02220156= 201707242251 METAR KEWR 242251Z 08006KT 10SM SCT025 BKN180 BKN250 22/16 A2986 RMK AO2 SLP112 T02170156= 201707242351 METAR KEWR 242351Z 09008KT 10SM -RA FEW025 SCT040 BKN110 BKN170 BKN250 21/16 A2987 RMK AO2 RAB45 SLP114 OCNL LTGICCG DSNT SW-DSNT W CB DSNT SW-DSNT W MOV E P0000 60000 T02060156 10222 20194 51008= 201707250051 METAR KEWR 250051Z 08007KT 10SM -TSRA FEW015 SCT050CB BKN100 BKN170 BKN250 19/16 A2988 RMK AO2 LTG DSNT SW TSB13 SLP117 OCNL LTGICCC VC SE-VC SW TS VC SE-VC SW MOV E P0000 T01940156= 201707250151 METAR KEWR 250151Z 08006KT 10SM SCT017 BKN050 BKN120 BKN200 BKN250 19/16 A2990 RMK AO2 RAE08 TSE08 SLP124 P0000 T01940156= 201707250251 METAR KEWR 250251Z 11006KT 10SM BKN018 OVC120 19/15 A2994 RMK AO2 SLP137 60000 T01890150 53023= 201707250351 METAR KEWR 250351Z 08006KT 10SM BKN018 BKN027 OVC050 18/15 A2996 RMK AO2 SLP143 T01830150= 201707250451 METAR KEWR 250451Z 07005KT 10SM BKN016 OVC026 18/14 A2997 RMK AO2 SLP148 T01830144 402390183= 201707250551 METAR KEWR 250551Z 06007KT 10SM SCT016 OVC022 18/14 A2998 RMK AO2 SLP151 60000 T01830144 10206 20183 51014= 201707250651 METAR KEWR 250651Z 02010KT 10SM FEW012 BKN016 OVC022 18/14 A2997 RMK AO2 SLP149 T01780144= 201707250751 METAR KEWR 250751Z 03007KT 10SM OVC014 17/15 A2997 RMK AO2 SLP147 T01720150= 201707250851 METAR KEWR 250851Z 02008KT 10SM BKN012 OVC019 17/15 A2998 RMK AO2 SLP153 T01670150 53002= 201707250951 METAR KEWR 250951Z 01008KT 6SM -DZ BR BKN010 OVC016 17/16 A3001 RMK AO2 DZB44 SLP161 P0000 T01670156= 201707251051 METAR KEWR 251051Z 01005KT 10SM BKN008 BKN025 OVC040 17/16 A3002 RMK AO2 DZE46 SLP166 CIG 006V010 P0000 T01720161= 201707251151 METAR KEWR 251151Z 36008KT 10SM OVC009 18/16 A3004 RMK AO2 SLP171 CIG 008V011 60000 70058 T01780156 10183 20167 51019= 201707251251 METAR KEWR 251251Z 03007KT 6SM -RA BR FEW008 OVC011 17/16 A3005 RMK AO2 RAB39 SLP177 CIG 010V014 P0001 T01720156= 201707251351 METAR KEWR 251351Z 01006KT 10SM FEW009 OVC015 19/16 A3006 RMK AO2 RAE06 SLP180 CIG 013V018 P0000 T01890161= 201707251451 METAR KEWR 251451Z 02007KT 10SM FEW010 OVC017 19/16 A3008 RMK AO2 SLP185 CIG 015V019 60001 T01940156 52014= 201707251551 METAR KEWR 251551Z 02005KT 10SM OVC018 19/16 A3010 RMK AO2 SLP191 T01940156= 201707251651 METAR KEWR 251651Z 03005KT 10SM OVC018 20/16 A3010 RMK AO2 SLP194 T02000156= 201707251751 METAR KEWR 251751Z VRB03KT 10SM BKN022 OVC080 21/16 A3011 RMK AO2 SLP194 CIG 020V025 60001 T02060156 10211 20172 51009= 201707251851 METAR KEWR 251851Z VRB03KT 10SM BKN023 OVC040 22/16 A3011 RMK AO2 SLP197 T02170161= 201707251951 METAR KEWR 251951Z 01006KT 10SM BKN026 BKN040 BKN100 22/16 A3012 RMK AO2 SLP199 T02220156= 201707252051 METAR KEWR 252051Z 02007KT 10SM SCT026 BKN035 BKN080 22/16 A3013 RMK AO2 SLP201 T02220161 51007= 201707252151 METAR KEWR 252151Z 03005KT 10SM SCT027 BKN035 BKN090 22/16 A3014 RMK AO2 SLP205 T02220156= 201707252251 METAR KEWR 252251Z 04006KT 10SM SCT025 BKN032 BKN095 22/16 A3014 RMK AO2 SLP206 T02220156= 201707252351 METAR KEWR 252351Z 06006KT 10SM BKN025 BKN040 BKN100 22/16 A3016 RMK AO2 SLP214 T02170156 10228 20206 53013= 201707260051 METAR KEWR 260051Z 04007KT 10SM BKN026 BKN032 OVC100 21/16 A3018 RMK AO2 SLP220 T02060156= 201707260151 METAR KEWR 260151Z 02008KT 10SM SCT026 BKN032 OVC060 20/16 A3020 RMK AO2 SLP226 T02000156= 201707260251 METAR KEWR 260251Z 05008KT 10SM SCT025 BKN032 OVC050 21/15 A3021 RMK AO2 SLP229 T02060150 51015= 201707260351 METAR KEWR 260351Z 03009KT 10SM BKN025 BKN032 OVC050 21/14 A3021 RMK AO2 SLP230 T02060144= 201707260451 METAR KEWR 260451Z 03009KT 10SM SCT025 BKN032 OVC050 20/14 A3022 RMK AO2 SLP232 T02000144 402280167= 201707260551 METAR KEWR 260551Z 03008KT 10SM FEW025 OVC040 19/14 A3023 RMK AO2 SLP235 T01940139 10217 20194 53004= 201707260651 METAR KEWR 260651Z 03008KT 10SM SCT025 OVC040 19/14 A3022 RMK AO2 SLP232 T01940139= 201707260751 METAR KEWR 260751Z 04005KT 10SM BKN027 OVC040 19/14 A3020 RMK AO2 SLP227 T01940139= 201707260851 METAR KEWR 260851Z 04004KT 10SM BKN027 OVC038 19/14 A3022 RMK AO2 SLP231 T01890139 55004= 201707260951 METAR KEWR 260951Z 01005KT 10SM SCT027 OVC038 19/14 A3024 RMK AO2 SLP238 T01940139= 201707261051 METAR KEWR 261051Z 02007KT 10SM FEW015 BKN042 19/14 A3023 RMK AO2 SLP237 T01890139= 201707261151 METAR KEWR 261151Z 35009KT 10SM FEW015 BKN042 21/14 A3024 RMK AO2 SLP241 70001 T02060139 10206 20189 51009= 201707261251 METAR KEWR 261251Z VRB06KT 10SM FEW032 SCT045 SCT250 22/14 A3025 RMK AO2 SLP243 T02170139= 201707261351 METAR KEWR 261351Z 12004KT 10SM FEW032 SCT045 SCT250 22/13 A3025 RMK AO2 SLP241 T02220128= 201707261451 METAR KEWR 261451Z 06008KT 10SM FEW040 SCT055 SCT250 24/13 A3024 RMK AO2 SLP240 T02390128 58000= 201707261551 METAR KEWR 261551Z 18008KT 10SM SCT040 23/13 A3023 RMK AO2 SLP237 T02330128= 201707261651 METAR KEWR 261651Z 16009KT 10SM SCT040 SCT250 24/13 A3022 RMK AO2 SLP232 T02390128= 201707261751 METAR KEWR 261751Z 14008G14KT 120V180 10SM FEW045 SCT250 24/12 A3021 RMK AO2 SLP228 T02390122 10244 20206 58012= 201707261851 METAR KEWR 261851Z 15008KT 10SM FEW045 SCT250 24/12 A3020 RMK AO2 SLP225 T02440122= 201707261951 METAR KEWR 261951Z 17009KT 10SM FEW045 SCT250 24/12 A3017 RMK AO2 SLP216 T02390117= 201707262051 METAR KEWR 262051Z 15007KT 110V180 10SM FEW045 BKN250 24/12 A3017 RMK AO2 SLP217 T02390122 55012= 201707262151 METAR KEWR 262151Z 15008KT 10SM FEW050 BKN250 24/11 A3015 RMK AO2 SLP211 T02390111= 201707262251 METAR KEWR 262251Z 12010KT 10SM FEW050 BKN250 23/12 A3014 RMK AO2 SLP206 T02280117= 201707262351 METAR KEWR 262351Z 15006KT 10SM FEW050 BKN250 22/13 A3014 RMK AO2 SLP206 T02220133 10244 20222 56011= 201707270051 METAR KEWR 270051Z 17006KT 10SM FEW050 BKN250 21/14 A3014 RMK AO2 SLP206 T02110144= 201707270151 METAR KEWR 270151Z 17007KT 10SM BKN250 21/15 A3014 RMK AO2 SLP206 T02060150= 201707270251 METAR KEWR 270251Z 20006KT 10SM SCT250 19/15 A3014 RMK AO2 SLP206 T01940150 53000= 201707270351 METAR KEWR 270351Z 19006KT 10SM SCT250 19/15 A3014 RMK AO2 SLP205 T01940150= 201707270451 METAR KEWR 270451Z 18006KT 10SM SCT250 19/15 A3011 RMK AO2 SLP197 T01940150 402440189= 201707270551 METAR KEWR 270551Z 20005KT 10SM SCT250 19/15 A3011 RMK AO2 SLP195 T01890150 10222 20189 58011= 201707270651 METAR KEWR 270651Z 23006KT 10SM SCT250 19/15 A3009 RMK AO2 SLP188 T01890150= 201707270751 METAR KEWR 270751Z 25006KT 10SM BKN250 19/16 A3008 RMK AO2 SLP185 T01890156= 201707270851 METAR KEWR 270851Z 18005KT 10SM BKN250 18/16 A3005 RMK AO2 SLP174 T01830156 58021= 201707270951 METAR KEWR 270951Z 24004KT 10SM BKN250 18/16 A3006 RMK AO2 SLP179 T01830156= 201707271051 METAR KEWR 271051Z 25005KT 10SM FEW050 BKN150 OVC250 19/16 A3006 RMK AO2 SLP179 T01890156= 201707271151 METAR KEWR 271151Z 24007KT 10SM SCT050 BKN180 OVC250 20/16 A3006 RMK AO2 SLP177 T02000156 10200 20178 50003 $= 201707271251 METAR KEWR 271251Z 24008KT 10SM FEW035 BKN050 OVC250 23/17 A3005 RMK AO2 SLP174 T02280167 $= 201707271351 METAR KEWR 271351Z 22005KT 10SM FEW018 SCT028 BKN035 BKN130 OVC250 23/18 A3002 RMK AO2 SLP167 T02280178 $= 201707271451 METAR KEWR 271451Z 24006KT 10SM FEW018 BKN024 OVC130 23/18 A3001 RMK AO2 SLP161 T02330183 58017 $= 201707271551 METAR KEWR 271551Z 23010KT 10SM BKN024 BKN035 BKN130 25/19 A2999 RMK AO2 SLP155 T02500189 $= 201707271651 METAR KEWR 271651Z 27007KT 10SM BKN024 BKN035 OVC130 26/19 A2996 RMK AO2 SLP146 T02610194 $= 201707271751 METAR KEWR 271751Z 26006KT 10SM BKN027 OVC034 26/19 A2994 RMK AO2 SLP140 T02560194 10267 20200 58021 $= 201707271851 METAR KEWR 271851Z 12003KT 10SM -RA BKN024 OVC032 25/20 A2993 RMK AO2 RAB01E12B29 SLP135 P0000 T02500200 $= 201707271951 METAR KEWR 271951Z 12003KT 10SM BKN027 BKN035 OVC050 25/20 A2992 RMK AO2 RAE02 SLP133 P0000 T02500200 $= 201707272051 METAR KEWR 272051Z 05005KT 10SM BKN025 OVC035 26/21 A2991 RMK AO2 RAB14E24 SLP127 P0000 60000 T02560206 58013 $= 201707272151 METAR KEWR 272151Z 05004KT 10SM BKN023 OVC035 25/20 A2990 RMK AO2 SLP123 T02500200 $= 201707272251 METAR KEWR 272251Z 09004KT 10SM BKN023 OVC035 25/20 A2989 RMK AO2 SLP121 T02500200 $= 201707272351 METAR KEWR 272351Z 09003KT 10SM BKN022 BKN030 OVC050 25/20 A2989 RMK AO2 SLP119 60000 T02500200 10261 20250 56007 $= 201707280051 METAR KEWR 280051Z 00000KT 10SM BKN024 BKN032 BKN060 BKN210 25/20 A2988 RMK AO2 SLP118 T02500200 $= 201707280151 METAR KEWR 280151Z 00000KT 10SM SCT025 SCT045 BKN140 BKN220 25/20 A2989 RMK AO2 SLP120 T02500200 $= 201707280251 METAR KEWR 280251Z 17008KT 10SM SCT025 BKN040 BKN140 OVC220 24/21 A2988 RMK AO2 SLP117 T02440206 58003 $= 201707280351 METAR KEWR 280351Z 21005KT 10SM BKN022 BKN040 BKN070 OVC210 24/21 A2987 RMK AO2 SLP114 T02390206 $= 201707280451 METAR KEWR 280451Z 00000KT 10SM FEW020 SCT040 SCT070 BKN210 23/21 A2986 RMK AO2 SLP112 T02330206 402670178 $= 201707280551 METAR KEWR 280551Z 28003KT 10SM FEW030 FEW050 SCT250 23/21 A2985 RMK AO2 SLP109 OCNL LTGIC DSNT SE CB DSNT SE MOV E T02330206 10256 20228 58008 $= 201707280651 METAR KEWR 280651Z 00000KT 10SM SCT012 BKN030 OVC200 23/21 A2985 RMK AO2 SLP108 T02280206 $= 201707280751 METAR KEWR 280751Z 00000KT 10SM SCT012 BKN250 23/21 A2984 RMK AO2 SLP104 T02280206 $= 201707280851 METAR KEWR 280851Z 00000KT 10SM FEW015 SCT250 22/21 A2984 RMK AO2 SLP105 T02220206 55003 $= 201707280951 METAR KEWR 280951Z 00000KT 10SM FEW020 FEW120 SCT250 22/20 A2986 RMK AO2 SLP109 T02170200 $= 201707281051 METAR KEWR 281051Z 00000KT 10SM FEW130 BKN250 23/21 A2985 RMK AO2 SLP106 T02280211 $= 201707281151 METAR KEWR 281151Z 03005KT 7SM FEW150 BKN250 24/21 A2986 RMK AO2 SLP111 T02390211 10239 20217 53006 $= 201707281251 METAR KEWR 281251Z 02006KT 6SM HZ FEW012 FEW130 BKN250 24/21 A2986 RMK AO2 SLP111 T02390206 $= 201707281351 METAR KEWR 281351Z 36007KT 8SM FEW020 FEW130 BKN250 26/21 A2985 RMK AO2 SLP107 HAZE ALOFT VIS LWR NE-S T02610211= 201707281451 METAR KEWR 281451Z 01006KT 9SM FEW025 FEW120 BKN250 27/21 A2985 RMK AO2 SLP108 HAZE ALOFT VIS LWR NE-S T02720206 55003= 201707281551 METAR KEWR 281551Z 09005KT 9SM FEW025 FEW120 BKN250 28/19 A2985 RMK AO2 SLP107 HAZE ALOFT T02780189= 201707281651 METAR KEWR 281651Z VRB06KT 9SM FEW030 SCT140 OVC250 28/19 A2983 RMK AO2 SLP102 T02830189= 201707281751 METAR KEWR 281751Z VRB06KT 9SM FEW030 SCT045TCU BKN140 OVC250 29/18 A2982 RMK AO2 SLP098 TCU E T02940183 10294 20239 58010= 201707281851 METAR KEWR 281851Z 11003KT 10SM FEW035 SCT045TCU SCT120 OVC250 29/19 A2981 RMK AO2 SLP093 TCU E T02890194= 201707281951 METAR KEWR 281951Z 15007KT 10SM FEW040TCU SCT120 OVC250 28/19 A2980 RMK AO2 SLP089 TCU W T02780194= 201707282051 METAR KEWR 282051Z 17009G14KT 10SM FEW040 SCT120 BKN250 27/21 A2978 RMK AO2 SLP084 T02720206 57014= 201707282151 METAR KEWR 282151Z 14008KT 10SM FEW040 SCT120 OVC250 27/20 A2977 RMK AO2 SLP081 T02670200= 201707282251 METAR KEWR 282251Z VRB05KT 10SM FEW040 SCT120 BKN200 OVC250 27/19 A2977 RMK AO2 SLP082 T02670194= 201707282351 METAR KEWR 282351Z 12004KT 10SM FEW040 SCT120 BKN200 OVC250 26/19 A2979 RMK AO2 SLP087 T02560194 10294 20256 53003= 201707290051 METAR KEWR 290051Z 14004KT 10SM FEW040 BKN130 OVC220 25/20 A2980 RMK AO2 SLP091 T02500200= 201707290151 METAR KEWR 290151Z 00000KT 10SM FEW012 FEW040 BKN130 OVC220 24/21 A2979 RMK AO2 SLP088 T02440211= 201707290251 METAR KEWR 290251Z 02004KT 10SM FEW012 SCT024 BKN034 OVC240 24/21 A2980 RMK AO2 SLP089 T02440211 51002= 201707290351 METAR KEWR 290351Z 02011KT 10SM FEW025 SCT080 OVC200 24/17 A2978 RMK AO2 SLP085 T02440172= 201707290451 METAR KEWR 290451Z 02010KT 10SM FEW025 FEW080 OVC200 24/16 A2977 RMK AO2 SLP080 T02390156 402940217= 201707290551 METAR KEWR 290551Z 02012KT 10SM FEW020 BKN065 OVC160 24/16 A2976 RMK AO2 SLP078 T02390161 10261 20233 56010= 201707290651 METAR KEWR 290651Z 02011KT 10SM FEW020 SCT070 OVC150 23/16 A2975 RMK AO2 SLP075 T02280156= 201707290751 METAR KEWR 290751Z 03011G19KT 10SM BKN050 OVC150 23/14 A2975 RMK AO2 SLP074 T02330144= 201707290851 METAR KEWR 290851Z 03013G21KT 10SM -RA SCT050 OVC120 22/11 A2976 RMK AO2 RAB44 SLP077 P0000 60000 T02220111 55001= 201707290951 METAR KEWR 290951Z 03011G19KT 10SM FEW060 BKN100 OVC140 22/11 A2976 RMK AO2 RAE0857 SLP077 P0000 T02170106= 201707291051 METAR KEWR 291051Z 03018KT 10SM -RA FEW040 BKN070 OVC120 21/11 A2976 RMK AO2 RAB49 SLP077 P0000 T02110106= 201707291151 METAR KEWR 291151Z 03016G22KT 10SM FEW030 SCT055 OVC130 21/11 A2978 RMK AO2 RAE05 SLP083 P0000 60000 T02110111 10239 20206 53006= 201707291251 METAR KEWR 291251Z 01018G24KT 10SM FEW032 FEW055 SCT080 OVC150 21/12 A2979 RMK AO2 SLP087 T02060117= 201707291351 METAR KEWR 291351Z 01019KT 10SM FEW025 FEW080 OVC160 19/13 A2979 RMK AO2 PK WND 03026/1257 SLP088 T01940128= 201707291451 METAR KEWR 291451Z 02018G26KT 10SM FEW025 FEW080 SCT120 OVC170 21/13 A2980 RMK AO2 PK WND 03026/1444 SLP091 T02060128 51008= 201707291551 METAR KEWR 291551Z 01022G27KT 10SM FEW030 FEW080 SCT120 OVC190 22/13 A2979 RMK AO2 PK WND 01027/1550 SLP088 T02170128= 201707291651 METAR KEWR 291651Z 02018G27KT 10SM BKN030 BKN055 OVC200 22/13 A2980 RMK AO2 PK WND 02029/1552 SLP090 T02220128= 201707291751 METAR KEWR 291751Z 02016G26KT 10SM BKN036 BKN047 OVC200 23/13 A2981 RMK AO2 PK WND 01026/1655 SLP094 T02280128 10239 20194 53003= 201707291851 METAR KEWR 291851Z 02016G21KT 10SM BKN035 OVC050 23/13 A2981 RMK AO2 SLP094 T02280133= 201707291951 METAR KEWR 291951Z 02014KT 10SM SCT040 BKN055 24/13 A2981 RMK AO2 SLP094 T02390133= 201707292051 METAR KEWR 292051Z 01019G24KT 10SM FEW046 BKN060 BKN085 25/13 A2981 RMK AO2 SLP094 T02500128 58000= 201707292151 METAR KEWR 292151Z 02015KT 10SM SCT060 BKN085 BKN250 25/13 A2981 RMK AO2 PK WND 03028/2059 SLP095 T02500133= 201707292251 METAR KEWR 292251Z 01017KT 10SM SCT060 BKN075 BKN230 25/13 A2982 RMK AO2 SLP099 T02500128= 201707292351 METAR KEWR 292351Z 02014KT 10SM SCT065 SCT080 BKN230 24/12 A2984 RMK AO2 SLP103 T02390117 10256 20228 53010= 201707300051 METAR KEWR 300051Z 36018G23KT 10SM FEW065 FEW080 SCT250 23/12 A2985 RMK AO2 SLP109 T02280122= 201707300151 METAR KEWR 300151Z 01013KT 10SM FEW048 FEW250 22/11 A2988 RMK AO2 SLP117 T02170111= 201707300251 METAR KEWR 300251Z 01010KT 10SM CLR 21/11 A2989 RMK AO2 SLP121 T02060111 51018= 201707300351 METAR KEWR 300351Z 36011KT 10SM CLR 20/11 A2990 RMK AO2 SLP124 T02000106= 201707300451 METAR KEWR 300451Z 01011KT 10SM CLR 19/11 A2990 RMK AO2 SLP125 T01940106 402560194= 201707300551 METAR KEWR 300551Z 01009KT 10SM CLR 19/10 A2990 RMK AO2 SLP125 T01890100 10239 20183 50003= 201707300651 METAR KEWR 300651Z 02007KT 10SM CLR 17/10 A2990 RMK AO2 SLP125 T01720100= 201707300751 METAR KEWR 300751Z 03008KT 10SM CLR 17/11 A2991 RMK AO2 SLP129 T01720106= 201707300851 METAR KEWR 300851Z 02008KT 10SM CLR 17/11 A2993 RMK AO2 SLP136 T01670106 53011= 201707300951 METAR KEWR 300951Z 02007KT 10SM FEW250 16/11 A2995 RMK AO2 SLP140 T01560106= 201707301051 METAR KEWR 301051Z 01008KT 10SM FEW250 18/11 A2997 RMK AO2 SLP146 T01780106= 201707301151 METAR KEWR 301151Z 01012KT 10SM FEW250 20/11 A2998 RMK AO2 SLP151 T02000106 10200 20156 52015= 201707301251 METAR KEWR 301251Z 02011KT 10SM FEW250 22/11 A2999 RMK AO2 SLP155 T02170106= 201707301351 METAR KEWR 301351Z 04010KT 10SM FEW250 23/11 A3000 RMK AO2 SLP160 T02280106= 201707301451 METAR KEWR 301451Z 01009KT 10SM FEW260 24/11 A3001 RMK AO2 SLP160 T02440106 51009= 201707301551 METAR KEWR 301551Z 04007KT 360V070 10SM FEW060 FEW260 26/11 A3001 RMK AO2 SLP162 T02560106= 201707301651 METAR KEWR 301651Z 02007KT 10SM FEW060 SCT260 26/09 A3002 RMK AO2 SLP164 T02610094= 201707301751 METAR KEWR 301751Z 05008KT 10SM FEW060 FEW260 27/09 A3002 RMK AO2 SLP165 T02670089 10272 20200 51005= 201707301851 METAR KEWR 301851Z 01008KT 10SM FEW070 FEW260 28/11 A3001 RMK AO2 SLP162 T02780106= 201707301951 METAR KEWR 301951Z 03006KT 10SM FEW070 27/09 A3001 RMK AO2 SLP160 T02720089= 201707302051 METAR KEWR 302051Z 33005KT 10SM FEW070 28/11 A3000 RMK AO2 SLP160 T02830106 56005= 201707302151 METAR KEWR 302151Z 36009KT 10SM FEW070 28/08 A3000 RMK AO2 SLP160 T02830078= 201707302251 METAR KEWR 302251Z VRB03KT 10SM CLR 28/08 A3000 RMK AO2 SLP160 T02780078= 201707302351 METAR KEWR 302351Z 17004KT 10SM CLR 26/12 A3002 RMK AO2 SLP166 T02610122 10283 20261 53006= 201707310051 METAR KEWR 310051Z 14004KT 10SM CLR 25/13 A3004 RMK AO2 SLP171 T02500128= 201707310151 METAR KEWR 310151Z 18006KT 10SM CLR 23/14 A3005 RMK AO2 SLP177 T02330139= 201707310251 METAR KEWR 310251Z 21005KT 10SM CLR 21/13 A3007 RMK AO2 SLP181 T02110128 51015= 201707310351 METAR KEWR 310351Z 23008KT 10SM CLR 20/12 A3007 RMK AO2 SLP182 T02000122= 201707310451 METAR KEWR 310451Z 23008KT 10SM CLR 21/12 A3007 RMK AO2 SLP181 T02110117 402830156= 201707310551 METAR KEWR 310551Z 24007KT 10SM CLR 21/12 A3006 RMK AO2 SLP179 T02060117 10261 20200 58002= 201707310651 METAR KEWR 310651Z 24006KT 10SM CLR 19/12 A3006 RMK AO2 SLP179 T01940122= 201707310751 METAR KEWR 310751Z 24005KT 10SM CLR 19/12 A3005 RMK AO2 SLP176 T01890122= 201707310851 METAR KEWR 310851Z 25009KT 10SM CLR 19/13 A3005 RMK AO2 SLP175 T01940128 58003= 201707310951 METAR KEWR 310951Z 26003KT 10SM CLR 19/13 A3006 RMK AO2 SLP179 T01890128= 201707311051 METAR KEWR 311051Z VRB05KT 10SM CLR 19/13 A3007 RMK AO2 SLP182 T01940133 $= 201707311151 METAR KEWR 311151Z 25006KT 10SM SCT250 21/14 A3007 RMK AO2 SLP181 T02110139 10211 20178 50006 $= 201707311251 METAR KEWR 311251Z 00000KT 10SM FEW250 24/14 A3007 RMK AO2 SLP181 T02440139 $= 201707311351 METAR KEWR 311351Z 00000KT 10SM FEW250 27/14 A3007 RMK AO2 SLP181 T02670139 $= 201707311451 METAR KEWR 311451Z VRB03KT 10SM FEW250 28/14 A3007 RMK AO2 SLP182 T02830139 53000 $= 201707311551 METAR KEWR 311551Z 06005KT 10SM FEW050 FEW250 29/14 A3007 RMK AO2 SLP181 T02940139 $= 201707311651 METAR KEWR 311651Z 10SM FEW055 FEW250 31/13 A3005 RMK AO2 SLP177 T03060133 $= 201707311751 METAR KEWR 311751Z 12005KT 10SM FEW060 SCT250 30/14 A3003 RMK AO2 SLP169 T03000139 10306 20211 58012= 201707311851 METAR KEWR 311851Z VRB06KT 10SM FEW065 SCT250 32/14 A3002 RMK AO2 SLP165 T03170144= 201707311951 METAR KEWR 311951Z 34009KT 10SM FEW065 SCT250 32/14 A3000 RMK AO2 SLP158 T03220144= 201707312051 METAR KEWR 312051Z 00000KT 10SM FEW060 SCT250 31/14 A3000 RMK AO2 SLP157 T03110139 56012= 201707312151 METAR KEWR 312151Z VRB04KT 10SM FEW060 SCT250 31/15 A2999 RMK AO2 SLP156 T03060150= 201707312251 METAR KEWR 312251Z 13007KT 10SM FEW060 FEW090 SCT250 29/17 A3000 RMK AO2 SLP159 T02940167= 201707312351 METAR KEWR 312351Z 13007KT 10SM FEW060 FEW080 SCT250 28/18 A3001 RMK AO2 SLP162 T02830178 10328 20283 53005=
