 201706010051 METAR KEWR 010051Z 17004KT 10SM FEW030 SCT050 BKN250 22/17 A2992 RMK AO2 LTG DSNT W SLP129 CONS LTGICCCCA DSNT SW CB DSNT SW MOV NE T02170167= 201706010151 METAR KEWR 010151Z 17007KT 10SM FEW015 SCT050 BKN120 BKN250 21/18 A2993 RMK AO2 LTG DSNT NE RAB0056E44 TSB07E49 SLP135 OCNL LTGIC DSNT NE CB DSNT NE MOV NE P0002 T02110178= 201706010251 METAR KEWR 010251Z 21006KT 10SM FEW050 FEW120 SCT250 21/17 A2993 RMK AO2 LTG DSNT N TSB21E38 SLP134 CONS LTGICCC DSNT NW-DSNT NE CB DSNT NW-DSNT NE MOV E 60002 T02060167 50006= 201706010351 METAR KEWR 010351Z 26007KT 10SM FEW050 FEW120 SCT250 21/17 A2992 RMK AO2 LTG DSNT N SLP132 OCNL LTGIC DSNT W-DSNT NW CB DSNT W-DSNT NW MOV E T02060167= 201706010451 METAR KEWR 010451Z 04005KT 10SM SCT025 SCT050 SCT250 18/16 A2994 RMK AO2 SLP139 T01830161 402670144= 201706010551 METAR KEWR 010551Z 00000KT 10SM FEW025 FEW120 SCT250 17/14 A2994 RMK AO2 SLP138 60002 T01720144 10222 20161 53004= 201706010651 METAR KEWR 010651Z 07004KT 10SM SCT080 SCT250 18/14 A2995 RMK AO2 SLP143 T01780139= 201706010751 METAR KEWR 010751Z 01004KT 10SM FEW090 BKN120 17/14 A2994 RMK AO2 SLP138 T01720144= 201706010851 METAR KEWR 010851Z 36003KT 10SM SCT100 SCT250 17/14 A2994 RMK AO2 SLP139 T01670144 51001= 201706010951 METAR KEWR 010951Z 00000KT 10SM FEW100 SCT250 17/14 A2994 RMK AO2 SLP139 T01720144= 201706011051 METAR KEWR 011051Z VRB03KT 10SM FEW100 SCT250 18/14 A2995 RMK AO2 SLP142 T01780144= 201706011151 METAR KEWR 011151Z 24007KT 10SM FEW013 SCT110 BKN250 18/15 A2996 RMK AO2 SLP145 70002 T01830150 10183 20161 53006 $= 201706011251 METAR KEWR 011251Z 00000KT 10SM FEW011 BKN090 BKN110 BKN250 18/16 A2996 RMK AO2 SLP144 T01830161 $= 201706011351 METAR KEWR 011351Z 00000KT 8SM FEW015 SCT090 SCT100 SCT250 22/16 A2994 RMK AO2 SLP139 T02220156 $= 201706011451 METAR KEWR 011451Z 25008KT 10SM FEW035 FEW090 FEW250 24/14 A2993 RMK AO2 SLP136 T02440139 58010 $= 201706011551 METAR KEWR 011551Z 27008KT 10SM SCT045 26/13 A2992 RMK AO2 SLP131 T02560128 $= 201706011651 METAR KEWR 011651Z 26010G17KT 10SM SCT055 26/09 A2990 RMK AO2 SLP126 T02610094 $= 201706011751 METAR KEWR 011751Z 28010G22KT 10SM SCT065 27/07 A2989 RMK AO2 SLP120 T02720072 10272 20178 58016 $= 201706011851 METAR KEWR 011851Z 28015G20KT 10SM SCT075 SCT095 26/08 A2988 RMK AO2 SLP118 T02610078 $= 201706011951 METAR KEWR 011951Z 29020G26KT 10SM SCT075 28/07 A2988 RMK AO2 SLP117 T02780072 $= 201706012051 METAR KEWR 012051Z 31014G20KT 10SM FEW080 27/06 A2987 RMK AO2 SLP115 T02720061 56005 $= 201706012151 METAR KEWR 012151Z 27017G22KT 10SM FEW080 26/05 A2988 RMK AO2 SLP116 T02610050 $= 201706012251 METAR KEWR 012251Z 29015G20KT 10SM FEW075 26/07 A2988 RMK AO2 SLP119 T02560067 $= 201706012351 METAR KEWR 012351Z 26011KT 10SM FEW075 24/06 A2989 RMK AO2 SLP121 T02440061 10278 20244 53005 $= 201706020051 METAR KEWR 020051Z 26008KT 10SM FEW070 23/06 A2991 RMK AO2 SLP126 T02330061 $= 201706020151 METAR KEWR 020151Z 26007KT 10SM FEW070 21/07 A2993 RMK AO2 SLP133 T02110072 $= 201706020251 METAR KEWR 020251Z 24009KT 10SM FEW070 21/07 A2993 RMK AO2 SLP136 T02060072 51016 $= 201706020351 METAR KEWR 020351Z 27006KT 10SM SCT070 19/08 A2993 RMK AO2 SLP135 T01940078 $= 201706020451 METAR KEWR 020451Z 35009G15KT 10SM FEW080 FEW250 19/07 A2995 RMK AO2 SLP142 T01940067 402780161 $= 201706020551 METAR KEWR 020551Z 36009KT 10SM FEW080 FEW250 18/06 A2996 RMK AO2 SLP145 T01830061 10244 20183 53009 $= 201706020651 METAR KEWR 020651Z 02007KT 10SM FEW080 17/06 A2997 RMK AO2 SLP148 T01670061 $= 201706020751 METAR KEWR 020751Z 35003KT 10SM FEW250 16/06 A2998 RMK AO2 SLP152 T01610061 $= 201706020851 METAR KEWR 020851Z 01005KT 10SM SCT250 16/06 A2998 RMK AO2 SLP151 T01560061 50006 $= 201706020951 METAR KEWR 020951Z 00000KT 10SM FEW200 SCT250 16/06 A2998 RMK AO2 SLP152 T01610056 $= 201706021051 METAR KEWR 021051Z 33003KT 10SM FEW200 SCT250 17/07 A2999 RMK AO2 SLP154 T01720072 $= 201706021151 METAR KEWR 021151Z 00000KT 10SM FEW250 18/06 A2999 RMK AO2 SLP155 T01830061 10183 20144 52004 $= 201706021251 METAR KEWR 021251Z 24003KT 10SM FEW140 SCT250 19/06 A2999 RMK AO2 SLP155 T01940061 $= 201706021351 METAR KEWR 021351Z 00000KT 10SM FEW090 SCT250 21/07 A2999 RMK AO2 SLP153 T02110067 $= 201706021451 METAR KEWR 021451Z 24008KT 10SM FEW055 FEW090 SCT250 22/07 A2996 RMK AO2 SLP146 T02220072 58008 $= 201706021551 METAR KEWR 021551Z 25014G20KT 10SM FEW065 SCT100 SCT180 BKN200 24/06 A2995 RMK AO2 SLP140 T02390061 $= 201706021651 METAR KEWR 021651Z 26013G21KT 10SM SCT070 SCT130 SCT180 BKN200 24/06 A2992 RMK AO2 SLP131 T02440056 $= 201706021751 METAR KEWR 021751Z 25015G22KT 10SM SCT080 SCT095 25/05 A2990 RMK AO2 SLP124 T02500050 10256 20183 58022= 201706021851 METAR KEWR 021851Z 26017G26KT 10SM SCT095 BKN120 26/01 A2988 RMK AO2 PK WND 26028/1821 SLP117 T02560011= 201706021951 METAR KEWR 021951Z 31020G26KT 10SM SCT100TCU 26/02 A2988 RMK AO2 PK WND 28027/1852 SLP117 TCU OHD T02610017= 201706022051 METAR KEWR 022051Z 32017KT 10SM FEW060 SCT100 26/02 A2988 RMK AO2 PK WND 28026/1954 SLP117 TCU DSNT E T02560017 55007= 201706022151 METAR KEWR 022151Z 33015G23KT 10SM FEW060 FEW100 25/00 A2988 RMK AO2 SLP118 T02500000= 201706022251 METAR KEWR 022251Z 33016G25KT 10SM FEW060 FEW100 24/01 A2989 RMK AO2 PK WND 30026/2211 SLP121 T02390011= 201706022351 METAR KEWR 022351Z 34013KT 10SM FEW060 FEW100 22/03 A2991 RMK AO2 SLP127 T02220028 10267 20222 53010= 201706030051 METAR KEWR 030051Z 34012KT 10SM FEW070 FEW250 21/03 A2993 RMK AO2 SLP135 T02110033= 201706030151 METAR KEWR 030151Z 35008KT 10SM FEW070 FEW250 20/03 A2996 RMK AO2 SLP143 T02000033= 201706030251 METAR KEWR 030251Z 35013KT 10SM FEW250 19/04 A2998 RMK AO2 SLP150 T01890044 51023= 201706030351 METAR KEWR 030351Z 36008KT 10SM FEW250 17/03 A2998 RMK AO2 SLP152 T01720033= 201706030451 METAR KEWR 030451Z 29003KT 10SM CLR 17/04 A2997 RMK AO2 SLP149 T01670039 402670144= 201706030551 METAR KEWR 030551Z 26005KT 10SM CLR 16/05 A2997 RMK AO2 SLP149 T01560050 10222 20156 58002= 201706030651 METAR KEWR 030651Z 27006KT 10SM FEW250 14/06 A2997 RMK AO2 SLP148 T01440056= 201706030751 METAR KEWR 030751Z 27005KT 10SM FEW120 BKN180 OVC250 14/06 A2997 RMK AO2 SLP147 T01440056= 201706030851 METAR KEWR 030851Z 00000KT 10SM SCT120 OVC180 15/05 A2996 RMK AO2 SLP145 T01500050 58004= 201706030951 METAR KEWR 030951Z 22003KT 10SM FEW100 BKN140 OVC180 14/07 A2996 RMK AO2 SLP145 T01390067= 201706031051 METAR KEWR 031051Z 25008KT 10SM FEW060 BKN100 OVC140 15/06 A2998 RMK AO2 SLP153 T01500061= 201706031151 METAR KEWR 031151Z 27012KT 10SM -RA BKN060 OVC080 13/09 A3001 RMK AO2 PK WND 27026/1119 RAB01 SLP162 P0003 60003 70003 T01280089 10156 20128 53018= 201706031251 METAR KEWR 031251Z 24013KT 10SM FEW060 OVC085 13/09 A2999 RMK AO2 RAE42 SLP156 P0000 T01280094= 201706031351 METAR KEWR 031351Z 27011KT 10SM FEW060 SCT080 BKN140 14/10 A2999 RMK AO2 SLP154 T01390100= 201706031451 METAR KEWR 031451Z 26007KT 10SM FEW060 SCT080 SCT140 17/11 A2997 RMK AO2 SLP149 60000 T01720111 56013= 201706031551 METAR KEWR 031551Z 34012G18KT 10SM SCT050 SCT080 SCT140 21/07 A2995 RMK AO2 SLP143 T02110072= 201706031651 METAR KEWR 031651Z 32015G22KT 10SM BKN060 BKN080 21/06 A2995 RMK AO2 SLP140 T02110056= 201706031751 METAR KEWR 031751Z 34015G20KT 10SM SCT075 22/03 A2995 RMK AO2 SLP140 60000 T02220033 10233 20128 56009= 201706031851 METAR KEWR 031851Z 31014G22KT 10SM SCT075 23/03 A2994 RMK AO2 SLP138 T02280028= 201706031951 METAR KEWR 031951Z 32014G21KT 10SM SCT075 24/02 A2994 RMK AO2 PK WND 31029/1908 SLP137 T02440022= 201706032051 METAR KEWR 032051Z 30017G24KT 10SM SCT080 24/02 A2993 RMK AO2 PK WND 28028/2029 SLP136 T02390017 56004= 201706032151 METAR KEWR 032151Z 29015KT 10SM FEW080 24/03 A2993 RMK AO2 PK WND 29026/2110 SLP135 T02390028= 201706032251 METAR KEWR 032251Z 29013KT 10SM FEW250 24/03 A2994 RMK AO2 SLP138 T02390028= 201706032351 METAR KEWR 032351Z 31009KT 10SM FEW250 23/02 A2996 RMK AO2 SLP144 T02280022 10244 20217 53008= 201706040051 METAR KEWR 040051Z 31009KT 10SM FEW250 22/03 A2997 RMK AO2 SLP148 T02170028= 201706040151 METAR KEWR 040151Z 32005KT 10SM FEW250 21/03 A2999 RMK AO2 SLP154 T02060028= 201706040251 METAR KEWR 040251Z 31004KT 10SM BKN250 19/03 A2999 RMK AO2 SLP154 T01940033 50010= 201706040351 METAR KEWR 040351Z 33005KT 10SM FEW250 19/03 A2999 RMK AO2 SLP156 T01890033= 201706040451 METAR KEWR 040451Z 35006KT 10SM FEW250 17/04 A3000 RMK AO2 SLP158 T01720039 402440128= 201706040551 METAR KEWR 040551Z 36006KT 10SM FEW250 16/04 A3001 RMK AO2 SLP161 T01610044 10228 20156 53007= 201706040651 METAR KEWR 040651Z 27003KT 10SM CLR 16/04 A3002 RMK AO2 SLP164 T01560039= 201706040751 METAR KEWR 040751Z 27007KT 10SM FEW250 14/06 A3002 RMK AO2 SLP165 T01390056= 201706040851 METAR KEWR 040851Z 27006KT 10SM FEW250 13/05 A3002 RMK AO2 SLP165 T01330050 50004= 201706040951 METAR KEWR 040951Z 24003KT 10SM FEW250 13/06 A3003 RMK AO2 SLP167 T01330056= 201706041051 METAR KEWR 041051Z 00000KT 10SM FEW250 16/07 A3002 RMK AO2 SLP166 T01560072= 201706041151 METAR KEWR 041151Z 00000KT 10SM FEW200 FEW250 18/05 A3002 RMK AO2 SLP166 T01830050 10183 20122 51001= 201706041251 METAR KEWR 041251Z VRB03KT 10SM FEW100 SCT200 SCT250 19/06 A3003 RMK AO2 SLP167 T01940056= 201706041351 METAR KEWR 041351Z VRB05KT 10SM SCT100 SCT200 BKN250 21/06 A3002 RMK AO2 SLP164 T02060061= 201706041451 METAR KEWR 041451Z 16006KT 10SM SCT045 OVC120 21/06 A3001 RMK AO2 SLP161 T02060061 58005= 201706041551 METAR KEWR 041551Z 13009KT 10SM SCT045 BKN100 OVC140 21/07 A2999 RMK AO2 SLP155 T02060072= 201706041651 METAR KEWR 041651Z 16007KT 10SM SCT045 OVC100 19/08 A2997 RMK AO2 RAB10E32 SLP148 P0000 T01890078= 201706041751 METAR KEWR 041751Z 13007KT 10SM -RA BKN060 OVC090 18/08 A2997 RMK AO2 RAB35 SLP150 P0000 60000 T01830083 10211 20183 55011= 201706041851 METAR KEWR 041851Z 11005KT 10SM -RA FEW040 SCT060 OVC090 18/09 A2996 RMK AO2 RAE05B29 SLP144 P0000 T01830094= 201706041951 METAR KEWR 041951Z 12007KT 10SM -RA FEW040 SCT070 OVC100 18/09 A2994 RMK AO2 SLP137 P0000 T01830094 $= 201706042051 METAR KEWR 042051Z 14007KT 10SM -RA FEW040 SCT065 OVC095 18/10 A2990 RMK AO2 SLP125 P0000 60000 T01830100 58025 $= 201706042151 METAR KEWR 042151Z 15009KT 10SM -RA SCT040 BKN065 OVC120 18/12 A2987 RMK AO2 SLP114 P0000 T01780122 $= 201706042251 METAR KEWR 042251Z 11003KT 10SM -RA SCT050 OVC090 18/13 A2987 RMK AO2 SLP114 P0000 T01780133 $= 201706042351 METAR KEWR 042351Z 05005KT 10SM FEW050 BKN100 OVC150 18/14 A2987 RMK AO2 RAE06 SLP115 P0000 60000 T01780144 10189 20178 55010 $= 201706050051 METAR KEWR 050051Z 05005KT 10SM SCT050 BKN085 OVC140 18/14 A2986 RMK AO2 SLP110 T01780144 $= 201706050151 METAR KEWR 050151Z 05005KT 10SM FEW050 BKN085 OVC120 18/14 A2986 RMK AO2 SLP110 T01780144 $= 201706050251 METAR KEWR 050251Z 01005KT 10SM FEW050 BKN085 OVC120 17/14 A2984 RMK AO2 SLP104 T01720139 56011 $= 201706050351 METAR KEWR 050351Z 36008KT 10SM -RA BKN090 OVC110 16/14 A2983 RMK AO2 RAB09 SLP100 P0000 T01610139 $= 201706050451 METAR KEWR 050451Z 01008KT 6SM RA BR SCT070 OVC090 15/13 A2982 RMK AO2 SLP097 P0009 T01500133 402110122 $= 201706050551 METAR KEWR 050551Z 35010KT 10SM SCT080 OVC100 14/14 A2980 RMK AO2 LTG DSNT SW RAE13 SLP089 P0001 60010 T01440139 10178 20144 58015 $= 201706050651 METAR KEWR 050651Z 05004KT 6SM -RA BR FEW020 SCT085 OVC110 14/14 A2979 RMK AO2 LTG DSNT ALQDS RAB27 SLP087 OCNL LTGICCC DSNT SE AND S CB DSNT SE AND S MOV E P0001 T01440139 $= 201706050751 METAR KEWR 050751Z 02005KT 7SM -TSRA FEW020 SCT070CB OVC110 14/14 A2975 RMK AO2 LTG DSNT E-SW RAE04B45 TSE40B44 SLP075 OCNL LTGICCC VC S TS VC S MOV E P0000 T01390139 $= 201706050851 METAR KEWR 050851Z 01007KT 6SM BR SCT006 SCT050 BKN080 OVC130 14/14 A2974 RMK AO2 LTG DSNT E AND SE RAE27 TSE41 SLP071 P0004 60005 T01390139 56016 $= 201706050951 METAR KEWR 050951Z 01007KT 5SM BR FEW006 BKN070 OVC110 13/13 A2975 RMK AO2 RAB15E25 SLP074 P0000 T01330133 $= 201706051051 METAR KEWR 051051Z 03006KT 5SM BR BKN006 BKN070 OVC120 14/14 A2976 RMK AO2 SLP076 T01390139 $= 201706051151 METAR KEWR 051151Z 36007KT 5SM BR SCT007 BKN010 BKN110 OVC150 14/14 A2976 RMK AO2 SLP077 60005 70015 T01440144 10144 20133 51002 $= 201706051251 METAR KEWR 051251Z 02004KT 3SM BR BKN006 BKN012 OVC150 16/16 A2977 RMK AO2 SFC VIS 5 SLP079 T01560156 $= 201706051351 METAR KEWR 051351Z 05004KT 6SM BR BKN008 BKN140 OVC250 17/16 A2977 RMK AO2 SLP080 T01720156 $= 201706051451 METAR KEWR 051451Z VRB03KT 6SM HZ FEW008 BKN140 OVC250 19/16 A2976 RMK AO2 SLP078 T01940161 50001= 201706051551 METAR KEWR 051551Z 02005KT 5SM HZ BKN011 BKN140 OVC200 21/17 A2976 RMK AO2 SLP077 T02060167= 201706051651 METAR KEWR 051651Z 03005KT 5SM HZ SCT014 BKN140 OVC200 21/17 A2975 RMK AO2 SLP072 T02060167= 201706051751 METAR KEWR 051751Z VRB03KT 6SM HZ SCT020 BKN140 OVC200 21/17 A2975 RMK AO2 SLP073 T02110167 10217 20144 55004= 201706051851 METAR KEWR 051851Z VRB03KT 6SM HZ SCT020 BKN160 OVC200 22/17 A2975 RMK AO2 SLP073 SCT V BKN T02170167= 201706051951 METAR KEWR 051951Z 08006KT 6SM HZ BKN016 OVC060 22/17 A2972 RMK AO2 SLP064 T02170172 $= 201706052051 METAR KEWR 052051Z 10008KT 6SM HZ SCT018 BKN060 OVC170 21/17 A2972 RMK AO2 SLP064 T02060172 56010 $= 201706052151 METAR KEWR 052151Z 12005KT 6SM HZ FEW005 BKN010 OVC023 20/17 A2971 RMK AO2 SLP061 T02000172 $= 201706052251 METAR KEWR 052251Z 16007KT 5SM BR BKN008 OVC023 19/17 A2972 RMK AO2 SLP064 T01890167 $= 201706052351 METAR KEWR 052351Z 10008KT 1 1/2SM BR OVC004 17/16 A2974 RMK AO2 SFC VIS 3 SLP071 T01720156 10217 20172 53007 $= 201706060051 METAR KEWR 060051Z 10010KT 2SM BR OVC004 17/16 A2973 RMK AO2 SFC VIS 5 SLP066 T01670156 $= 201706060151 METAR KEWR 060151Z 07006KT 2SM BR OVC006 17/15 A2972 RMK AO2 SFC VIS 6 SLP063 T01670150 $= 201706060251 METAR KEWR 060251Z 05006KT 7SM OVC008 17/16 A2973 RMK AO2 SLP066 T01720156 55005 $= 201706060351 METAR KEWR 060351Z 04007KT 5SM -DZ BR OVC006 17/16 A2973 RMK AO2 DZB34 SLP066 P0000 T01670156 $= 201706060451 METAR KEWR 060451Z 03010KT 2 1/2SM -RA BR BKN004 OVC007 16/15 A2972 RMK AO2 DZE13RAB13 SLP062 P0000 T01560150 402170133 $= 201706060551 METAR KEWR 060551Z 07008KT 6SM -DZ BR OVC007 15/14 A2971 RMK AO2 RAE04DZB04 SLP059 P0000 60000 T01500144 10172 20150 58007 $= 201706060651 METAR KEWR 060651Z 05008KT 6SM -DZ BR SCT005 OVC009 14/14 A2971 RMK AO2 SLP059 P0000 T01440139 $= 201706060751 METAR KEWR 060751Z 03011KT 8SM -DZ OVC008 14/13 A2969 RMK AO2 SLP055 P0000 T01390128 $= 201706060851 METAR KEWR 060851Z 02014KT 10SM OVC009 13/12 A2970 RMK AO2 DZE50 SLP057 P0000 60000 T01330122 55003 $= 201706060951 METAR KEWR 060951Z 03012KT 10SM OVC010 13/12 A2970 RMK AO2 SLP057 T01330122 $= 201706061051 METAR KEWR 061051Z 04010KT 10SM -RA BKN010 OVC017 13/12 A2972 RMK AO2 RAB02 SLP062 P0001 T01330122 $= 201706061151 METAR KEWR 061151Z 04011KT 10SM -RA BKN010 OVC017 13/12 A2974 RMK AO2 SLP069 P0002 60003 70003 T01330122 10150 20133 53013 $= 201706061251 METAR KEWR 061251Z 04009KT 10SM BKN011 OVC017 13/12 A2975 RMK AO2 RAE22 SLP074 P0001 T01330117 $= 201706061351 METAR KEWR 061351Z 03008KT 10SM BKN012 OVC017 14/12 A2975 RMK AO2 SLP073 T01390117= 201706061451 METAR KEWR 061451Z 02007KT 6SM -DZ BR BKN011 OVC015 14/12 A2976 RMK AO2 DZB49 SLP077 P0000 60001 T01390117 51007= 201706061551 METAR KEWR 061551Z 04006KT 4SM -RA BR BKN007 OVC012 13/12 A2977 RMK AO2 DZE51RAB51 SLP082 P0000 T01330122= 201706061651 METAR KEWR 061651Z 04006KT 5SM -DZ BR BKN008 BKN018 OVC023 13/12 A2978 RMK AO2 RAE01DZB01 SLP084 P0000 T01330122= 201706061751 METAR KEWR 061751Z 02010KT 8SM -RA BKN008 OVC015 13/12 A2979 RMK AO2 DZE1653RAB1653 SLP086 P0001 60002 T01330117 10139 20128 51009= 201706061851 METAR KEWR 061851Z 05007KT 10SM SCT009 BKN018 OVC022 15/12 A2979 RMK AO2 RAE00 SLP087 P0000 T01500122= 201706061951 METAR KEWR 061951Z VRB05KT 10SM FEW009 BKN018 OVC022 15/11 A2980 RMK AO2 SLP090 T01500111= 201706062051 METAR KEWR 062051Z 08005KT 10SM SCT018 OVC021 15/11 A2981 RMK AO2 SLP093 60000 T01500106 53008= 201706062151 METAR KEWR 062151Z 06006KT 10SM FEW018 OVC021 15/10 A2981 RMK AO2 SLP095 T01500100= 201706062251 METAR KEWR 062251Z 06006KT 10SM OVC021 14/09 A2984 RMK AO2 SLP104 T01440094= 201706062351 METAR KEWR 062351Z 03009KT 10SM BKN015 OVC018 13/11 A2987 RMK AO2 SLP114 60000 T01330106 10150 20133 53021= 201706070051 METAR KEWR 070051Z 08009KT 6SM -RA BR SCT009 BKN013 OVC020 13/11 A2988 RMK AO2 RAB35 SLP118 P0000 T01280106= 201706070151 METAR KEWR 070151Z 04009KT 10SM FEW010 OVC015 12/10 A2991 RMK AO2 RAE00 SLP127 P0000 T01220100= 201706070251 METAR KEWR 070251Z 03010KT 10SM FEW010 BKN018 OVC022 12/09 A2992 RMK AO2 SLP132 60000 T01220089 53018= 201706070351 METAR KEWR 070351Z 03009KT 10SM FEW015 SCT023 BKN039 12/07 A2992 RMK AO2 SLP132 T01170072= 201706070451 METAR KEWR 070451Z 04010KT 10SM FEW015 FEW023 BKN039 12/07 A2993 RMK AO2 SLP135 T01170072 401560117= 201706070551 METAR KEWR 070551Z 02007KT 10SM FEW015 BKN023 BKN039 11/08 A2994 RMK AO2 SLP138 60000 T01110078 10133 20111 53005= 201706070651 METAR KEWR 070651Z 04010KT 10SM BKN023 BKN039 12/08 A2993 RMK AO2 SLP135 T01170078= 201706070751 METAR KEWR 070751Z 04010KT 10SM BKN022 BKN039 12/08 A2993 RMK AO2 SLP135 T01170078= 201706070851 METAR KEWR 070851Z 02007KT 10SM OVC024 12/08 A2994 RMK AO2 SLP137 T01170078 55001= 201706070951 METAR KEWR 070951Z 36008KT 10SM BKN029 BKN050 11/08 A2995 RMK AO2 SLP140 T01110078= 201706071051 METAR KEWR 071051Z 02007KT 10SM FEW029 SCT034 BKN045 12/08 A2996 RMK AO2 SLP146 T01170083= 201706071151 METAR KEWR 071151Z 01009KT 10SM FEW019 SCT034 BKN045 13/09 A2998 RMK AO2 SLP152 70002 T01280089 10128 20111 53016= 201706071251 METAR KEWR 071251Z 36009KT 10SM FEW019 SCT034 BKN049 14/09 A3000 RMK AO2 SLP158 T01390089= 201706071351 METAR KEWR 071351Z 35009KT 10SM SCT023 BKN039 15/09 A3000 RMK AO2 SLP157 T01500089= 201706071451 METAR KEWR 071451Z 02006KT 10SM FEW025 BKN040 17/09 A3000 RMK AO2 SLP157 T01670089 51005= 201706071551 METAR KEWR 071551Z VRB06KT 10SM FEW033 BKN044 BKN150 18/09 A2999 RMK AO2 SLP155 T01830094= 201706071651 METAR KEWR 071651Z 02008KT 10SM FEW034 OVC040 18/09 A2998 RMK AO2 SLP152 T01830089= 201706071751 METAR KEWR 071751Z 04007KT 10SM BKN043 OVC055 19/08 A2998 RMK AO2 SLP151 T01890083 10189 20128 56005= 201706071851 METAR KEWR 071851Z 02008KT 10SM SCT045 BKN060 19/08 A2998 RMK AO2 SLP153 T01940083= 201706071951 METAR KEWR 071951Z 33004KT 10SM SCT047 BKN060 19/08 A2998 RMK AO2 SLP152 T01940078= 201706072051 METAR KEWR 072051Z 05006KT 10SM SCT048 BKN060 20/08 A2999 RMK AO2 SLP154 T02000078 53003= 201706072151 METAR KEWR 072151Z 17007KT 10SM FEW045 BKN060 19/09 A2999 RMK AO2 SLP156 T01940094= 201706072251 METAR KEWR 072251Z 20005KT 10SM SCT060 19/10 A3000 RMK AO2 SLP158 T01940100= 201706072351 METAR KEWR 072351Z 24004KT 10SM FEW070 FEW250 19/09 A3000 RMK AO2 SLP159 T01940089 10211 20189 51005= 201706080051 METAR KEWR 080051Z 23006KT 10SM FEW070 FEW250 18/09 A3001 RMK AO2 SLP162 T01830089= 201706080151 METAR KEWR 080151Z 22007KT 10SM FEW250 18/09 A3002 RMK AO2 SLP165 T01780094= 201706080251 METAR KEWR 080251Z 26005KT 10SM FEW250 17/09 A3002 RMK AO2 SLP166 T01670094 51007= 201706080351 METAR KEWR 080351Z 20004KT 10SM FEW250 15/10 A3003 RMK AO2 SLP167 T01500100= 201706080451 METAR KEWR 080451Z 24005KT 10SM FEW250 14/10 A3002 RMK AO2 SLP166 T01390100 402110111= 201706080551 METAR KEWR 080551Z 24003KT 10SM CLR 13/09 A3001 RMK AO2 SLP163 T01330094 10194 20133 58003= 201706080651 METAR KEWR 080651Z 22003KT 10SM CLR 13/09 A3001 RMK AO2 SLP162 T01280094= 201706080751 METAR KEWR 080751Z 00000KT 10SM CLR 13/10 A3000 RMK AO2 SLP158 T01280100= 201706080851 METAR KEWR 080851Z 00000KT 10SM CLR 13/10 A3000 RMK AO2 SLP157 T01280100 57006= 201706080951 METAR KEWR 080951Z 01006KT 10SM FEW250 13/09 A3000 RMK AO2 SLP160 T01280094= 201706081051 METAR KEWR 081051Z 03007KT 10SM FEW250 15/11 A3001 RMK AO2 SLP162 T01500106= 201706081151 METAR KEWR 081151Z 36007KT 10SM FEW250 17/11 A3002 RMK AO2 SLP165 T01720111 10172 20122 53008= 201706081251 METAR KEWR 081251Z 05005KT 10SM BKN250 18/11 A3001 RMK AO2 SLP163 T01780111= 201706081351 METAR KEWR 081351Z 07005KT 10SM BKN250 20/11 A3001 RMK AO2 SLP162 T02000106= 201706081451 METAR KEWR 081451Z 11006KT 10SM FEW035 BKN250 21/11 A3001 RMK AO2 SLP160 T02060106 56005= 201706081551 METAR KEWR 081551Z 16008KT 10SM FEW028 OVC250 19/12 A3001 RMK AO2 SLP160 T01890122= 201706081651 METAR KEWR 081651Z 13011KT 10SM FEW025 OVC250 19/11 A3000 RMK AO2 SLP159 T01890111= 201706081751 METAR KEWR 081751Z 12008KT 10SM FEW035 SCT210 OVC250 19/09 A2998 RMK AO2 SLP153 T01890089 10222 20172 58008= 201706081851 METAR KEWR 081851Z 11007KT 10SM FEW040 BKN190 BKN220 OVC250 19/08 A2997 RMK AO2 SLP147 T01890078= 201706081951 METAR KEWR 081951Z 14008KT 10SM FEW005 FEW040 BKN190 BKN220 OVC250 18/08 A2995 RMK AO2 SLP141 T01830083= 201706082051 METAR KEWR 082051Z 12007KT 10SM FEW040 BKN210 OVC250 18/08 A2993 RMK AO2 SLP133 T01830083 58019= 201706082151 METAR KEWR 082151Z 11007KT 10SM FEW040 BKN150 BKN250 18/06 A2991 RMK AO2 SLP127 T01780061= 201706082251 METAR KEWR 082251Z 16005KT 10SM FEW040 BKN150 BKN250 17/05 A2989 RMK AO2 SLP120 T01720050= 201706082351 METAR KEWR 082351Z 00000KT 10SM BKN140 BKN250 17/06 A2986 RMK AO2 SLP112 T01670056 10194 20161 58021= 201706090051 METAR KEWR 090051Z 00000KT 10SM FEW130 BKN150 BKN250 16/07 A2984 RMK AO2 SLP105 T01560067= 201706090151 METAR KEWR 090151Z 20003KT 10SM BKN140 BKN250 15/07 A2984 RMK AO2 SLP103 T01500072= 201706090251 METAR KEWR 090251Z 28003KT 10SM BKN150 BKN250 15/07 A2983 RMK AO2 SLP100 T01500072 56012= 201706090351 METAR KEWR 090351Z 21004KT 10SM SCT170 BKN250 14/07 A2981 RMK AO2 SLP095 T01440072= 201706090451 METAR KEWR 090451Z 24003KT 10SM SCT170 SCT250 13/07 A2979 RMK AO2 SLP088 T01330072 402220122= 201706090551 METAR KEWR 090551Z 01004KT 10SM BKN150 BKN220 13/08 A2978 RMK AO2 SLP085 T01280078 10172 20122 56015= 201706090651 METAR KEWR 090651Z 30003KT 10SM BKN150 13/08 A2976 RMK AO2 SLP076 T01330078= 201706090751 METAR KEWR 090751Z 26004KT 10SM BKN150 13/07 A2974 RMK AO2 SLP071 T01280072= 201706090851 METAR KEWR 090851Z 27005KT 10SM SCT140 12/08 A2974 RMK AO2 SLP071 T01220083 56014= 201706090951 METAR KEWR 090951Z 23006KT 10SM BKN140 BKN220 12/08 A2974 RMK AO2 SLP072 T01170083= 201706091051 METAR KEWR 091051Z 23005KT 10SM FEW140 BKN160 13/08 A2975 RMK AO2 SLP074 T01330078= 201706091151 METAR KEWR 091151Z 23009KT 10SM FEW130 BKN160 BKN250 16/07 A2975 RMK AO2 SLP074 T01610072 10161 20111 51003= 201706091251 METAR KEWR 091251Z 26006KT 10SM SCT150 SCT170 BKN250 19/08 A2976 RMK AO2 SLP078 T01890078= 201706091351 METAR KEWR 091351Z VRB05KT 10SM FEW150 FEW170 BKN250 21/09 A2976 RMK AO2 SLP075 T02110089= 201706091451 METAR KEWR 091451Z 27011KT 10SM FEW120 BKN250 23/10 A2975 RMK AO2 SLP074 T02330100 50000= 201706091551 METAR KEWR 091551Z 02010G17KT 10SM FEW065 BKN250 26/09 A2976 RMK AO2 SLP076 T02560094= 201706091651 METAR KEWR 091651Z 28009G20KT 250V310 10SM FEW065 SCT250 27/09 A2975 RMK AO2 SLP075 T02720094= 201706091751 METAR KEWR 091751Z 30013G20KT 10SM SCT065 SCT250 28/09 A2975 RMK AO2 SLP072 T02780094 10278 20161 58002= 201706091851 METAR KEWR 091851Z 31013G21KT 10SM SCT075 BKN250 28/08 A2974 RMK AO2 SLP069 T02830083= 201706091951 METAR KEWR 091951Z 31013G18KT 10SM SCT075 SCT090 SCT250 27/08 A2974 RMK AO2 SLP071 T02670083= 201706092051 METAR KEWR 092051Z 29010G18KT 10SM FEW075 SCT095 SCT250 29/08 A2974 RMK AO2 SLP069 T02890078 56003= 201706092151 METAR KEWR 092151Z 27013KT 10SM FEW075 SCT095 SCT250 28/07 A2974 RMK AO2 SLP071 T02830072 $= 201706092251 METAR KEWR 092251Z 26010KT 10SM FEW070 FEW100 SCT250 28/09 A2976 RMK AO2 SLP077 T02780089 $= 201706092351 METAR KEWR 092351Z 27010KT 10SM FEW070 27/08 A2979 RMK AO2 SLP086 T02670083 10289 20267 53017 $= 201706100051 METAR KEWR 100051Z 23008KT 10SM FEW070 FEW250 26/09 A2981 RMK AO2 SLP093 T02560089 $= 201706100151 METAR KEWR 100151Z 23010KT 10SM FEW080 SCT250 24/10 A2984 RMK AO2 SLP105 T02390100 $= 201706100251 METAR KEWR 100251Z 25010KT 10SM FEW080 FEW250 23/10 A2987 RMK AO2 SLP113 T02330100 53027 $= 201706100351 METAR KEWR 100351Z 25006KT 10SM FEW080 22/11 A2988 RMK AO2 SLP117 T02220106 $= 201706100451 METAR KEWR 100451Z 23007KT 10SM CLR 21/11 A2989 RMK AO2 SLP121 T02110106 402890111 $= 201706100551 METAR KEWR 100551Z 22006KT 10SM CLR 19/11 A2990 RMK AO2 SLP124 T01890106 10267 20183 51011 $= 201706100651 METAR KEWR 100651Z 22005KT 10SM FEW080 FEW250 18/11 A2991 RMK AO2 SLP127 T01830106 $= 201706100751 METAR KEWR 100751Z 24004KT 10SM FEW080 FEW110 SCT250 18/11 A2992 RMK AO2 SLP130 T01830106 $= 201706100851 METAR KEWR 100851Z 21004KT 10SM SCT110 SCT250 17/11 A2992 RMK AO2 SLP132 T01670111 51007 $= 201706100951 METAR KEWR 100951Z 21004KT 10SM FEW110 SCT250 17/11 A2994 RMK AO2 SLP136 T01670111 $= 201706101051 METAR KEWR 101051Z 24008KT 10SM SCT110 SCT250 19/12 A2996 RMK AO2 SLP144 T01940117 $= 201706101151 METAR KEWR 101151Z 25007KT 10SM SCT120 SCT200 BKN250 22/12 A2998 RMK AO2 SLP153 T02170117 10222 20161 53021 $= 201706101251 METAR KEWR 101251Z 26007KT 10SM FEW085 BKN100 BKN250 24/13 A3000 RMK AO2 SLP157 T02440128 $= 201706101351 METAR KEWR 101351Z 27008KT 10SM SCT090 BKN110 26/13 A3000 RMK AO2 SLP159 T02560128 $= 201706101451 METAR KEWR 101451Z 21007G15KT 10SM FEW050 SCT150 27/13 A2999 RMK AO2 SLP155 T02720133 50002 $= 201706101551 METAR KEWR 101551Z 23009KT 10SM FEW060 SCT150 BKN250 28/13 A2999 RMK AO2 SLP155 T02780133 $= 201706101651 METAR KEWR 101651Z 22018G25KT 10SM FEW060 FEW160 SCT250 29/13 A2999 RMK AO2 SLP154 T02940128 $= 201706101751 METAR KEWR 101751Z 21013G27KT 10SM FEW075 FEW110 SCT250 29/13 A2998 RMK AO2 PK WND 25027/1745 SLP152 T02940128 10306 20217 58003 $= 201706101851 METAR KEWR 101851Z 20014G22KT 10SM FEW075 FEW120 SCT250 31/13 A2996 RMK AO2 SLP143 T03060128 $= 201706101951 METAR KEWR 101951Z 24016G25KT 10SM FEW070 SCT110 SCT250 31/12 A2995 RMK AO2 PK WND 23027/1852 SLP141 T03110122 $= 201706102051 METAR KEWR 102051Z 24020G24KT 10SM FEW065 SCT110 SCT250 31/13 A2994 RMK AO2 PK WND 23026/2005 SLP137 T03110128 56016 $= 201706102151 METAR KEWR 102151Z 22015G24KT 10SM FEW065 SCT100 SCT250 30/13 A2993 RMK AO2 SLP136 T03000128 $= 201706102251 METAR KEWR 102251Z 22015G22KT 10SM FEW070 FEW100 SCT250 29/13 A2994 RMK AO2 SLP137 T02940128 $= 201706102351 METAR KEWR 102351Z 23011KT 10SM FEW065 SCT100 SCT250 29/13 A2997 RMK AO2 SLP147 T02890128 10311 20289 53010 $= 201706110051 METAR KEWR 110051Z 23009KT 10SM FEW065 SCT110 BKN250 28/13 A2998 RMK AO2 SLP152 T02780128 $= 201706110151 METAR KEWR 110151Z 21009KT 10SM FEW065 SCT090 SCT250 27/13 A3001 RMK AO2 SLP161 T02670133 $= 201706110251 METAR KEWR 110251Z 20006KT 10SM FEW070 SCT250 25/14 A3002 RMK AO2 SLP165 T02500139 51018 $= 201706110351 METAR KEWR 110351Z 22009KT 10SM FEW090 SCT250 25/14 A3002 RMK AO2 SLP166 T02500144 $= 201706110451 METAR KEWR 110451Z 23012KT 10SM FEW090 SCT250 24/14 A3002 RMK AO2 SLP166 T02440144 403110161 $= 201706110551 METAR KEWR 110551Z 24007KT 10SM SCT250 23/14 A3003 RMK AO2 SLP170 T02330144 10289 20233 53005 $= 201706110651 METAR KEWR 110651Z 23008KT 10SM CLR 22/15 A3003 RMK AO2 SLP169 T02220150 $= 201706110751 METAR KEWR 110751Z 22006KT 10SM FEW250 21/15 A3003 RMK AO2 SLP167 T02060150 $= 201706110851 METAR KEWR 110851Z 21005KT 10SM CLR 21/15 A3004 RMK AO2 SLP172 T02060150 53003 $= 201706110951 METAR KEWR 110951Z 22006KT 10SM FEW250 20/16 A3005 RMK AO2 SLP175 T02000156 $= 201706111051 METAR KEWR 111051Z 22007KT 10SM FEW250 23/17 A3007 RMK AO2 SLP181 T02280167 $= 201706111151 METAR KEWR 111151Z 24008KT 10SM FEW250 24/17 A3008 RMK AO2 SLP184 T02440167 10244 20194 51012 $= 201706111251 METAR KEWR 111251Z VRB03KT 10SM SCT250 27/17 A3007 RMK AO2 SLP183 T02670172 $= 201706111351 METAR KEWR 111351Z 27007KT 10SM BKN250 29/16 A3006 RMK AO2 SLP180 T02940161 $= 201706111451 METAR KEWR 111451Z 25012KT 10SM BKN250 32/15 A3006 RMK AO2 SLP178 T03170150 58006 $= 201706111551 METAR KEWR 111551Z 28011G19KT 10SM FEW200 BKN250 32/14 A3005 RMK AO2 SLP174 T03220144 $= 201706111651 METAR KEWR 111651Z 26010KT 220V280 10SM FEW200 BKN250 33/15 A3004 RMK AO2 SLP172 T03280150 $= 201706111751 METAR KEWR 111751Z 22013G21KT 10SM BKN250 33/15 A3002 RMK AO2 SLP166 T03280150 10333 20244 58012= 201706111851 METAR KEWR 111851Z 22013G24KT 10SM BKN250 33/15 A3000 RMK AO2 SLP159 T03330150= 201706111951 METAR KEWR 111951Z 22017G23KT 10SM FEW200 BKN250 34/14 A2999 RMK AO2 PK WND 23029/1925 SLP157 T03390139= 201706112051 METAR KEWR 112051Z 24015G20KT 10SM FEW200 BKN250 34/14 A2999 RMK AO2 SLP154 T03390144 56012= 201706112151 METAR KEWR 112151Z 26016G23KT 10SM BKN250 33/13 A2999 RMK AO2 SLP154 T03330133= 201706112251 METAR KEWR 112251Z 24017KT 10SM SCT250 33/14 A2998 RMK AO2 SLP151 T03280144= 201706112351 METAR KEWR 112351Z 24012KT 10SM SCT250 32/15 A2998 RMK AO2 SLP153 T03220150 10344 20322 55001= 201706120051 METAR KEWR 120051Z 23009KT 10SM SCT250 31/15 A2998 RMK AO2 SLP153 T03060150= 201706120151 METAR KEWR 120151Z 22006KT 10SM SCT250 29/16 A3000 RMK AO2 SLP158 T02940156= 201706120251 METAR KEWR 120251Z 23011KT 10SM SCT250 28/16 A3001 RMK AO2 SLP161 T02830161 53007= 201706120351 METAR KEWR 120351Z 23008KT 10SM SCT250 27/17 A3000 RMK AO2 SLP159 T02670167= 201706120451 METAR KEWR 120451Z 23007KT 10SM FEW250 26/17 A3000 RMK AO2 SLP159 T02560172 403440194= 201706120551 METAR KEWR 120551Z 23007KT 10SM FEW250 25/17 A3000 RMK AO2 SLP158 T02500172 10322 20250 57003= 201706120651 METAR KEWR 120651Z 24008KT 10SM FEW250 24/17 A3000 RMK AO2 SLP158 T02390172= 201706120751 METAR KEWR 120751Z 26005KT 10SM CLR 24/17 A3000 RMK AO2 SLP160 T02390172= 201706120851 METAR KEWR 120851Z 22004KT 10SM CLR 22/17 A3002 RMK AO2 SLP165 T02170167 53007= 201706120951 METAR KEWR 120951Z 22005KT 10SM CLR 21/17 A3004 RMK AO2 SLP170 T02060172= 201706121051 METAR KEWR 121051Z 23005KT 10SM CLR 24/17 A3005 RMK AO2 SLP174 T02440172= 201706121151 METAR KEWR 121151Z 24005KT 10SM CLR 27/17 A3005 RMK AO2 SLP176 T02670167 10267 20206 51012= 201706121251 METAR KEWR 121251Z 28006KT 10SM CLR 29/16 A3005 RMK AO2 SLP174 T02890161= 201706121351 METAR KEWR 121351Z 27005KT 10SM CLR 31/16 A3003 RMK AO2 SLP170 T03060161= 201706121451 METAR KEWR 121451Z VRB04KT 10SM CLR 32/17 A3002 RMK AO2 SLP164 T03220167 58012= 201706121551 METAR KEWR 121551Z 28007KT 10SM CLR 33/17 A3001 RMK AO2 SLP160 T03280172= 201706121651 METAR KEWR 121651Z 33012G15KT 10SM FEW060 34/14 A2999 RMK AO2 SLP157 T03440144= 201706121751 METAR KEWR 121751Z 25009KT 10SM FEW060 35/17 A2997 RMK AO2 SLP149 T03500167 10350 20267 58015= 201706121851 METAR KEWR 121851Z 26011G17KT 10SM FEW060 36/15 A2995 RMK AO2 SLP141 T03560150= 201706121951 METAR KEWR 121951Z 26008G18KT 220V290 10SM FEW065 36/14 A2994 RMK AO2 SLP138 T03560139= 201706122051 METAR KEWR 122051Z 27013G21KT 10SM FEW065 36/14 A2992 RMK AO2 SLP133 T03560144 56017= 201706122151 METAR KEWR 122151Z 25009G19KT 10SM FEW065 34/15 A2991 RMK AO2 SLP129 T03440150= 201706122251 METAR KEWR 122251Z 24014G20KT 10SM FEW060 34/15 A2992 RMK AO2 SLP130 T03390150= 201706122351 METAR KEWR 122351Z 25011KT 10SM FEW060 FEW250 33/16 A2993 RMK AO2 SLP133 T03280156 10361 20328 53000= 201706130051 METAR KEWR 130051Z 25010KT 10SM FEW060 FEW250 32/16 A2993 RMK AO2 SLP134 T03170156= 201706130151 METAR KEWR 130151Z 23010KT 10SM FEW060 SCT250 31/16 A2994 RMK AO2 SLP138 T03060161= 201706130251 METAR KEWR 130251Z 24007KT 10SM FEW060 SCT250 29/17 A2994 RMK AO2 SLP138 T02940167 51005= 201706130351 METAR KEWR 130351Z 25007KT 10SM FEW250 29/17 A2994 RMK AO2 SLP137 T02890167= 201706130451 METAR KEWR 130451Z 24007KT 10SM FEW250 28/17 A2993 RMK AO2 SLP136 T02780167 403610206= 201706130551 METAR KEWR 130551Z 25007G18KT 10SM FEW250 27/17 A2994 RMK AO2 SLP138 T02670172 10328 20267 55000= 201706130651 METAR KEWR 130651Z 24007KT 10SM FEW070 FEW250 26/17 A2994 RMK AO2 SLP139 T02610172= 201706130751 METAR KEWR 130751Z 20004KT 10SM SCT075 24/17 A2994 RMK AO2 SLP138 T02390172= 201706130851 METAR KEWR 130851Z 22004KT 10SM SCT075 23/17 A2994 RMK AO2 SLP138 T02280172 50000= 201706130951 METAR KEWR 130951Z 21005KT 10SM FEW075 SCT250 23/17 A2994 RMK AO2 SLP139 T02280172= 201706131051 METAR KEWR 131051Z 22004KT 10SM FEW075 BKN250 24/18 A2995 RMK AO2 SLP142 T02440183= 201706131151 METAR KEWR 131151Z 27005KT 10SM FEW075 BKN250 27/18 A2995 RMK AO2 SLP141 T02720178 10272 20222 50003= 201706131251 METAR KEWR 131251Z 27004KT 10SM BKN250 30/18 A2994 RMK AO2 SLP140 T03000183= 201706131351 METAR KEWR 131351Z 26009KT 10SM SCT250 32/18 A2993 RMK AO2 SLP134 T03220183= 201706131451 METAR KEWR 131451Z 28010G18KT 10SM FEW050 BKN250 34/18 A2991 RMK AO2 SLP129 T03390178 58011= 201706131551 METAR KEWR 131551Z 28011G19KT 10SM SCT060 BKN250 35/18 A2991 RMK AO2 SLP126 T03500178= 201706131651 METAR KEWR 131651Z 27013G17KT 10SM SCT065 BKN250 36/16 A2989 RMK AO2 SLP120 T03610156= 201706131751 METAR KEWR 131751Z 28011G21KT 10SM SCT070 BKN250 36/16 A2988 RMK AO2 SLP117 T03610156 10372 20272 58013= 201706131851 METAR KEWR 131851Z 30009KT 10SM SCT070 BKN250 36/17 A2985 RMK AO2 SLP108 T03610167= 201706131951 METAR KEWR 131951Z 25015G20KT 10SM SCT075 BKN250 36/16 A2983 RMK AO2 SLP102 T03610161= 201706132051 METAR KEWR 132051Z 24015KT 10SM SCT075 BKN250 36/16 A2981 RMK AO2 SLP096 T03610161 56021= 201706132151 METAR KEWR 132151Z 26013KT 10SM SCT080 BKN250 36/16 A2980 RMK AO2 SLP092 T03560161= 201706132251 METAR KEWR 132251Z 25013KT 10SM FEW080 BKN250 35/16 A2981 RMK AO2 SLP094 CB DSNT N-DSNT NE MOV E T03500161= 201706132351 METAR KEWR 132351Z 25009KT 10SM FEW030 FEW080 BKN250 34/17 A2983 RMK AO2 SLP100 CB DSNT N-DSNT NE MOV SE T03390172 10372 20339 53004= 201706140051 METAR KEWR 140051Z 23011KT 10SM FEW030 FEW080 BKN250 33/18 A2983 RMK AO2 LTG DSNT NW SLP100 OCNL LTGIC DSNT NW-DSNT N CB DSNT NW-DSNT N MOV SE T03280178= 201706140151 METAR KEWR 140151Z 34008KT 10SM FEW050 FEW080 BKN250 32/18 A2986 RMK AO2 SLP111 T03170183= 201706140251 METAR KEWR 140251Z 02006KT 10SM FEW050 FEW100 BKN250 29/19 A2986 RMK AO2 SLP112 T02890194 53012= 201706140351 METAR KEWR 140351Z 03005KT 10SM SCT075 BKN100 BKN210 29/19 A2987 RMK AO2 SLP113 T02890189= 201706140451 METAR KEWR 140451Z 36007KT 10SM SCT075 BKN100 BKN210 28/18 A2987 RMK AO2 SLP116 T02830183 403720222= 201706140551 METAR KEWR 140551Z 02014KT 10SM FEW075 FEW100 BKN250 27/19 A2988 RMK AO2 SLP117 T02670189 10339 20267 52006= 201706140651 METAR KEWR 140651Z 03012KT 10SM FEW100 BKN250 26/19 A2988 RMK AO2 SLP118 T02560189= 201706140751 METAR KEWR 140751Z 03013KT 10SM VCTS SCT070 SCT100 BKN250 24/18 A2989 RMK AO2 LTG DSNT E TSE50 SLP122 T02440178= 201706140851 METAR KEWR 140851Z 02011KT 10SM BKN065 BKN090 BKN250 23/18 A2991 RMK AO2 LTG DSNT E RAB0759E16 SLP129 P0000 60000 T02330183 53012= 201706140951 METAR KEWR 140951Z 03006KT 10SM BKN048 BKN065 BKN090 BKN250 22/20 A2993 RMK AO2 RAB01E46 SLP134 P0003 T02220200= 201706141051 METAR KEWR 141051Z 05004KT 10SM -RA OVC050 23/20 A2995 RMK AO2 RAB50 SLP142 P0000 T02330200= 201706141151 METAR KEWR 141151Z 01009KT 6SM -RA BR SCT029 BKN045 OVC060 21/19 A2998 RMK AO2 SLP153 P0014 60017 70017 T02110194 10267 20211 53024= 201706141251 METAR KEWR 141251Z 06005KT 10SM FEW007 FEW030 OVC060 23/19 A3000 RMK AO2 RAE14 SLP157 P0000 T02280194= 201706141351 METAR KEWR 141351Z 35007KT 10SM FEW009 FEW025 OVC065 24/19 A3000 RMK AO2 SLP158 T02390189= 201706141451 METAR KEWR 141451Z 08004KT 10SM SCT029 BKN250 26/17 A2999 RMK AO2 SLP156 60000 T02610167 50004= 201706141551 METAR KEWR 141551Z 08005KT 10SM BKN034 BKN250 26/17 A3000 RMK AO2 SLP157 T02560172= 201706141651 METAR KEWR 141651Z 00000KT 10SM BKN037 BKN250 27/17 A2999 RMK AO2 SLP155 T02670167= 201706141751 METAR KEWR 141751Z 18006KT 10SM BKN042 BKN250 27/17 A2998 RMK AO2 SLP150 60000 T02670172 10272 20211 58006= 201706141851 METAR KEWR 141851Z 17007KT 10SM FEW043 SCT055 BKN250 27/17 A2996 RMK AO2 SLP146 T02670167= 201706141951 METAR KEWR 141951Z 16010KT 10SM SCT055 BKN250 26/17 A2996 RMK AO2 SLP146 T02610167= 201706142051 METAR KEWR 142051Z 16009KT 10SM FEW050 BKN250 26/13 A2997 RMK AO2 SLP148 T02610128 55002= 201706142151 METAR KEWR 142151Z 13009KT 10SM FEW050 BKN250 26/11 A2996 RMK AO2 SLP144 T02610111= 201706142251 METAR KEWR 142251Z 14006KT 10SM BKN250 25/11 A2997 RMK AO2 SLP147 T02500111= 201706142351 METAR KEWR 142351Z 12005KT 10SM BKN250 24/11 A2997 RMK AO2 SLP150 T02390106 10272 20239 53002= 201706150051 METAR KEWR 150051Z 17005KT 10SM SCT250 23/10 A2998 RMK AO2 SLP152 T02280100= 201706150151 METAR KEWR 150151Z 16004KT 10SM FEW250 22/11 A3001 RMK AO2 SLP161 T02170106= 201706150251 METAR KEWR 150251Z 15004KT 10SM FEW250 22/09 A3003 RMK AO2 SLP168 T02170094 53018= 201706150351 METAR KEWR 150351Z 16003KT 10SM FEW250 21/09 A3003 RMK AO2 SLP168 T02110094= 201706150451 METAR KEWR 150451Z 00000KT 10SM FEW250 21/11 A3002 RMK AO2 SLP167 T02060106 402830206= 201706150551 METAR KEWR 150551Z 00000KT 10SM FEW250 19/11 A3003 RMK AO2 SLP167 T01940106 10239 20189 55001= 201706150651 METAR KEWR 150651Z 15003KT 10SM CLR 20/11 A3002 RMK AO2 SLP166 T02000111= 201706150751 METAR KEWR 150751Z 16004KT 10SM CLR 19/11 A3001 RMK AO2 SLP162 T01940111= 201706150851 METAR KEWR 150851Z 12006KT 10SM FEW250 19/14 A3002 RMK AO2 SLP164 T01890139 55003= 201706150951 METAR KEWR 150951Z 10006KT 10SM FEW150 FEW250 19/14 A3003 RMK AO2 SLP168 T01890144= 201706151051 METAR KEWR 151051Z 08007KT 10SM FEW060 FEW250 19/15 A3004 RMK AO2 SLP171 T01890150= 201706151151 METAR KEWR 151151Z 07006KT 10SM SCT060 SCT250 21/14 A3004 RMK AO2 SLP173 T02060144 10206 20189 51009= 201706151251 METAR KEWR 151251Z VRB03KT 10SM BKN060 BKN180 BKN250 21/13 A3005 RMK AO2 SLP177 T02110128= 201706151351 METAR KEWR 151351Z VRB04KT 10SM BKN070 BKN180 BKN250 22/12 A3007 RMK AO2 SLP180 T02170122= 201706151451 METAR KEWR 151451Z 11007KT 10SM FEW060 BKN075 BKN250 22/13 A3007 RMK AO2 SLP181 T02220128 51008= 201706151551 METAR KEWR 151551Z 16010KT 10SM SCT060 BKN200 BKN250 22/13 A3006 RMK AO2 SLP180 T02220133= 201706151651 METAR KEWR 151651Z 13010G16KT 10SM SCT060 BKN250 22/13 A3006 RMK AO2 SLP177 T02220133= 201706151751 METAR KEWR 151751Z 11010G16KT 10SM SCT060 BKN180 BKN250 23/12 A3005 RMK AO2 SLP175 T02280122 10233 20200 58007= 201706151851 METAR KEWR 151851Z 13009KT 10SM BKN070 BKN180 BKN250 23/12 A3003 RMK AO2 SLP168 T02280117= 201706151951 METAR KEWR 151951Z 14010G15KT 10SM FEW045 BKN070 BKN250 22/12 A3003 RMK AO2 SLP167 T02220117= 201706152051 METAR KEWR 152051Z 14011KT 10SM SCT070 SCT250 22/12 A3002 RMK AO2 SLP164 T02170122 56010= 201706152151 METAR KEWR 152151Z 14009KT 10SM SCT070 SCT250 22/13 A3001 RMK AO2 SLP162 T02170128= 201706152251 METAR KEWR 152251Z 13011KT 10SM FEW070 FEW250 21/13 A3001 RMK AO2 SLP161 T02060133= 201706152351 METAR KEWR 152351Z 13006KT 10SM FEW070 SCT250 19/13 A3002 RMK AO2 SLP165 T01940133 10233 20194 53001= 201706160051 METAR KEWR 160051Z 13007KT 090V150 10SM FEW070 SCT250 19/14 A3002 RMK AO2 SLP165 T01890139= 201706160151 METAR KEWR 160151Z 14006KT 10SM FEW070 SCT250 18/14 A3004 RMK AO2 SLP171 T01830139= 201706160251 METAR KEWR 160251Z 12005KT 10SM FEW070 SCT250 18/14 A3003 RMK AO2 SLP169 T01830139 50003= 201706160351 METAR KEWR 160351Z VRB04KT 10SM SCT250 18/14 A3003 RMK AO2 SLP169 T01830139= 201706160451 METAR KEWR 160451Z 11006KT 10SM FEW150 BKN250 18/14 A3004 RMK AO2 SLP170 T01830139 402330183= 201706160551 METAR KEWR 160551Z 11007KT 10SM BKN200 18/14 A3001 RMK AO2 SLP161 T01830139 10194 20183 58008= 201706160651 METAR KEWR 160651Z 11007KT 10SM FEW015 FEW060 BKN200 18/14 A3000 RMK AO2 SLP158 T01780144= 201706160751 METAR KEWR 160751Z 10010KT 10SM FEW015 BKN060 BKN200 18/14 A2999 RMK AO2 SLP154 T01780144= 201706160851 METAR KEWR 160851Z 11005KT 10SM FEW012 BKN050 BKN200 18/14 A2999 RMK AO2 SLP155 T01830144 55006= 201706160951 METAR KEWR 160951Z 09005KT 10SM BKN014 BKN045 OVC250 18/15 A3000 RMK AO2 SLP157 BKN014 V SCT T01830150= 201706161051 METAR KEWR 161051Z 09006KT 10SM BKN013 OVC037 19/16 A2999 RMK AO2 SLP156 CIG 011V015 T01890156= 201706161151 METAR KEWR 161151Z 10010KT 10SM OVC013 19/16 A2999 RMK AO2 SLP156 CIG 011V015 T01890156 10194 20178 50000= 201706161251 METAR KEWR 161251Z 10006G14KT 10SM OVC012 19/16 A2999 RMK AO2 SLP156 T01890156= 201706161351 METAR KEWR 161351Z VRB05KT 10SM OVC011 19/16 A2998 RMK AO2 SLP151 T01940161= 201706161451 METAR KEWR 161451Z 11006KT 10SM OVC010 20/17 A2998 RMK AO2 SLP150 T02000167 58005= 201706161551 METAR KEWR 161551Z 09007KT 10SM OVC009 19/17 A2997 RMK AO2 SLP147 T01940167= 201706161651 METAR KEWR 161651Z 08005KT 10SM OVC009 20/17 A2997 RMK AO2 RAB13E31 SLP147 P0000 T02000167= 201706161751 METAR KEWR 161751Z 07006KT 10SM BKN009 OVC011 20/17 A2996 RMK AO2 SLP143 60000 T02000172 10200 20189 57007= 201706161851 METAR KEWR 161851Z 10005KT 10SM BKN009 OVC011 21/17 A2994 RMK AO2 SLP137 T02060172= 201706161951 METAR KEWR 161951Z VRB04KT 10SM BKN010 OVC013 21/17 A2993 RMK AO2 SLP134 T02110172= 201706162051 METAR KEWR 162051Z 02007KT 9SM BKN010 OVC013 21/18 A2992 RMK AO2 SLP132 T02110178 56012= 201706162151 METAR KEWR 162151Z 01009KT 9SM BKN008 OVC012 20/17 A2992 RMK AO2 SLP132 T02000172= 201706162251 METAR KEWR 162251Z 03006KT 8SM BKN008 OVC012 20/17 A2993 RMK AO2 SLP134 T02000172= 201706162351 METAR KEWR 162351Z 02008KT 10SM BKN008 OVC011 20/17 A2993 RMK AO2 SLP134 T02000172 10217 20200 53003= 201706170051 METAR KEWR 170051Z 01009KT 9SM BKN008 OVC011 19/17 A2993 RMK AO2 SLP133 T01940172= 201706170151 METAR KEWR 170151Z 02007KT 6SM BR OVC006 19/17 A2993 RMK AO2 SLP133 T01890172= 201706170251 METAR KEWR 170251Z 03007KT 5SM BR OVC005 19/18 A2993 RMK AO2 SLP133 T01890178 56001= 201706170351 METAR KEWR 170351Z 36008KT 5SM BR OVC004 18/18 A2995 RMK AO2 SLP140 T01830178= 201706170451 METAR KEWR 170451Z 02006KT 4SM BR OVC003 18/18 A2993 RMK AO2 SLP135 T01780178 402170178= 201706170551 METAR KEWR 170551Z 03005KT 5SM BR OVC005 18/18 A2992 RMK AO2 SLP132 T01830178 10200 20178 58001= 201706170651 METAR KEWR 170651Z 02006KT 5SM BR OVC006 18/18 A2991 RMK AO2 SLP129 T01830178= 201706170751 METAR KEWR 170751Z 35005KT 6SM BR OVC006 18/18 A2992 RMK AO2 SLP132 T01830178= 201706170851 METAR KEWR 170851Z 35005KT 6SM BR OVC006 18/18 A2992 RMK AO2 SLP132 T01830178 53000= 201706170951 METAR KEWR 170951Z 35005KT 4SM BR OVC006 18/18 A2992 RMK AO2 RAB02E29 SLP130 P0000 T01780178= 201706171051 METAR KEWR 171051Z 02006KT 2 1/2SM BR OVC006 18/18 A2992 RMK AO2 SFC VIS 4 SLP132 T01780178= 201706171151 METAR KEWR 171151Z 04004KT 2 1/2SM -RA BR FEW003 OVC005 18/18 A2993 RMK AO2 SFC VIS 4 RAB38 SLP133 P0000 60000 T01830183 10183 20178 53001= 201706171251 METAR KEWR 171251Z 01003KT 2 1/2SM BR FEW003 OVC005 19/19 A2996 RMK AO2 SFC VIS 5 RAE1154B31E43 SLP143 P0000 T01890189= 201706171351 METAR KEWR 171351Z 04003KT 2 1/2SM BR FEW004 OVC008 20/18 A2995 RMK AO2 SFC VIS 6 SLP141 T02000183= 201706171451 METAR KEWR 171451Z 08004KT 7SM FEW005 OVC010 22/19 A2994 RMK AO2 SLP137 60000 T02170189 50004= 201706171551 METAR KEWR 171551Z 17003KT 1 1/4SM R04R/4500VP6000FT RA BR BKN014 OVC020 21/19 A2995 RMK AO2 RAB32 SLP141 P0012 T02060194= 201706171651 METAR KEWR 171651Z 14004KT 1SM R04R/6000VP6000FT RA BR SCT004 BKN014 OVC025 19/19 A2994 RMK AO2 SLP138 P0070 T01940194= 201706171751 METAR KEWR 171751Z 14005KT 2SM -RA BR SCT004 BKN012 OVC025 19/19 A2994 RMK AO2 SLP139 P0042 60124 T01940194 10217 20183 51002= 201706171851 METAR KEWR 171851Z 11005KT 10SM BKN007 BKN015 OVC025 21/20 A2994 RMK AO2 RAE01 SLP136 P0000 T02060200= 201706171951 METAR KEWR 171951Z 07005KT 10SM SCT009 BKN021 BKN065 BKN130 22/20 A2992 RMK AO2 SLP132 T02220200= 201706172051 METAR KEWR 172051Z 15006KT 10SM BKN011 BKN160 22/20 A2992 RMK AO2 SLP130 60000 T02220200 57009= 201706172151 METAR KEWR 172151Z 11005KT 10SM FEW011 OVC018 22/20 A2991 RMK AO2 SLP129 T02220200= 201706172251 METAR KEWR 172251Z 10006KT 10SM BKN006 BKN014 BKN170 22/19 A2990 RMK AO2 SLP126 BKN006 V SCT T02170194= 201706172351 METAR KEWR 172351Z 12005KT 9SM -RA OVC005 21/20 A2992 RMK AO2 RAB13 SLP130 P0000 60000 T02060200 10228 20194 55000= 201706180051 METAR KEWR 180051Z 11006KT 10SM BKN005 OVC140 21/20 A2992 RMK AO2 RAE2359 SLP131 CIG 004V006 P0000 T02060200= 201706180151 METAR KEWR 180151Z 10004KT 2SM BR OVC003 20/19 A2992 RMK AO2 SFC VIS 5 SLP131 CIG 002V004 T02000194= 201706180251 METAR KEWR 180251Z 00000KT 3/4SM R04R/P6000FT BR OVC002 20/20 A2992 RMK AO2 SFC VIS 3 SLP132 60000 T02000200 51002= 201706180351 METAR KEWR 180351Z 10003KT 1SM R04R/P6000FT BR OVC002 20/20 A2992 RMK AO2 SFC VIS 4 RAB25E36 SLP130 P0000 T02000200= 201706180451 METAR KEWR 180451Z 10004KT 1SM R04R/P6000FT BR OVC002 21/21 A2990 RMK AO2 SFC VIS 1 1/2 SLP125 T02060206 402280178= 201706180551 METAR KEWR 180551Z 11004KT 1/2SM R04R/P6000FT FG OVC002 20/20 A2987 RMK AO2 SLP116 60000 T02000200 10206 20200 58016= 201706180651 METAR KEWR 180651Z 00000KT 1/2SM R04R/P6000FT FG OVC002 21/21 A2988 RMK AO2 SLP117 T02060206= 201706180751 METAR KEWR 180751Z 00000KT 2 1/2SM BR OVC005 21/21 A2987 RMK AO2 SFC VIS 4 SLP115 T02060206= 201706180851 METAR KEWR 180851Z 00000KT 1/2SM R04R/5500VP6000FT BR OVC002 21/21 A2987 RMK AO2 SFC VIS 3/4 SLP116 T02060206 50000= 201706180951 METAR KEWR 180951Z 16004KT 1/2SM R04R/P6000FT BR OVC002 21/21 A2988 RMK AO2 SFC VIS 1 1/2 SLP117 T02110211= 201706181051 METAR KEWR 181051Z 16004KT 2 1/2SM BR SCT002 OVC006 22/22 A2988 RMK AO2 SFC VIS 6 SLP119 T02170217= 201706181151 METAR KEWR 181151Z 16006KT 9SM BKN006 OVC012 23/22 A2989 RMK AO2 SLP120 70124 T02280222 10228 20206 51003= 201706181251 METAR KEWR 181251Z 19005KT 9SM SCT006 OVC012 24/23 A2989 RMK AO2 SLP122 T02390228= 201706181351 METAR KEWR 181351Z 19004KT 10SM FEW006 BKN016 OVC032 25/23 A2989 RMK AO2 SLP122 T02500228= 201706181451 METAR KEWR 181451Z 20007KT 10SM FEW009 BKN019 BKN027 27/23 A2988 RMK AO2 RAB05E15 SLP117 P0000 60000 T02670228 58003= 201706181551 METAR KEWR 181551Z 18011KT 10SM -RA SCT022 BKN034 BKN047 BKN250 28/22 A2986 RMK AO2 RAB1454E01B49 SLP110 P0000 T02830222= 201706181651 METAR KEWR 181651Z 19010KT 10SM FEW022 BKN032 BKN045 BKN260 29/22 A2984 RMK AO2 RAE1556 SLP104 P0000 T02890222= 201706181751 METAR KEWR 181751Z 15008KT 10SM SCT035 BKN045 BKN260 30/22 A2982 RMK AO2 SLP098 60000 T03000222 10306 20228 56019= 201706181851 METAR KEWR 181851Z 15010KT 10SM SCT035TCU BKN060 BKN260 29/22 A2981 RMK AO2 SLP093 TCU NW-N T02940222= 201706181951 METAR KEWR 181951Z 14011G15KT 10SM SCT035TCU BKN060 BKN100 BKN270 29/23 A2979 RMK AO2 SLP089 TCU SE AND NW-NE T02940228= 201706182051 METAR KEWR 182051Z 18015G20KT 10SM SCT040 BKN070 BKN260 31/21 A2977 RMK AO2 SLP080 TCU DSNT NE AND DSNT SW T03110206 58018= 201706182151 METAR KEWR 182151Z 18011G18KT 10SM SCT040TCU BKN070 BKN260 30/22 A2976 RMK AO2 SLP077 TCU OHD T03000222= 201706182251 METAR KEWR 182251Z 19013KT 10SM FEW035 SCT050 SCT070 BKN250 29/22 A2977 RMK AO2 RAB11E21 SLP081 TCU DSNT N-DSNT NE P0000 T02940222= 201706182351 METAR KEWR 182351Z 20011G18KT 10SM FEW020 SCT040 BKN250 29/22 A2978 RMK AO2 SLP083 TCU DSNT NE AND DSNT SW 60000 T02890222 10317 20289 53003= 201706190051 METAR KEWR 190051Z 18010KT 10SM FEW020 FEW040 BKN250 28/22 A2977 RMK AO2 SLP081 T02830222= 201706190151 METAR KEWR 190151Z 19011KT 10SM FEW020 SCT250 27/22 A2980 RMK AO2 SLP091 T02720222= 201706190251 METAR KEWR 190251Z 19012KT 10SM FEW020 SCT250 27/22 A2982 RMK AO2 SLP097 T02670222 53014= 201706190451 METAR KEWR 190451Z 18010KT 10SM SCT250 26/23 A2982 RMK AO2 SLP096 T02560228 403170200= 201706190551 METAR KEWR 190551Z 19009KT 10SM SCT250 26/23 A2981 RMK AO2 SLP094 T02560228 10289 20250 58003= 201706190651 METAR KEWR 190651Z 20009KT 10SM SCT250 26/22 A2980 RMK AO2 SLP092 T02560222= 201706190751 METAR KEWR 190751Z 20010KT 10SM SCT250 26/22 A2980 RMK AO2 SLP091 T02560222= 201706190851 METAR KEWR 190851Z 20010G18KT 10SM FEW150 SCT250 26/22 A2981 RMK AO2 SLP094 T02560222 53000= 201706190951 METAR KEWR 190951Z 18011KT 10SM FEW015 SCT065 SCT250 26/22 A2982 RMK AO2 SLP098 TCU DSNT NW T02560222= 201706191051 METAR KEWR 191051Z 19010KT 10SM FEW016 SCT065 BKN250 26/23 A2983 RMK AO2 SLP100 ACC DSNT NW T02610228= 201706191151 METAR KEWR 191151Z 19011KT 10SM SCT017 SCT065 BKN250 27/23 A2983 RMK AO2 SLP102 T02720233 10272 20256 51008= 201706191251 METAR KEWR 191251Z 21011G19KT 10SM BKN019 28/23 A2984 RMK AO2 SLP105 T02780228= 201706191351 METAR KEWR 191351Z 22011G19KT 10SM FEW020 BKN023 28/22 A2983 RMK AO2 SLP102 T02830222= 201706191451 METAR KEWR 191451Z 20015G20KT 10SM FEW025 BKN028 30/22 A2982 RMK AO2 SLP097 T03000222 58005= 201706191551 METAR KEWR 191551Z 19019G26KT 10SM FEW026 SCT030TCU BKN130 31/22 A2981 RMK AO2 PK WND 19026/1548 LTG DSNT N AND NW SLP093 TCU NE T03060222= 201706191651 METAR KEWR 191651Z 19018G27KT 10SM SCT035 BKN045 BKN130 BKN250 31/22 A2980 RMK AO2 PK WND 19027/1646 LTG DSNT N SLP090 CB DSNT NW-DSNT NE T03110217= 201706191751 METAR KEWR 191751Z 20020G28KT 10SM FEW038 SCT043 BKN055 BKN130 BKN250 32/21 A2977 RMK AO2 PK WND 21029/1715 SLP082 T03170211 10317 20272 58015= 201706191851 METAR KEWR 191851Z 20026G33KT 10SM SCT045 SCT060 BKN160 BKN250 33/21 A2974 RMK AO2 PK WND 20033/1851 SLP071 CB DSNT N-NE MOV NE T03280206= 201706191951 METAR KEWR 191951Z 20017G27KT 9SM -RA FEW045 BKN055CB BKN075 BKN160 BKN250 31/22 A2974 RMK AO2 PK WND 19035/1924 RAB43 SLP071 CB OHD MOV NE P0000 T03060217= 201706192051 METAR KEWR 192051Z 21010KT 6SM -TSRA FEW006 SCT015 BKN040CB OVC130 25/22 A2976 RMK AO2 PK WND 24055/2034 LTG DSNT ALQDS RAE1953B30 TSB01 SLP077 FRQ LTGICCG VC NE-VC SE-VC S TS VC NE-VC SE-VC S MOV NE P0057 60057 T02500222 55005 $= 201706192151 METAR KEWR 192151Z 26018G22KT 7SM -TSRA FEW006 BKN020CB OVC043 22/21 A2981 RMK AO2 PK WND 25043/2119 WSHFT 2115 LTG DSNT ALQDS RAE13B20 SLP094 OCNL LTGIC VC SW-VC NW AND TS VC SW-VC NW MOV NE P0041 T02220211= 201706192251 METAR KEWR 192251Z 21008KT 7SM -TSRA FEW006 SCT030CB BKN065 OVC130 21/20 A2981 RMK AO2 LTG DSNT ALQDS SLP095 OCNL LTGICCG VC NE-VC E TS VC NE-VC E MOV NE P0037 T02110200 $= 201706192351 METAR KEWR 192351Z 18007KT 6SM -RA BR FEW006 SCT015 BKN040 OVC130 21/21 A2985 RMK AO2 TSE2258 SLP108 P0009 60144 T02110206 10328 20211 51031 $= 201706200051 METAR KEWR 200051Z 18007KT 10SM FEW006 SCT015 SCT045 OVC130 21/21 A2985 RMK AO2 LTG DSNT E RAE43 SLP106 P0003 T02060206 $= 201706200151 METAR KEWR 200151Z 18009KT 10SM -RA SCT007 SCT015 SCT110 OVC140 21/21 A2988 RMK AO2 RAB0059 SLP116 P0002 T02060206 $= 201706200251 METAR KEWR 200251Z 18006KT 10SM BKN007 OVC012 21/21 A2988 RMK AO2 RAE16 SLP117 P0000 60005 T02060206 53009 $= 201706200351 METAR KEWR 200351Z 19009KT 10SM OVC007 21/21 A2989 RMK AO2 RAB15E25 SLP120 P0000 T02060206 $= 201706200451 METAR KEWR 200451Z 21009KT 10SM OVC008 21/21 A2986 RMK AO2 RAB0354E47 SLP112 P0002 T02060206 403280206 $= 201706200551 METAR KEWR 200551Z 20005KT 10SM -RA BKN006 BKN012 OVC032 21/21 A2984 RMK AO2 RAB0455E07B24 SLP104 P0002 60009 T02060206 10211 20206 58013 $= 201706200651 METAR KEWR 200651Z 23008KT 10SM OVC006 21/21 A2985 RMK AO2 RAE0558 SLP109 P0000 T02060206 $= 201706200751 METAR KEWR 200751Z 23006KT 10SM BKN006 OVC130 21/21 A2983 RMK AO2 RAB01E10 SLP102 P0000 T02060206 $= 201706200851 METAR KEWR 200851Z 23008KT 10SM SCT008 SCT026 BKN140 BKN220 21/21 A2984 RMK AO2 SLP105 60000 T02060206 51001 $= 201706200951 METAR KEWR 200951Z 21007KT 10SM FEW008 SCT018 BKN150 BKN250 21/21 A2985 RMK AO2 SLP107 T02060206 $= 201706201051 METAR KEWR 201051Z 23008KT 10SM FEW007 SCT015 SCT140 BKN250 21/21 A2986 RMK AO2 SLP112 T02110211 $= 201706201151 METAR KEWR 201151Z 23011KT 10SM FEW009 FEW016 SCT140 SCT250 23/20 A2988 RMK AO2 SLP117 60000 70153 T02280200 10228 20206 53012 $= 201706201251 METAR KEWR 201251Z 25013KT 10SM FEW019 SCT130 SCT250 24/17 A2989 RMK AO2 SLP120 T02440172 $= 201706201351 METAR KEWR 201351Z 23014KT 10SM FEW025 FEW140 SCT250 26/17 A2990 RMK AO2 SLP124 T02560167= 201706201451 METAR KEWR 201451Z 25013G19KT 10SM FEW045 FEW140 SCT250 27/13 A2991 RMK AO2 SLP128 T02670133 53010= 201706201551 METAR KEWR 201551Z 26013G21KT 10SM FEW055 FEW140 SCT250 28/12 A2991 RMK AO2 SLP128 T02780122= 201706201651 METAR KEWR 201651Z 25014G23KT 10SM FEW060 FEW140 SCT250 29/13 A2991 RMK AO2 SLP128 T02890133= 201706201751 METAR KEWR 201751Z 25018G25KT 10SM FEW070 SCT250 29/12 A2990 RMK AO2 PK WND 26027/1722 SLP124 T02940122 10294 20228 58004= 201706201851 METAR KEWR 201851Z 25018G25KT 10SM FEW075 SCT250 30/11 A2990 RMK AO2 PK WND 25028/1806 SLP124 T03000106= 201706201951 METAR KEWR 201951Z 28019G27KT 10SM SCT070 SCT250 30/11 A2991 RMK AO2 PK WND 25027/1926 SLP128 T03000106= 201706202051 METAR KEWR 202051Z 25015G22KT 10SM FEW065 SCT250 29/10 A2991 RMK AO2 PK WND 27028/1953 SLP127 T02890100 50004= 201706202151 METAR KEWR 202151Z 23014G20KT 10SM FEW065 SCT250 29/11 A2990 RMK AO2 SLP126 T02890106= 201706202251 METAR KEWR 202251Z 24013G19KT 10SM FEW065 SCT250 29/11 A2992 RMK AO2 SLP130 T02890106= 201706202351 METAR KEWR 202351Z 26012KT 10SM FEW065 SCT250 28/11 A2993 RMK AO2 SLP135 T02830111 10306 20283 53008= 201706210051 METAR KEWR 210051Z 25006KT 10SM FEW065 SCT250 27/12 A2994 RMK AO2 SLP137 T02670117= 201706210151 METAR KEWR 210151Z 22006KT 10SM FEW065 SCT250 26/12 A2994 RMK AO2 SLP139 T02560117= 201706210251 METAR KEWR 210251Z 21005KT 10SM FEW070 SCT250 24/13 A2994 RMK AO2 SLP140 T02390128 51005= 201706210351 METAR KEWR 210351Z 20008KT 10SM FEW080 SCT250 24/15 A2995 RMK AO2 SLP140 T02390150= 201706210451 METAR KEWR 210451Z 22007KT 10SM FEW080 SCT250 24/16 A2994 RMK AO2 SLP137 T02390156 403060206= 201706210551 METAR KEWR 210551Z 23005KT 10SM FEW080 FEW250 23/17 A2993 RMK AO2 SLP134 T02280167 10283 20228 58005= 201706210651 METAR KEWR 210651Z 22007KT 10SM FEW080 FEW250 22/17 A2992 RMK AO2 SLP130 T02220167= 201706210751 METAR KEWR 210751Z 25008KT 10SM SCT100 22/17 A2992 RMK AO2 SLP131 T02170172= 201706210851 METAR KEWR 210851Z 25005KT 10SM SCT100 21/17 A2992 RMK AO2 SLP133 T02060167 55002= 201706210951 METAR KEWR 210951Z 23007KT 10SM FEW100 BKN250 21/17 A2993 RMK AO2 SLP133 T02060167= 201706211051 METAR KEWR 211051Z 23008KT 10SM FEW100 SCT250 22/16 A2994 RMK AO2 SLP138 T02170161= 201706211151 METAR KEWR 211151Z 24007KT 10SM FEW100 SCT250 23/16 A2994 RMK AO2 SLP139 T02330161 10239 20200 53006= 201706211251 METAR KEWR 211251Z 27006KT 10SM FEW110 BKN250 26/15 A2994 RMK AO2 SLP137 T02560150= 201706211351 METAR KEWR 211351Z 27009KT 10SM FEW100 FEW150 BKN240 27/14 A2993 RMK AO2 SLP134 T02670139= 201706211451 METAR KEWR 211451Z 27012G19KT 10SM FEW055 FEW100 SCT180 BKN240 28/13 A2993 RMK AO2 SLP133 T02780133 56005= 201706211551 METAR KEWR 211551Z 27012KT 10SM FEW060 FEW110 BKN160 BKN250 29/14 A2992 RMK AO2 SLP133 T02890139= 201706211651 METAR KEWR 211651Z 26010KT 10SM FEW060 BKN110 BKN130 BKN250 28/13 A2991 RMK AO2 SLP129 TCU DSNT S T02780133= 201706211751 METAR KEWR 211751Z 27009KT 10SM FEW060 SCT110 SCT250 28/14 A2990 RMK AO2 SLP124 T02830139 10294 20233 58009= 201706211851 METAR KEWR 211851Z 27015G21KT 10SM FEW065 SCT100 SCT250 30/12 A2988 RMK AO2 SLP118 T03000122= 201706211951 METAR KEWR 211951Z 25014G19KT 10SM FEW065 SCT110 BKN250 31/13 A2987 RMK AO2 SLP114 T03060128= 201706212051 METAR KEWR 212051Z 26014KT 10SM FEW060 SCT100 BKN130 BKN250 29/13 A2987 RMK AO2 SLP113 CB DSNT NE AND DSNT SW MOV E T02940128 56011= 201706212151 METAR KEWR 212151Z 27013G19KT 10SM FEW060 SCT100 SCT130 SCT250 29/14 A2985 RMK AO2 SLP109 CB DSNT E MOV E T02940139= 201706212251 METAR KEWR 212251Z 24018KT 10SM FEW060 FEW100 SCT130 SCT250 28/13 A2987 RMK AO2 SLP114 CB DSNT SE MOV E T02780128= 201706212351 METAR KEWR 212351Z 24010KT 10SM FEW060 FEW100 SCT250 27/13 A2987 RMK AO2 SLP115 T02720133 10306 20267 53002= 201706220051 METAR KEWR 220051Z 24010KT 10SM FEW060 FEW100 FEW250 26/14 A2990 RMK AO2 SLP125 T02560139= 201706220151 METAR KEWR 220151Z 25009KT 10SM FEW060 FEW100 FEW250 24/15 A2992 RMK AO2 SLP133 T02440150= 201706220251 METAR KEWR 220251Z 23009KT 10SM FEW070 FEW250 23/16 A2993 RMK AO2 SLP136 T02280161 51021= 201706220351 METAR KEWR 220351Z 23010KT 10SM FEW070 FEW250 22/16 A2995 RMK AO2 SLP141 T02220161= 201706220451 METAR KEWR 220451Z 24006KT 10SM FEW070 FEW250 22/17 A2996 RMK AO2 SLP145 T02170167 403060200= 201706220551 METAR KEWR 220551Z 26005KT 10SM FEW070 21/17 A2996 RMK AO2 SLP146 T02110167 10272 20211 51009= 201706220651 METAR KEWR 220651Z 27003KT 10SM FEW070 21/17 A2996 RMK AO2 SLP145 T02060167= 201706220751 METAR KEWR 220751Z 34003KT 10SM CLR 21/16 A2997 RMK AO2 SLP147 T02060156= 201706220851 METAR KEWR 220851Z 02005KT 10SM FEW250 19/14 A2998 RMK AO2 SLP152 T01890139 53006= 201706220951 METAR KEWR 220951Z 03005KT 10SM SCT250 19/14 A3000 RMK AO2 SLP157 T01940144= 201706221051 METAR KEWR 221051Z 01006KT 10SM SCT250 21/15 A3001 RMK AO2 SLP162 T02110150= 201706221151 METAR KEWR 221151Z 01005KT 10SM SCT250 23/14 A3003 RMK AO2 SLP167 T02280144 10228 20183 51015= 201706221251 METAR KEWR 221251Z 00000KT 10SM SCT250 24/14 A3003 RMK AO2 SLP169 T02440139= 201706221351 METAR KEWR 221351Z 13003KT 10SM SCT250 25/13 A3001 RMK AO2 SLP161 T02500128= 201706221451 METAR KEWR 221451Z 18007KT 10SM FEW150 BKN250 26/15 A2999 RMK AO2 SLP156 T02610150 58012= 201706221551 METAR KEWR 221551Z 17009KT 10SM FEW150 BKN250 26/13 A3000 RMK AO2 SLP157 T02610128= 201706221651 METAR KEWR 221651Z 16008KT 10SM FEW060 FEW150 SCT250 27/14 A2998 RMK AO2 SLP151 T02720139= 201706221751 METAR KEWR 221751Z 15008KT 120V190 10SM FEW060 SCT250 27/14 A2997 RMK AO2 SLP147 T02720139 10278 20228 58009= 201706221851 METAR KEWR 221851Z 15008KT 10SM FEW060 FEW180 BKN260 27/15 A2994 RMK AO2 SLP139 T02720150= 201706221951 METAR KEWR 221951Z 17011KT 10SM FEW060 FEW180 BKN260 27/16 A2993 RMK AO2 SLP135 T02720161= 201706222051 METAR KEWR 222051Z 15008KT 10SM FEW065 FEW180 BKN260 29/18 A2992 RMK AO2 SLP131 T02890178 56016= 201706222151 METAR KEWR 222151Z 15010KT 10SM FEW065 FEW180 BKN260 28/17 A2989 RMK AO2 SLP120 T02830167= 201706222251 METAR KEWR 222251Z 15005KT 10SM FEW060 FEW180 BKN260 28/17 A2989 RMK AO2 SLP122 T02830167= 201706222351 METAR KEWR 222351Z 11005KT 10SM FEW060 FEW180 BKN260 28/18 A2990 RMK AO2 SLP123 T02780183 10289 20267 55008= 201706230051 METAR KEWR 230051Z 00000KT 10SM FEW060 SCT160 OVC260 27/19 A2990 RMK AO2 SLP123 T02670189= 201706230151 METAR KEWR 230151Z 18006KT 10SM SCT140 OVC250 27/19 A2990 RMK AO2 SLP125 T02670194= 201706230251 METAR KEWR 230251Z 19007KT 10SM FEW130 OVC230 27/21 A2990 RMK AO2 SLP125 T02670206 50002= 201706230351 METAR KEWR 230351Z 19006KT 10SM SCT160 OVC230 26/21 A2990 RMK AO2 SLP124 T02610206= 201706230451 METAR KEWR 230451Z 22009KT 10SM BKN150 OVC210 27/21 A2989 RMK AO2 SLP120 T02720206 402890183= 201706230551 METAR KEWR 230551Z 22008KT 10SM BKN130 OVC180 26/21 A2987 RMK AO2 SLP113 T02610206 10289 20261 58012= 201706230651 METAR KEWR 230651Z 22008KT 10SM BKN130 BKN180 OVC250 26/21 A2985 RMK AO2 SLP106 T02610211= 201706230751 METAR KEWR 230751Z 21008KT 10SM FEW130 SCT180 OVC250 26/21 A2983 RMK AO2 SLP100 T02560211= 201706230851 METAR KEWR 230851Z 21007KT 10SM BKN140 BKN250 25/22 A2982 RMK AO2 SLP099 T02500217 56014= 201706230951 METAR KEWR 230951Z 23009KT 10SM BKN130 BKN200 BKN250 25/22 A2983 RMK AO2 SLP100 T02500217= 201706231051 METAR KEWR 231051Z 21007KT 10SM BKN140 BKN200 BKN250 26/22 A2982 RMK AO2 SLP099 T02560217= 201706231151 METAR KEWR 231151Z 22009KT 10SM SCT150 OVC250 27/22 A2982 RMK AO2 SLP097 T02670222 10267 20250 58002= 201706231251 METAR KEWR 231251Z 23010KT 10SM FEW140 BKN170 OVC250 27/22 A2981 RMK AO2 SLP093 T02720222= 201706231351 METAR KEWR 231351Z 19012KT 10SM SCT025 BKN160 OVC250 27/23 A2979 RMK AO2 SLP086 T02720228= 201706231451 METAR KEWR 231451Z 20009KT 9SM SCT020 BKN110 BKN140 OVC250 28/23 A2977 RMK AO2 SLP080 T02780228 58017= 201706231551 METAR KEWR 231551Z 22013KT 10SM BKN024 BKN031 BKN120 OVC140 27/22 A2976 RMK AO2 RAB01E15 SLP077 BKN024 V SCT P0000 T02670217= 201706231651 METAR KEWR 231651Z 20015G20KT 10SM BKN024 BKN033 OVC110 27/21 A2972 RMK AO2 SLP064 T02720211= 201706231751 METAR KEWR 231751Z 21016G21KT 10SM BKN026 OVC130 26/21 A2971 RMK AO2 RAB22E46 SLP060 P0000 60000 T02610211 10289 20256 58020= 201706231851 METAR KEWR 231851Z 22017G24KT 10SM SCT025 BKN029 BKN047 28/22 A2969 RMK AO2 SLP052 T02780217= 201706231951 METAR KEWR 231951Z 22015G23KT 10SM SCT025 BKN035 BKN070 BKN180 BKN250 30/22 A2967 RMK AO2 PK WND 24026/1933 SLP045 T03000222= 201706232051 METAR KEWR 232051Z 23014G22KT 10SM SCT027 BKN040 BKN060 BKN180 BKN250 31/22 A2965 RMK AO2 SLP041 T03060222 56018= 201706232151 METAR KEWR 232151Z 22010KT 10SM FEW027 BKN040 BKN140 BKN250 29/22 A2964 RMK AO2 SLP038 T02940222= 201706232251 METAR KEWR 232251Z 23011G17KT 10SM -RA FEW035 BKN048 BKN075 BKN140 BKN250 29/22 A2963 RMK AO2 RAB14 SLP033 P0000 T02940222= 201706232351 METAR KEWR 232351Z 19011G17KT 9SM -RA FEW035 SCT048 BKN065 BKN140 OVC250 29/23 A2963 RMK AO2 RAE20B37 SLP032 P0000 60000 T02890228 10306 20261 56009= 201706240051 METAR KEWR 240051Z 20004KT 10SM FEW025 SCT048CB SCT090 BKN140 BKN250 25/24 A2963 RMK AO2 WSHFT 0006 RAE38 TSB2355E33 SLP035 CB E MOV E P0041 T02500239= 201706240151 METAR KEWR 240151Z 23015KT 10SM FEW025 FEW045 BKN130 OVC200 27/23 A2965 RMK AO2 SLP040 T02720233= 201706240251 METAR KEWR 240251Z 22015G22KT 10SM FEW025 FEW050 SCT110 BKN180 BKN250 27/23 A2963 RMK AO2 RAB19E26 SLP033 P0000 60041 T02720228 50000= 201706240351 METAR KEWR 240351Z 23012G20KT 10SM FEW025 FEW060 SCT150 BKN200 BKN250 27/23 A2962 RMK AO2 SLP029 T02720228= 201706240451 METAR KEWR 240451Z 26009KT 10SM FEW025 SCT060 OVC180 26/23 A2962 RMK AO2 SLP030 T02610228 403060250= 201706240551 METAR KEWR 240551Z 22010KT 10SM FEW020 BKN090 BKN130 24/22 A2963 RMK AO2 RAB0456E29 SLP032 P0009 60050 T02390222 10289 20239 55001= 201706240651 METAR KEWR 240651Z 24012KT 6SM R04R/5000VP6000FT RA BR BKN045 OVC080 23/22 A2963 RMK AO2 RAB01 SLP034 P0003 T02330222= 201706240751 METAR KEWR 240751Z 22004KT 10SM OVC045 23/22 A2959 RMK AO2 RAE14 SLP021 P0012 T02280217= 201706240851 METAR KEWR 240851Z 26005KT 10SM -RA FEW012 BKN038 OVC070 22/22 A2960 RMK AO2 RAB36 SLP021 P0000 60015 T02220217 58010= 201706240951 METAR KEWR 240951Z VRB03KT 2SM RA BR SCT026 BKN040 OVC080 22/22 A2959 RMK AO2 SFC VIS 3 SLP018 P0005 T02220217= 201706241051 METAR KEWR 241051Z 27003KT 1SM R04R/3000VP6000FT +RA BR FEW005 OVC028 21/21 A2958 RMK AO2 SFC VIS 1 1/4 SLP016 P0054 T02110211= 201706241151 METAR KEWR 241151Z 33004KT 2 1/2SM +RA BR FEW008 BKN050 OVC070 21/21 A2959 RMK AO2 SFC VIS 3 LTG DSNT E-S SLP019 P0065 60139 70189 T02060206 10239 20206 53001= 201706241251 METAR KEWR 241251Z 26008KT 10SM FEW008 SCT050 BKN110 22/22 A2961 RMK AO2 RAE34 SLP026 P0008 T02170217= 201706241351 METAR KEWR 241351Z 28011KT 10SM FEW011 FEW060 SCT120 25/22 A2963 RMK AO2 SLP033 T02500222= 201706241451 METAR KEWR 241451Z 29012G19KT 10SM SCT028 SCT130 28/21 A2965 RMK AO2 SLP041 60008 T02830206 53022= 201706241551 METAR KEWR 241551Z 32017G27KT 10SM SCT065 SCT250 29/13 A2970 RMK AO2 PK WND 31029/1532 SLP056 T02890128= 201706241651 METAR KEWR 241651Z 29021G27KT 10SM FEW065 SCT250 30/13 A2972 RMK AO2 PK WND 29027/1650 SLP064 T03000133= 201706241751 METAR KEWR 241751Z 29016G27KT 10SM FEW065 FEW250 30/12 A2974 RMK AO2 PK WND 28031/1718 SLP069 60008 T03000117 10306 20206 51028= 201706241851 METAR KEWR 241851Z 31015G23KT 10SM FEW070 FEW250 31/13 A2975 RMK AO2 PK WND 30029/1810 SLP074 T03060128= 201706241951 METAR KEWR 241951Z 28016G26KT 10SM FEW070 FEW250 31/12 A2976 RMK AO2 PK WND 27026/1947 SLP079 T03060117= 201706242051 METAR KEWR 242051Z 31011KT 10SM FEW070 SCT220 29/11 A2979 RMK AO2 SLP086 T02940106 53017= 201706242151 METAR KEWR 242151Z 26012G17KT 10SM FEW075 SCT210 30/11 A2979 RMK AO2 SLP088 T03000111= 201706242251 METAR KEWR 242251Z 26007KT 10SM FEW070 FEW210 SCT250 29/13 A2980 RMK AO2 SLP091 T02940128= 201706242351 METAR KEWR 242351Z 24011KT 10SM FEW070 SCT250 28/13 A2982 RMK AO2 SLP097 T02830133 10311 20283 53012= 201706250051 METAR KEWR 250051Z 23012G18KT 10SM FEW070 BKN250 27/14 A2983 RMK AO2 SLP101 T02720144= 201706250151 METAR KEWR 250151Z 24012KT 10SM SCT250 27/15 A2987 RMK AO2 SLP116 T02670150= 201706250251 METAR KEWR 250251Z 24010KT 10SM FEW250 26/15 A2989 RMK AO2 SLP121 T02610150 53023= 201706250351 METAR KEWR 250351Z 25011KT 10SM FEW080 FEW250 25/15 A2990 RMK AO2 SLP124 T02500150= 201706250451 METAR KEWR 250451Z 32008KT 10SM FEW080 FEW250 24/14 A2992 RMK AO2 SLP131 T02390144 403110206= 201706250551 METAR KEWR 250551Z 31005KT 10SM BKN070 BKN250 23/14 A2991 RMK AO2 SLP129 T02330144 10283 20233 50008= 201706250651 METAR KEWR 250651Z 30005KT 10SM BKN070 BKN250 23/14 A2992 RMK AO2 SLP130 T02280144= 201706250751 METAR KEWR 250751Z 32006KT 10SM SCT100 SCT250 22/14 A2992 RMK AO2 SLP133 T02220139= 201706250851 METAR KEWR 250851Z 33003KT 10SM FEW250 21/14 A2994 RMK AO2 SLP139 T02110144 53010= 201706250951 METAR KEWR 250951Z 35005KT 10SM FEW100 21/15 A2996 RMK AO2 SLP144 T02110150= 201706251051 METAR KEWR 251051Z 07003KT 10SM FEW100 FEW250 22/15 A2997 RMK AO2 SLP150 T02220150= 201706251151 METAR KEWR 251151Z 03003KT 10SM SCT110 SCT250 23/15 A2999 RMK AO2 SLP155 70008 T02280150 10233 20200 51016= 201706251251 METAR KEWR 251251Z 06004KT 10SM FEW110 SCT250 24/14 A2998 RMK AO2 SLP152 T02440139= 201706251351 METAR KEWR 251351Z 00000KT 10SM FEW110 SCT250 26/13 A2999 RMK AO2 SLP154 T02560128= 201706251451 METAR KEWR 251451Z 18009KT 10SM FEW050 FEW110 SCT200 BKN250 27/14 A2998 RMK AO2 SLP153 T02670144 56002= 201706251551 METAR KEWR 251551Z VRB06KT 10SM SCT060 SCT100 BKN180 BKN250 27/13 A2998 RMK AO2 SLP150 T02720133= 201706251651 METAR KEWR 251651Z 24013G21KT 10SM BKN080 BKN180 BKN250 29/12 A2996 RMK AO2 SLP146 T02890117= 201706251751 METAR KEWR 251751Z 23012G18KT 10SM SCT070 SCT110 BKN190 BKN250 29/12 A2993 RMK AO2 SLP136 T02940122 10294 20228 58016= 201706251851 METAR KEWR 251851Z 24011KT 10SM BKN070 BKN110 BKN190 BKN250 28/11 A2992 RMK AO2 SLP133 VCSH NE T02830111= 201706251951 METAR KEWR 251951Z 36010KT 10SM BKN065 BKN120 BKN250 28/15 A2992 RMK WSHFT 1916 RAB15E25 SLP132 P0000 T02780150= 201706252051 METAR KEWR 252051Z 00000KT 10SM SCT065 BKN120 BKN250 28/15 A2991 RMK AO2 SLP128 VCSH NE 60000 T02830150 58008= 201706252151 METAR KEWR 252151Z 06006KT 10SM SCT070 SCT110 BKN250 27/16 A2991 RMK AO2 SLP127 T02720156= 201706252251 METAR KEWR 252251Z 29010KT 10SM SCT070 SCT110 BKN250 28/12 A2991 RMK AO2 SLP128 T02780122= 201706252351 METAR KEWR 252351Z 26009KT 10SM FEW070 SCT110 SCT250 28/12 A2992 RMK AO2 SLP131 60000 T02780122 10300 20267 53003= 201706260051 METAR KEWR 260051Z 26010KT 10SM SCT070 BKN110 BKN250 27/12 A2993 RMK AO2 SLP134 T02670117= 201706260151 METAR KEWR 260151Z 26008KT 10SM FEW070 SCT100 SCT250 26/12 A2994 RMK AO2 SLP139 T02560122= 201706260251 METAR KEWR 260251Z 26008KT 10SM SCT100 BKN120 BKN250 25/11 A2996 RMK AO2 SLP143 T02500111 53012= 201706260351 METAR KEWR 260351Z 28009KT 10SM BKN110 BKN250 24/11 A2996 RMK AO2 SLP145 T02440106= 201706260451 METAR KEWR 260451Z 34014KT 10SM SCT110 BKN250 22/10 A2999 RMK AO2 SLP154 T02170100 403000200= 201706260551 METAR KEWR 260551Z 01009KT 10SM SCT110 BKN250 19/11 A2999 RMK AO2 SLP154 T01940106 10278 20194 51011= 201706260651 METAR KEWR 260651Z 34006KT 10SM FEW110 SCT250 20/10 A2999 RMK AO2 SLP154 T02000100= 201706260751 METAR KEWR 260751Z VRB06KT 10SM FEW110 19/10 A3000 RMK AO2 SLP158 T01890100= 201706260851 METAR KEWR 260851Z 30004KT 10SM FEW110 18/11 A3000 RMK SLP159 T01780106 53005= 201706260951 METAR KEWR 260951Z 28004KT 10SM CLR 18/11 A3002 RMK SLP164 T01780106= 201706261051 METAR KEWR 261051Z 27005KT 10SM CLR 19/11 A3003 RMK SLP169 T01890106= 201706261151 METAR KEWR 261151Z 28006KT 10SM CLR 21/11 A3003 RMK SLP170 T02060111 10206 20178 51011= 201706261251 METAR KEWR 261251Z 30008KT 10SM FEW075 22/11 A3004 RMK SLP173 T02220106= 201706261351 METAR KEWR 261351Z 28012KT 10SM FEW075 24/10 A3004 RMK SLP171 T02390100= 201706261451 METAR KEWR 261451Z 32008KT 10SM FEW055 SCT080 SCT250 24/08 A3003 RMK SLP170 T02440083 50000= 201706261551 METAR KEWR 261551Z 28010G18KT 250V320 10SM SCT065 SCT250 26/08 A3002 RMK SLP167 T02610083= 201706261651 METAR KEWR 261651Z 24010G17KT 200V260 10SM SCT070 SCT250 26/08 A3001 RMK SLP163 T02610083= 201706261751 METAR KEWR 261751Z 24008G17KT 10SM SCT065 25/09 A3000 RMK SLP159 T02500089 10267 20206 58012= 201706261851 METAR KEWR 261851Z 23011KT 10SM SCT080 27/08 A2999 RMK AO2 SLP155 T02670078= 201706261951 METAR KEWR 261951Z 25014KT 10SM FEW070 SCT085 BKN250 27/07 A2999 RMK AO2 SLP154 T02720067= 201706262051 METAR KEWR 262051Z 25014G21KT 10SM FEW075 SCT095 SCT250 27/07 A2998 RMK AO2 SLP150 T02670072 57008= 201706262151 METAR KEWR 262151Z 21013KT 10SM FEW075 FEW100 26/08 A2997 RMK AO2 SLP149 T02610078= 201706262251 METAR KEWR 262251Z 24014KT 10SM FEW075 FEW100 26/07 A2997 RMK AO2 SLP149 T02560072= 201706262351 METAR KEWR 262351Z 25012KT 10SM FEW075 FEW250 25/07 A2997 RMK AO2 SLP148 T02500072 10278 20250 56002= 201706270051 METAR KEWR 270051Z 23007KT 10SM FEW070 24/07 A2996 RMK AO2 SLP146 T02390072= 201706270151 METAR KEWR 270151Z 24008KT 10SM FEW070 23/08 A2997 RMK AO2 SLP149 T02330078= 201706270251 METAR KEWR 270251Z 21009KT 10SM FEW070 22/09 A2998 RMK AO2 SLP151 T02170089 53003= 201706270351 METAR KEWR 270351Z 23010KT 10SM CLR 22/08 A2998 RMK AO2 SLP152 T02220083= 201706270451 METAR KEWR 270451Z 21005KT 10SM BKN120 21/10 A2998 RMK AO2 SLP150 T02060100 402780178= 201706270551 METAR KEWR 270551Z 30009KT 10SM BKN100 21/10 A2999 RMK AO2 SLP156 T02060100 10250 20200 53004= 201706270651 METAR KEWR 270651Z 36007KT 10SM BKN090 20/10 A2999 RMK SLP154 T02000100= 201706270751 METAR KEWR 270751Z 02007KT 10SM BKN080 OVC120 19/11 A2999 RMK SLP154 T01890106= 201706270851 METAR KEWR 270851Z 34005KT 9SM -RA OVC070 17/13 A3000 RMK RAB14 SLP158 P0004 60004 T01720128 53002= 201706270951 METAR KEWR 270951Z 11003KT 8SM -RA FEW035 BKN070 OVC100 17/14 A3001 RMK SLP161 P0000 T01670139= 201706271051 METAR KEWR 271051Z 07003KT 10SM FEW010 FEW035 BKN085 BKN130 17/15 A3000 RMK RAE21 SLP159 P0000 T01720150= 201706271151 METAR KEWR 271151Z 00000KT 10SM FEW015 FEW095 SCT130 BKN200 18/15 A3000 RMK SLP159 60014 70014 T01830150 10206 20167 51001= 201706271251 METAR KEWR 271251Z 25003KT 10SM FEW019 FEW100 SCT130 BKN190 BKN220 21/16 A3000 RMK AO2 SLP159 T02110156 $= 201706271351 METAR KEWR 271351Z 23006KT 10SM FEW020 SCT095 BKN150 OVC210 19/15 A3001 RMK AO2 SLP161 T01940150 $= 201706271451 METAR KEWR 271451Z 23007KT 10SM FEW020 FEW095 SCT120 BKN150 BKN210 21/16 A3000 RMK AO2 SLP158 T02060156 58001 $= 201706271551 METAR KEWR 271551Z 19007KT 10SM FEW028 SCT190 BKN220 22/16 A2999 RMK AO2 SLP154 T02220161 $= 201706271651 METAR KEWR 271651Z 24008KT 200V270 10SM SCT034 SCT190 BKN230 24/13 A2997 RMK AO2 SLP149 T02440133 $= 201706271751 METAR KEWR 271751Z 23007KT 10SM SCT039 SCT230 25/12 A2995 RMK AO2 SLP140 T02500122 10256 20183 58018 $= 201706271851 METAR KEWR 271851Z 23012G18KT 10SM -RA FEW025 SCT042CB BKN090 BKN250 23/15 A2993 RMK AO2 LTG DSNT SW RAB32 SLP135 CB OHD MOV E P0001 T02330150 $= 201706271951 METAR KEWR 271951Z 21010G22KT 10SM FEW025 SCT035CB BKN065 BKN250 26/13 A2993 RMK AO2 LTG DSNT SE RAE23 SLP133 CB DSNT E MOV E P0000 T02560128 $= 201706272051 METAR KEWR 272051Z 23008G15KT 10SM FEW035 BKN060 BKN100 BKN250 25/12 A2992 RMK AO2 SLP130 60001 T02500117 56010 $= 201706272151 METAR KEWR 272151Z 27018G21KT 10SM FEW035 SCT060 BKN100 BKN200 BKN250 26/08 A2992 RMK AO2 SLP130 CB DSNT W MOV E TCU DSNT NE T02560083= 201706272251 METAR KEWR 272251Z 29010KT 10SM SCT040CB SCT070 BKN200 BKN250 24/10 A2994 RMK AO2 LTG DSNT W SLP136 CB OHD-W MOV E TCU DSNT NE VCSH W T02390100= 201706272351 METAR KEWR 272351Z 30012G21KT 10SM FEW030 SCT060 SCT120 BKN250 23/08 A2995 RMK AO2 SLP142 VCSH NE 60001 T02280083 10267 20228 53012 $= 201706280051 METAR KEWR 280051Z 27007KT 10SM SCT070 BKN110 BKN250 22/08 A2996 RMK AO2 SLP145 T02220083 $= 201706280151 METAR KEWR 280151Z 28005KT 10SM FEW070 FEW110 SCT250 21/09 A2997 RMK AO2 SLP148 T02110089 $= 201706280251 METAR KEWR 280251Z 30005KT 10SM SCT090 20/10 A2999 RMK AO2 SLP155 T02000100 53014 $= 201706280351 METAR KEWR 280351Z 29005KT 10SM FEW100 19/11 A3002 RMK AO2 SLP163 T01890111 $= 201706280451 METAR KEWR 280451Z 30005KT 10SM FEW100 18/11 A3003 RMK AO2 SLP168 T01830111 402670167 $= 201706280551 METAR KEWR 280551Z 30006KT 10SM CLR 18/10 A3003 RMK AO2 SLP168 T01780100 10228 20178 51013 $= 201706280651 METAR KEWR 280651Z 28005KT 10SM CLR 17/11 A3005 RMK AO2 SLP174 T01670106 $= 201706280751 METAR KEWR 280751Z VRB03KT 10SM CLR 16/10 A3006 RMK AO2 SLP177 T01610100 $= 201706280851 METAR KEWR 280851Z 23005KT 10SM CLR 15/10 A3008 RMK AO2 SLP184 T01500100 53016 $= 201706280951 METAR KEWR 280951Z 26005KT 10SM CLR 16/10 A3009 RMK AO2 SLP188 T01560100 $= 201706281051 METAR KEWR 281051Z 28004KT 10SM FEW250 17/11 A3010 RMK AO2 SLP192 T01670106 $= 201706281151 METAR KEWR 281151Z 31010KT 10SM SCT250 18/11 A3011 RMK AO2 SLP196 70001 T01830106 10183 20144 53012 $= 201706281251 METAR KEWR 281251Z 31005KT 10SM SCT250 20/11 A3013 RMK AO2 SLP201 T02000106 $= 201706281351 METAR KEWR 281351Z VRB05KT 10SM SCT250 21/10 A3012 RMK AO2 SLP198 T02110100 $= 201706281451 METAR KEWR 281451Z VRB04KT 10SM SCT070 SCT250 23/09 A3012 RMK AO2 SLP199 T02280094 51003 $= 201706281551 METAR KEWR 281551Z 26011G15KT 10SM BKN060 BKN250 24/10 A3012 RMK AO2 SLP200 T02440100= 201706281651 METAR KEWR 281651Z 27010G20KT 260V330 10SM BKN060 BKN260 25/08 A3012 RMK AO2 SLP199 T02500078= 201706281751 METAR KEWR 281751Z 26010G21KT 10SM BKN070 BKN270 26/09 A3011 RMK AO2 SLP196 T02560094 10261 20183 58003= 201706281851 METAR KEWR 281851Z 30013G21KT 10SM BKN070 BKN270 27/09 A3010 RMK AO2 SLP191 T02670094= 201706281951 METAR KEWR 281951Z 32009G18KT 10SM BKN075 BKN280 27/08 A3009 RMK AO2 WSHFT 1848 SLP189 T02670083= 201706282051 METAR KEWR 282051Z 32008KT 10SM BKN075 BKN260 27/09 A3008 RMK AO2 SLP187 T02720094 56009= 201706282151 METAR KEWR 282151Z 27012G18KT 10SM SCT080 BKN250 26/08 A3008 RMK AO2 SLP186 T02610083= 201706282251 METAR KEWR 282251Z 27008KT 10SM FEW080 BKN250 26/09 A3008 RMK AO2 SLP185 T02610089= 201706282351 METAR KEWR 282351Z 23009KT 10SM FEW090 BKN250 26/09 A3008 RMK AO2 SLP186 T02560089 10272 20256 55000= 201706290051 METAR KEWR 290051Z 23010KT 10SM FEW090 BKN250 24/09 A3009 RMK AO2 SLP187 T02390094= 201706290151 METAR KEWR 290151Z 23010KT 10SM BKN250 23/10 A3010 RMK AO2 SLP192 T02330100= 201706290251 METAR KEWR 290251Z 23010KT 10SM BKN250 23/10 A3011 RMK AO2 SLP197 T02280100 53010= 201706290351 METAR KEWR 290351Z 23008KT 10SM BKN250 22/10 A3012 RMK AO2 SLP198 T02220100= 201706290451 METAR KEWR 290451Z 23009KT 10SM BKN250 21/11 A3012 RMK AO2 SLP200 T02110106 402720144= 201706290551 METAR KEWR 290551Z 23008KT 10SM BKN250 21/11 A3014 RMK AO2 SLP204 T02060111 10256 20200 53008= 201706290651 METAR KEWR 290651Z 23009KT 10SM BKN250 19/12 A3014 RMK AO2 SLP205 T01940122= 201706290751 METAR KEWR 290751Z 22005KT 10SM BKN250 19/12 A3015 RMK AO2 SLP208 T01890122= 201706290851 METAR KEWR 290851Z VRB04KT 10SM BKN250 18/13 A3016 RMK AO2 SLP212 T01830128 53008= 201706290951 METAR KEWR 290951Z 23006KT 10SM SCT170 BKN230 19/13 A3015 RMK AO2 SLP210 T01890133= 201706291051 METAR KEWR 291051Z 23007KT 10SM FEW170 BKN240 20/14 A3016 RMK AO2 SLP212 T02000144= 201706291151 METAR KEWR 291151Z 22010KT 10SM FEW170 BKN240 21/14 A3016 RMK AO2 SLP211 T02110144 10217 20178 56001= 201706291251 METAR KEWR 291251Z 20011KT 10SM FEW170 BKN240 23/16 A3014 RMK AO2 SLP206 T02330156= 201706291351 METAR KEWR 291351Z 23016G22KT 10SM FEW140 FEW200 BKN250 25/14 A3012 RMK AO2 SLP200 T02500144= 201706291451 METAR KEWR 291451Z 22012G20KT 10SM FEW140 FEW230 BKN260 27/16 A3012 RMK AO2 SLP199 T02670156 56013= 201706291551 METAR KEWR 291551Z 19010KT 10SM FEW040 FEW140 FEW220 BKN260 27/16 A3010 RMK AO2 SLP194 T02670161= 201706291651 METAR KEWR 291651Z 20013G19KT 10SM FEW045 FEW230 BKN260 28/16 A3009 RMK AO2 SLP187 T02780161= 201706291751 METAR KEWR 291751Z 22012G20KT 10SM FEW055 BKN250 29/16 A3007 RMK AO2 SLP181 T02940161 10294 20217 58018= 201706291851 METAR KEWR 291851Z 24013G22KT 10SM SCT055 SCT075 BKN250 29/16 A3006 RMK AO2 SLP177 T02890161= 201706291951 METAR KEWR 291951Z 21012G21KT 10SM FEW055 BKN250 29/17 A3003 RMK AO2 SLP169 T02890167= 201706292051 METAR KEWR 292051Z 20018G22KT 10SM SCT060 BKN250 29/16 A3002 RMK AO2 SLP166 T02890161 57015= 201706292151 METAR KEWR 292151Z 17013G20KT 10SM FEW055 SCT180 BKN250 28/18 A3001 RMK AO2 SLP163 T02830183= 201706292251 METAR KEWR 292251Z 17013G22KT 10SM FEW055 FEW180 BKN250 27/18 A3002 RMK AO2 SLP164 T02720183= 201706292351 METAR KEWR 292351Z 18013KT 10SM FEW055 SCT180 BKN260 27/18 A3003 RMK AO2 SLP167 T02670178 10300 20267 53002= 201706300051 METAR KEWR 300051Z 18014KT 10SM FEW055 SCT180 OVC250 26/17 A3002 RMK AO2 SLP164 T02560172= 201706300151 METAR KEWR 300151Z 19014G18KT 10SM FEW065 SCT200 BKN260 24/17 A3004 RMK AO2 SLP171 T02440172= 201706300251 METAR KEWR 300251Z 20015G24KT 10SM FEW065 FEW180 BKN260 24/17 A3003 RMK AO2 PK WND 20027/0236 SLP168 T02440172 53001= 201706300351 METAR KEWR 300351Z 20014KT 10SM FEW070 FEW180 BKN260 23/17 A3003 RMK AO2 SLP168 T02330172= 201706300451 METAR KEWR 300451Z 21016G22KT 10SM FEW180 BKN260 23/16 A3003 RMK AO2 SLP167 T02330161 403000178= 201706300551 METAR KEWR 300551Z 21010G21KT 10SM FEW090 BKN260 23/16 A3002 RMK AO2 SLP166 T02330156 10267 20233 58002= 201706300651 METAR KEWR 300651Z 20013KT 10SM SCT090 BKN260 23/16 A3001 RMK AO2 SLP161 T02280156= 201706300751 METAR KEWR 300751Z 23016KT 10SM BKN100 BKN220 OVC260 23/16 A2999 RMK AO2 SLP156 T02330161= 201706300851 METAR KEWR 300851Z 22012KT 10SM SCT100 SCT220 BKN260 23/17 A2998 RMK AO2 SLP153 T02280167 56014= 201706300951 METAR KEWR 300951Z 22012KT 10SM SCT110 BKN250 23/17 A3000 RMK AO2 SLP157 T02280167= 201706301051 METAR KEWR 301051Z 22010KT 10SM SCT120 BKN250 23/17 A2999 RMK AO2 SLP156 T02330167= 201706301151 METAR KEWR 301151Z 21011KT 10SM FEW100 SCT120 BKN250 24/17 A3001 RMK AO2 SLP162 ACC DSNT SE T02440172 10244 20228 53009= 201706301251 METAR KEWR 301251Z 22014KT 10SM FEW070 SCT120 BKN250 26/17 A3001 RMK AO2 SLP160 T02610172= 201706301351 METAR KEWR 301351Z 23010KT 10SM FEW045 FEW080 FEW120 BKN250 28/18 A3001 RMK AO2 SLP162 T02780178= 201706301451 METAR KEWR 301451Z 21011KT 10SM FEW040 FEW070 FEW120 BKN250 29/18 A3001 RMK AO2 SLP160 T02940178 57001= 201706301551 METAR KEWR 301551Z 23007KT 10SM FEW045 FEW080 FEW120 BKN250 31/19 A2999 RMK AO2 SLP155 T03060189= 201706301651 METAR KEWR 301651Z 19012KT 10SM FEW045 FEW110 BKN250 31/19 A2997 RMK AO2 SLP149 T03110194= 201706301751 METAR KEWR 301751Z 18010G19KT 10SM FEW045 FEW110 BKN250 32/21 A2995 RMK AO2 SLP141 T03170206 10322 20244 58019= 201706301851 METAR KEWR 301851Z 20011KT 10SM FEW050 FEW150 BKN250 32/20 A2992 RMK AO2 SLP131 T03220200= 201706301951 METAR KEWR 301951Z 19015G21KT 10SM FEW050 FEW150 BKN250 32/20 A2990 RMK AO2 SLP125 T03220200= 201706302051 METAR KEWR 302051Z 19017G25KT 10SM FEW055 FEW140 BKN250 33/19 A2989 RMK AO2 SLP120 T03280189 56022= 201706302151 METAR KEWR 302151Z 21018G25KT 10SM FEW055 FEW140 BKN250 32/19 A2987 RMK AO2 PK WND 20029/2130 SLP114 T03170189= 201706302251 METAR KEWR 302251Z 20016G23KT 10SM FEW050 SCT075 SCT140 OVC250 31/19 A2989 RMK AO2 PK WND 20028/2219 SLP122 T03110194= 201706302351 METAR KEWR 302351Z 19016G22KT 10SM FEW050 SCT080 BKN140 OVC250 31/20 A2992 RMK AO2 SLP131 T03060200 10328 20306 53012=
