 201705010051 METAR KJFK 010051Z 09011G18KT 10SM OVC021 11/06 A3019 RMK\ AO2 SLP224 T01060061 $= 201705010151 METAR KJFK 010151Z 09008KT 10SM OVC019 11/07 A3021 RMK AO2\ RAB30E40 SLP228 P0000 T01060067 $= 201705010251 METAR KJFK 010251Z 09010KT 10SM OVC016 11/07 A3017 RMK AO2\ SLP215 60000 T01060072 58012 $= 201705010351 METAR KJFK 010351Z 08009KT 6SM BR OVC009 11/09 A3017 RMK\ AO2 SLP216 T01060089 $= 201705010451 METAR KJFK 010451Z 06008KT 4SM -DZ BR OVC005 11/10 A3015\ RMK AO2 DZB28 SLP210 P0000 T01060100\ 402110106 $= 201705010551 METAR KJFK 010551Z 09010KT 3SM -DZ BR OVC005 11/10 A3012\ RMK AO2 SFC VIS 4 SLP199 P0000 60000\ T01060100 10111 20106 58017 $= 201705010651 METAR KJFK 010651Z 06007KT 3SM -DZ BR OVC004 11/10 A3009\ RMK AO2 SLP190 P0000 T01060100 $= 201705010751 METAR KJFK 010751Z 06008KT 3SM -DZ BR OVC004 11/10 A3006\ RMK AO2 SLP179 P0000 T01060100 $= 201705010851 METAR KJFK 010851Z 05008KT 1SM R04R/P6000FT -DZ BR OVC004\ 10/10 A3004 RMK AO2 SFC VIS 2 SLP173\ P0000 60000 T01000100 56026 $= 201705010951 METAR KJFK 010951Z 05008KT 1/2SM R04R/P6000FT -DZ BR OVC003\ 10/10 A3003 RMK AO2 SFC VIS 2 SLP167\ P0000 T01000100 $= 201705011051 METAR KJFK 011051Z 03007KT 1/2SM R04R/4500V6000FT -DZ BR\ OVC003 11/10 A3002 RMK AO2 SFC VIS\ 1 SLP165 P0000 T01060100 $= 201705011151 METAR KJFK 011151Z 05006KT 1/2SM R04R/3500V5500FT BR OVC002\ 11/11 A3002 RMK AO2 SFC VIS 1 1/2\ DZE49 SLP163 P0000 60000 T01110106\ 10111 20100 56009 $= 201705011251 METAR KJFK 011251Z 00000KT 3/4SM R04R/P6000FT BR OVC003 12/11\ A3002 RMK AO2 SFC VIS 2 SLP166 T01170111\ $= 201705011351 METAR KJFK 011351Z 00000KT 1 1/2SM BR OVC004 12/12 A3001\ RMK AO2 SFC VIS 2 1/2 SLP161 T01220117= 201705011451 METAR KJFK 011451Z VRB03KT 2SM BR OVC005 13/12 A3000 RMK\ AO2 SFC VIS 3 SLP157 T01330122 58006= 201705011551 METAR KJFK 011551Z 10005KT 6SM BR OVC006 15/13 A2997 RMK\ AO2 SLP149 T01500128= 201705011651 METAR KJFK 011651Z 14006KT 8SM FEW003 BKN008 16/13 A2995\ RMK AO2 SLP141 T01610128= 201705011751 METAR KJFK 011751Z 13008KT 8SM BKN008 18/14 A2991 RMK AO2\ SLP129 T01780139 10178 20111 58028= 201705011851 METAR KJFK 011851Z 13010KT 10SM SCT006 SCT027 SCT220 18/15\ A2988 RMK AO2 SLP118 T01830150= 201705011951 METAR KJFK 011951Z 16008KT 10SM BKN009 BKN050 BKN220 18/15\ A2984 RMK AO2 PRESFR SLP104 BKN009\ V SCT T01830150= 201705012051 METAR KJFK 012051Z 19014KT 10SM FEW018 FEW060 BKN250 19/15\ A2980 RMK AO2 SLP091 T01890150 58039= 201705012151 METAR KJFK 012151Z 18018KT 10SM SCT055 SCT250 18/14 A2978\ RMK AO2 SLP082 T01780144= 201705012251 METAR KJFK 012251Z 18021G28KT 10SM FEW025 FEW055 BKN250 17/14\ A2973 RMK AO2 PK WND 17028/2222 SLP068\ T01720144= 201705012351 METAR KJFK 012351Z 18021G29KT 10SM FEW030 BKN250 17/14 A2975\ RMK AO2 PK WND 18029/2350 SLP073\ T01670139 10194 20167 55018= 201705020051 METAR KJFK 020051Z 17020KT 10SM BKN250 16/14 A2975 RMK AO2\ PK WND 18028/2358 SLP073 T01560139= 201705020151 METAR KJFK 020151Z 18019KT 9SM SCT150 SCT250 16/14 A2974\ RMK AO2 PK WND 18026/0122 SLP070\ T01560139= 201705020251 METAR KJFK 020251Z 18020KT 8SM FEW005 SCT150 BKN250 15/14\ A2970 RMK AO2 PK WND 18030/0213 SLP057\ T01500139 58015= 201705020351 METAR KJFK 020351Z 18021G27KT 8SM FEW005 BKN150 BKN250 16/14\ A2968 RMK AO2 PK WND 18029/0320 SLP049\ T01560144= 201705020451 METAR KJFK 020451Z 19020G25KT 8SM FEW006 BKN140 BKN250 16/14\ A2966 RMK AO2 PK WND 18028/0435 SLP044\ T01610144 401940100= 201705020551 METAR KJFK 020551Z 19019G26KT 8SM FEW006 BKN100 OVC190 16/14\ A2965 RMK AO2 PK WND 18032/0522 SLP038\ T01560144 10167 20150 56019= 201705020651 METAR KJFK 020651Z 19017G22KT 8SM FEW006 FEW040 BKN120 OVC190\ 16/14 A2963 RMK AO2 PK WND 19026/0605\ LTG DSNT S SLP033 OCNL LTGIC DSNT\ S CB DSNT S MOV NE T01610144= 201705020751 METAR KJFK 020751Z 18017KT 9SM -RA FEW035 OVC100 16/15 A2961\ RMK AO2 RAB36 SLP028 P0000 T01610150= 201705020851 METAR KJFK 020851Z 19019G23KT 5SM BR SCT004 BKN025 OVC080\ 15/14 A2961 RMK AO2 RAE44 SLP028\ SCT004 V BKN P0002 60002 T01500144\ 56010= 201705020951 METAR KJFK 020951Z 19016KT 8SM SCT019 OVC040 16/14 A2962\ RMK AO2 PK WND 18027/0901 SLP029\ T01560144= 201705021051 METAR KJFK 021051Z 18017KT 1SM R04R/P6000FT BR SCT002 SCT009\ BKN022 BKN320 16/14 A2961 RMK AO2\ SFC VIS 2 1/2 SLP026 VIS E-S 3/4\ SCT009 V BKN T01560144= 201705021151 METAR KJFK 021151Z 19017KT 1/8SM R04R/P6000FT BR SCT003 BKN018\ BKN065 BKN340 16/15 A2960 RMK AO2\ SFC VIS 3 SLP023 VIS E-SW 1 1/2 VCSH\ W-NW 60002 70002 T01560150 10167\ 20150 58005= 201705021251 METAR KJFK 021251Z 21012KT 7SM FEW006 BKN024 BKN060 BKN350\ 18/16 A2960 RMK AO2 SLP021 FROPA\ T01780161= 201705021351 METAR KJFK 021351Z 17008KT 10SM FEW037 FEW085 SCT350 17/15\ A2958 RMK AO2 SLP017 TCU DSNT S T01720150= 201705021451 METAR KJFK 021451Z 22007KT 10SM SCT037 SCT350 23/17 A2957\ RMK AO2 SLP014 T02280167 58008= 201705021551 METAR KJFK 021551Z 27014KT 10SM SCT049 SCT350 24/12 A2957\ RMK AO2 SLP014 T02440122= 201705021651 METAR KJFK 021651Z 26017G25KT 10SM SCT055 BKN080 BKN350 24/12\ A2958 RMK AO2 PK WND 25026/1645 SLP018\ T02440117= 201705021751 METAR KJFK 021751Z 25018G23KT 10SM SCT055 SCT075 24/12 A2959\ RMK AO2 PK WND 25027/1702 SLP019\ T02440117 10250 20156 53004= 201705021851 METAR KJFK 021851Z 25021G27KT 10SM SCT055 SCT075 24/11 A2959\ RMK AO2 PK WND 26028/1830 SLP019\ T02390111= 201705021951 METAR KJFK 021951Z 25019G30KT 10SM SCT060 24/08 A2959 RMK\ AO2 PK WND 25032/1900 SLP020 T02390083= 201705022051 METAR KJFK 022051Z 25024G30KT 10SM FEW065 24/05 A2961 RMK\ AO2 PK WND 24033/2031 SLP026 T02390050\ 53007= 201705022151 METAR KJFK 022151Z 27021G37KT 10SM FEW070 23/02 A2966 RMK\ AO2 PK WND 24041/2111 SLP043 T02280022= 201705022251 METAR KJFK 022251Z 26017G25KT 10SM FEW080 22/03 A2967 RMK\ AO2 PK WND 27036/2155 SLP047 T02170033= 201705022351 METAR KJFK 022351Z 26015KT 10SM SCT080 21/04 A2969 RMK AO2\ PK WND 26027/2305 SLP053 T02110039\ 10250 20211 51027= 201705030051 METAR KJFK 030051Z 27011KT 10SM SCT120 21/04 A2972 RMK AO2\ PK WND 27026/0012 SLP064 T02060039= 201705030151 METAR KJFK 030151Z 29020G26KT 10SM BKN120 21/02 A2975 RMK\ AO2 PK WND 29026/0150 SLP075 T02060017= 201705030251 METAR KJFK 030251Z 30011G23KT 10SM BKN120 19/02 A2977 RMK\ AO2 SLP082 T01940017 51029= 201705030351 METAR KJFK 030351Z 30013G23KT 10SM OVC110 18/02 A2978 RMK\ AO2 SLP082 T01830017= 201705030451 METAR KJFK 030451Z 28014G20KT 10SM OVC100 18/02 A2979 RMK\ AO2 SLP088 T01830017 402500150= 201705030551 METAR KJFK 030551Z 29014KT 10SM OVC110 17/02 A2979 RMK AO2\ SLP088 T01720022 10211 20172 53006= 201705030651 METAR KJFK 030651Z 27007KT 10SM BKN110 16/03 A2979 RMK AO2\ SLP089 T01610033= 201705030751 METAR KJFK 030751Z 27012KT 10SM OVC100 17/04 A2981 RMK AO2\ SLP093 T01670039= 201705030851 METAR KJFK 030851Z 28014G20KT 10SM OVC090 17/03 A2982 RMK\ AO2 SLP096 T01670033 53008= 201705030951 METAR KJFK 030951Z 28013KT 10SM BKN095 16/03 A2982 RMK AO2\ SLP099 T01610033= 201705031051 METAR KJFK 031051Z 29019G30KT 10SM SCT080 16/03 A2984 RMK\ AO2 PK WND 29030/1048 SLP103 T01610028= 201705031151 METAR KJFK 031151Z 28017G27KT 10SM FEW080 FEW110 17/02 A2985\ RMK AO2 PK WND 29029/1105 SLP107\ T01670022 10172 20161 53011= 201705031251 METAR KJFK 031251Z 29021G29KT 10SM FEW050 FEW100 17/02 A2986\ RMK AO2 PK WND 27029/1230 SLP111\ T01720022= 201705031351 METAR KJFK 031351Z 28018G26KT 10SM FEW060 FEW100 18/03 A2988\ RMK AO2 PK WND 28028/1322 SLP118\ T01780033= 201705031451 METAR KJFK 031451Z 28017G26KT 10SM SCT060 BKN095 18/02 A2989\ RMK AO2 PK WND 26032/1441 SLP122\ T01780022 53015= 201705031551 METAR KJFK 031551Z 29015G22KT 10SM BKN060 17/02 A2990 RMK\ AO2 SLP125 T01720022= 201705031651 METAR KJFK 031651Z 26018G24KT 10SM BKN065 17/02 A2992 RMK\ AO2 PK WND 28027/1638 SLP132 T01720022= 201705031751 METAR KJFK 031751Z 30012G23KT 10SM BKN065 18/02 A2993 RMK\ AO2 PK WND 26027/1700 SLP135 T01780017\ 10189 20167 53013= 201705031851 METAR KJFK 031851Z 28019G26KT 10SM BKN065 19/02 A2994 RMK\ AO2 PK WND 28026/1842 SLP139 T01890022= 201705031951 METAR KJFK 031951Z 30016G23KT 10SM SCT070 19/02 A2995 RMK\ AO2 PK WND 28026/1901 SLP140 T01940017= 201705032051 METAR KJFK 032051Z 32021G31KT 10SM FEW070 FEW250 19/01 A2996\ RMK AO2 PK WND 33032/2035 SLP146\ T01890011 53010= 201705032151 METAR KJFK 032151Z 34018G25KT 10SM FEW070 FEW250 18/00 A2999\ RMK AO2 PK WND 31032/2102 SLP153\ T01830000= 201705032251 METAR KJFK 032251Z 32020G27KT 10SM FEW250 17/M01 A3000 RMK\ AO2 PK WND 33027/2244 SLP159 T01721011= 201705032351 METAR KJFK 032351Z 34015G20KT 10SM FEW250 16/M01 A3002 RMK\ AO2 PK WND 33028/2328 SLP165 T01561011\ 10200 20156 51019= 201705040051 METAR KJFK 040051Z 33016G23KT 10SM FEW250 15/M02 A3012 RMK\ AO2 SLP200 T01501017= 201705040151 METAR KJFK 040151Z 33012KT 10SM CLR 14/M01 A3017 RMK AO2\ SLP216 T01441011= 201705040251 METAR KJFK 040251Z 35011KT 10SM CLR 13/00 A3020 RMK AO2 SLP228\ T01330000 51062= 201705040351 METAR KJFK 040351Z 35011KT 10SM SCT250 13/M01 A3021 RMK AO2\ SLP230 T01281006= 201705040451 METAR KJFK 040451Z 35008KT 10SM FEW250 12/M01 A3022 RMK AO2\ SLP231 T01171006 402000117= 201705040551 METAR KJFK 040551Z 01006KT 10SM FEW250 11/00 A3022 RMK AO2\ SLP232 T01060000 10156 20106 51005= 201705040651 METAR KJFK 040651Z 02004KT 10SM FEW250 10/01 A3024 RMK AO2\ SLP238 T01000011= 201705040751 METAR KJFK 040751Z 00000KT 10SM FEW250 09/02 A3024 RMK AO2\ SLP240 T00890017= 201705040851 METAR KJFK 040851Z 00000KT 10SM FEW250 08/02 A3024 RMK AO2\ SLP240 T00830022 51008= 201705040951 METAR KJFK 040951Z 04005KT 10SM FEW250 07/04 A3025 RMK AO2\ SLP243 T00720039= 201705041051 METAR KJFK 041051Z 04006KT 10SM FEW140 SCT320 09/02 A3026\ RMK AO2 SLP247 T00940022= 201705041151 METAR KJFK 041151Z 06007KT 10SM FEW140 BKN300 12/02 A3028\ RMK AO2 SLP254 T01170017 10117 20067\ 53014= 201705041251 METAR KJFK 041251Z 07009KT 10SM FEW140 SCT300 14/01 A3030\ RMK AO2 SLP259 T01390006= 201705041351 METAR KJFK 041351Z 09016G21KT 10SM FEW130 SCT270 15/M02 A3030\ RMK AO2 SLP259 T01501022= 201705041451 METAR KJFK 041451Z 12015KT 10SM FEW095 FEW130 BKN270 16/00\ A3029 RMK AO2 SLP256 T01560000 50002= 201705041551 METAR KJFK 041551Z 13013KT 10SM FEW100 FEW130 BKN250 16/M02\ A3030 RMK AO2 SLP259 T01561017= 201705041651 METAR KJFK 041651Z 14014KT 10SM FEW130 FEW210 BKN250 15/M01\ A3028 RMK AO2 SLP253 T01501011= 201705041751 METAR KJFK 041751Z 12015KT 10SM FEW130 BKN250 15/01 A3027\ RMK AO2 SLP249 T01500006 10161 20117\ 58007= 201705041851 METAR KJFK 041851Z 15015KT 10SM FEW170 BKN250 14/01 A3025\ RMK AO2 SLP243 T01440006= 201705041951 METAR KJFK 041951Z 15015KT 10SM FEW170 BKN250 14/03 A3024\ RMK AO2 SLP239 T01390028= 201705042051 METAR KJFK 042051Z 14012KT 10SM SCT150 BKN250 13/04 A3023\ RMK AO2 SLP235 T01330044 56013= 201705042151 METAR KJFK 042151Z 13010KT 10SM SCT170 OVC230 12/06 A3022\ RMK AO2 SLP232 T01220056= 201705042251 METAR KJFK 042251Z 12010KT 10SM BKN170 BKN200 OVC250 12/06\ A3020 RMK AO2 SLP227 T01170056= 201705042351 METAR KJFK 042351Z 11010KT 10SM FEW025 BKN150 OVC250 12/06\ A3019 RMK AO2 SLP224 T01170056 10150\ 20117 56011= 201705050051 METAR KJFK 050051Z 12012KT 10SM FEW025 OVC140 12/06 A3018\ RMK AO2 SLP219 T01170061= 201705050151 METAR KJFK 050151Z 11009KT 10SM FEW075 BKN160 OVC250 11/06\ A3018 RMK AO2 SLP218 T01110061= 201705050251 METAR KJFK 050251Z 10009KT 10SM FEW032 OVC190 11/07 A3014\ RMK AO2 SLP206 T01110067 58018= 201705050351 METAR KJFK 050351Z 10009KT 10SM FEW030 OVC160 11/07 A3013\ RMK AO2 SLP202 T01110067= 201705050451 METAR KJFK 050451Z 10011KT 10SM FEW027 OVC160 11/07 A3011\ RMK AO2 SLP197 T01110072 401610067= 201705050551 METAR KJFK 050551Z 08013KT 10SM BKN033 OVC150 11/07 A3010\ RMK AO2 SLP191 T01110072 10117 20111\ 58016= 201705050651 METAR KJFK 050651Z 09013KT 10SM SCT015 OVC100 11/08 A3005\ RMK AO2 RAB0558E36 SLP175 P0000 T01060083= 201705050751 METAR KJFK 050751Z 08012KT 10SM SCT013 BKN050 OVC100 11/09\ A3002 RMK AO2 RAB19E41 SLP165 P0000\ T01110089= 201705050851 METAR KJFK 050851Z 10018G25KT 10SM FEW013 BKN042 OVC100 12/09\ A2999 RMK AO2 RAB17E25 SLP156 P0000\ 60000 T01170089 56034= 201705050951 METAR KJFK 050951Z 09014KT 10SM -RA FEW013 BKN037 OVC065\ 12/09 A2996 RMK AO2 PK WND 10026/0924\ RAB49 SLP144 P0000 T01170089= 201705051051 METAR KJFK 051051Z 08017G22KT 9SM -RA FEW013 BKN028 OVC090\ 12/09 A2994 RMK AO2 RAE0958B25 SLP137\ P0000 T01170094= 201705051151 METAR KJFK 051151Z 09020G25KT 10SM -RA FEW011 BKN026 BKN055\ OVC140 12/10 A2992 RMK AO2 PK WND\ 09028/1132 SLP130 BKN026 V SCT P0001\ 60001 70001 T01220100 10122 20106\ 56027= 201705051251 METAR KJFK 051251Z 09022G26KT 10SM -RA BKN010 BKN032 OVC049\ 13/11 A2987 RMK AO2 PK WND 09028/1230\ RAE08B51 SLP116 CIG 008V012 BKN010\ V SCT P0000 T01280106= 201705051351 METAR KJFK 051351Z 09020G29KT 7SM -RA BKN010 BKN028 OVC080\ 13/11 A2982 RMK AO2 PK WND 10030/1340\ SLP099 BKN010 V SCT P0002 T01280111= 201705051451 METAR KJFK 051451Z 09021G31KT 4SM RA BR BKN008 OVC021 13/11\ A2977 RMK AO2 PK WND 08033/1425 SLP082\ P0008 60010 T01280111 58048= 201705051551 METAR KJFK 051551Z 09020G33KT 2 1/2SM R04R/4000VP6000FT +RA\ BR BKN007 BKN014 OVC037 13/12 A2972\ RMK AO2 PK WND 09033/1453 LTG DSNT\ E SLP063 P0051 T01280117= 201705051651 METAR KJFK 051651Z 10022G29KT 5SM -DZ BR OVC004 14/13 A2966\ RMK AO2 PK WND 11033/1631 RAE38DZB47\ SLP043 P0015 T01390128= 201705051851 METAR KJFK 051851Z 07012KT 3SM R04R/5500VP6000FT -RA BR FEW005\ BKN034 OVC050 15/14 A2962 RMK AO2\ WSHFT 1739 SFC VIS 4 TSE03 SLP029\ VIS E-S 2 1/2 P0047 T01500144= 201705051951 METAR KJFK 051951Z 12006KT 7SM BKN006 OVC025 16/15 A2963\ RMK AO2 RAE41 SLP033 P0002 T01610150= 201705052051 METAR KJFK 052051Z 14006KT 1 1/2SM BR OVC004 16/15 A2961\ RMK AO2 SFC VIS 4 SLP026 VIS SE-E\ 2 60049 T01560150 56030= 201705052151 METAR KJFK 052151Z 14006KT 1 1/2SM BR BKN005 OVC014 15/14\ A2960 RMK AO2 SFC VIS 5 SLP022 T01500139= 201705052251 METAR KJFK 052251Z 16008KT 6SM BR FEW006 SCT029 SCT110 BKN140\ OVC200 16/14 A2960 RMK AO2 SLP023\ T01560139= 201705052351 METAR KJFK 052351Z 10006KT 7SM BKN009 OVC029 15/13 A2959\ RMK AO2 SLP020 60049 T01500133 10161\ 20144 58003= 201705060051 METAR KJFK 060051Z 12007KT 10SM BKN009 BKN029 OVC060 14/13\ A2957 RMK AO2 SLP013 T01440133= 201705060151 METAR KJFK 060151Z 11010KT 8SM OVC004 14/13 A2956 RMK AO2\ SLP010 T01440133= 201705060251 METAR KJFK 060251Z 13014G22KT 1SM R04R/P6000FT BR BKN004\ OVC013 14/13 A2954 RMK AO2 SFC VIS\ 5 SLP002 T01440133 57017= 201705060351 METAR KJFK 060351Z 13014KT 3/4SM R04R/4000V5000FT BR OVC002\ 14/13 A2953 RMK AO2 SLP998 T01390133= 201705060451 METAR KJFK 060451Z 15013KT 1/4SM R04R/P6000FT BR OVC002 14/13\ A2952 RMK AO2 SFC VIS 3/4 SLP996\ T01390133 401610106= 201705060551 METAR KJFK 060551Z 14014KT 1/4SM R04R/5500VP6000FT -RA BR\ OVC002 14/13 A2948 RMK AO2 SFC VIS\ 3/4 RAB47 SLP983 P0000 60000 T01390133\ 10150 20133 58020= 201705060651 METAR KJFK 060651Z 14019KT 1/4SM R04R/3000V3500FT BR OVC002\ 14/14 A2945 RMK AO2 PK WND 14029/0628\ SFC VIS 3/4 RAE50 SLP971 P0000 T01440139= 201705060751 METAR KJFK 060751Z 14017G23KT 8SM FEW002 BKN006 BKN015 15/14\ A2944 RMK AO2 PK WND 15028/0654 RAB0652E03\ SLP968 P0000 T01500144= 201705060851 METAR KJFK 060851Z 15015KT 3/4SM R04R/4000V5500FT HZ OVC002\ 14/10 A2942 RMK AO2 SLP961 60000\ T01440100 56022= 201705060951 METAR KJFK 060951Z 15013G23KT 3/4SM R04R/6000VP6000FT HZ\ VV002 14/M01 A2941 RMK AO2 SLP959\ T01391006= 201705061051 METAR KJFK 061051Z 16016KT 3SM HZ BKN008 OVC016 14/M01 A2942\ RMK AO2 SFC VIS 5 SLP964 T01391006= 201705061151 METAR KJFK 061151Z 16013KT 4SM BR FEW008 SCT011 OVC050 14/12\ A2943 RMK AO2 SLP966 60000 70177\ T01390122 10150 20139 53005= 201705061251 METAR KJFK 061251Z 15013KT 6SM BR FEW011 BKN045 BKN220 14/12\ A2943 RMK AO2 SLP964 T01440122= 201705061351 METAR KJFK 061351Z 16019G22KT 10SM SCT050 BKN250 14/12 A2944\ RMK AO2 SLP968 T01440122= 201705061451 METAR KJFK 061451Z 17018G24KT 10SM SCT050 BKN250 16/12 A2944\ RMK AO2 PK WND 15026/1424 SLP970\ T01560122 53004= 201705061551 METAR KJFK 061551Z 16021G29KT 10SM FEW044 BKN060 BKN250 16/12\ A2944 RMK AO2 PK WND 17030/1515 SLP968\ T01610122= 201705061651 METAR KJFK 061651Z 17022G29KT 10SM FEW045 FEW060 SCT250 17/13\ A2943 RMK AO2 PK WND 17029/1556 SLP967\ T01670128= 201705061751 METAR KJFK 061751Z 15017G28KT 10SM FEW030 FEW050 SCT250 16/13\ A2943 RMK AO2 PK WND 16031/1723 SLP966\ T01560128 10167 20139 56004= 201705061851 METAR KJFK 061851Z 17021G29KT 10SM FEW025 FEW045 SCT060 SCT250\ 16/12 A2942 RMK AO2 PK WND 16030/1815\ SLP963 T01560122= 201705061951 METAR KJFK 061951Z 17019G27KT 10SM FEW025 BKN070 BKN250 16/13\ A2940 RMK AO2 PK WND 17027/1950 SLP957\ T01560128= 201705062051 METAR KJFK 062051Z 16016KT 10SM FEW048 BKN065 BKN250 15/12\ A2941 RMK AO2 PK WND 17028/1957 SLP959\ T01500122 55007= 201705062151 METAR KJFK 062151Z 18014KT 10SM FEW041 SCT070 BKN250 15/13\ A2938 RMK AO2 PK WND 16026/2116 SLP950\ T01500128= 201705062251 METAR KJFK 062251Z 17018KT 10SM FEW039 BKN060 BKN090 BKN250\ 14/13 A2939 RMK AO2 SLP951 T01440128= 201705062351 METAR KJFK 062351Z 17017KT 10SM SCT037 BKN045 BKN090 OVC250\ 14/13 A2941 RMK AO2 LTG DSNT N AND\ NW SLP957 T01390128 10161 20139 55002= 201705070051 METAR KJFK 070051Z 22013KT 10SM FEW028 BKN065 OVC080 14/13\ A2944 RMK AO2 PK WND 20026/0007 RAB2359E38\ SLP970 P0005 T01440133= 201705070151 METAR KJFK 070151Z 23016KT 10SM FEW031 SCT075 BKN090 BKN250\ 14/11 A2948 RMK AO2 SLP982 T01390106= 201705070251 METAR KJFK 070251Z 23020G24KT 10SM FEW025 BKN037 BKN090 BKN250\ 14/10 A2949 RMK AO2 SLP986 60005\ T01390100 51029= 201705070351 METAR KJFK 070351Z 25015G23KT 10SM FEW028 BKN046 BKN090 BKN260\ 13/09 A2950 RMK AO2 PK WND 24026/0252\ SLP990 T01280089= 201705070451 METAR KJFK 070451Z 24017KT 10SM SCT023 BKN047 BKN095 BKN270\ 12/08 A2952 RMK AO2 SLP996 T01220083\ 401670122= 201705070551 METAR KJFK 070551Z 23017KT 10SM SCT023 BKN049 BKN270 12/08\ A2954 RMK AO2 SLP002 60005 T01170083\ 10144 20117 53016= 201705070651 METAR KJFK 070651Z 23015KT 10SM SCT026 BKN060 OVC270 12/08\ A2955 RMK AO2 SLP006 T01170083= 201705070751 METAR KJFK 070751Z 22016KT 10SM SCT027 BKN055 12/08 A2956\ RMK AO2 SLP010 T01170083= 201705070851 METAR KJFK 070851Z 23013KT 10SM FEW027 BKN055 12/08 A2957\ RMK AO2 SLP013 T01170083 51012= 201705070951 METAR KJFK 070951Z 24017KT 10SM FEW027 SCT055 11/07 A2959\ RMK AO2 SLP020 T01110067= 201705071051 METAR KJFK 071051Z 24016KT 10SM FEW029 SCT036 SCT250 11/06\ A2963 RMK AO2 SLP031 T01110061= 201705071151 METAR KJFK 071151Z 24015KT 10SM SCT034 SCT045 BKN250 12/06\ A2964 RMK AO2 SLP038 70005 T01170061\ 10122 20111 51024= 201705071251 METAR KJFK 071251Z 23015KT 10SM FEW029 SCT040 BKN250 13/07\ A2965 RMK AO2 SLP041 T01280067= 201705071351 METAR KJFK 071351Z 21016KT 10SM SCT037 BKN049 BKN250 13/06\ A2966 RMK AO2 SLP045 T01280061= 201705071451 METAR KJFK 071451Z 23012KT 10SM FEW040 BKN055 BKN250 13/06\ A2968 RMK AO2 SLP049 T01280056 53011= 201705071551 METAR KJFK 071551Z 24012KT 10SM FEW040 BKN050 OVC250 12/06\ A2967 RMK AO2 SLP048 T01220061= 201705071651 METAR KJFK 071651Z 23010KT 10SM BKN049 BKN055 OVC250 12/06\ A2967 RMK AO2 SLP046 VIRGA SW VCSH\ W T01220056= 201705071751 METAR KJFK 071751Z 24011KT 10SM OVC065 13/06 A2966 RMK AO2\ SLP043 VCSH SE-SW AND NW T01330056\ 10139 20111 58005= 201705071851 METAR KJFK 071851Z 23014KT 10SM FEW047 OVC070 13/06 A2967\ RMK AO2 SLP045 VCSH S-W T01280061= 201705071951 METAR KJFK 071951Z 26019G25KT 10SM SCT040 BKN048 OVC065 12/06\ A2967 RMK AO2 SLP046 VCSH S T01220056= 201705072051 METAR KJFK 072051Z 29010KT 10SM -RA FEW040 SCT055 OVC080\ 12/06 A2968 RMK AO2 RAB46 SLP049\ P0000 60000 T01220056 53005= 201705072151 METAR KJFK 072151Z 29016G22KT 10SM SCT028 BKN037 BKN090 12/06\ A2970 RMK AO2 RAE45 SLP058 P0000\ T01170056= 201705072251 METAR KJFK 072251Z 28012KT 10SM SCT030 BKN065 BKN090 BKN250\ 12/04 A2972 RMK AO2 SLP063 VIRGA\ ALQDS T01170039= 201705072351 METAR KJFK 072351Z 30011KT 10SM FEW030 SCT060 BKN170 BKN250\ 11/04 A2974 RMK AO2 SLP071 60000\ T01110039 10139 20111 51022= 201705080051 METAR KJFK 080051Z 28013G20KT 10SM FEW034 SCT046 BKN150 BKN250\ 11/04 A2978 RMK AO2 SLP083 T01110039= 201705080151 METAR KJFK 080151Z 29013KT 10SM FEW040 BKN085 BKN160 BKN250\ 11/04 A2980 RMK AO2 SLP091 T01060039= 201705080251 METAR KJFK 080251Z 29012G16KT 10SM FEW039 OVC080 11/04 A2980\ RMK AO2 SLP092 T01060039 51021= 201705080351 METAR KJFK 080351Z 30009KT 10SM FEW040 SCT080 BKN140 OVC250\ 10/03 A2980 RMK AO2 SLP090 T01000028= 201705080451 METAR KJFK 080451Z 30010KT 10SM FEW090 SCT170 SCT250 09/03\ A2981 RMK AO2 SLP093 T00940028 401390094= 201705080551 METAR KJFK 080551Z 30012KT 10SM BKN110 09/03 A2982 RMK AO2\ SLP096 T00940028 10117 20094 53004= 201705080651 METAR KJFK 080651Z 28013KT 10SM FEW040 SCT120 09/03 A2983\ RMK AO2 SLP099 T00890028= 201705080751 METAR KJFK 080751Z 31009KT 10SM SCT095 08/02 A2984 RMK AO2\ SLP103 T00830022= 201705080851 METAR KJFK 080851Z 31009KT 10SM BKN095 08/02 A2983 RMK AO2\ SLP102 T00830022 50006= 201705080951 METAR KJFK 080951Z 31007KT 10SM FEW040 FEW095 08/01 A2985\ RMK AO2 SLP108 T00780011= 201705081051 METAR KJFK 081051Z 29009KT 10SM FEW040 FEW095 08/02 A2988\ RMK AO2 SLP116 T00830017= 201705081151 METAR KJFK 081151Z 28009KT 10SM FEW060 FEW095 FEW170 10/02\ A2988 RMK AO2 SLP118 T01000022 10100\ 20056 51016= 201705081251 METAR KJFK 081251Z 27012KT 10SM FEW060 FEW100 FEW140 11/01\ A2988 RMK AO2 SLP119 T01060011= 201705081351 METAR KJFK 081351Z 32018G23KT 10SM FEW060 FEW140 12/M01 A2988\ RMK AO2 SLP118 T01221011= 201705081451 METAR KJFK 081451Z 28017G24KT 10SM FEW060 FEW140 FEW200 13/M01\ A2989 RMK AO2 PK WND 30026/1433 SLP120\ T01281011 53001= 201705081551 METAR KJFK 081551Z 30017G24KT 10SM FEW050 BKN085 BKN140 13/00\ A2989 RMK AO2 PK WND 33026/1503 SLP122\ T01280000= 201705081651 METAR KJFK 081651Z 31015G22KT 10SM FEW055 SCT095 BKN140 13/M01\ A2988 RMK AO2 PK WND 29028/1631 SLP118\ T01281006= 201705081751 METAR KJFK 081751Z 30013G23KT 10SM SCT060 SCT100 BKN220 14/M01\ A2987 RMK AO2 SLP113 T01441011 10144\ 20100 58006= 201705081851 METAR KJFK 081851Z 32013G22KT 10SM BKN065 BKN250 14/M02 A2987\ RMK AO2 SLP113 T01441017= 201705081951 METAR KJFK 081951Z 28013KT 10SM BKN070 BKN250 15/M03 A2986\ RMK AO2 PK WND 27029/1926 SLP112\ T01501028= 201705082051 METAR KJFK 082051Z 31012KT 10SM BKN080 BKN250 14/M02 A2988\ RMK AO2 SLP117 T01441022 53003= 201705082151 METAR KJFK 082151Z 28012G17KT 10SM FEW060 BKN080 BKN250 15/M02\ A2988 RMK AO2 SLP119 T01501017= 201705082251 METAR KJFK 082251Z 27010KT 10SM SCT070 BKN095 BKN250 15/M02\ A2989 RMK AO2 SLP122 T01501017= 201705082351 METAR KJFK 082351Z 29009KT 10SM SCT080 BKN250 14/M02 A2991\ RMK AO2 SLP127 T01391017 10161 20133\ 53010= 201705090051 METAR KJFK 090051Z 27004KT 10SM BKN080 BKN095 BKN250 13/M01\ A2991 RMK AO2 SLP128 T01331011= 201705090151 METAR KJFK 090151Z 09004KT 10SM BKN080 13/00 A2992 RMK AO2\ SLP132 T01280000= 201705090251 METAR KJFK 090251Z 08005KT 10SM OVC080 12/03 A2993 RMK AO2\ SLP133 T01220028 51006= 201705090351 METAR KJFK 090351Z 14004KT 10SM BKN100 12/04 A2992 RMK AO2\ SLP133 T01170044= 201705090451 METAR KJFK 090451Z 10003KT 10SM BKN110 12/03 A2992 RMK AO2\ SLP133 T01170033 401610056= 201705090551 METAR KJFK 090551Z 06008KT 10SM BKN100 11/05 A2992 RMK AO2\ SLP130 T01110050 10139 20111 58003= 201705090651 METAR KJFK 090651Z 03007KT 10SM SCT110 SCT250 10/04 A2991\ RMK AO2 SLP129 T01000044= 201705090751 METAR KJFK 090751Z 03011KT 10SM FEW110 SCT250 09/03 A2992\ RMK AO2 SLP130 T00940028= 201705090851 METAR KJFK 090851Z 01008KT 10SM FEW100 BKN190 08/04 A2993\ RMK AO2 SLP134 T00830044 53005= 201705090951 METAR KJFK 090951Z 02009KT 10SM SCT020 BKN140 BKN250 08/04\ A2994 RMK AO2 SLP138 T00830044= 201705091051 METAR KJFK 091051Z 03010KT 10SM FEW022 BKN130 BKN180 BKN250\ 09/04 A2995 RMK AO2 SLP142 T00890044= 201705091151 METAR KJFK 091151Z 05005KT 10SM FEW022 BKN100 BKN250 10/04\ A2997 RMK AO2 SLP148 T01000039 10111\ 20083 53014= 201705091251 METAR KJFK 091251Z 34005KT 10SM SCT100 BKN250 12/04 A2998\ RMK AO2 SLP153 T01170039= 201705091351 METAR KJFK 091351Z 29004KT 10SM FEW030 SCT110 BKN250 13/05\ A2999 RMK AO2 SLP156 T01280050= 201705091451 METAR KJFK 091451Z VRB03KT 10SM SCT039 BKN250 13/03 A2999\ RMK AO2 SLP153 SCT V BKN T01280033\ 50005= 201705091551 METAR KJFK 091551Z 21008KT 10SM BKN042 BKN250 13/04 A2998\ RMK AO2 SLP151 T01280039= 201705091651 METAR KJFK 091651Z 21006KT 10SM SCT050 BKN250 15/00 A2997\ RMK AO2 SLP148 T01500000= 201705091751 METAR KJFK 091751Z VRB06KT 10SM SCT060 BKN250 14/00 A2997\ RMK AO2 SLP148 T01440000 10161 20100\ 55005= 201705091851 METAR KJFK 091851Z 19012KT 10SM SCT065 BKN250 17/01 A2995\ RMK AO2 SLP143 T01670006 $= 201705091951 METAR KJFK 091951Z 20010KT 10SM OVC080 16/M01 A2994 RMK AO2\ SLP138 T01561011 $= 201705092051 METAR KJFK 092051Z 13009KT 10SM FEW055 BKN080 BKN250 16/M01\ A2994 RMK AO2 SLP137 T01561006 56011\ $= 201705092151 METAR KJFK 092151Z 13009KT 10SM FEW055 BKN080 BKN250 13/07\ A2996 RMK AO2 SLP144 T01280067= 201705092251 METAR KJFK 092251Z 15009KT 10SM FEW055 BKN080 BKN250 12/07\ A2998 RMK AO2 SLP152 T01220072= 201705092351 METAR KJFK 092351Z 16006KT 10SM FEW045 SCT085 BKN250 12/07\ A2999 RMK AO2 SLP156 T01170072 10172\ 20117 51018= 201705100051 METAR KJFK 100051Z 14003KT 10SM FEW045 SCT100 BKN190 BKN250\ 12/07 A3001 RMK AO2 SLP160 T01170072= 201705100151 METAR KJFK 100151Z 07005KT 10SM FEW100 BKN180 OVC250 11/08\ A3001 RMK AO2 SLP162 T01110078= 201705100251 METAR KJFK 100251Z 09004KT 10SM OVC170 11/08 A3000 RMK AO2\ SLP158 T01110078 50003= 201705100351 METAR KJFK 100351Z 08004KT 10SM BKN160 11/07 A3000 RMK AO2\ SLP158 T01110072= 201705100451 METAR KJFK 100451Z 07004KT 10SM OVC170 11/07 A3000 RMK AO2\ SLP158 T01060072 401720083= 201705100551 METAR KJFK 100551Z 04004KT 10SM FEW021 BKN160 10/07 A3000\ RMK AO2 SLP160 T01000067 10117 20100\ 53001= 201705100651 METAR KJFK 100651Z 04003KT 10SM BKN085 OVC160 11/08 A3000\ RMK AO2 SLP159 T01060078= 201705100751 METAR KJFK 100751Z 03003KT 10SM OVC090 11/08 A3000 RMK AO2\ SLP160 T01060078= 201705100851 METAR KJFK 100851Z 05004KT 10SM OVC095 11/08 A3000 RMK AO2\ SLP159 T01060078 58001= 201705100951 METAR KJFK 100951Z 05005KT 10SM BKN100 11/08 A3001 RMK AO2\ SLP162 T01060083= 201705101051 METAR KJFK 101051Z 03004KT 10SM FEW017 BKN100 11/07 A3003\ RMK AO2 SLP169 T01060072= 201705101151 METAR KJFK 101151Z 05006KT 10SM FEW026 BKN110 11/03 A3004\ RMK AO2 SLP172 T01110033 10111 20106\ 51013= 201705101251 METAR KJFK 101251Z 00000KT 10SM FEW032 BKN100 BKN330 12/03\ A3005 RMK AO2 SLP174 T01220033= 201705101351 METAR KJFK 101351Z 00000KT 10SM FEW035 SCT090 14/04 A3004\ RMK AO2 SLP172 T01440044= 201705101451 METAR KJFK 101451Z VRB04KT 10SM FEW038 SCT090 14/04 A3003\ RMK AO2 SLP168 T01440039 58003= 201705101551 METAR KJFK 101551Z 19007KT 10SM SCT047 SCT090 SCT250 15/07\ A3002 RMK AO2 SLP167 T01500067= 201705101651 METAR KJFK 101651Z 20008KT 10SM BKN049 BKN250 14/06 A3002\ RMK AO2 SLP164 T01440061= 201705101751 METAR KJFK 101751Z 20008KT 10SM BKN060 BKN250 14/06 A3002\ RMK AO2 SLP165 T01440061 10156 20111\ 55003= 201705101851 METAR KJFK 101851Z 15009KT 10SM SCT060 SCT210 BKN250 14/06\ A3001 RMK AO2 SLP162 T01440061= 201705101951 METAR KJFK 101951Z 16007KT 10SM SCT060 BKN250 16/06 A3001\ RMK AO2 SLP163 T01560061= 201705102051 METAR KJFK 102051Z 17010KT 10SM SCT065 BKN250 14/06 A3002\ RMK AO2 SLP165 T01440061 53000= 201705102151 METAR KJFK 102151Z 17010KT 10SM SCT065 BKN250 13/06 A3002\ RMK AO2 SLP166 T01330061= 201705102251 METAR KJFK 102251Z 16008KT 10SM FEW065 BKN250 13/05 A3003\ RMK AO2 SLP168 T01330050= 201705102351 METAR KJFK 102351Z 17006KT 10SM FEW065 BKN250 12/06 A3003\ RMK AO2 SLP168 T01170061 10156 20117\ 51004= 201705110051 METAR KJFK 110051Z 18003KT 10SM FEW065 BKN250 11/07 A3005\ RMK AO2 SLP175 T01110072= 201705110151 METAR KJFK 110151Z 18005KT 10SM FEW065 SCT250 11/07 A3007\ RMK AO2 SLP182 T01060072= 201705110251 METAR KJFK 110251Z 19004KT 10SM FEW050 BKN250 11/07 A3007\ RMK AO2 SLP182 T01060072 51014= 201705110351 METAR KJFK 110351Z 00000KT 10SM FEW021 BKN250 11/07 A3007\ RMK AO2 SLP181 T01110072= 201705110451 METAR KJFK 110451Z 00000KT 10SM SCT250 11/07 A3006 RMK AO2\ SLP178 T01110072 401560100= 201705110551 METAR KJFK 110551Z 28003KT 10SM BKN250 11/06 A3005 RMK AO2\ SLP174 T01060061 10117 20100 58008= 201705110651 METAR KJFK 110651Z 33004KT 10SM BKN250 11/07 A3002 RMK AO2\ SLP166 T01060072= 201705110751 METAR KJFK 110751Z 36003KT 10SM BKN250 10/06 A3002 RMK AO2\ SLP167 T01000056= 201705110851 METAR KJFK 110851Z 01007KT 10SM BKN250 09/04 A3003 RMK AO2\ SLP167 T00940044 55007= 201705110951 METAR KJFK 110951Z 01007KT 10SM BKN055 BKN250 09/03 A3004\ RMK AO2 SLP172 T00940033= 201705111051 METAR KJFK 111051Z 02008KT 10SM BKN055 BKN250 11/04 A3003\ RMK AO2 SLP170 T01060039= 201705111151 METAR KJFK 111151Z 04006KT 10SM SCT055 SCT210 BKN270 13/03\ A3002 RMK AO2 SLP165 T01280033 10128\ 20089 58002= 201705111251 METAR KJFK 111251Z 04009KT 10SM FEW060 BKN270 14/03 A3002\ RMK AO2 SLP164 T01390033= 201705111351 METAR KJFK 111351Z 36005KT 10SM FEW048 FEW180 BKN240 14/02\ A3000 RMK AO2 SLP160 T01440022= 201705111451 METAR KJFK 111451Z VRB03KT 10SM FEW050 BKN260 16/02 A3001\ RMK AO2 SLP161 T01560022 55004= 201705111551 METAR KJFK 111551Z VRB04KT 10SM SCT055 BKN260 15/04 A3000\ RMK AO2 SLP157 T01500044= 201705111651 METAR KJFK 111651Z 17008KT 10SM FEW055 BKN250 15/04 A2999\ RMK AO2 SLP155 T01500039= 201705111751 METAR KJFK 111751Z 14009KT 10SM SCT055 SCT140 BKN250 16/06\ A2998 RMK AO2 SLP152 T01560056 10161\ 20128 56009= 201705111851 METAR KJFK 111851Z 18007KT 10SM SCT055 SCT210 OVC250 15/04\ A2997 RMK AO2 SLP150 T01500044= 201705111951 METAR KJFK 111951Z 13010KT 10SM FEW055 SCT220 BKN250 14/05\ A2997 RMK AO2 SLP149 T01440050= 201705112051 METAR KJFK 112051Z 12008KT 10SM FEW055 BKN220 BKN250 14/06\ A2998 RMK AO2 SLP150 T01390061 55002= 201705112151 METAR KJFK 112151Z 11007KT 10SM FEW055 BKN220 BKN250 14/04\ A2998 RMK AO2 SLP153 T01390044= 201705112251 METAR KJFK 112251Z 11006KT 10SM FEW150 SCT220 BKN250 13/06\ A3000 RMK AO2 SLP157 T01280056= 201705112351 METAR KJFK 112351Z 14007KT 10SM FEW140 SCT210 BKN250 12/07\ A3001 RMK AO2 SLP162 T01170067 10156\ 20117 53012= 201705120051 METAR KJFK 120051Z 16003KT 10SM FEW140 SCT210 BKN250 11/07\ A3002 RMK AO2 SLP165 T01110067= 201705120151 METAR KJFK 120151Z 16003KT 10SM FEW210 BKN250 11/07 A3002\ RMK AO2 SLP166 T01060067= 201705120251 METAR KJFK 120251Z 13004KT 10SM FEW120 BKN250 11/07 A3003\ RMK AO2 SLP168 T01060067 51006= 201705120351 METAR KJFK 120351Z 00000KT 10SM BKN260 11/07 A3004 RMK AO2\ SLP173 T01060067= 201705120451 METAR KJFK 120451Z 00000KT 10SM FEW120 BKN260 09/08 A3005\ RMK AO2 SLP176 T00940078 401610089= 201705120551 METAR KJFK 120551Z 09005KT 10SM BKN260 09/07 A3005 RMK AO2\ SLP176 T00940072 10117 20089 51009= 201705120651 METAR KJFK 120651Z 08003KT 10SM BKN260 09/08 A3006 RMK AO2\ SLP179 T00940078= 201705120751 METAR KJFK 120751Z 05005KT 10SM BKN260 08/07 A3005 RMK AO2\ SLP177 T00830072= 201705120851 METAR KJFK 120851Z 04005KT 10SM FEW018 SCT050 BKN260 08/07\ A3005 RMK AO2 SLP174 T00830067 58002= 201705120951 METAR KJFK 120951Z 35004KT 10SM FEW015 SCT050 SCT250 09/07\ A3006 RMK AO2 SLP180 T00890067= 201705121051 METAR KJFK 121051Z 02003KT 10SM FEW018 FEW050 SCT160 BKN250\ 11/08 A3008 RMK AO2 SLP187 T01060078= 201705121151 METAR KJFK 121151Z 05006KT 10SM FEW022 SCT170 BKN270 12/08\ A3008 RMK AO2 SLP186 T01170078 10122\ 20083 50012= 201705121251 METAR KJFK 121251Z 06005KT 10SM BKN028 BKN260 13/07 A3008\ RMK AO2 SLP187 BKN028 V SCT T01280072= 201705121351 METAR KJFK 121351Z 08007KT 10SM SCT028 BKN036 BKN260 14/07\ A3008 RMK AO2 SLP186 T01390072= 201705121451 METAR KJFK 121451Z 02010KT 10SM BKN037 BKN250 15/07 A3007\ RMK AO2 SLP182 T01500067 58004= 201705121551 METAR KJFK 121551Z 15011KT 10SM BKN041 BKN250 14/08 A3007\ RMK AO2 SLP183 T01440078= 201705121651 METAR KJFK 121651Z 14012G17KT 10SM SCT046 SCT140 BKN250 14/07\ A3007 RMK AO2 SLP181 T01440067= 201705121751 METAR KJFK 121751Z 16015KT 10SM SCT046 BKN250 14/07 A3006\ RMK AO2 SLP180 T01440067 10161 20117\ 58001= 201705121851 METAR KJFK 121851Z 15014G20KT 10SM SCT046 BKN250 14/06 A3006\ RMK AO2 SLP179 T01390061= 201705121951 METAR KJFK 121951Z 17012KT 10SM FEW048 BKN250 14/06 A3006\ RMK AO2 SLP177 T01390061= 201705122051 METAR KJFK 122051Z 20010KT 10SM FEW048 FEW100 FEW210 BKN250\ 13/06 A3005 RMK AO2 SLP175 T01330061\ 58005= 201705122151 METAR KJFK 122151Z 16007KT 10SM FEW047 FEW100 BKN250 13/06\ A3005 RMK AO2 SLP174 T01280061= 201705122251 METAR KJFK 122251Z 15007KT 10SM FEW047 FEW100 BKN240 12/07\ A3005 RMK AO2 SLP175 T01220067= 201705122351 METAR KJFK 122351Z 18006KT 10SM FEW047 FEW100 BKN220 BKN250\ 12/07 A3005 RMK AO2 SLP175 T01170072\ 10144 20117 55000= 201705130051 METAR KJFK 130051Z 14006KT 10SM FEW040 FEW100 BKN200 BKN250\ 12/07 A3004 RMK AO2 SLP171 T01170072= 201705130151 METAR KJFK 130151Z 14007KT 10SM SCT020 BKN200 OVC250 12/08\ A3004 RMK AO2 SLP171 T01170078= 201705130251 METAR KJFK 130251Z 16007KT 10SM BKN020 OVC200 12/08 A3004\ RMK AO2 SLP172 T01170083 55004= 201705130351 METAR KJFK 130351Z 12005KT 10SM BKN019 OVC170 12/09 A3003\ RMK AO2 SLP169 T01170089= 201705130451 METAR KJFK 130451Z 10008KT 10SM SCT014 OVC019 12/08 A3001\ RMK AO2 SLP163 T01170083 401610083= 201705130551 METAR KJFK 130551Z 11008KT 10SM SCT014 BKN018 OVC025 11/08\ A3000 RMK AO2 SLP158 T01110083 10117\ 20111 58014= 201705130651 METAR KJFK 130651Z 11010KT 10SM SCT018 OVC025 11/08 A2999\ RMK AO2 SLP155 T01110078= 201705130751 METAR KJFK 130751Z 11010KT 10SM -RA BKN025 BKN055 OVC085\ 11/08 A2998 RMK AO2 RAB43 SLP150\ P0000 T01110083= 201705130851 METAR KJFK 130851Z 09008KT 10SM -RA BKN023 BKN055 OVC070\ 11/09 A2996 RMK AO2 SLP146 P0001\ 60001 T01060089 58012= 201705130951 METAR KJFK 130951Z 09008KT 9SM -RA FEW026 SCT055 OVC080 10/09\ A2995 RMK AO2 SLP142 P0002 T01000094= 201705131051 METAR KJFK 131051Z 09008KT 6SM -RA BR FEW016 BKN075 OVC100\ 10/09 A2994 RMK AO2 SLP139 P0005\ T01000094= 201705131151 METAR KJFK 131151Z 08006KT 7SM -RA BKN009 BKN013 OVC019 11/10\ A2994 RMK AO2 SLP137 P0003 60011\ 70011 T01060100 10111 20100 56009= 201705131251 METAR KJFK 131251Z 09007KT 5SM -RA BR OVC008 11/10 A2994\ RMK AO2 SLP137 P0006 T01060100= 201705131351 METAR KJFK 131351Z 09009KT 6SM -RA BR OVC009 11/11 A2993\ RMK AO2 SLP136 P0010 T01110106= 201705131451 METAR KJFK 131451Z 08012KT 8SM -RA OVC009 11/11 A2992 RMK\ AO2 SLP131 P0004 60020 T01110106\ 58006= 201705131551 METAR KJFK 131551Z 08015G20KT 3SM RA BR OVC008 11/11 A2990\ RMK AO2 SLP126 P0006 T01110106= 201705131651 METAR KJFK 131651Z 08014G23KT 4SM RA BR OVC008 11/10 A2988\ RMK AO2 SLP118 P0009 T01110100= 201705131751 METAR KJFK 131751Z 07013G21KT 4SM +RA BR OVC008 11/10 A2986\ RMK AO2 SLP111 P0013 60048 T01060100\ 10111 20100 58020= 201705131851 METAR KJFK 131851Z 06011KT 3SM RA BR BKN011 OVC016 11/10\ A2984 RMK AO2 SLP105 P0017 T01060100= 201705131951 METAR KJFK 131951Z 05014KT 2SM RA BR FEW008 BKN012 OVC018\ 11/10 A2982 RMK AO2 SLP099 P0018\ T01060100= 201705132051 METAR KJFK 132051Z 05016KT 2SM RA BR BKN011 BKN019 OVC032\ 10/09 A2981 RMK AO2 SLP094 P0017\ 60052 T01000094 56017= 201705132151 METAR KJFK 132151Z 02017G23KT 2SM RA BR SCT008 BKN013 OVC034\ 09/09 A2980 RMK AO2 SLP091 P0015\ T00940089= 201705132251 METAR KJFK 132251Z 03020G26KT 2SM -RA BR FEW008 BKN012 OVC018\ 09/08 A2979 RMK AO2 PK WND 03026/2243\ SLP087 P0012 T00890083= 201705132351 METAR KJFK 132351Z 03017G26KT 2SM RA BR SCT007 BKN010 OVC025\ 09/08 A2979 RMK AO2 PK WND 02026/2259\ SLP088 P0007 60086 T00890083 10106\ 20089 55006= 201705140051 METAR KJFK 140051Z 02016KT 3SM -RA BR SCT007 BKN011 OVC015\ 08/08 A2979 RMK AO2 PK WND 04026/2356\ SLP087 P0005 T00830078= 201705140151 METAR KJFK 140151Z 02016KT 3SM +RA BR SCT008 BKN013 OVC025\ 08/08 A2979 RMK AO2 SLP088 P0007\ T00830078= 201705140251 METAR KJFK 140251Z 03017G22KT 8SM -RA BKN011 OVC042 08/08\ A2978 RMK AO2 SLP083 P0003 60015\ T00830078 58004= 201705140351 METAR KJFK 140351Z 04022G30KT 7SM -RA FEW011 BKN042 OVC060\ 08/07 A2976 RMK AO2 PK WND 03032/0325\ SLP076 P0000 T00830072= 201705140451 METAR KJFK 140451Z 02013KT 8SM -RA SCT020 OVC060 09/08 A2972\ RMK AO2 PK WND 04030/0407 SLP065\ P0005 T00890078 401170083= 201705140551 METAR KJFK 140551Z 36016G22KT 10SM BKN010 OVC100 09/08 A2971\ RMK AO2 RAE48 SLP061 P0000 60020\ T00890078 10089 20083 56022= 201705140651 METAR KJFK 140651Z 34015G20KT 10SM BKN012 BKN065 BKN100 09/08\ A2970 RMK AO2 SLP058 T00890078= 201705140751 METAR KJFK 140751Z 35013KT 10SM BKN013 OVC060 08/07 A2970\ RMK AO2 SLP057 T00830072= 201705140851 METAR KJFK 140851Z 34015G22KT 10SM BKN013 BKN060 09/07 A2971\ RMK AO2 SLP060 T00890067 55002= 201705140951 METAR KJFK 140951Z 33011KT 10SM SCT017 SCT055 BKN080 BKN140\ 09/07 A2971 RMK AO2 RAB43E51 SLP060\ P0000 T00890072= 201705141051 METAR KJFK 141051Z 32011G21KT 10SM SCT015 BKN090 BKN150 09/07\ A2971 RMK AO2 SLP062 T00890067= 201705141151 METAR KJFK 141151Z 33016G21KT 10SM FEW015 FEW100 SCT150 11/07\ A2971 RMK AO2 SLP059 60000 70154\ T01060067 10106 20083 58000= 201705141251 METAR KJFK 141251Z 31013KT 10SM FEW015 SCT090 SCT150 12/07\ A2972 RMK AO2 SLP062 T01220072= 201705141351 METAR KJFK 141351Z 32013KT 10SM FEW025 SCT090 SCT150 14/08\ A2970 RMK AO2 SLP056 T01390078= 201705141451 METAR KJFK 141451Z 32015G21KT 10SM SCT029 SCT090 BKN200 16/08\ A2969 RMK AO2 SLP053 T01560083 58007= 201705141551 METAR KJFK 141551Z 32014G22KT 10SM SCT034 SCT090 BKN200 17/08\ A2967 RMK AO2 SLP048 T01720083= 201705141651 METAR KJFK 141651Z 32012KT 10SM SCT042 BKN090 BKN200 18/09\ A2965 RMK AO2 SLP038 T01780089= 201705141751 METAR KJFK 141751Z 29010KT 10SM BKN049 BKN055 BKN200 19/09\ A2962 RMK AO2 SLP030 T01940089 10206\ 20106 58023= 201705141851 METAR KJFK 141851Z 28018G23KT 10SM BKN055 BKN075 BKN120 BKN200\ 21/08 A2960 RMK AO2 SLP023 T02060078= 201705141951 METAR KJFK 141951Z 25012KT 10SM FEW025 SCT055 BKN100 BKN250\ 17/12 A2959 RMK AO2 PK WND 24029/1934\ RAB25E50 TSE22B25E48 SLP018 CB DSNT\ SE P0000 T01720122= 201705142051 METAR KJFK 142051Z 23015KT 10SM FEW045 FEW075 SCT100 SCT200\ 18/13 A2957 RMK AO2 SLP013 60000\ T01780128 56017= 201705142151 METAR KJFK 142151Z 32013KT 10SM FEW045 SCT060 SCT070 BKN130\ 18/09 A2959 RMK AO2 PK WND 32039/2115\ WSHFT 2105 LTG DSNT SE RAB17E40 SLP019\ CB OHD-SW MOV E P0001 T01780094= 201705142251 METAR KJFK 142251Z 01011KT 10SM FEW050 SCT070 SCT110 17/08\ A2958 RMK AO2 PK WND 31028/2159 LTG\ DSNT S AND SW SLP017 T01720078= 201705142351 METAR KJFK 142351Z 03009KT 10SM FEW050 BKN080 BKN110 16/08\ A2958 RMK AO2 SLP015 60001 T01610078\ 10211 20150 50002= 201705150051 METAR KJFK 150051Z 36004KT 10SM FEW050 BKN060 BKN090 16/09\ A2959 RMK AO2 RAB07E50 SLP020 P0000\ T01560089= 201705150151 METAR KJFK 150151Z 30020G29KT 10SM SCT050 BKN080 BKN090 16/05\ A2961 RMK AO2 PK WND 31029/0143 RAB0056E05\ SLP028 P0000 T01610050= 201705150251 METAR KJFK 150251Z 31016G31KT 10SM BKN110 15/04 A2963 RMK\ AO2 PK WND 30031/0248 SLP034 60000\ T01500044 53018= 201705150351 METAR KJFK 150351Z 31018G27KT 10SM FEW110 14/05 A2964 RMK\ AO2 PK WND 30029/0312 SLP035 T01390050= 201705150451 METAR KJFK 150451Z 31019G26KT 10SM FEW110 13/06 A2964 RMK\ AO2 PK WND 30030/0401 SLP036 T01280056\ 402110083= 201705150551 METAR KJFK 150551Z 29014G20KT 10SM FEW040 12/06 A2964 RMK\ AO2 SLP037 60000 T01220061 10172\ 20122 51004= 201705150651 METAR KJFK 150651Z 29017G24KT 10SM FEW040 13/06 A2964 RMK\ AO2 SLP035 T01280061= 201705150751 METAR KJFK 150751Z 29011KT 10SM FEW040 12/07 A2964 RMK AO2\ SLP036 T01220067= 201705150851 METAR KJFK 150851Z 29011KT 10SM FEW045 13/07 A2964 RMK AO2\ SLP037 T01280067 55000= 201705150951 METAR KJFK 150951Z 29014G20KT 10SM FEW040 13/07 A2965 RMK\ AO2 SLP040 T01330072= 201705151051 METAR KJFK 151051Z 30018G25KT 10SM FEW038 SCT070 BKN170 14/07\ A2966 RMK AO2 SLP045 T01390072= 201705151151 METAR KJFK 151151Z 30015G22KT 10SM SCT055 SCT075 BKN160 14/07\ A2968 RMK AO2 PK WND 30029/1111 SLP052\ 70001 T01440072 10144 20122 53015= 201705151251 METAR KJFK 151251Z 32020G30KT 10SM SCT041 SCT085 BKN180 15/07\ A2970 RMK AO2 PK WND 32031/1232 SLP057\ T01500072= 201705151351 METAR KJFK 151351Z 31023G34KT 10SM SCT044 SCT080 BKN180 16/06\ A2971 RMK AO2 PK WND 32035/1313 SLP060\ T01610061= 201705151451 METAR KJFK 151451Z 30025G34KT 10SM SCT047 BKN190 BKN250 17/06\ A2973 RMK AO2 PK WND 31034/1451 SLP065\ T01670061 52014= 201705151551 METAR KJFK 151551Z 31023G33KT 10SM SCT049 SCT190 BKN250 18/06\ A2972 RMK AO2 PK WND 31034/1517 SLP063\ T01780061= 201705151651 METAR KJFK 151651Z 29018G32KT 10SM SCT050 SCT190 SCT250 19/07\ A2973 RMK AO2 PK WND 30034/1601 SLP066\ T01890067= 201705151751 METAR KJFK 151751Z 31021G34KT 10SM SCT055 SCT250 19/07 A2973\ RMK AO2 PK WND 32035/1707 SLP066\ T01940067 10194 20144 53001= 201705151851 METAR KJFK 151851Z 30022G33KT 10SM SCT055 BKN250 20/07 A2973\ RMK AO2 PK WND 31037/1816 SLP067\ T02000067= 201705151951 METAR KJFK 151951Z 32021G29KT 10SM SCT060 BKN250 20/06 A2974\ RMK AO2 PK WND 31033/1919 SLP071\ T02000061= 201705152051 METAR KJFK 152051Z 33025G34KT 10SM SCT060 SCT250 21/06 A2975\ RMK AO2 PK WND 30035/2010 SLP073\ T02060056 53007= 201705152151 METAR KJFK 152151Z 33024G29KT 10SM SCT065 SCT250 21/06 A2977\ RMK AO2 PK WND 31033/2123 SLP081\ T02060056= 201705152251 METAR KJFK 152251Z 32021G28KT 10SM FEW065 FEW250 21/06 A2980\ RMK AO2 PK WND 34032/2205 SLP091\ T02060056= 201705152351 METAR KJFK 152351Z 32019G26KT 10SM FEW065 FEW250 19/06 A2984\ RMK AO2 PK WND 31034/2311 SLP103\ T01940056 10206 20189 53030= 201705160051 METAR KJFK 160051Z 32013G22KT 10SM FEW065 FEW250 19/06 A2988\ RMK AO2 PK WND 32027/2354 SLP117\ T01890056= 201705160151 METAR KJFK 160151Z 31016G24KT 10SM FEW250 18/06 A2990 RMK\ AO2 SLP123 T01830061= 201705160251 METAR KJFK 160251Z 31014KT 10SM CLR 18/06 A2991 RMK AO2 SLP126\ T01780061 51023= 201705160351 METAR KJFK 160351Z 31009G20KT 10SM CLR 17/06 A2993 RMK AO2\ PK WND 30026/0335 SLP134 T01720061= 201705160451 METAR KJFK 160451Z 32014KT 10SM CLR 17/07 A2993 RMK AO2 SLP136\ T01670067 402060122= 201705160551 METAR KJFK 160551Z 32012G19KT 10SM FEW250 16/07 A2993 RMK\ AO2 SLP136 T01610072 10194 20161\ 50009= 201705160651 METAR KJFK 160651Z 32013KT 10SM CLR 16/08 A2993 RMK AO2 SLP136\ T01560078= 201705160751 METAR KJFK 160751Z 29008KT 10SM FEW250 15/08 A2995 RMK AO2\ SLP142 T01500078= 201705160851 METAR KJFK 160851Z 29007KT 10SM FEW250 15/08 A2996 RMK AO2\ SLP145 T01500078 53009= 201705160951 METAR KJFK 160951Z 31010KT 10SM FEW250 15/08 A2997 RMK AO2\ SLP150 T01500078= 201705161051 METAR KJFK 161051Z 30007KT 10SM BKN250 16/08 A3000 RMK AO2\ SLP159 T01610083= 201705161151 METAR KJFK 161151Z 31009KT 10SM BKN250 17/08 A3002 RMK AO2\ SLP163 T01720083 10172 20144 51019= 201705161251 METAR KJFK 161251Z 31012KT 10SM BKN250 19/08 A3002 RMK AO2\ SLP166 T01890083= 201705161351 METAR KJFK 161351Z 31011KT 10SM FEW180 BKN250 20/08 A3003\ RMK AO2 SLP168 T02000083= 201705161451 METAR KJFK 161451Z 30007KT 10SM FEW180 BKN250 21/08 A3003\ RMK AO2 SLP168 T02110083 51005= 201705161551 METAR KJFK 161551Z 29014KT 10SM FEW200 BKN250 23/08 A3002\ RMK AO2 SLP166 T02280078= 201705161651 METAR KJFK 161651Z 23016KT 10SM FEW200 BKN250 22/11 A3002\ RMK AO2 SLP164 T02220106= 201705161751 METAR KJFK 161751Z 23015KT 10SM FEW150 BKN250 23/11 A3000\ RMK AO2 SLP160 T02280106 10239 20172\ 58008= 201705161851 METAR KJFK 161851Z 23015KT 10SM FEW170 SCT220 BKN260 24/11\ A3000 RMK AO2 SLP159 T02390106= 201705161951 METAR KJFK 161951Z 23014KT 10SM FEW170 FEW210 BKN260 24/10\ A2998 RMK AO2 SLP152 T02440100= 201705162051 METAR KJFK 162051Z 19013KT 10SM FEW100 SCT190 BKN250 22/11\ A2997 RMK AO2 SLP147 T02170111 58013= 201705162151 METAR KJFK 162151Z 19011KT 10SM SCT150 BKN180 BKN250 20/12\ A2996 RMK AO2 SLP145 T02000117= 201705162251 METAR KJFK 162251Z 19008KT 10SM BKN130 BKN250 19/12 A2996\ RMK AO2 SLP144 T01890117= 201705162351 METAR KJFK 162351Z 21004KT 10SM SCT130 SCT250 17/12 A2997\ RMK AO2 SLP148 T01720122 10256 20172\ 53001= 201705170051 METAR KJFK 170051Z 19005KT 10SM FEW130 FEW250 16/13 A2997\ RMK AO2 SLP149 T01610128= 201705170151 METAR KJFK 170151Z 18004KT 10SM FEW130 SCT250 17/13 A2999\ RMK AO2 SLP155 T01670133= 201705170251 METAR KJFK 170251Z 19007KT 10SM FEW130 SCT250 17/13 A2999\ RMK AO2 SLP156 T01670133 51008= 201705170351 METAR KJFK 170351Z 23007KT 10SM SCT190 17/12 A3000 RMK AO2\ SLP158 T01720122= 201705170451 METAR KJFK 170451Z 24009KT 10SM SCT200 18/12 A3000 RMK AO2\ SLP159 T01780117 402560144= 201705170551 METAR KJFK 170551Z 23009KT 10SM FEW200 17/12 A3000 RMK AO2\ SLP157 T01720122 10183 20161 50001= 201705170651 METAR KJFK 170651Z 20007KT 10SM SCT250 16/13 A3000 RMK AO2\ SLP158 T01560128= 201705170751 METAR KJFK 170751Z 18005KT 10SM BKN260 14/13 A3001 RMK AO2\ SLP161 T01440128= 201705170851 METAR KJFK 170851Z 17004KT 10SM BKN260 14/13 A3002 RMK AO2\ SLP165 T01390128 53007= 201705170951 METAR KJFK 170951Z 17006KT 10SM SCT260 14/13 A3002 RMK AO2\ SLP166 T01440133= 201705171051 METAR KJFK 171051Z 19005KT 10SM FEW260 16/13 A3003 RMK AO2\ SLP170 T01610133= 201705171151 METAR KJFK 171151Z 19007KT 10SM SCT260 18/13 A3004 RMK AO2\ SLP172 T01780133 10183 20139 53007= 201705171251 METAR KJFK 171251Z 20005KT 10SM FEW260 19/13 A3004 RMK AO2\ SLP171 T01940133= 201705171351 METAR KJFK 171351Z 20007KT 10SM FEW260 21/14 A3003 RMK AO2\ SLP169 T02060139= 201705171451 METAR KJFK 171451Z 19009KT 10SM FEW042 FEW080 FEW250 22/14\ A3002 RMK AO2 SLP164 T02170144 58008= 201705171551 METAR KJFK 171551Z 17008KT 10SM FEW045 FEW250 24/16 A3000\ RMK AO2 SLP159 T02390156= 201705171651 METAR KJFK 171651Z 17008KT 10SM FEW050 FEW070 FEW250 24/17\ A2999 RMK AO2 SLP154 T02440167= 201705171751 METAR KJFK 171751Z 17011KT 10SM FEW050 25/17 A2997 RMK AO2\ SLP148 T02500172 10250 20178 58016= 201705171851 METAR KJFK 171851Z 18015KT 10SM FEW050 FEW250 24/17 A2995\ RMK AO2 SLP143 T02390172= 201705171951 METAR KJFK 171951Z 19016KT 10SM FEW050 FEW250 24/17 A2993\ RMK AO2 SLP135 T02390172= 201705172051 METAR KJFK 172051Z 19015KT 10SM SCT250 23/17 A2992 RMK AO2\ SLP133 T02330172 56015= 201705172151 METAR KJFK 172151Z 19017KT 10SM SCT250 23/18 A2992 RMK AO2\ SLP130 T02330178= 201705172251 METAR KJFK 172251Z 18012KT 10SM FEW250 22/17 A2992 RMK AO2\ SLP130 T02220172= 201705172351 METAR KJFK 172351Z 22004KT 10SM FEW140 SCT250 20/17 A2993\ RMK AO2 SLP133 T02000172 10250 20200\ 53000= 201705180051 METAR KJFK 180051Z 16004KT 10SM FEW150 BKN250 21/17 A2993\ RMK AO2 SLP135 T02060172= 201705180151 METAR KJFK 180151Z 22008KT 10SM BKN250 23/19 A2995 RMK AO2\ SLP141 T02330189= 201705180251 METAR KJFK 180251Z 22008KT 10SM BKN250 23/18 A2995 RMK AO2\ SLP142 T02280183 52009= 201705180351 METAR KJFK 180351Z 21006KT 10SM BKN250 20/18 A2995 RMK AO2\ SLP140 T02000178= 201705180451 METAR KJFK 180451Z 21004KT 10SM BKN250 19/17 A2994 RMK AO2\ SLP138 T01890172 402500139= 201705180551 METAR KJFK 180551Z 21003KT 10SM BKN250 19/17 A2993 RMK AO2\ SLP136 T01890172 10233 20189 58006= 201705180651 METAR KJFK 180651Z 14003KT 10SM BKN250 19/17 A2992 RMK AO2\ SLP132 T01890172= 201705180751 METAR KJFK 180751Z 24003KT 10SM BKN250 21/18 A2993 RMK AO2\ SLP134 T02060178= 201705180851 METAR KJFK 180851Z 18004KT 10SM BKN250 19/18 A2994 RMK AO2\ SLP138 T01940178 53002= 201705180951 METAR KJFK 180951Z 19005KT 10SM BKN240 20/18 A2995 RMK AO2\ SLP141 T02000178= 201705181051 METAR KJFK 181051Z 23008KT 10SM FEW210 BKN260 22/18 A2996\ RMK AO2 SLP145 T02220183= 201705181151 METAR KJFK 181151Z 23008KT 10SM BKN260 24/19 A2998 RMK AO2\ SLP151 T02390189 10239 20183 53013= 201705181251 METAR KJFK 181251Z 23010KT 10SM FEW095 SCT260 25/19 A2997\ RMK AO2 SLP148 T02500189= 201705181351 METAR KJFK 181351Z 21011KT 10SM FEW095 SCT260 27/19 A2996\ RMK AO2 SLP144 T02670194= 201705181451 METAR KJFK 181451Z 22011KT 10SM FEW050 FEW095 SCT250 28/20\ A2994 RMK AO2 SLP139 T02830200 58012= 201705181551 METAR KJFK 181551Z 21011KT 10SM SCT250 28/19 A2993 RMK AO2\ SLP135 T02830194= 201705181651 METAR KJFK 181651Z 19012KT 10SM FEW060 FEW250 28/19 A2992\ RMK AO2 SLP130 T02830189= 201705181751 METAR KJFK 181751Z 19015KT 10SM FEW060 FEW100 FEW250 28/18\ A2990 RMK AO2 SLP124 T02830183 10289\ 20239 58015= 201705181851 METAR KJFK 181851Z 19014KT 10SM FEW060 FEW100 SCT250 29/18\ A2989 RMK AO2 SLP121 T02890183= 201705181951 METAR KJFK 181951Z 18013KT 10SM FEW065 SCT100 SCT250 28/18\ A2987 RMK AO2 SLP114 T02830178= 201705182051 METAR KJFK 182051Z 19017KT 10SM FEW070 SCT250 27/18 A2987\ RMK AO2 SLP113 T02720178 56011= 201705182151 METAR KJFK 182151Z 19015KT 10SM FEW070 FEW100 SCT250 24/17\ A2985 RMK AO2 SLP109 T02440172= 201705182251 METAR KJFK 182251Z 18011KT 10SM FEW070 FEW100 FEW250 23/17\ A2985 RMK AO2 SLP107 T02280167= 201705182351 METAR KJFK 182351Z 18008KT 10SM SCT250 21/17 A2985 RMK AO2\ SLP109 T02060167 10294 20206 55004= 201705190051 METAR KJFK 190051Z 18006KT 10SM SCT250 20/17 A2986 RMK AO2\ SLP110 T02000167= 201705190151 METAR KJFK 190151Z 21008KT 10SM SCT250 23/18 A2988 RMK AO2\ SLP117 T02330178= 201705190251 METAR KJFK 190251Z 22014KT 10SM SCT250 26/19 A2987 RMK AO2\ SLP116 T02560189 50007= 201705190351 METAR KJFK 190351Z 22012KT 10SM FEW050 BKN250 25/18 A2988\ RMK AO2 SLP117 FRQ LTGIC DSNT N CB\ DSNT N MOV E T02500183= 201705190451 METAR KJFK 190451Z 23004KT 10SM BKN250 23/18 A2988 RMK AO2\ SLP118 T02280183 402940183= 201705190551 METAR KJFK 190551Z 20007KT 10SM BKN250 22/19 A2987 RMK AO2\ SLP115 T02220189 10261 20194 58001= 201705190651 METAR KJFK 190651Z 17004KT 10SM SCT250 21/18 A2987 RMK AO2\ SLP113 T02060183= 201705190751 METAR KJFK 190751Z 21007KT 10SM FEW250 21/19 A2987 RMK AO2\ SLP115 T02110189= 201705190851 METAR KJFK 190851Z 20008KT 10SM FEW250 20/19 A2988 RMK AO2\ SLP118 T02000189 53003= 201705190951 METAR KJFK 190951Z 22010KT 9SM FEW250 21/19 A2989 RMK AO2\ SLP120 T02110194= 201705191051 METAR KJFK 191051Z 23008KT 10SM FEW250 23/21 A2990 RMK AO2\ SLP125 T02280206= 201705191151 METAR KJFK 191151Z 23010KT 10SM FEW250 24/21 A2991 RMK AO2\ SLP126 T02390206 10239 20200 51009= 201705191251 METAR KJFK 191251Z 24010KT 10SM FEW250 28/21 A2990 RMK AO2\ SLP126 T02780206= 201705191351 METAR KJFK 191351Z 25009KT 10SM CLR 29/20 A2990 RMK AO2 SLP123\ T02940200= 201705191451 METAR KJFK 191451Z 25011KT 10SM FEW250 30/19 A2989 RMK AO2\ SLP123 T03000189 56003= 201705191551 METAR KJFK 191551Z 23014KT 10SM FEW048 30/19 A2989 RMK AO2\ SLP121 T03000194= 201705191651 METAR KJFK 191651Z 23016KT 10SM FEW050 SCT250 31/19 A2987\ RMK AO2 SLP115 T03110194= 201705191751 METAR KJFK 191751Z 23016KT 10SM FEW055 SCT250 32/19 A2986\ RMK AO2 SLP111 T03170189 10317 20239\ 58012= 201705191851 METAR KJFK 191851Z 24012KT 10SM FEW055 BKN250 32/18 A2985\ RMK AO2 SLP106 T03170183= 201705191951 METAR KJFK 191951Z 23014KT 10SM FEW055 FEW075 BKN250 32/18\ A2984 RMK AO2 LTG DSNT N SLP104 CB\ DSNT N T03220183= 201705192051 METAR KJFK 192051Z 21008KT 10SM FEW060 FEW100 BKN250 29/19\ A2984 RMK AO2 SLP103 T02940189 56007= 201705192151 METAR KJFK 192151Z 26012KT 10SM FEW065 FEW100 BKN250 33/16\ A2984 RMK AO2 SLP106 CB DSNT S T03280161= 201705192251 METAR KJFK 192251Z 26013KT 10SM FEW065 BKN250 32/16 A2986\ RMK AO2 SLP110 T03220161= 201705192351 METAR KJFK 192351Z 26012KT 10SM SCT065 BKN250 32/16 A2987\ RMK AO2 SLP114 T03170156 10333 20294\ 53010= 201705200051 METAR KJFK 200051Z 01015G22KT 10SM FEW065 SCT085 SCT110 BKN250\ 28/17 A2993 RMK AO2 WSHFT 0032 SLP135\ T02780167= 201705200151 METAR KJFK 200151Z 02012KT 10SM FEW100 BKN250 26/15 A2997\ RMK AO2 SLP147 T02560150= 201705200251 METAR KJFK 200251Z 02014G20KT 10SM BKN250 23/12 A3000 RMK\ AO2 SLP158 T02330122 53024= 201705200351 METAR KJFK 200351Z 01015G21KT 10SM BKN250 22/11 A3004 RMK\ AO2 SLP171 T02170111= 201705200451 METAR KJFK 200451Z 01014G21KT 10SM SCT080 BKN250 20/11 A3006\ RMK AO2 SLP178 T02000111 403330200= 201705200551 METAR KJFK 200551Z 01009KT 10SM SCT080 SCT120 BKN250 19/11\ A3007 RMK AO2 SLP183 T01890111 10317\ 20189 51024= 201705200651 METAR KJFK 200651Z 01014G21KT 10SM BKN080 BKN110 BKN250 18/11\ A3010 RMK AO2 SLP191 T01780111= 201705200751 METAR KJFK 200751Z 02013KT 10SM FEW070 BKN095 BKN140 BKN250\ 17/10 A3011 RMK AO2 SLP196 T01720100= 201705200851 METAR KJFK 200851Z 04015G21KT 10SM FEW075 SCT095 SCT140 BKN250\ 17/06 A3013 RMK AO2 SLP204 T01670056\ 51021= 201705200951 METAR KJFK 200951Z 04012KT 10SM SCT060 BKN075 BKN150 BKN250\ 16/06 A3018 RMK AO2 SLP221 VIRGA\ W T01610061= 201705201051 METAR KJFK 201051Z 04013KT 10SM SCT044 BKN060 OVC120 16/07\ A3021 RMK AO2 RAB24E47 SLP231 P0000\ T01560067= 201705201151 METAR KJFK 201151Z 05013KT 10SM FEW050 SCT080 BKN160 16/06\ A3023 RMK AO2 PK WND 04026/1131 SLP235\ 60000 T01560056 10189 20150 51031= 201705201251 METAR KJFK 201251Z 05015KT 10SM OVC060 17/06 A3026 RMK AO2\ SLP247 T01670061= 201705201351 METAR KJFK 201351Z 07009KT 10SM OVC065 17/07 A3028 RMK AO2\ SLP253 T01670067= 201705201451 METAR KJFK 201451Z 04010KT 10SM BKN070 OVC095 17/07 A3028\ RMK AO2 SLP255 T01670067 51020= 201705201551 METAR KJFK 201551Z 05007KT 10SM OVC080 17/07 A3029 RMK AO2\ SLP257 T01720067= 201705201651 METAR KJFK 201651Z 15007KT 10SM -RA OVC070 16/08 A3030 RMK\ AO2 RAB51 SLP260 P0000 T01560083= 201705201751 METAR KJFK 201751Z 12008KT 10SM BKN065 OVC075 16/07 A3031\ RMK AO2 RAE14 SLP262 P0000 60000\ T01560067 10178 20156 51007= 201705201851 METAR KJFK 201851Z 12008KT 10SM OVC065 16/07 A3031 RMK AO2\ SLP263 T01560067= 201705201951 METAR KJFK 201951Z 14008KT 10SM BKN070 OVC110 17/07 A3031\ RMK AO2 SLP264 T01670067= 201705202051 METAR KJFK 202051Z 14006KT 10SM BKN070 OVC140 16/06 A3032\ RMK AO2 SLP265 T01560061 53003= 201705202151 METAR KJFK 202151Z 15008KT 10SM SCT075 BKN130 BKN250 15/07\ A3032 RMK AO2 SLP265 T01500072= 201705202251 METAR KJFK 202251Z 18006KT 10SM FEW075 BKN130 BKN250 14/07\ A3031 RMK AO2 SLP265 T01440072= 201705202351 METAR KJFK 202351Z 19008KT 10SM FEW085 BKN130 BKN250 14/07\ A3032 RMK AO2 SLP267 T01390072 10167\ 20139 53002= 201705210051 METAR KJFK 210051Z 20008KT 10SM SCT140 BKN250 13/08 A3033\ RMK AO2 SLP269 T01280078= 201705210151 METAR KJFK 210151Z 19006KT 10SM FEW130 BKN250 13/08 A3034\ RMK AO2 SLP273 T01280078= 201705210251 METAR KJFK 210251Z 19006KT 10SM FEW130 FEW250 12/08 A3035\ RMK AO2 SLP275 T01220078 53008= 201705210351 METAR KJFK 210351Z 18006KT 10SM FEW130 FEW250 12/08 A3036\ RMK AO2 SLP280 T01220083= 201705210451 METAR KJFK 210451Z 18005KT 10SM FEW130 FEW250 12/08 A3036\ RMK AO2 SLP281 T01170083 401940117= 201705210551 METAR KJFK 210551Z 16004KT 10SM FEW130 FEW250 12/08 A3034\ RMK AO2 SLP273 T01170083 10139 20111\ 58002= 201705210651 METAR KJFK 210651Z 21003KT 10SM FEW130 FEW250 12/08 A3034\ RMK AO2 SLP272 T01170078= 201705210751 METAR KJFK 210751Z 00000KT 10SM FEW130 FEW250 11/09 A3035\ RMK AO2 SLP275 T01060089= 201705210851 METAR KJFK 210851Z 00000KT 10SM BKN250 10/09 A3035 RMK AO2\ SLP276 T01000089 53003= 201705210951 METAR KJFK 210951Z 01003KT 10SM FEW150 BKN250 10/08 A3037\ RMK AO2 SLP283 T01000083= 201705211051 METAR KJFK 211051Z 05004KT 10SM FEW150 BKN250 12/09 A3038\ RMK AO2 SLP286 T01170094= 201705211151 METAR KJFK 211151Z 06005KT 10SM FEW150 BKN250 15/05 A3037\ RMK AO2 SLP282 T01500050 10150 20094\ 50006= 201705211251 METAR KJFK 211251Z 11009KT 10SM FEW150 BKN250 16/01 A3039\ RMK AO2 SLP289 T01610011= 201705211351 METAR KJFK 211351Z 12008KT 10SM FEW150 BKN250 17/01 A3040\ RMK AO2 SLP294 T01720011= 201705211451 METAR KJFK 211451Z 11012KT 10SM FEW150 BKN250 17/00 A3039\ RMK AO2 SLP290 T01720000 50008= 201705211551 METAR KJFK 211551Z 13010KT 10SM FEW150 BKN250 18/02 A3040\ RMK AO2 SLP292 T01780017= 201705211651 METAR KJFK 211651Z 14013KT 10SM FEW150 BKN250 18/03 A3038\ RMK AO2 SLP286 T01780028= 201705211751 METAR KJFK 211751Z 15011KT 10SM FEW100 FEW150 BKN250 18/02\ A3037 RMK AO2 SLP283 T01780022 10183\ 20150 58007= 201705211851 METAR KJFK 211851Z 14011KT 10SM FEW150 BKN250 18/03 A3035\ RMK AO2 SLP278 T01780033= 201705211951 METAR KJFK 211951Z 14010KT 10SM BKN250 17/04 A3034 RMK AO2\ SLP274 T01670039= 201705212051 METAR KJFK 212051Z 16012KT 10SM FEW150 BKN250 16/04 A3031\ RMK AO2 SLP264 T01610044 58019= 201705212151 METAR KJFK 212151Z 14011KT 10SM FEW150 SCT250 16/06 A3031\ RMK AO2 SLP263 T01560056= 201705212251 METAR KJFK 212251Z 14008KT 10SM BKN140 BKN250 14/06 A3031\ RMK AO2 SLP264 T01390061= 201705212351 METAR KJFK 212351Z 14009KT 10SM BKN110 BKN250 14/06 A3030\ RMK AO2 SLP259 T01390061 10178 20139\ 58005= 201705220051 METAR KJFK 220051Z 14008KT 10SM BKN065 BKN250 14/06 A3029\ RMK AO2 SLP257 T01390061= 201705220151 METAR KJFK 220151Z 14008KT 10SM OVC060 14/07 A3029 RMK AO2\ SLP257 T01390067= 201705220251 METAR KJFK 220251Z 15007KT 10SM OVC060 14/07 A3028 RMK AO2\ SLP254 T01390072 58004= 201705220351 METAR KJFK 220351Z 16006KT 10SM OVC070 14/08 A3027 RMK AO2\ SLP250 T01390083= 201705220451 METAR KJFK 220451Z 15009KT 10SM OVC060 14/09 A3025 RMK AO2\ SLP243 T01390089 401830094= 201705220551 METAR KJFK 220551Z 15005KT 10SM -RA OVC055 14/09 A3023 RMK\ AO2 RAB48 SLP235 P0000 60000 T01390094\ 10139 20139 58019= 201705220651 METAR KJFK 220651Z 14005KT 10SM OVC055 14/10 A3021 RMK AO2\ RAE40 SLP231 P0000 T01390100= 201705220751 METAR KJFK 220751Z 13003KT 10SM OVC050 14/10 A3021 RMK AO2\ RAB13E30 SLP229 P0000 T01390100= 201705220851 METAR KJFK 220851Z 13004KT 10SM -RA OVC055 14/10 A3020 RMK\ AO2 RAB13 SLP225 P0000 60000 T01390100\ 56010= 201705220951 METAR KJFK 220951Z 12009KT 10SM -RA OVC042 13/11 A3018 RMK\ AO2 SLP220 P0001 T01330106= 201705221051 METAR KJFK 221051Z 13009KT 10SM -RA OVC035 13/11 A3018 RMK\ AO2 SLP220 P0000 T01330111= 201705221151 METAR KJFK 221151Z 12008KT 10SM BKN026 OVC035 13/11 A3018\ RMK AO2 RAE08 SLP219 P0000 60001\ 70001 T01330106 10139 20133 56006= 201705221251 METAR KJFK 221251Z 12009KT 4SM -RA BR OVC023 13/12 A3018\ RMK AO2 RAB21 SLP221 P0001 T01330117= 201705221351 METAR KJFK 221351Z 11010KT 2SM -RA BR BKN007 BKN017 OVC026\ 13/12 A3016 RMK AO2 SFC VIS 2 1/2\ SLP212 BKN007 V SCT P0004 T01280122= 201705221451 METAR KJFK 221451Z 10009KT 1 1/2SM RA BR BKN006 BKN012 OVC021\ 13/13 A3014 RMK AO2 SLP205 P0005\ 60010 T01330128 56016= 201705221551 METAR KJFK 221551Z 11012KT 2SM RA BR BKN005 OVC013 14/14\ A3010 RMK AO2 SLP193 P0012 T01390139\ $= 201705221651 METAR KJFK 221651Z 12010KT 2SM RA BR BKN005 OVC011 14/14\ A3008 RMK AO2 SFC VIS 2 1/2 SLP187\ P0010 T01390139 $= 201705221751 METAR KJFK 221751Z 14010KT 2SM -RA BR BKN004 OVC010 15/15\ A3006 RMK AO2 SFC VIS 5 SLP179 P0006\ 60038 T01500150 10150 20128 56026\ $= 201705221851 METAR KJFK 221851Z 14010KT 3SM RA BR BKN004 OVC022 15/15\ A3004 RMK AO2 SFC VIS 4 SLP170 P0002\ T01500150 $= 201705221951 METAR KJFK 221951Z 15010KT 3SM -RA BR BKN004 OVC017 16/16\ A3001 RMK AO2 SFC VIS 5 SLP163 P0014\ T01560156 $= 201705222051 METAR KJFK 222051Z 16010KT 3SM -RA BR BKN004 OVC012 16/16\ A2999 RMK AO2 SFC VIS 3 SLP156 P0005\ 60021 T01560156 56023 $= 201705222151 METAR KJFK 222151Z 16008KT 3SM -RA BR BKN005 BKN013 OVC030\ 16/16 A2998 RMK AO2 SFC VIS 5 SLP152\ P0004 T01560156 $= 201705222251 METAR KJFK 222251Z 18006KT 3SM OVC005 16/16 A2997 RMK AO2\ SFC VIS 7 RAE44 SLP149 P0001 T01560156\ $= 201705222351 METAR KJFK 222351Z 22006KT 1/2SM BR OVC004 16/16 A2998 RMK\ AO2 SFC VIS 4 SLP151 60026 T01560156\ 10156 20150 55005 $= 201705230051 METAR KJFK 230051Z 27003KT 1/2SM -DZ BR FEW000 OVC003 16/16\ A2997 RMK AO2 SFC VIS 4 DZB48 SLP149\ BR FEW000 P0000 T01560156 $= 201705230151 METAR KJFK 230151Z 00000KT 3SM BR BKN007 OVC028 16/16 A2998\ RMK AO2 SFC VIS 5 DZE14 SLP151 P0000\ T01610161 $= 201705230251 METAR KJFK 230251Z 30006KT 8SM FEW008 BKN060 17/16 A2996\ RMK AO2 SLP145 60000 T01720161 58005\ $= 201705230351 METAR KJFK 230351Z 29006KT 8SM BKN009 OVC070 17/16 A2996\ RMK AO2 SLP144 T01720161 $= 201705230451 METAR KJFK 230451Z 31007KT 8SM OVC011 17/16 A2996 RMK AO2\ SLP145 T01670161 401720128 $= 201705230551 METAR KJFK 230551Z 33007KT 8SM OVC012 17/16 A2995 RMK AO2\ SLP141 60000 T01670156 10172 20156\ 58004 $= 201705230651 METAR KJFK 230651Z 34008KT 10SM OVC011 16/15 A2993 RMK AO2\ SLP135 T01610150 $= 201705230751 METAR KJFK 230751Z 02005KT 10SM FEW015 BKN049 OVC260 16/15\ A2994 RMK AO2 SLP137 T01560150 $= 201705230851 METAR KJFK 230851Z 01010KT 10SM FEW015 FEW047 BKN260 16/14\ A2993 RMK AO2 SLP136 T01560144 56005\ $= 201705230951 METAR KJFK 230951Z 01005KT 10SM FEW012 BKN260 15/14 A2995\ RMK AO2 SLP142 T01500139 $= 201705231051 METAR KJFK 231051Z 36008KT 10SM FEW015 FEW047 BKN260 16/13\ A2996 RMK AO2 SLP145 T01560128 $= 201705231151 METAR KJFK 231151Z VRB06KT 10SM FEW018 FEW047 BKN260 16/13\ A2996 RMK AO2 SLP145 70064 T01610128\ 10167 20150 51009 $= 201705231251 METAR KJFK 231251Z 04006KT 10SM FEW025 FEW060 FEW190 BKN260\ 17/11 A2996 RMK AO2 SLP146 T01670106\ $= 201705231351 METAR KJFK 231351Z 04008KT 10SM BKN250 17/10 A2996 RMK AO2\ SLP145 T01670100 $= 201705231451 METAR KJFK 231451Z 03010KT 10SM SCT210 BKN250 18/09 A2996\ RMK AO2 SLP146 T01830094 52001= 201705231551 METAR KJFK 231551Z 03011KT 10SM BKN170 OVC250 19/10 A2994\ RMK AO2 SLP138 T01890100= 201705231651 METAR KJFK 231651Z 02005KT 10SM BKN180 OVC250 20/09 A2993\ RMK AO2 SLP135 T02000094= 201705231751 METAR KJFK 231751Z 36006KT 10SM BKN160 OVC250 20/09 A2992\ RMK AO2 SLP130 T02000094 10206 20161\ 56016= 201705231851 METAR KJFK 231851Z 00000KT 10SM BKN160 OVC250 21/09 A2990\ RMK AO2 SLP124 T02060094= 201705231951 METAR KJFK 231951Z 19005KT 10SM BKN140 OVC250 19/11 A2988\ RMK AO2 SLP117 T01890106= 201705232051 METAR KJFK 232051Z 19007KT 10SM SCT130 OVC250 18/11 A2987\ RMK AO2 SLP114 T01780111 56016= 201705232151 METAR KJFK 232151Z 17005KT 10SM FEW080 SCT130 OVC250 18/11\ A2984 RMK AO2 SLP106 T01830106= 201705232251 METAR KJFK 232251Z 18006KT 10SM SCT150 BKN230 18/11 A2984\ RMK AO2 SLP105 T01780111= 201705232351 METAR KJFK 232351Z 16003KT 10SM BKN130 OVC230 17/12 A2985\ RMK AO2 SLP106 T01720117 10211 20172\ 55008= 201705240051 METAR KJFK 240051Z 18006KT 10SM SCT140 BKN190 BKN250 16/11\ A2984 RMK AO2 SLP104 T01560111= 201705240151 METAR KJFK 240151Z 18005KT 10SM FEW140 OVC190 16/12 A2985\ RMK AO2 SLP107 T01560117= 201705240251 METAR KJFK 240251Z 15003KT 10SM SCT130 OVC180 16/12 A2983\ RMK AO2 SLP101 T01560117 58005= 201705240351 METAR KJFK 240351Z 07003KT 10SM OVC180 15/12 A2979 RMK AO2\ SLP089 T01500117= 201705240451 METAR KJFK 240451Z 07003KT 10SM OVC150 16/12 A2977 RMK AO2\ SLP080 T01560117 402110150= 201705240551 METAR KJFK 240551Z 10004KT 10SM OVC130 15/12 A2976 RMK AO2\ SLP076 T01500117 10172 20150 56025= 201705240651 METAR KJFK 240651Z 11004KT 10SM OVC110 15/12 A2976 RMK AO2\ SLP078 T01500117= 201705240751 METAR KJFK 240751Z 12004KT 10SM -RA SCT060 OVC100 14/12 A2976\ RMK AO2 RAB0659 SLP076 P0000 T01440122= 201705240851 METAR KJFK 240851Z 06003KT 10SM -RA FEW060 OVC120 14/13 A2974\ RMK AO2 SLP070 P0001 60001 T01390133\ 58006= 201705240951 METAR KJFK 240951Z 02004KT 10SM FEW015 OVC090 14/13 A2973\ RMK AO2 RAE43 SLP066 P0001 T01390133= 201705241051 METAR KJFK 241051Z 36004KT 10SM FEW011 OVC100 14/14 A2975\ RMK AO2 RAB03E44 SLP075 P0000 T01440139= 201705241151 METAR KJFK 241151Z 03008KT 10SM FEW014 BKN085 BKN100 BKN330\ 16/14 A2975 RMK AO2 SLP072 60002\ 70002 T01560139 10156 20139 53002= 201705241251 METAR KJFK 241251Z 04006KT 10SM BKN015 BKN075 OVC120 16/14\ A2975 RMK AO2 SLP074 CIG 013V017\ BKN015 V SCT T01560139= 201705241351 METAR KJFK 241351Z 36008KT 10SM SCT017 OVC070 17/14 A2976\ RMK AO2 SLP076 T01670139= 201705241451 METAR KJFK 241451Z 36007KT 10SM BKN018 BKN026 OVC075 17/14\ A2977 RMK AO2 SLP080 T01720139 53007= 201705241551 METAR KJFK 241551Z 03011KT 10SM SCT023 BKN070 BKN110 BKN220\ 19/14 A2976 RMK AO2 RAB38E51 SLP077\ P0000 T01890139= 201705241651 METAR KJFK 241651Z 02012KT 10SM SCT030 BKN080 19/12 A2977\ RMK AO2 SLP079 SCT V BKN T01890122= 201705241751 METAR KJFK 241751Z 04010KT 10SM SCT032 BKN075 20/12 A2975\ RMK AO2 SLP075 60000 T02000117 10206\ 20156 58005= 201705241851 METAR KJFK 241851Z 08005KT 10SM SCT034 BKN080 20/11 A2976\ RMK AO2 SLP076 T02000111= 201705241951 METAR KJFK 241951Z 19006KT 10SM FEW039 BKN085 BKN250 19/13\ A2978 RMK AO2 SLP085 T01890133= 201705242051 METAR KJFK 242051Z 15011KT 10SM FEW043 BKN075 BKN250 19/14\ A2980 RMK AO2 SLP091 T01890139 53016= 201705242151 METAR KJFK 242151Z 11009KT 10SM FEW039 BKN075 BKN250 18/11\ A2978 RMK AO2 SLP084 T01780111= 201705242251 METAR KJFK 242251Z 11011KT 10SM FEW039 SCT075 BKN250 17/12\ A2979 RMK AO2 SLP087 T01670117= 201705242351 METAR KJFK 242351Z 11008KT 10SM FEW039 FEW075 OVC250 16/12\ A2982 RMK AO2 SLP096 T01610117 10206\ 20161 53005= 201705250051 METAR KJFK 250051Z 11012KT 10SM FEW035 FEW075 BKN250 15/11\ A2983 RMK AO2 SLP099 T01500111= 201705250151 METAR KJFK 250151Z 09010KT 10SM FEW035 FEW075 OVC250 15/11\ A2982 RMK AO2 SLP099 T01500111= 201705250251 METAR KJFK 250251Z 10011KT 10SM FEW013 OVC250 15/12 A2983\ RMK AO2 SLP100 T01500122 51004= 201705250351 METAR KJFK 250351Z 09011KT 10SM FEW015 OVC240 14/12 A2983\ RMK AO2 SLP102 T01440122= 201705250451 METAR KJFK 250451Z 09010KT 10SM FEW013 SCT033 OVC220 14/12\ A2981 RMK AO2 SLP095 T01440122 402060139= 201705250551 METAR KJFK 250551Z 10013KT 10SM BKN014 OVC033 14/12 A2981\ RMK AO2 SLP093 T01440122 10161 20139\ 58008= 201705250651 METAR KJFK 250651Z 09011KT 10SM OVC013 14/13 A2977 RMK AO2\ SLP082 T01440128= 201705250751 METAR KJFK 250751Z 08010G21KT 7SM OVC009 13/13 A2975 RMK\ AO2 RAB31E46 SLP075 P0000 T01330133= 201705250851 METAR KJFK 250851Z 09007KT 7SM -RA OVC009 14/14 A2975 RMK\ AO2 RAB00 SLP075 P0001 60001 T01390139\ 56018= 201705250951 METAR KJFK 250951Z 07010G19KT 6SM -RA BR OVC007 14/13 A2972\ RMK AO2 SLP065 P0004 T01390133= 201705251051 METAR KJFK 251051Z 08012KT 7SM -RA BKN008 OVC017 13/13 A2972\ RMK AO2 SLP063 P0004 T01330133= 201705251151 METAR KJFK 251151Z 07009KT 6SM -RA BR BKN007 OVC013 14/13\ A2970 RMK AO2 SLP056 P0016 60025\ 70025 T01390133 10144 20133 56019= 201705251251 METAR KJFK 251251Z 08011KT 2SM -RA BR OVC008 14/13 A2968\ RMK AO2 SFC VIS 3 SLP049 P0005 T01390133= 201705251351 METAR KJFK 251351Z 07017G21KT 2SM -RA BR OVC008 14/14 A2965\ RMK AO2 PK WND 07026/1335 SFC VIS\ 2 1/2 SLP039 P0007 T01390139= 201705251451 METAR KJFK 251451Z 09017G24KT 2SM -RA BR BKN009 OVC018 14/14\ A2964 RMK AO2 PK WND 08030/1358 SFC\ VIS 3 SLP037 CIG 007V011 P0005 60017\ T01390139 56019= 201705251551 METAR KJFK 251551Z 09017G24KT 2 1/2SM -RA BR OVC007 14/14\ A2962 RMK AO2 SFC VIS 3 SLP030 P0001\ T01440139= 201705251651 METAR KJFK 251651Z 09015G23KT 3SM -RA BR OVC006 15/15 A2960\ RMK AO2 PK WND 09027/1633 SFC VIS\ 6 SLP023 P0008 T01500150= 201705251751 METAR KJFK 251751Z 08014G21KT 2SM -DZ BR OVC005 15/15 A2959\ RMK AO2 PK WND 10027/1701 RAE40DZB40\ SLP019 CIG 004V006 P0000 60026 T01500150\ 10150 20133 56018= 201705251851 METAR KJFK 251851Z 07012G19KT 2SM -RA BR OVC004 15/15 A2958\ RMK AO2 SFC VIS 2 1/2 DZE16RAB16\ SLP015 P0000 T01500150= 201705251951 METAR KJFK 251951Z 08014G20KT 2SM BR OVC004 15/15 A2956 RMK\ AO2 SFC VIS 3 RAE51 SLP011 P0001\ T01500150= 201705252051 METAR KJFK 252051Z 06009KT 2SM BR OVC004 16/16 A2953 RMK\ AO2 SFC VIS 4 RAB1952E1955B12E23\ PRESFR SLP999 P0001 60002 T01560156\ 58020= 201705252151 METAR KJFK 252151Z 09010G18KT 2SM -DZ BR OVC003 16/16 A2956\ RMK AO2 SFC VIS 2 1/2 DZB47 SLP008\ P0000 T01560156= 201705252251 METAR KJFK 252251Z 07007KT 1SM -DZ BR OVC003 16/16 A2954\ RMK AO2 SFC VIS 2 SLP001 VIS LWR\ E P0000 T01560156= 201705252351 METAR KJFK 252351Z 08008KT 1SM -DZ BR OVC003 16/16 A2954\ RMK AO2 SFC VIS 2 1/2 SLP001 VIS\ E-SE 1 P0000 60002 T01560156 10156\ 20150 51003= 201705260051 METAR KJFK 260051Z 06011KT 1SM -DZ BR OVC003 16/16 A2949\ RMK AO2 SFC VIS 2 1/2 SLP986 P0001\ T01560156= 201705260151 METAR KJFK 260151Z 07009KT 1SM -DZ BR OVC004 16/16 A2949\ RMK AO2 SFC VIS 1 1/2 LTG DSNT E\ AND SE SLP986 P0003 T01610161= 201705260251 METAR KJFK 260251Z 05014KT 2SM -DZ BR OVC004 15/15 A2947\ RMK AO2 LTG DSNT ALQDS SLP980 P0001\ 60005 T01500150 56022= 201705260351 METAR KJFK 260351Z 36010KT 3SM -TSRA BR BKN005 OVC032CB 14/14\ A2946 RMK AO2 LTG DSNT ALQDS SLP976\ DZE14RAB28TSB46 OCNL LTGIC NE TS\ NE MOV N P0003 T01440144= 201705260451 METAR KJFK 260451Z 32011KT 3SM +TSRA BR BKN006 OVC033CB 15/15\ A2948 RMK AO2 SLP982 OCNL LTGICCA\ S TS S MOV N P0031 T01500150 401610133= 201705260551 METAR KJFK 260551Z 35016KT 10SM -RA FEW008 FEW035 OVC090\ 14/14 A2945 RMK AO2 WSHFT 0445 TSE36\ SLP971 P0026 60065 T01390139 10161\ 20139 58004= 201705260651 METAR KJFK 260651Z 33007KT 10SM -RA BKN009 OVC075 14/14 A2947\ RMK AO2 SLP979 P0004 T01390139= 201705260751 METAR KJFK 260751Z 33006KT 10SM -RA OVC007 14/14 A2949 RMK\ AO2 SLP987 P0000 T01440139= 201705260851 METAR KJFK 260851Z 31007KT 5SM -RA BR BKN010 OVC027 14/14\ A2951 RMK AO2 SLP992 P0009 60013\ T01390139 53013= 201705260951 METAR KJFK 260951Z 35007KT 10SM BKN009 OVC026 14/14 A2954\ RMK AO2 RAE02B26E36 SLP002 P0001\ T01390139= 201705261051 METAR KJFK 261051Z 34007KT 7SM -RA BKN008 BKN013 OVC060 14/14\ A2956 RMK AO2 RAB0955 SLP010 BKN008\ V SCT P0000 T01390139= 201705261151 METAR KJFK 261151Z 30004KT 10SM FEW006 BKN010 BKN028 BKN170\ 15/14 A2958 RMK AO2 RAE18 SLP015\ P0001 60015 70108 T01500144 10150\ 20139 51023= 201705261251 METAR KJFK 261251Z 29007KT 10SM SCT012 BKN024 BKN170 17/14\ A2959 RMK AO2 SLP021 T01670144= 201705261351 METAR KJFK 261351Z 25011KT 10SM FEW012 BKN019 BKN170 BKN260\ 17/14 A2960 RMK AO2 SLP023 T01720144= 201705261451 METAR KJFK 261451Z 25010KT 10SM BKN024 BKN080 19/16 A2960\ RMK AO2 SLP021 T01890161 50006= 201705261551 METAR KJFK 261551Z 27010KT 10SM SCT026 BKN044 BKN080 22/16\ A2960 RMK AO2 SLP023 T02170161= 201705261651 METAR KJFK 261651Z 27014KT 10SM FEW033 BKN047 BKN080 22/14\ A2959 RMK AO2 SLP021 T02220144= 201705261751 METAR KJFK 261751Z 27017G22KT 10SM SCT041 BKN070 24/14 A2960\ RMK AO2 SLP023 SCT V BKN T02440144\ 10244 20150 53002= 201705261851 METAR KJFK 261851Z 29012G18KT 10SM SCT047 BKN075 24/13 A2962\ RMK AO2 SLP029 T02390133= 201705261951 METAR KJFK 261951Z 31011KT 10SM FEW050 BKN095 BKN250 24/13\ A2962 RMK AO2 SLP031 T02440133= 201705262051 METAR KJFK 262051Z 29012G24KT 10SM FEW050 FEW075 BKN100 BKN250\ 24/13 A2963 RMK AO2 SLP034 T02390128\ 51011= 201705262151 METAR KJFK 262151Z 27013G21KT 10SM FEW055 BKN100 BKN250 24/13\ A2965 RMK AO2 SLP039 T02390128= 201705262251 METAR KJFK 262251Z 25015KT 10SM FEW055 SCT100 SCT250 23/14\ A2967 RMK AO2 SLP046 T02280144= 201705262351 METAR KJFK 262351Z 27011G17KT 10SM SCT055 SCT100 SCT250 22/14\ A2970 RMK AO2 SLP056 T02220139 10250\ 20222 53021= 201705270051 METAR KJFK 270051Z 28012G18KT 10SM SCT049 SCT055 BKN075 22/14\ A2973 RMK AO2 CIG 049 W SLP068 T02220144= 201705270151 METAR KJFK 270151Z 32015KT 10SM SCT050 SCT075 21/12 A2977\ RMK AO2 SLP081 T02110117= 201705270251 METAR KJFK 270251Z 31012KT 10SM FEW050 FEW075 21/12 A2979\ RMK AO2 SLP088 T02060117 51032= 201705270351 METAR KJFK 270351Z 31013G18KT 10SM FEW042 FEW055 FEW075 19/12\ A2981 RMK AO2 SLP093 T01940117= 201705270451 METAR KJFK 270451Z 30010KT 10SM FEW042 FEW075 19/12 A2982\ RMK AO2 SLP096 T01890122 402500139= 201705270551 METAR KJFK 270551Z 31012KT 10SM FEW045 18/12 A2982 RMK AO2\ SLP097 T01830117 10228 20183 51009= 201705270651 METAR KJFK 270651Z 31010G18KT 10SM FEW045 18/12 A2982 RMK\ AO2 SLP099 T01780122= 201705270751 METAR KJFK 270751Z 30007KT 10SM FEW045 18/13 A2983 RMK AO2\ SLP101 T01780128= 201705270851 METAR KJFK 270851Z 27007KT 10SM FEW045 17/13 A2985 RMK AO2\ SLP107 T01670128 53010= 201705270951 METAR KJFK 270951Z 32005KT 10SM FEW045 SCT080 17/13 A2986\ RMK AO2 SLP112 T01670133= 201705271051 METAR KJFK 271051Z 31009KT 10SM FEW045 SCT080 SCT250 18/13\ A2988 RMK AO2 SLP117 T01780133= 201705271151 METAR KJFK 271151Z 32010KT 10SM SCT026 SCT080 BKN250 19/13\ A2988 RMK AO2 SLP117 T01890133 10189\ 20161 51010= 201705271251 METAR KJFK 271251Z 31004KT 10SM FEW028 SCT075 BKN250 21/13\ A2988 RMK AO2 SLP117 T02060133= 201705271351 METAR KJFK 271351Z 33004KT 10SM SCT036 SCT250 21/13 A2988\ RMK AO2 SLP119 T02060133= 201705271451 METAR KJFK 271451Z VRB03KT 10SM SCT043 BKN250 22/13 A2988\ RMK AO2 SLP116 T02220128 58001= 201705271551 METAR KJFK 271551Z 23011KT 10SM BKN047 BKN060 BKN250 21/14\ A2988 RMK AO2 SLP117 T02060144= 201705271651 METAR KJFK 271651Z 22012KT 10SM BKN047 BKN060 BKN250 21/14\ A2988 RMK AO2 SLP116 T02060139= 201705271751 METAR KJFK 271751Z 23010KT 10SM BKN048 OVC065 21/14 A2988\ RMK AO2 SLP117 T02110144 10228 20189\ 51000= 201705271851 METAR KJFK 271851Z 20008KT 10SM BKN055 OVC070 21/15 A2987\ RMK AO2 SLP115 T02060150= 201705271951 METAR KJFK 271951Z 19011KT 10SM BKN050 BKN060 OVC070 19/14\ A2988 RMK AO2 SLP117 T01940139= 201705272051 METAR KJFK 272051Z 19011KT 10SM BKN047 OVC070 19/14 A2988\ RMK AO2 SLP118 T01890144 53001= 201705272151 METAR KJFK 272151Z 17006KT 10SM BKN047 OVC075 19/14 A2989\ RMK AO2 SLP120 T01890144= 201705272251 METAR KJFK 272251Z 12007KT 10SM FEW060 BKN075 BKN150 BKN230\ 19/14 A2989 RMK AO2 SLP122 T01890144= 201705272351 METAR KJFK 272351Z 11008KT 10SM FEW045 SCT080 BKN240 18/14\ A2990 RMK AO2 SLP124 T01780144 10222\ 20178 52007= 201705280051 METAR KJFK 280051Z 11006KT 10SM FEW040 SCT075 BKN250 17/14\ A2991 RMK AO2 SLP129 T01670144= 201705280151 METAR KJFK 280151Z 11008KT 10SM BKN075 BKN250 16/15 A2993\ RMK AO2 SLP136 T01610150= 201705280251 METAR KJFK 280251Z 12006KT 10SM FEW055 BKN075 16/15 A2993\ RMK AO2 SLP136 T01610150 51012= 201705280351 METAR KJFK 280351Z 10005KT 10SM FEW055 BKN075 16/15 A2993\ RMK AO2 SLP134 T01610150= 201705280451 METAR KJFK 280451Z 12005KT 10SM FEW055 SCT075 16/14 A2992\ RMK AO2 SLP131 T01560144 402280156= 201705280551 METAR KJFK 280551Z 13003KT 10SM BKN075 15/14 A2992 RMK AO2\ SLP132 T01500144 10178 20150 55004= 201705280651 METAR KJFK 280651Z 11003KT 10SM BKN075 15/14 A2992 RMK AO2\ SLP130 T01500144= 201705280751 METAR KJFK 280751Z 08003KT 9SM BKN006 14/14 A2991 RMK AO2\ SLP127 T01440144= 201705280851 METAR KJFK 280851Z 00000KT 8SM OVC006 15/14 A2992 RMK AO2\ SLP131 T01500144 55001= 201705280951 METAR KJFK 280951Z 08004KT 1/2SM BR OVC004 15/15 A2992 RMK\ AO2 SFC VIS 2 1/2 SLP130 T01500150= 201705281051 METAR KJFK 281051Z 10004KT 1SM BR OVC005 15/15 A2994 RMK\ AO2 SFC VIS 6 SLP139 T01500150= 201705281151 METAR KJFK 281151Z 11003KT 7SM OVC008 16/15 A2995 RMK AO2\ SLP142 T01610150 10161 20144 53010= 201705281251 METAR KJFK 281251Z 17006KT 10SM BKN011 BKN070 BKN250 18/14\ A2996 RMK AO2 SLP145 T01830144= 201705281351 METAR KJFK 281351Z 17008KT 10SM SCT012 BKN044 BKN070 BKN250\ 19/15 A2995 RMK AO2 SLP142 T01890150= 201705281451 METAR KJFK 281451Z 17009KT 10SM FEW012 SCT044 SCT070 BKN250\ 19/15 A2995 RMK AO2 SLP143 T01890150\ 51001= 201705281551 METAR KJFK 281551Z 14012KT 10SM FEW013 SCT040 BKN250 19/16\ A2997 RMK AO2 SLP148 T01890161= 201705281651 METAR KJFK 281651Z 15010KT 10SM FEW015 SCT040 BKN250 19/16\ A2999 RMK AO2 SLP154 T01940156= 201705281751 METAR KJFK 281751Z 15010KT 10SM FEW020 SCT070 SCT200 BKN260\ 19/14 A2999 RMK AO2 SLP154 T01940144\ 10194 20161 51012= 201705281851 METAR KJFK 281851Z 15009KT 10SM FEW070 BKN250 19/14 A2995\ RMK AO2 SLP142 T01940144= 201705281951 METAR KJFK 281951Z 13011KT 10SM FEW020 FEW070 BKN250 19/14\ A2995 RMK AO2 SLP140 T01940139= 201705282051 METAR KJFK 282051Z 14009KT 10SM SCT070 SCT200 BKN250 18/13\ A2995 RMK AO2 SLP143 T01830128 55012= 201705282151 METAR KJFK 282151Z 12011KT 10SM SCT070 BKN100 BKN200 BKN250\ 18/12 A2996 RMK AO2 SLP145 T01780117= 201705282251 METAR KJFK 282251Z 11013KT 10SM SCT070 BKN200 OVC250 17/12\ A2995 RMK AO2 SLP142 T01720117= 201705282351 METAR KJFK 282351Z 10011KT 10SM FEW070 BKN100 BKN150 OVC200\ 17/12 A2995 RMK AO2 SLP142 T01670122\ 10200 20167 58001= 201705290051 METAR KJFK 290051Z 10009KT 10SM FEW050 SCT080 BKN100 OVC140\ 16/12 A2995 RMK AO2 SLP141 T01610122= 201705290151 METAR KJFK 290151Z 10010G17KT 10SM FEW050 FEW070 BKN110 OVC140\ 16/12 A2994 RMK AO2 SLP138 T01610122= 201705290251 METAR KJFK 290251Z 10009KT 10SM BKN046 OVC110 16/13 A2994\ RMK AO2 SLP137 T01560128 58005= 201705290351 METAR KJFK 290351Z 10009KT 10SM BKN047 OVC095 16/13 A2992\ RMK AO2 SLP133 T01560128= 201705290451 METAR KJFK 290451Z 09008KT 10SM OVC045 16/13 A2991 RMK AO2\ SLP128 T01560128 402000144= 201705290551 METAR KJFK 290551Z 08010KT 10SM OVC050 15/13 A2990 RMK AO2\ RAB05E47 SLP123 P0000 60000 T01500128\ 10167 20150 56014= 201705290651 METAR KJFK 290651Z 08008KT 10SM -RA OVC049 15/13 A2989 RMK\ AO2 RAB0558E16B41 SLP119 P0000 T01500128= 201705290751 METAR KJFK 290751Z 07009KT 10SM -RA OVC050 14/13 A2988 RMK\ AO2 SLP117 P0000 T01440133= 201705290851 METAR KJFK 290851Z 06008KT 10SM -RA FEW012 OVC040 14/13 A2988\ RMK AO2 SLP119 P0001 60001 T01440133\ 55004= 201705290951 METAR KJFK 290951Z 06007KT 7SM RA FEW011 OVC049 14/14 A2990\ RMK AO2 SLP123 P0007 T01390139= 201705291051 METAR KJFK 291051Z 07005KT 8SM -RA SCT017 BKN060 OVC110 14/14\ A2990 RMK AO2 SLP125 P0010 T01390139= 201705291151 METAR KJFK 291151Z 07008KT 9SM -RA FEW007 BKN015 OVC110 14/14\ A2990 RMK AO2 SLP124 CIG 013V017\ P0008 60026 70026 T01440139 10150\ 20139 50004= 201705291251 METAR KJFK 291251Z 08008KT 8SM -RA FEW008 BKN017 OVC085 14/13\ A2991 RMK AO2 SLP129 P0000 T01440128= 201705291351 METAR KJFK 291351Z 07011KT 10SM BKN013 OVC042 14/13 A2992\ RMK AO2 RAE39 SLP132 P0002 T01440133= 201705291451 METAR KJFK 291451Z 08009KT 10SM -RA FEW011 BKN017 OVC042\ 14/13 A2994 RMK AO2 RAB28 SLP138\ P0000 60002 T01440128 53014= 201705291551 METAR KJFK 291551Z 07007KT 8SM -RA BKN016 OVC043 15/12 A2995\ RMK AO2 RAE28B46 SLP143 VIS LWR W-NW\ P0000 T01500117= 201705291651 METAR KJFK 291651Z 05004KT 10SM -RA SCT014 BKN020 OVC044\ 15/13 A2999 RMK AO2 SLP154 P0001\ T01500128= 201705291751 METAR KJFK 291751Z 10006KT 10SM SCT020 BKN027 BKN040 16/13\ A2999 RMK AO2 RAE1654 SLP155 P0000\ 60003 T01610128 10161 20144 51017= 201705291851 METAR KJFK 291851Z 11007KT 10SM FEW017 BKN022 OVC029 16/12\ A3001 RMK AO2 SLP162 T01560122= 201705291951 METAR KJFK 291951Z 11008KT 10SM SCT020 OVC029 16/12 A3002\ RMK AO2 SLP165 T01560122= 201705292051 METAR KJFK 292051Z 13006KT 10SM FEW016 SCT024 OVC037 15/13\ A3004 RMK AO2 SLP171 SCT V BKN T01500128\ 52016= 201705292151 METAR KJFK 292151Z 13008KT 10SM SCT013 OVC022 15/13 A3005\ RMK AO2 SLP175 T01500128= 201705292251 METAR KJFK 292251Z 11006KT 10SM SCT012 BKN020 OVC034 15/13\ A3007 RMK AO2 SLP183 T01500133= 201705292351 METAR KJFK 292351Z 09006KT 10SM BKN011 BKN018 OVC034 14/13\ A3008 RMK AO2 SLP185 T01440133 10161\ 20144 51013= 201705300051 METAR KJFK 300051Z 11008KT 10SM BKN011 OVC024 14/13 A3008\ RMK AO2 SLP186 T01390133= 201705300151 METAR KJFK 300151Z 12007KT 10SM SCT009 OVC016 14/13 A3010\ RMK AO2 SLP191 T01390128= 201705300251 METAR KJFK 300251Z 10005KT 10SM SCT008 OVC014 14/13 A3011\ RMK AO2 SLP196 T01390128 52009= 201705300351 METAR KJFK 300351Z 12008KT 10SM OVC009 14/13 A3011 RMK AO2\ SLP196 T01390128= 201705300451 METAR KJFK 300451Z 13009KT 10SM BKN009 OVC018 13/12 A3014\ RMK AO2 SLP205 T01330122 401610133= 201705300551 METAR KJFK 300551Z 12008KT 10SM OVC011 13/12 A3014 RMK AO2\ SLP205 T01330117 10144 20133 50009= 201705300651 METAR KJFK 300651Z 12006KT 10SM OVC009 13/12 A3014 RMK AO2\ SLP207 T01330117= 201705300751 METAR KJFK 300751Z 13006KT 10SM OVC009 13/12 A3014 RMK AO2\ SLP206 T01280122= 201705300851 METAR KJFK 300851Z 13006KT 10SM OVC007 13/12 A3015 RMK AO2\ SLP210 T01280122 53006= 201705300951 METAR KJFK 300951Z 15008KT 10SM OVC005 13/13 A3016 RMK AO2\ SLP213 T01280128= 201705301051 METAR KJFK 301051Z 14008KT 10SM OVC005 13/13 A3017 RMK AO2\ SLP215 T01280128= 201705301151 METAR KJFK 301151Z 13007KT 10SM OVC006 13/13 A3018 RMK AO2\ SLP219 70003 T01330128 10133 20128\ 53008= 201705301251 METAR KJFK 301251Z 12008KT 10SM OVC007 14/13 A3019 RMK AO2\ SLP222 T01390128= 201705301351 METAR KJFK 301351Z 13010KT 10SM OVC007 14/13 A3019 RMK AO2\ SLP221 T01390128= 201705301451 METAR KJFK 301451Z 11009KT 10SM OVC008 14/13 A3018 RMK AO2\ SLP220 T01440133 50001= 201705301551 METAR KJFK 301551Z 14010KT 10SM BKN011 OVC034 14/13 A3019\ RMK AO2 SLP222 CIG 009V013 T01440128= 201705301651 METAR KJFK 301651Z 14010KT 10SM BKN007 OVC020 14/13 A3019\ RMK AO2 SLP221 T01440128= 201705301751 METAR KJFK 301751Z 13010KT 10SM -RA BKN005 OVC013 14/13 A3016\ RMK AO2 RAB41 SLP213 P0000 60000\ T01390133 10150 20133 58006= 201705301851 METAR KJFK 301851Z 14008KT 10SM BKN007 OVC015 14/13 A3015\ RMK AO2 RAE11 SLP208 P0000 T01390133= 201705301951 METAR KJFK 301951Z 13008KT 10SM OVC010 15/13 A3013 RMK AO2\ SLP203 T01500133= 201705302051 METAR KJFK 302051Z 13009KT 10SM BKN009 OVC013 14/13 A3013\ RMK AO2 SLP203 60000 T01440133 56011= 201705302151 METAR KJFK 302151Z 12009KT 10SM BKN008 OVC022 15/14 A3013\ RMK AO2 SLP202 T01500139= 201705302251 METAR KJFK 302251Z 12010KT 10SM BKN008 OVC018 14/13 A3013\ RMK AO2 SLP202 T01440133= 201705302351 METAR KJFK 302351Z 11008KT 2 1/2SM OVC006 14/14 A3013 RMK\ AO2 SFC VIS 7 SLP202 60000 T01440139\ 10156 20139 56001= 201705310051 METAR KJFK 310051Z 10008KT 2SM BR OVC004 14/14 A3013 RMK\ AO2 SFC VIS 4 SLP203 T01440144= 201705310151 METAR KJFK 310151Z 12009KT 2SM OVC004 14/14 A3013 RMK AO2\ SFC VIS 8 SLP202 T01440144= 201705310251 METAR KJFK 310251Z 10008KT 1SM -DZ BR OVC003 14/14 A3012\ RMK AO2 SFC VIS 2 1/2 DZB47 SLP200\ P0000 60000 T01440144 58001= 201705310351 METAR KJFK 310351Z 10006KT 1SM -DZ BR OVC003 14/14 A3011\ RMK AO2 SFC VIS 4 SLP197 P0000 T01440144= 201705310451 METAR KJFK 310451Z 11006KT 3/4SM OVC003 14/14 A3010 RMK AO2\ SFC VIS 8 DZE29 SLP191 P0000 T01440144\ 401560128= 201705310551 METAR KJFK 310551Z 08004KT 1SM OVC004 15/15 A3007 RMK AO2\ SFC VIS 7 SLP183 60000 T01500150\ 10150 20139 58017= 201705310651 METAR KJFK 310651Z 09006KT 1SM OVC003 15/15 A3006 RMK AO2\ SFC VIS 7 SLP177 T01500150= 201705310751 METAR KJFK 310751Z 09006KT 1SM BR OVC004 15/15 A3004 RMK\ AO2 SFC VIS 5 SLP172 T01500150= 201705310851 METAR KJFK 310851Z 10006KT 1SM BR OVC003 15/15 A3004 RMK\ AO2 SFC VIS 3 SLP171 T01500150 56012= 201705310951 METAR KJFK 310951Z 08005KT 3/4SM -DZ BR OVC004 16/16 A3004\ RMK AO2 SFC VIS 4 DZB19 SLP173 P0000\ T01560156= 201705311051 METAR KJFK 311051Z 01005KT 1 1/2SM -DZ BR OVC006 16/16 A3006\ RMK AO2 SLP178 P0001 T01610161= 201705311151 METAR KJFK 311151Z 01006KT 2 1/2SM -RA BR BKN005 OVC012 16/16\ A3006 RMK AO2 SFC VIS 4 DZE37RAB37\ SLP179 P0002 60003 70003 T01560156\ 10161 20150 51008= 201705311251 METAR KJFK 311251Z 01005KT 8SM BKN005 OVC011 17/16 A3006\ RMK AO2 RAE12DZB12E36 SLP178 CIG\ 004V006 P0000 T01670161= 201705311351 METAR KJFK 311351Z 36007KT 10SM OVC007 17/17 A3005 RMK AO2\ SLP176 T01720167= 201705311451 METAR KJFK 311451Z 04005KT 10SM BKN007 BKN210 18/17 A3004\ RMK AO2 SLP173 60000 T01780167 58006= 201705311551 METAR KJFK 311551Z 13008KT 10SM SCT011 BKN120 BKN230 20/17\ A3002 RMK AO2 SLP164 SCT V BKN T02000172= 201705311651 METAR KJFK 311651Z 13004KT 10SM FEW013 SCT120 BKN250 21/18\ A3002 RMK AO2 SLP163 T02110178= 201705311751 METAR KJFK 311751Z 19008KT 10SM BKN010 BKN022 BKN120 19/17\ A3001 RMK AO2 SLP163 60000 T01940172\ 10211 20156 56009= 201705311851 METAR KJFK 311851Z 20008KT 3SM BR BKN005 BKN022 18/17 A3000\ RMK AO2 SFC VIS 5 SLP160 T01830167= 201705311951 METAR KJFK 311951Z 19007KT 10SM FEW006 FEW025 FEW250 22/18\ A2997 RMK AO2 SLP147 T02170178= 201705312051 METAR KJFK 312051Z 16006KT 10SM FEW025 FEW250 22/18 A2994\ RMK AO2 SLP139 T02220178 58024= 201705312151 METAR KJFK 312151Z 18009KT 10SM FEW032 FEW120 FEW250 21/17\ A2994 RMK AO2 SLP139 T02110172= 201705312251 METAR KJFK 312251Z 18010KT 10SM FEW040 SCT210 19/17 A2994\ RMK AO2 SLP139 T01940167= 201705312351 METAR KJFK 312351Z 16008KT 10SM FEW004 FEW012 FEW040 SCT200\ 17/16 A2994 RMK AO2 SLP138 T01720161\ 10228 20172 57001=}
