 201702010051 METAR KJFK 010051Z 02004KT 10SM SCT060 BKN080 M01/M02 A2985\ RMK AO2 SLP106 T10061017= 201702010151 METAR KJFK 010151Z 00000KT 10SM BKN075 BKN140 M01/M02 A2985\ RMK AO2 SLP108 T10111022= 201702010251 METAR KJFK 010251Z 14003KT 10SM SCT080 M02/M02 A2986 RMK\ AO2 SLP110 T10171022 51007= 201702010351 METAR KJFK 010351Z 10003KT 9SM OVC080 M01/M02 A2986 RMK AO2\ SLP110 T10111017= 201702010451 METAR KJFK 010451Z 00000KT 9SM BKN085 OVC250 M01/M02 A2985\ RMK AO2 SLP108 T10111017 400001033= 201702010551 METAR KJFK 010551Z 00000KT 8SM FEW070 OVC095 M01/M01 A2986\ RMK AO2 SLP112 T10061011 10000 21028\ 53002= 201702010651 METAR KJFK 010651Z 16003KT 8SM BKN060 M01/M01 A2987 RMK AO2\ SLP115 T10061011= 201702010751 METAR KJFK 010751Z 23006KT 8SM BKN055 OVC230 00/M01 A2987\ RMK AO2 SLP115 T00001011= 201702010851 METAR KJFK 010851Z 24007KT 9SM BKN060 OVC240 02/00 A2989\ RMK AO2 SLP120 T00170000 53007= 201702010951 METAR KJFK 010951Z 24010KT 10SM SCT060 OVC220 03/M01 A2989\ RMK AO2 SLP123 T00281006= 201702011051 METAR KJFK 011051Z 24015KT 10SM FEW060 OVC180 04/M01 A2992\ RMK AO2 SLP130 T00391006= 201702011151 METAR KJFK 011151Z 25010KT 10SM BKN060 BKN180 05/M01 A2993\ RMK AO2 SLP133 70005 T00501011 10056\ 21017 53014= 201702011251 METAR KJFK 011251Z 25014KT 10SM SCT060 SCT110 BKN220 04/M01\ A2994 RMK AO2 SLP136 T00441006= 201702011351 METAR KJFK 011351Z 26014KT 10SM FEW060 BKN140 BKN220 06/M01\ A2996 RMK AO2 SLP144 T00561011= 201702011451 METAR KJFK 011451Z 26014KT 10SM FEW060 BKN130 BKN250 06/M02\ A2996 RMK AO2 SLP145 T00561017 51012= 201702011551 METAR KJFK 011551Z 27014KT 10SM FEW035 BKN130 BKN250 06/M02\ A2996 RMK AO2 SLP143 T00611022= 201702011651 METAR KJFK 011651Z 27013G21KT 10SM FEW038 BKN120 BKN250 07/M02\ A2994 RMK AO2 SLP139 T00721022= 201702011751 METAR KJFK 011751Z 25015KT 10SM FEW046 BKN120 BKN250 08/M02\ A2992 RMK AO2 SLP133 T00781022 10083\ 20039 58012 $= 201702011851 METAR KJFK 011851Z 23012KT 10SM FEW050 BKN120 BKN250 08/M01\ A2991 RMK AO2 SLP128 T00831011= 201702011951 METAR KJFK 011951Z 23013KT 10SM SCT065 BKN080 OVC250 08/M01\ A2992 RMK AO2 SLP131 VIRGA W-NW T00781006= 201702012051 METAR KJFK 012051Z 27016G22KT 10SM SCT060 BKN085 BKN250 08/M03\ A2994 RMK AO2 SLP136 VIRGA NW T00831028\ 53004= 201702012151 METAR KJFK 012151Z 27010KT 10SM SCT055 SCT070 BKN180 BKN210\ 07/M01 A2996 RMK AO2 SLP145 T00721011= 201702012251 METAR KJFK 012251Z 27013KT 10SM FEW055 SCT070 BKN180 BKN250\ 07/M01 A2998 RMK AO2 SLP152 T00671011= 201702012351 METAR KJFK 012351Z 27013KT 10SM FEW055 SCT075 BKN150 BKN210\ 07/M01 A3001 RMK AO2 SLP161 T00671011\ 10089 20061 53025= 201702020051 METAR KJFK 020051Z 28013KT 10SM BKN060 BKN200 07/M01 A3002\ RMK AO2 SLP166 T00671011= 201702020151 METAR KJFK 020151Z 28011KT 10SM BKN085 BKN160 BKN200 06/M02\ A3003 RMK AO2 SLP168 T00611022= 201702020251 METAR KJFK 020251Z 29008KT 10SM FEW085 BKN150 BKN250 06/M02\ A3005 RMK AO2 SLP175 T00561022 53013= 201702020351 METAR KJFK 020351Z 30011KT 10SM FEW080 BKN150 05/M03 A3006\ RMK AO2 SLP177 T00501028= 201702020451 METAR KJFK 020451Z 31007KT 10SM SCT180 04/M04 A3005 RMK AO2\ SLP175 T00391044 400891028= 201702020551 METAR KJFK 020551Z 31007KT 10SM FEW180 03/M04 A3005 RMK AO2\ SLP175 T00281044 10067 20028 51001= 201702020651 METAR KJFK 020651Z 29005KT 10SM SCT180 SCT250 02/M04 A3006\ RMK AO2 SLP178 T00221039= 201702020751 METAR KJFK 020751Z 25004KT 10SM BKN180 02/M04 A3008 RMK AO2\ SLP184 T00171044= 201702020851 METAR KJFK 020851Z 23006KT 10SM SCT130 OVC190 01/M02 A3008\ RMK AO2 SLP184 T00061022 51009= 201702020951 METAR KJFK 020951Z 24006KT 10SM BKN100 OVC190 01/M02 A3008\ RMK AO2 SLP185 T00061017= 201702021051 METAR KJFK 021051Z 25007KT 10SM BKN110 02/M01 A3007 RMK AO2\ SLP183 T00221011= 201702021151 METAR KJFK 021151Z 23006KT 10SM BKN065 BKN110 BKN200 02/00\ A3008 RMK AO2 SLP185 T00220000 10028\ 20000 53001= 201702021251 METAR KJFK 021251Z 24011KT 10SM BKN060 BKN100 BKN200 03/M01\ A3009 RMK AO2 SLP190 T00281006= 201702021351 METAR KJFK 021351Z 23013KT 9SM -SN BKN040 BKN060 BKN130 BKN200\ 04/M01 A3010 RMK AO2 SNB22 SLP191\ P0000 T00391006= 201702021451 METAR KJFK 021451Z 26011KT 10SM FEW045 BKN070 BKN120 BKN250\ 05/M01 A3009 RMK AO2 SNE01 SLP187\ P0000 60000 T00501011 50002= 201702021551 METAR KJFK 021551Z 26011KT 10SM SCT040 SCT070 SCT250 06/M03\ A3008 RMK AO2 SLP186 T00611033= 201702021651 METAR KJFK 021651Z 25013KT 10SM SCT045 BKN070 BKN250 06/M08\ A3006 RMK AO2 SLP177 T00611083= 201702021751 METAR KJFK 021751Z 28017G23KT 10SM BKN065 BKN250 07/M08 A3004\ RMK AO2 SLP171 931000 60000 T00671083\ 10072 20022 58016= 201702021851 METAR KJFK 021851Z 28012KT 10SM BKN070 BKN250 07/M08 A3003\ RMK AO2 SLP167 T00721078= 201702021951 METAR KJFK 021951Z 27017KT 10SM SCT070 SCT085 BKN250 07/M08\ A3004 RMK AO2 PK WND 29028/1918 SLP170\ VIRGA W-NW T00721083= 201702022051 METAR KJFK 022051Z 26016G25KT 10SM FEW060 BKN075 BKN090 BKN250\ 07/M08 A3006 RMK AO2 SLP179 VIRGA\ OHD AND SW-NW T00671078 53008= 201702022151 METAR KJFK 022151Z 31013KT 10SM FEW070 BKN085 BKN250 06/M09\ A3009 RMK AO2 SLP187 VIRGA SW-NW\ T00561089= 201702022251 METAR KJFK 022251Z 33011KT 10SM SCT065 BKN085 BKN250 04/M06\ A3011 RMK AO2 SLP196 VIRGA SW T00441056= 201702022351 METAR KJFK 022351Z 32012KT 10SM SCT055 SCT080 SCT250 04/M06\ A3014 RMK AO2 SLP204 T00391061 10083\ 20039 53025= 201702030051 METAR KJFK 030051Z 31009KT 10SM FEW055 SCT250 03/M07 A3016\ RMK AO2 SLP212 T00331067= 201702030151 METAR KJFK 030151Z 32011KT 10SM FEW055 BKN250 03/M07 A3018\ RMK AO2 SLP219 T00281072= 201702030251 METAR KJFK 030251Z 33012KT 10SM FEW055 SCT250 02/M07 A3019\ RMK AO2 SLP223 T00221072 51019= 201702030351 METAR KJFK 030351Z 32010KT 10SM SCT250 01/M08 A3021 RMK AO2\ SLP229 T00061078= 201702030451 METAR KJFK 030451Z 31008KT 10SM FEW250 00/M10 A3020 RMK AO2\ SLP227 T00001100 400830000= 201702030551 METAR KJFK 030551Z 32007KT 10SM FEW250 00/M12 A3021 RMK AO2\ SLP229 T00001117 10039 20000 51005= 201702030651 METAR KJFK 030651Z 31009KT 10SM FEW250 M01/M12 A3022 RMK\ AO2 SLP232 T10061122= 201702030751 METAR KJFK 030751Z 32012KT 10SM FEW250 M01/M13 A3022 RMK\ AO2 SLP234 T10111128= 201702030851 METAR KJFK 030851Z 34012KT 10SM FEW250 M02/M13 A3021 RMK\ AO2 SLP230 T10171128 50002= 201702030951 METAR KJFK 030951Z 32014KT 10SM SCT250 M02/M13 A3023 RMK\ AO2 SLP235 T10221128= 201702031051 METAR KJFK 031051Z 34008KT 10SM BKN250 M03/M13 A3024 RMK\ AO2 SLP238 T10281133= 201702031151 METAR KJFK 031151Z 31008KT 10SM FEW160 BKN250 M03/M13 A3025\ RMK AO2 SLP244 T10281133 10000 21033\ 53013= 201702031251 METAR KJFK 031251Z 32010KT 10SM FEW045 FEW160 BKN210 M02/M13\ A3025 RMK AO2 SLP244 T10221133= 201702031351 METAR KJFK 031351Z 31008KT 10SM FEW050 FEW160 BKN240 M02/M13\ A3027 RMK AO2 SLP249 T10171133= 201702031451 METAR KJFK 031451Z 24004KT 10SM SCT160 BKN260 M02/M13 A3026\ RMK AO2 SLP245 T10171128 50001= 201702031551 METAR KJFK 031551Z 25010KT 10SM FEW055 SCT130 SCT210 BKN260\ M01/M12 A3025 RMK AO2 SLP241 T10061122= 201702031651 METAR KJFK 031651Z 28008KT 10SM SCT130 OVC260 M01/M12 A3020\ RMK AO2 SLP227 T10061122= 201702031751 METAR KJFK 031751Z 26011KT 10SM FEW060 SCT150 BKN260 00/M12\ A3016 RMK AO2 SLP213 T00001117 10006\ 21028 58031= 201702031851 METAR KJFK 031851Z 27011KT 10SM FEW060 FEW130 SCT210 BKN260\ 00/M12 A3013 RMK AO2 SLP203 T00001117= 201702031951 METAR KJFK 031951Z 25011KT 10SM FEW130 SCT190 BKN250 01/M11\ A3011 RMK AO2 SLP197 T00111111= 201702032051 METAR KJFK 032051Z 25011KT 10SM BKN120 BKN170 BKN250 01/M12\ A3011 RMK AO2 SLP194 T00061117 56020= 201702032151 METAR KJFK 032151Z 27010KT 10SM BKN110 BKN250 01/M11 A3011\ RMK AO2 SLP195 T00061111= 201702032251 METAR KJFK 032251Z 31014KT 10SM FEW050 BKN120 BKN190 BKN250\ 01/M13 A3012 RMK AO2 WSHFT 2225 SLP200\ T00061128= 201702032351 METAR KJFK 032351Z 28012KT 10SM FEW050 BKN110 OVC130 00/M13\ A3014 RMK AO2 SLP205 T00001128 10011\ 20000 53011= 201702040051 METAR KJFK 040051Z 30011KT 10SM FEW050 FEW085 OVC100 00/M12\ A3016 RMK AO2 SLP212 T00001117= 201702040151 METAR KJFK 040151Z 30017G27KT 10SM FEW055 SCT070 OVC100 M01/M15\ A3018 RMK AO2 PK WND 28027/0142 SLP218\ T10061150= 201702040251 METAR KJFK 040251Z 31016G25KT 10SM FEW055 FEW110 SCT150 M01/M16\ A3019 RMK AO2 PK WND 28031/0201 SLP223\ T10111156 51018= 201702040351 METAR KJFK 040351Z 31018G22KT 10SM SCT060 SCT110 M02/M14\ A3021 RMK AO2 SLP228 T10171144= 201702040451 METAR KJFK 040451Z 32015KT 10SM SCT055 SCT110 M02/M14 A3022\ RMK AO2 PK WND 31026/0428 SLP233\ T10221139 400111033= 201702040551 METAR KJFK 040551Z 32020G31KT 10SM SCT055 M03/M16 A3024 RMK\ AO2 PK WND 32031/0540 SLP241 T10331161\ 10006 21033 53017= 201702040651 METAR KJFK 040651Z 30018KT 10SM SCT055 M04/M17 A3026 RMK\ AO2 PK WND 29032/0602 SLP247 T10391167= 201702040751 METAR KJFK 040751Z 30015G23KT 10SM FEW055 M04/M17 A3028 RMK\ AO2 PK WND 31027/0704 SLP254 T10441167= 201702040851 METAR KJFK 040851Z 31015G23KT 10SM CLR M05/M17 A3030 RMK\ AO2 PK WND 30028/0758 SLP259 T10501167\ 51019= 201702040951 METAR KJFK 040951Z 31012KT 10SM CLR M05/M16 A3032 RMK AO2\ SLP267 T10501161= 201702041051 METAR KJFK 041051Z 30014KT 10SM CLR M05/M16 A3034 RMK AO2\ SLP272 T10501156= 201702041151 METAR KJFK 041151Z 30011KT 10SM FEW035 M05/M15 A3037 RMK\ AO2 SLP284 T10501150 11033 21050\ 53024= 201702041251 METAR KJFK 041251Z 30009KT 10SM FEW035 M04/M15 A3038 RMK\ AO2 SLP287 T10441150= 201702041351 METAR KJFK 041351Z 29013KT 10SM R04R/3000VP6000FT FEW035\ M03/M15 A3041 RMK AO2 SLP296 T10331150= 201702041451 METAR KJFK 041451Z 30011G17KT 10SM FEW045 M02/M14 A3042 RMK\ AO2 SLP300 T10221144 53016= 201702041551 METAR KJFK 041551Z 31010KT 10SM FEW050 M02/M14 A3041 RMK\ AO2 SLP297 T10171139= 201702041651 METAR KJFK 041651Z 26014G19KT 10SM FEW050 M01/M14 A3039 RMK\ AO2 SLP290 T10061139= 201702041751 METAR KJFK 041751Z 28014KT 10SM FEW055 01/M13 A3036 RMK AO2\ SLP281 T00061133 10006 21050 58019= 201702041851 METAR KJFK 041851Z 24011KT 10SM FEW055 FEW250 01/M13 A3033\ RMK AO2 SLP269 T00061133= 201702041951 METAR KJFK 041951Z 25017KT 10SM FEW250 02/M13 A3032 RMK AO2\ SLP268 T00171128= 201702042051 METAR KJFK 042051Z 25011KT 10SM FEW250 01/M14 A3032 RMK AO2\ SLP265 T00111139 56016= 201702042151 METAR KJFK 042151Z 27014KT 10SM SCT250 01/M14 A3031 RMK AO2\ SLP264 T00111144= 201702042251 METAR KJFK 042251Z 26013KT 10SM BKN250 01/M13 A3032 RMK AO2\ SLP266 T00061133= 201702042351 METAR KJFK 042351Z 26014KT 10SM BKN250 01/M12 A3033 RMK AO2\ SLP270 T00061122 10017 20000 53005= 201702050051 METAR KJFK 050051Z 26016KT 10SM BKN250 01/M12 A3033 RMK AO2\ SLP268 T00061122= 201702050151 METAR KJFK 050151Z 26013KT 10SM BKN250 00/M11 A3031 RMK AO2\ SLP264 T00001111= 201702050251 METAR KJFK 050251Z 25010KT 10SM BKN250 00/M12 A3032 RMK AO2\ SLP265 T00001117 55005= 201702050351 METAR KJFK 050351Z 25012KT 10SM OVC160 00/M11 A3031 RMK AO2\ SLP262 T00001111= 201702050451 METAR KJFK 050451Z 25007KT 10SM OVC150 00/M11 A3029 RMK AO2\ SLP255 T00001111 400171050= 201702050551 METAR KJFK 050551Z 23009KT 10SM OVC150 00/M08 A3026 RMK AO2\ SLP248 T00001083 10006 21011 58017= 201702050651 METAR KJFK 050651Z 22010KT 10SM OVC150 00/M09 A3026 RMK AO2\ SLP245 T00001089= 201702050751 METAR KJFK 050751Z 22009KT 10SM OVC140 00/M08 A3023 RMK AO2\ SLP236 T00001083= 201702050851 METAR KJFK 050851Z 21008KT 10SM OVC150 00/M08 A3020 RMK AO2\ SLP226 T00001078 58021= 201702050951 METAR KJFK 050951Z 21011KT 10SM OVC150 01/M07 A3018 RMK AO2\ SLP218 T00061067= 201702051051 METAR KJFK 051051Z 21014KT 10SM BKN150 BKN200 BKN250 01/M05\ A3015 RMK AO2 SLP208 T00061050= 201702051151 METAR KJFK 051151Z 21021G25KT 10SM FEW120 BKN170 BKN220 01/M04\ A3013 RMK AO2 SLP202 T00111044 10011\ 21006 56024= 201702051251 METAR KJFK 051251Z 21018KT 10SM FEW120 BKN170 BKN250 02/M05\ A3010 RMK AO2 SLP194 T00171050= 201702051351 METAR KJFK 051351Z 21013KT 10SM OVC100 02/M05 A3008 RMK AO2\ SLP184 T00221050= 201702051451 METAR KJFK 051451Z 23013KT 10SM BKN100 BKN170 OVC260 03/M06\ A3005 RMK AO2 SLP174 T00331056 58028= 201702051551 METAR KJFK 051551Z 23012KT 10SM FEW080 BKN095 BKN170 OVC260\ 03/M05 A3001 RMK AO2 SLP163 T00281050= 201702051651 METAR KJFK 051651Z 25011KT 10SM BKN080 BKN095 OVC170 03/M05\ A2997 RMK AO2 SLP148 T00331050= 201702051751 METAR KJFK 051751Z 25011KT 10SM FEW080 BKN100 BKN160 04/M04\ A2993 RMK AO2 SLP135 T00391044 10039\ 20011 58039= 201702051851 METAR KJFK 051851Z 26008KT 10SM BKN070 BKN095 OVC160 04/M06\ A2989 RMK AO2 SLP122 T00391056= 201702051951 METAR KJFK 051951Z 21008KT 10SM BKN075 BKN160 04/M04 A2986\ RMK AO2 SLP111 T00441044= 201702052051 METAR KJFK 052051Z 23012KT 10SM OVC060 05/M04 A2986 RMK AO2\ SLP111 T00501039 55024= 201702052151 METAR KJFK 052151Z 25007KT 10SM SCT055 SCT140 BKN270 04/M03\ A2987 RMK AO2 SLP114 T00441028= 201702052251 METAR KJFK 052251Z 26014KT 10SM FEW060 SCT150 BKN270 05/M05\ A2989 RMK AO2 SLP120 T00501050= 201702052351 METAR KJFK 052351Z 25012KT 10SM FEW060 FEW150 SCT270 05/M04\ A2990 RMK AO2 SLP125 T00501044 10056\ 20039 53014= 201702060051 METAR KJFK 060051Z 23010KT 10SM BKN075 BKN270 03/M02 A2992\ RMK AO2 SLP132 T00331017= 201702060151 METAR KJFK 060151Z 24008KT 10SM OVC065 04/M02 A2992 RMK AO2\ SLP132 T00391022= 201702060251 METAR KJFK 060251Z 24012KT 10SM OVC060 04/M02 A2993 RMK AO2\ SLP134 T00441017 51009= 201702060351 METAR KJFK 060351Z 24010KT 10SM OVC055 04/M02 A2994 RMK AO2\ SLP139 T00441022= 201702060451 METAR KJFK 060451Z 23011KT 10SM OVC055 04/M01 A2994 RMK AO2\ SLP139 T00391011 400561011= 201702060551 METAR KJFK 060551Z 28008KT 10SM BKN055 05/M02 A2994 RMK AO2\ SLP137 T00501022 10050 20022 50003= 201702060651 METAR KJFK 060651Z 28011G17KT 10SM BKN055 05/M03 A2996 RMK\ AO2 SLP143 T00501033= 201702060751 METAR KJFK 060751Z 30015G22KT 10SM BKN055 06/M04 A2999 RMK\ AO2 SLP154 T00561039= 201702060851 METAR KJFK 060851Z 30013KT 10SM BKN050 05/M04 A3001 RMK AO2\ SLP163 T00501044 53026= 201702060951 METAR KJFK 060951Z 30010G20KT 10SM BKN050 04/M04 A3003 RMK\ AO2 SLP168 T00441044= 201702061051 METAR KJFK 061051Z 29007G17KT 10SM SCT050 04/M05 A3006 RMK\ AO2 PK WND 29026/0958 SLP178 T00391050= 201702061151 METAR KJFK 061151Z 34012KT 10SM SCT050 SCT250 03/M06 A3009\ RMK AO2 SLP190 T00331056 10056 20033\ 53027= 201702061251 METAR KJFK 061251Z 33007KT 10SM FEW050 SCT250 03/M05 A3012\ RMK AO2 SLP198 T00331050= 201702061351 METAR KJFK 061351Z 32009KT 10SM FEW042 FEW055 FEW250 04/M06\ A3014 RMK AO2 SLP206 T00441061= 201702061451 METAR KJFK 061451Z 33009KT 10SM FEW045 FEW250 05/M06 A3016\ RMK AO2 SLP213 T00501061 51023= 201702061551 METAR KJFK 061551Z 30011KT 10SM FEW050 FEW250 06/M06 A3016\ RMK AO2 SLP211 T00611061= 201702061651 METAR KJFK 061651Z 29010KT 10SM FEW055 FEW250 07/M06 A3014\ RMK AO2 SLP205 T00721056= 201702061751 METAR KJFK 061751Z 28009KT 10SM FEW055 FEW250 08/M05 A3012\ RMK AO2 SLP198 T00781050 10078 20022\ 58015= 201702061851 METAR KJFK 061851Z 19009KT 10SM FEW060 FEW250 08/M03 A3010\ RMK AO2 SLP192 T00781028= 201702061951 METAR KJFK 061951Z 23012KT 10SM FEW250 09/M03 A3009 RMK AO2\ SLP190 T00891028= 201702062051 METAR KJFK 062051Z 23010KT 10SM SCT250 09/M03 A3008 RMK AO2\ SLP186 T00891028 56012= 201702062151 METAR KJFK 062151Z 18013KT 10SM FEW250 05/01 A3009 RMK AO2\ SLP188 T00500006= 201702062251 METAR KJFK 062251Z 17012KT 10SM FEW250 05/02 A3009 RMK AO2\ SLP190 T00500022= 201702062351 METAR KJFK 062351Z 17009KT 10SM FEW250 05/03 A3010 RMK AO2\ SLP192 T00500033 10089 20044 52006= 201702070051 METAR KJFK 070051Z 17008KT 10SM FEW250 05/04 A3009 RMK AO2\ SLP189 T00500044= 201702070151 METAR KJFK 070151Z 18008KT 10SM SCT250 05/05 A3007 RMK AO2\ SLP183 T00500050= 201702070251 METAR KJFK 070251Z 21006KT 10SM BKN250 04/03 A3006 RMK AO2\ SLP179 T00440033 58013= 201702070351 METAR KJFK 070351Z 19003KT 10SM BKN250 04/03 A3005 RMK AO2\ SLP175 T00390033= 201702070451 METAR KJFK 070451Z 18004KT 10SM BKN250 03/03 A3003 RMK AO2\ SLP168 T00330033 400890022= 201702070551 METAR KJFK 070551Z 10003KT 9SM BKN250 02/02 A3001 RMK AO2\ SLP161 T00220022 10050 20017 58018= 201702070651 METAR KJFK 070651Z 11004KT 9SM OVC180 02/02 A2999 RMK AO2\ SLP154 T00170017= 201702070751 METAR KJFK 070751Z 06004KT 8SM SCT180 OVC250 02/02 A2998\ RMK AO2 SLP150 T00220022= 201702070851 METAR KJFK 070851Z 09004KT 8SM FEW090 BKN180 OVC250 02/02\ A2995 RMK AO2 SLP141 T00170017 58020= 201702070951 METAR KJFK 070951Z 12004KT 7SM OVC100 04/04 A2994 RMK AO2\ SLP138 T00390039= 201702071051 METAR KJFK 071051Z 01004KT 7SM OVC090 04/03 A2994 RMK AO2\ SLP139 T00440033= 201702071151 METAR KJFK 071151Z 06005KT 7SM -RA SCT047 OVC080 05/04 A2993\ RMK AO2 RAB41 SLP135 P0000 60000\ T00500039 10050 20017 58005= 201702071251 METAR KJFK 071251Z 03005KT 6SM BR FEW060 BKN075 OVC110 05/03\ A2993 RMK AO2 RAE42 SLP135 P0000\ T00500028= 201702071351 METAR KJFK 071351Z 06005KT 4SM BR FEW045 BKN075 OVC140 06/04\ A2994 RMK AO2 RAB1255E19 SLP138 P0000\ T00610044= 201702071451 METAR KJFK 071451Z 03008KT 5SM BR FEW005 BKN075 OVC110 07/05\ A2994 RMK AO2 RAB22E36 SLP137 P0001\ 60001 T00670050 50001= 201702071551 METAR KJFK 071551Z 01008KT 5SM -RA BR SCT006 BKN043 OVC100\ 06/05 A2995 RMK AO2 RAB44 PRESRR\ SLP142 P0000 T00560050 $= 201702071651 METAR KJFK 071651Z 06009KT 4SM R04R/6000VP6000FT -RA BR SCT006\ BKN055 OVC080 04/04 A2991 RMK AO2\ SLP127 P0006 T00440044 $= 201702071751 METAR KJFK 071751Z 03007KT 5SM BR BKN006 BKN034 OVC100 05/04\ A2988 RMK AO2 RAE34 SLP117 P0003\ 60010 T00500044 10067 20044 58020\ $= 201702071851 METAR KJFK 071851Z 04007KT 6SM BR OVC007 04/04 A2985 RMK\ AO2 RAB25E44 SLP109 P0000 T00440039\ $= 201702071951 METAR KJFK 071951Z 05006KT 8SM OVC007 04/04 A2985 RMK AO2\ SLP108 T00440039 $= 201702072051 METAR KJFK 072051Z 06009KT 7SM OVC007 04/04 A2982 RMK AO2\ SLP097 60000 T00440039 58020 $= 201702072151 METAR KJFK 072151Z 06007KT 7SM OVC007 04/04 A2982 RMK AO2\ SLP097 T00440039 $= 201702072251 METAR KJFK 072251Z 06008KT 7SM OVC006 04/04 A2979 RMK AO2\ SLP088 T00440044 $= 201702072351 METAR KJFK 072351Z 06008KT 5SM BR OVC005 04/04 A2977 RMK\ AO2 SLP080 60000 T00440044 10050\ 20044 58017 $= 201702080051 METAR KJFK 080051Z 07009KT 2 1/2SM BR OVC003 04/04 A2974\ RMK AO2 SFC VIS 4 SLP071 T00440044\ $= 201702080151 METAR KJFK 080151Z 08007KT 2 1/2SM BR OVC003 05/05 A2971\ RMK AO2 SFC VIS 4 SLP059 T00500050\ $= 201702080251 METAR KJFK 080251Z 05005KT 2SM BR OVC003 06/04 A2968 RMK\ AO2 SFC VIS 3 SLP051 T00560044 56029\ $= 201702080351 METAR KJFK 080351Z 04005KT 3/4SM R04R/P6000FT BR OVC003 04/04\ A2965 RMK AO2 SFC VIS 2 SLP040 T00440044\ $= 201702080451 METAR KJFK 080451Z 02005KT 4SM BR SCT003 OVC220 05/05 A2961\ RMK AO2 SLP027 T00500050 400670017\ $= 201702080551 METAR KJFK 080551Z 01005KT 2 1/2SM BR SCT002 BKN150 OVC220\ 05/05 A2958 RMK AO2 TWR VIS 4 SLP016\ SCT002 V BKN T00500050 10056 20044\ 56035 $= 201702080651 METAR KJFK 080651Z 36005KT 4SM BR FEW003 BKN120 OVC250 04/04\ A2957 RMK AO2 SLP012 T00440044 $= 201702080751 METAR KJFK 080751Z 35004KT 5SM BR FEW003 SCT110 OVC170 04/04\ A2956 RMK AO2 SLP011 T00440044 $= 201702080851 METAR KJFK 080851Z 34004KT 5SM -RA BR OVC110 05/05 A2956\ RMK AO2 RAB28 SLP010 P0000 60000\ T00500050 56006 $= 201702080951 METAR KJFK 080951Z 06003KT 6SM BR FEW110 OVC210 04/04 A2954\ RMK AO2 RAE14 SLP002 P0000 T00440044\ $= 201702081051 METAR KJFK 081051Z 35005KT 6SM BR SCT130 OVC240 05/05 A2955\ RMK AO2 SLP006 T00500050 $= 201702081151 METAR KJFK 081151Z 33005KT 6SM BR FEW070 SCT110 BKN250 07/06\ A2958 RMK AO2 SLP016 60000 70010\ T00670056 10067 20039 53006 $= 201702081251 METAR KJFK 081251Z 00000KT 6SM BR FEW011 FEW095 BKN260 06/06\ A2959 RMK AO2 SLP020 T00610056 $= 201702081351 METAR KJFK 081351Z 23003KT 6SM BR MIFG SCT070 BKN260 07/06\ A2962 RMK AO2 SLP031 T00720061 $= 201702081451 METAR KJFK 081451Z 25007KT 7SM SCT042 BKN055 BKN260 10/09\ A2965 RMK AO2 SLP041 WRM FROPA T01000089\ 53025= 201702081551 METAR KJFK 081551Z 27010KT 9SM FEW038 SCT060 BKN260 BKN340\ 14/09 A2967 RMK AO2 SLP045 T01440089= 201702081651 METAR KJFK 081651Z 30007KT 10SM FEW041 FEW075 SCT250 BKN340\ 16/08 A2966 RMK AO2 SLP043 T01610083= 201702081751 METAR KJFK 081751Z VRB05KT 10SM FEW044 SCT250 BKN340 17/08\ A2965 RMK AO2 SLP041 T01670083 10178\ 20050 50000= 201702081851 METAR KJFK 081851Z 36008KT 10SM FEW050 FEW250 BKN320 18/07\ A2964 RMK AO2 SLP037 T01830072= 201702081951 METAR KJFK 081951Z 02009KT 10SM FEW050 BKN270 17/07 A2965\ RMK AO2 SLP039 T01720067= 201702082051 METAR KJFK 082051Z 36015KT 10SM FEW050 SCT180 SCT240 BKN270\ 15/05 A2965 RMK AO2 SLP041 T01500050\ 53001= 201702082151 METAR KJFK 082151Z 36015KT 10SM FEW055 BKN190 BKN250 13/03\ A2969 RMK AO2 SLP055 T01330033= 201702082251 METAR KJFK 082251Z 34014KT 10SM SCT220 BKN250 11/02 A2970\ RMK AO2 SLP055 T01110022= 201702082351 METAR KJFK 082351Z 35010G20KT 10SM BKN180 BKN250 11/01 A2970\ RMK AO2 SLP057 T01060011 10183 20106\ 51016= 201702090051 METAR KJFK 090051Z 36012KT 10SM BKN120 BKN170 BKN250 09/M01\ A2972 RMK AO2 SLP064 T00941006= 201702090151 METAR KJFK 090151Z 01008KT 10SM SCT120 SCT160 BKN250 09/00\ A2974 RMK AO2 SLP069 T00890000= 201702090251 METAR KJFK 090251Z 02007KT 10SM FEW120 BKN160 BKN250 08/00\ A2972 RMK AO2 SLP065 T00830000 50007= 201702090351 METAR KJFK 090351Z 05012KT 10SM FEW080 OVC150 07/01 A2972\ RMK AO2 SLP063 T00720006= 201702090451 METAR KJFK 090451Z 05009KT 10SM OVC080 07/00 A2971 RMK AO2\ SLP060 T00670000 401830039= 201702090551 METAR KJFK 090551Z 03013KT 10SM BKN075 OVC130 06/00 A2967\ RMK AO2 SLP048 T00610000 10106 20061\ 58017= 201702090651 METAR KJFK 090651Z 04010KT 10SM BKN085 06/M01 A2966 RMK AO2\ SLP043 T00561006= 201702090751 METAR KJFK 090751Z 04014KT 10SM BKN050 OVC085 05/M02 A2961\ RMK AO2 SLP026 T00501017= 201702090851 METAR KJFK 090851Z 02015KT 9SM -RAPLSN OVC039 03/M01 A2958\ RMK AO2 RAB28PLB32SNB39 SLP017 P0001\ 60001 T00331011 58031= 201702090951 METAR KJFK 090951Z 02013KT 2SM -SN BR SCT013 BKN023 OVC035\ 01/00 A2959 RMK AO2 TWR VIS 4 RAE38PLE38\ PRESFR SLP019 P0007 T00110000= 201702091051 METAR KJFK 091051Z 36017KT 2 1/2SM -SN BR BKN009 OVC019 01/00\ A2958 RMK AO2 RAB38E47 SLP016 P0004\ T00060000= 201702091151 METAR KJFK 091151Z 36023G29KT 1/2SM R04R/2000V2800FT SN BLSN\ FZFG VV005 M01/M01 A2955 RMK AO2\ PK WND 35029/1125 SLP005 SNINCR 1/1\ 931011 4/001 P0009 60021 70021 T10111011\ 10061 21011 58012 $= 201702091251 METAR KJFK 091251Z 36020G28KT 1/2SM R04R/1400V1600FT SN BLSN\ FZFG VV005 M01/M01 A2953 RMK AO2\ PK WND 35031/1158 PRESFR SLP999 SNINCR\ 1/2 P0007 T10111011 $= 201702091351 METAR KJFK 091351Z 35023G31KT 1/4SM R04R/1200V1400FT +SN\ BLSN FZFG VV005 M01/M01 A2951 RMK\ AO2 PK WND 36034/1317 SLP993 SNINCR\ 1/3 P0008 T10061006 $= 201702091451 METAR KJFK 091451Z 35020G30KT 1/2SM R04R/1800V2400FT SN BLSN\ FZFG VV008 M01/M01 A2951 RMK AO2\ PK WND 01032/1353 SLP991 SNINCR 2/5\ P0007 60022 T10111011 56013 $= 201702091551 METAR KJFK 091551Z 34026G34KT 1/2SM R04R/1600V2000FT -SN\ BLSN BR VV008 M02/M02 A2953 RMK AO2\ PK WND 34034/1551 SFC VIS 3/4 SLP999\ SNINCR 1/6 P0002 T10221022 $= 201702091651 METAR KJFK 091651Z 34029G38KT 1/2SM R04R/1400V1800FT -SN\ BLSN BR VV009 M02/M03 A2952 RMK AO2\ PK WND 35039/1641 SFC VIS 3/4 SLP996\ SNINCR 1/7 P0001 T10221028 $= 201702091751 METAR KJFK 091751Z 34023G30KT 1SM R04R/2400V3500FT -SN BLSN\ BR BKN000 BKN010 OVC024 M02/M03 A2953\ RMK AO2 PK WND 34041/1706 SLP998\ CIG 008V012 SN BLSN BKN000 931063\ 4/007 933008 P0002 60027 T10221028\ 10000 21028 51006 $= 201702091851 METAR KJFK 091851Z 33021G34KT 1SM R04R/3000V4000FT -SN BLSN\ BR SCT000 BKN014 OVC024 M03/M04 A2955\ RMK AO2 PK WND 33034/1845 SFC VIS\ 1 1/2 SLP007 SN BLSN SCT000 SNINCR\ 1/8 P0000 T10281039 $= 201702091951 METAR KJFK 091951Z 31024G34KT 1 1/2SM R04R/3500V5000FT -SN\ BLSN FEW000 SCT012 BKN021 OVC033\ M04/M06 A2962 RMK AO2 PK WND 31037/1941\ SFC VIS 2 SLP030 SN BLSN FEW000 P0000\ T10391061= 201702092051 METAR KJFK 092051Z 32020G30KT 3SM R04R/2200V5000FT -SN BLSN\ BKN019 OVC047 M04/M07 A2967 RMK AO2\ PK WND 31038/2002 SLP046 VIS N-SE\ 1 1/2 P0000 60000 T10441072 53049= 201702092151 METAR KJFK 092151Z 31028G35KT 10SM R04R/6000VP6000FT FEW030\ FEW070 BKN085 M04/M11 A2971 RMK AO2\ PK WND 30037/2133 SNE03 SLP059 PRESENT\ WX DRSN P0000 T10391111= 201702092251 METAR KJFK 092251Z 31026G33KT 10SM FEW045 BKN110 M04/M13\ A2976 RMK AO2 PK WND 33039/2153 SLP078\ PRESENT WX DRSN T10441128= 201702092351 METAR KJFK 092351Z 31025G35KT 10SM R04R/6000VP6000FT FEW060\ SCT110 M06/M14 A2982 RMK AO2 PK WND\ 30042/2331 SLP098 PRESENT WX DRSN\ 931009 4/008 60000 T10561139 11022\ 21056 53051= 201702100051 METAR KJFK 100051Z 31023G36KT 10SM FEW060 FEW130 M06/M14\ A2988 RMK AO2 PK WND 32038/0040 SLP118\ PRESENT WX DRSN P0000 T10611144 $= 201702100151 METAR KJFK 100151Z 31018G25KT 10SM R04R/1000VP6000FT SCT065\ M06/M15 A2994 RMK AO2 PK WND 31038/0106\ SLP137 PRESENT WX DRSN T10611150\ $= 201702100251 METAR KJFK 100251Z 31021G33KT 10SM FEW065 OVC130 M07/M15\ A2999 RMK AO2 PK WND 30039/0235 SLP156\ PRESENT WX DRSN T10671150 51058= 201702100351 METAR KJFK 100351Z 31016G28KT 10SM BKN140 M07/M15 A3004 RMK\ AO2 PK WND 30032/0320 SLP173 PRESENT\ WX DRSN T10721150= 201702100451 METAR KJFK 100451Z 30015G21KT 10SM FEW140 M07/M14 A3010 RMK\ AO2 PK WND 31033/0354 SLP192 T10671144\ 400671072= 201702100551 METAR KJFK 100551Z 29012KT 10SM FEW040 SCT130 M07/M14 A3011\ RMK AO2 SLP197 4/008 T10671139 11056\ 21072 51041= 201702100651 METAR KJFK 100651Z 27017G21KT 10SM SCT047 M06/M14 A3012 RMK\ AO2 SLP198 T10611144= 201702100751 METAR KJFK 100751Z 28012KT 10SM CLR M06/M14 A3012 RMK AO2\ SLP198 T10611139= 201702100851 METAR KJFK 100851Z 28015KT 10SM CLR M06/M13 A3015 RMK AO2\ PK WND 27026/0837 SLP210 T10611133\ 53013= 201702100951 METAR KJFK 100951Z 28013G22KT 10SM CLR M06/M13 A3018 RMK\ AO2 SLP219 T10561133= 201702101051 METAR KJFK 101051Z 28014G25KT 10SM CLR M06/M13 A3021 RMK\ AO2 PK WND 27026/1041 SLP229 T10561128= 201702101151 METAR KJFK 101151Z 27017G23KT 10SM FEW032 FEW070 M05/M13\ A3023 RMK AO2 SLP237 4/008 70027\ T10501133 11050 21067 51027= 201702101251 METAR KJFK 101251Z 27011KT 10SM FEW037 FEW260 M05/M13 A3024\ RMK AO2 SLP239 T10501133= 201702101351 METAR KJFK 101351Z 26013G22KT 10SM FEW042 FEW260 M04/M12\ A3026 RMK AO2 SLP246 T10441122= 201702101451 METAR KJFK 101451Z 27016KT 10SM FEW042 FEW260 M03/M13 A3025\ RMK AO2 SLP244 T10331128 50008= 201702101551 METAR KJFK 101551Z 27017KT 10SM SCT047 SCT260 M03/M12 A3025\ RMK AO2 PK WND 26027/1502 SLP244\ T10281122= 201702101651 METAR KJFK 101651Z 27020G26KT 10SM SCT050 SCT260 M02/M12\ A3025 RMK AO2 PK WND 27027/1641 SLP244\ T10171122= 201702101751 METAR KJFK 101751Z 27017G24KT 10SM SCT055 SCT260 M01/M11\ A3024 RMK AO2 PK WND 27028/1710 SLP238\ 4/008 933014 T10111111 11011 21056\ 58006= 201702101851 METAR KJFK 101851Z 26014KT 10SM FEW055 BKN260 M01/M11 A3022\ RMK AO2 PK WND 26026/1811 SLP233\ T10061111= 201702101951 METAR KJFK 101951Z 26015KT 10SM FEW055 BKN260 M01/M11 A3023\ RMK AO2 SLP236 T10061106= 201702102051 METAR KJFK 102051Z 24018KT 10SM FEW055 BKN260 M01/M09 A3023\ RMK AO2 SLP235 T10111094 56003= 201702102151 METAR KJFK 102151Z 25018KT 10SM FEW055 BKN260 M01/M10 A3022\ RMK AO2 SLP234 T10111100= 201702102251 METAR KJFK 102251Z 25016KT 10SM FEW055 FEW080 BKN260 M01/M10\ A3022 RMK AO2 SLP234 T10111100= 201702102351 METAR KJFK 102351Z 26013KT 10SM FEW080 BKN100 BKN140 BKN250\ M01/M09 A3022 RMK AO2 SLP233 4/008\ T10111094 11006 21017 56002= 201702110051 METAR KJFK 110051Z 24013KT 10SM FEW050 BKN090 OVC110 M01/M09\ A3019 RMK AO2 SLP223 T10111089= 201702110151 METAR KJFK 110151Z 25008KT 10SM BKN050 BKN080 OVC100 M01/M08\ A3017 RMK AO2 SLP216 T10111083= 201702110251 METAR KJFK 110251Z 24015KT 7SM -SN OVC046 M02/M06 A3017 RMK\ AO2 SNB24 SLP217 P0000 60000 T10221061\ 55016= 201702110351 METAR KJFK 110351Z 24008KT 10SM BKN046 OVC100 M02/M06 A3017\ RMK AO2 SNE04 SLP217 P0000 T10171061= 201702110451 METAR KJFK 110451Z 14004KT 10SM FEW046 OVC100 M01/M06 A3012\ RMK AO2 SLP200 T10111061 410061067= 201702110551 METAR KJFK 110551Z 17008KT 10SM FEW045 SCT070 OVC085 01/M06\ A3010 RMK AO2 SLP192 931000 4/008\ 60000 T00061061 10006 21022 58025= 201702110651 METAR KJFK 110651Z 18010KT 10SM FEW045 SCT070 OVC085 02/M04\ A3008 RMK AO2 SLP185 T00171044= 201702110751 METAR KJFK 110751Z 16009KT 10SM FEW045 BKN070 OVC085 03/M02\ A3004 RMK AO2 PRESFR SLP172 T00281022= 201702110851 METAR KJFK 110851Z 18010KT 10SM BKN070 OVC085 03/M01 A3000\ RMK AO2 SLP159 T00331006 58033= 201702110951 METAR KJFK 110951Z 20010KT 10SM BKN070 OVC120 04/01 A2999\ RMK AO2 SLP154 T00390006= 201702111051 METAR KJFK 111051Z 21011KT 10SM BKN065 OVC120 04/M02 A2996\ RMK AO2 SLP146 T00391022= 201702111151 METAR KJFK 111151Z 22008KT 10SM OVC065 03/M02 A2997 RMK AO2\ SLP147 4/006 T00331022 10039 20006\ 55013= 201702111251 METAR KJFK 111251Z 23007KT 10SM OVC060 03/M02 A2997 RMK AO2\ SLP147 T00331017= 201702111351 METAR KJFK 111351Z 23006KT 10SM FEW065 BKN120 BKN250 03/M02\ A2996 RMK AO2 SLP146 T00331022= 201702111451 METAR KJFK 111451Z 21003KT 10SM SCT065 BKN120 BKN250 03/M02\ A2997 RMK AO2 SLP147 T00331017 55000= 201702111551 METAR KJFK 111551Z 23006KT 10SM FEW065 BKN130 BKN250 04/M02\ A2997 RMK AO2 SLP149 T00391017= 201702111651 METAR KJFK 111651Z 24007KT 10SM FEW065 BKN130 OVC200 04/M03\ A2994 RMK AO2 SLP139 T00391028= 201702111751 METAR KJFK 111751Z 23006KT 10SM FEW065 BKN130 BKN250 04/M02\ A2992 RMK AO2 SLP132 4/006 933016\ T00391017 10050 20028 58015= 201702111851 METAR KJFK 111851Z 21004KT 10SM FEW065 BKN130 BKN250 04/M03\ A2990 RMK AO2 SLP125 T00441028= 201702111951 METAR KJFK 111951Z 23005KT 10SM BKN120 BKN170 BKN250 06/M02\ A2993 RMK AO2 SLP133 T00561017= 201702112051 METAR KJFK 112051Z 30005KT 10SM BKN120 BKN250 07/M02 A2996\ RMK AO2 SLP146 T00671022 53014= 201702112151 METAR KJFK 112151Z 18003KT 10SM FEW120 BKN200 BKN250 06/M01\ A2997 RMK AO2 SLP147 T00561011= 201702112251 METAR KJFK 112251Z 18003KT 10SM BKN100 BKN250 06/M02 A2998\ RMK AO2 SLP153 T00561017= 201702112351 METAR KJFK 112351Z 09004KT 10SM BKN150 BKN200 06/M01 A3001\ RMK AO2 SLP162 4/005 T00561011 10072\ 20039 53016= 201702120051 METAR KJFK 120051Z 10003KT 10SM BKN140 BKN200 05/M01 A3004\ RMK AO2 SLP170 T00501011= 201702120151 METAR KJFK 120151Z 05006KT 10SM SCT150 BKN250 05/M02 A3006\ RMK AO2 SLP180 T00501022= 201702120251 METAR KJFK 120251Z 11003KT 10SM FEW140 BKN250 04/M02 A3008\ RMK AO2 SLP186 T00391017 51023= 201702120351 METAR KJFK 120351Z 08004KT 10SM FEW140 BKN200 04/M02 A3009\ RMK AO2 SLP190 T00391022= 201702120451 METAR KJFK 120451Z 06004KT 10SM FEW140 BKN170 BKN200 02/M01\ A3012 RMK AO2 SLP198 T00221011 400721011= 201702120551 METAR KJFK 120551Z 08005KT 10SM BKN150 OVC200 03/M01 A3012\ RMK AO2 SLP200 4/005 T00281011 10056\ 20022 51014= 201702120651 METAR KJFK 120651Z 06006KT 10SM OVC140 02/M01 A3012 RMK AO2\ SLP200 T00221006= 201702120751 METAR KJFK 120751Z 06012KT 10SM OVC120 02/M01 A3012 RMK AO2\ SLP197 T00221011= 201702120851 METAR KJFK 120851Z 07010KT 10SM -RA BKN070 OVC085 02/M02\ A3011 RMK AO2 RAB42 SLP197 P0000\ 60000 T00171017 58003= 201702120951 METAR KJFK 120951Z 07010KT 8SM -RA OVC065 01/M02 A3013 RMK\ AO2 SLP201 P0001 T00111017= 201702121051 METAR KJFK 121051Z 08008KT 8SM -RA OVC070 01/M01 A3012 RMK\ AO2 SLP198 P0002 T00061011= 201702121151 METAR KJFK 121151Z 08010KT 7SM R04R/6000VP6000FT -RA BKN070\ OVC090 01/M01 A3010 RMK AO2 SLP191\ 4/005 P0002 60005 70005 T00061011\ 10028 20006 58005= 201702121251 METAR KJFK 121251Z 07009KT 10SM -RA FEW020 BKN037 OVC090\ 01/M02 A3009 RMK AO2 SLP188 P0000\ T00061017= 201702121351 METAR KJFK 121351Z 06014KT 10SM BKN012 OVC039 00/M02 A3006\ RMK AO2 RAE17FZRAB17E45 SLP179 P0000\ T00001017= 201702121451 METAR KJFK 121451Z 06012KT 2 1/2SM R04R/5500VP6000FT -FZRA\ BR OVC008 00/M01 A3004 RMK AO2 UPB39E41FZRAB41\ SLP171 P0000 60000 T00001006 58017= 201702121551 METAR KJFK 121551Z 06015KT 2SM R04R/5500VP6000FT FZRAPL BR\ OVC008 00/M01 A2998 RMK AO2 TWR VIS\ 2 1/2 PLB1457 PRESFR SLP153 P0007\ T00001006= 201702121651 METAR KJFK 121651Z 06011KT 3SM R04R/5500VP6000FT PLRA BR\ OVC009 01/01 A2993 RMK AO2 RAB32FZRAE32\ PRESFR SLP136 P0010 T00060006= 201702121751 METAR KJFK 121751Z 07007KT 5SM R04R/5500VP6000FT RA BR OVC007\ 01/01 A2988 RMK AO2 PLE11 SLP118\ 931001 4/005 933012 P0003 60020 T00110006\ 10011 20000 58053= 201702121851 METAR KJFK 121851Z 05009KT 4SM -RA BR OVC006 01/01 A2980\ RMK AO2 PRESFR SLP090 P0010 T00110011= 201702121951 METAR KJFK 121951Z 05009KT 5SM -RA BR OVC006 02/02 A2976\ RMK AO2 UPB42E43 SLP078 P0002 T00170017= 201702122051 METAR KJFK 122051Z 04008KT 3SM -RA BR OVC004 02/02 A2972\ RMK AO2 SLP064 RAB19 P0000 60012\ T00220022 56026= 201702122151 METAR KJFK 122151Z 01007KT 2 1/2SM -RA BR OVC004 03/03 A2967\ RMK AO2 SLP047 P0001 T00280028= 201702122251 METAR KJFK 122251Z 01008KT 2SM -RA BR OVC005 02/02 A2967\ RMK AO2 SFC VIS 2 1/2 SLP047 P0001\ T00220022= 201702122351 METAR KJFK 122351Z 34014KT 3SM -SNRA BR BKN006 OVC011 02/02\ A2969 RMK AO2 SNB41 SLP053 931000\ 4/005 P0001 60015 T00220022 10028\ 20011 55011= 201702130051 METAR KJFK 130051Z 33010KT 10SM BKN007 OVC022 02/02 A2969\ RMK AO2 RAE31SNE24 SLP053 P0000 T00220022= 201702130151 METAR KJFK 130151Z 33011KT 10SM FEW007 SCT026 OVC089 02/02\ A2968 RMK AO2 SLP049 T00220017= 201702130251 METAR KJFK 130251Z 33006KT 9SM FEW007 SCT026 02/01 A2966\ RMK AO2 SLP044 60000 T00170011 58009= 201702130351 METAR KJFK 130351Z 27007KT 10SM FEW010 FEW027 02/01 A2964\ RMK AO2 SLP035 T00170011= 201702130451 METAR KJFK 130451Z 26007KT 10SM FEW035 02/01 A2961 RMK AO2\ SLP026 T00220011 400280000= 201702130551 METAR KJFK 130551Z 26013KT 10SM FEW040 BKN110 03/02 A2960\ RMK AO2 SLP023 931000 4/005 60000\ T00330017 10033 20011 56021= 201702130651 METAR KJFK 130651Z 27019G25KT 10SM SCT048 OVC085 04/02 A2960\ RMK AO2 SLP024 T00390017= 201702130751 METAR KJFK 130751Z 29023G36KT 10SM FEW020 BKN036 BKN120 03/01\ A2961 RMK AO2 PK WND 29036/0742 RAB16E47\ SLP027 P0000 T00330006= 201702130851 METAR KJFK 130851Z 28017G31KT 10SM SCT045 BKN140 04/M02 A2963\ RMK AO2 PK WND 29036/0837 SLP034\ 60000 T00391017 53012= 201702130951 METAR KJFK 130951Z 29021G30KT 10SM BKN046 03/M03 A2967 RMK\ AO2 PK WND 31040/0926 SLP048 T00281033= 201702131051 METAR KJFK 131051Z 30028G38KT 10SM SCT046 02/M06 A2969 RMK\ AO2 PK WND 29042/1009 SLP052 T00171056= 201702131151 METAR KJFK 131151Z 30024G34KT 10SM SCT049 BKN070 BKN170 02/M06\ A2970 RMK AO2 PK WND 29044/1108 SLP056\ 4/004 60000 70035 T00171056 10039\ 20017 51021= 201702131251 METAR KJFK 131251Z 30029G36KT 10SM FEW050 BKN110 BKN150 02/M06\ A2972 RMK AO2 PK WND 29039/1224 SLP062\ T00171056= 201702131351 METAR KJFK 131351Z 29024G42KT 10SM BKN043 BKN150 02/M04 A2972\ RMK AO2 PK WND 29043/1324 SLP065\ VCSH W-NW T00221044= 201702131451 METAR KJFK 131451Z 29021G39KT 10SM FEW041 BKN049 BKN170 02/M04\ A2974 RMK AO2 PK WND 30041/1431 SLP071\ VCSH SW-NW T00221039 51015= 201702131551 METAR KJFK 131551Z 31028G43KT 10SM BKN048 03/M06 A2978 RMK\ AO2 PK WND 32045/1526 SLP084 VCSH\ SW-NW T00281056= 201702131651 METAR KJFK 131651Z 32027G39KT 10SM BKN047 03/M06 A2979 RMK\ AO2 PK WND 30042/1635 SLP086 VIRGA\ N-SE VCSH SW T00281056= 201702131751 METAR KJFK 131751Z 30030G42KT 10SM FEW044 BKN055 03/M06 A2980\ RMK AO2 PK WND 30054/1723 SLP090\ VIRGA NW 4/004 933010 T00331056 10033\ 20017 51020= 201702131851 METAR KJFK 131851Z 31023G37KT 10SM BKN050 03/M04 A2982 RMK\ AO2 PK WND 32046/1752 SLP096 VIRGA\ NW T00331044= 201702131951 METAR KJFK 131951Z 31026G44KT 10SM FEW039 BKN050 04/M04 A2982\ RMK AO2 PK WND 30044/1936 SLP098\ VIRGA NW T00391044= 201702132051 METAR KJFK 132051Z 31028G37KT 10SM BKN047 03/M05 A2985 RMK\ AO2 PK WND 30047/1956 PRESRR SLP107\ VIRGA NW T00331050 53016= 201702132151 METAR KJFK 132151Z 31021G36KT 10SM SCT044 02/M06 A2988 RMK\ AO2 PK WND 33042/2117 SLP116 T00221056= 201702132251 METAR KJFK 132251Z 31019G26KT 10SM FEW047 02/M06 A2992 RMK\ AO2 PK WND 31038/2205 PRESRR SLP133\ T00171061= 201702132351 METAR KJFK 132351Z 31021G32KT 10SM FEW044 01/M07 A2994 RMK\ AO2 PK WND 32034/2313 SLP139 4/004\ T00111072 10039 20011 51032= 201702140051 METAR KJFK 140051Z 31026G36KT 10SM FEW044 01/M08 A2993 RMK\ AO2 PK WND 32038/0019 SLP136 T00061083= 201702140151 METAR KJFK 140151Z 31020G28KT 10SM FEW044 00/M07 A2997 RMK\ AO2 PK WND 33032/0132 SLP147 T00001072= 201702140251 METAR KJFK 140251Z 32021G31KT 10SM FEW044 00/M07 A2998 RMK\ AO2 PK WND 31034/0212 SLP151 T00001067\ 53012= 201702140351 METAR KJFK 140351Z 30017G26KT 10SM FEW044 SCT250 00/M07 A2998\ RMK AO2 PK WND 32031/0252 SLP152\ T00001067= 201702140451 METAR KJFK 140451Z 31012KT 10SM SCT039 M01/M07 A2999 RMK\ AO2 PK WND 31028/0411 SLP154 T10061067\ 400391006= 201702140551 METAR KJFK 140551Z 31014KT 10SM SCT035 M01/M07 A2998 RMK\ AO2 SLP151 4/003 T10061067 10011\ 21006 50000= 201702140651 METAR KJFK 140651Z 31015KT 10SM SCT034 M01/M07 A2999 RMK\ AO2 SLP155 T10061072= 201702140751 METAR KJFK 140751Z 34012KT 10SM SCT035 M01/M07 A2998 RMK\ AO2 SLP152 T10111072= 201702140851 METAR KJFK 140851Z 32009KT 10SM FEW035 M02/M07 A2998 RMK\ AO2 SLP151 T10171072 50000= 201702140951 METAR KJFK 140951Z 31007KT 10SM FEW035 M02/M07 A2999 RMK\ AO2 SLP153 T10171072= 201702141051 METAR KJFK 141051Z 31007KT 10SM FEW250 M02/M07 A2999 RMK\ AO2 SLP154 T10221072= 201702141151 METAR KJFK 141151Z 31012KT 10SM FEW032 BKN270 M02/M07 A3001\ RMK AO2 SLP160 4/003 T10171072 11006\ 21022 53009= 201702141251 METAR KJFK 141251Z 32009KT 10SM FEW032 BKN240 BKN290 M01/M07\ A3001 RMK AO2 SLP161 T10111072= 201702141351 METAR KJFK 141351Z 33010KT 10SM FEW035 BKN230 BKN290 00/M07\ A2999 RMK AO2 SLP155 T00001067= 201702141451 METAR KJFK 141451Z 32010KT 10SM FEW035 BKN190 OVC290 00/M07\ A2997 RMK AO2 SLP147 T00001067 58013= 201702141551 METAR KJFK 141551Z 28006KT 10SM FEW037 BKN200 OVC270 01/M07\ A2995 RMK AO2 SLP142 T00111067= 201702141651 METAR KJFK 141651Z 25010KT 10SM FEW040 BKN210 BKN270 01/M06\ A2992 RMK AO2 SLP133 T00111061= 201702141751 METAR KJFK 141751Z 23013KT 10SM FEW040 FEW200 SCT250 01/M04\ A2989 RMK AO2 SLP121 4/002 933007\ T00111044 10011 21017 58026= 201702141851 METAR KJFK 141851Z 24012KT 10SM FEW200 FEW250 02/M05 A2987\ RMK AO2 SLP113 T00221050= 201702141951 METAR KJFK 141951Z 22009KT 10SM SCT260 03/M04 A2984 RMK AO2\ SLP104 T00281044= 201702142051 METAR KJFK 142051Z 21008KT 10SM FEW260 03/M04 A2983 RMK AO2\ SLP101 T00331044 56020= 201702142151 METAR KJFK 142151Z 18009KT 10SM FEW260 03/M03 A2981 RMK AO2\ SLP093 T00281028= 201702142251 METAR KJFK 142251Z 18007KT 10SM FEW260 02/M02 A2981 RMK AO2\ SLP095 T00221017= 201702142351 METAR KJFK 142351Z 21006KT 10SM FEW260 02/M02 A2981 RMK AO2\ SLP095 4/002 T00221022 10033 20011\ 55006= 201702150051 METAR KJFK 150051Z 18006KT 10SM BKN220 02/00 A2981 RMK AO2\ SLP092 T00220000= 201702150151 METAR KJFK 150151Z 20012KT 10SM FEW210 BKN260 03/M01 A2981\ RMK AO2 SLP094 T00331006= 201702150251 METAR KJFK 150251Z 20012KT 10SM SCT250 03/00 A2979 RMK AO2\ SLP089 T00280000 58006= 201702150351 METAR KJFK 150351Z 20010KT 10SM BKN250 03/00 A2977 RMK AO2\ SLP081 T00280000= 201702150451 METAR KJFK 150451Z 20010KT 10SM BKN250 03/00 A2975 RMK AO2\ SLP075 T00280000 400331022= 201702150551 METAR KJFK 150551Z 20008KT 10SM BKN250 02/01 A2972 RMK AO2\ SLP064 4/002 T00220006 10033 20011\ 58025= 201702150651 METAR KJFK 150651Z 21006KT 10SM BKN250 02/00 A2970 RMK AO2\ SLP058 T00170000= 201702150751 METAR KJFK 150751Z 00000KT 10SM BKN250 01/00 A2967 RMK AO2\ SLP048 T00110000= 201702150851 METAR KJFK 150851Z 00000KT 10SM OVC250 00/M01 A2964 RMK AO2\ SLP035 T00001006 58029= 201702150951 METAR KJFK 150951Z 18006KT 10SM OVC250 01/00 A2962 RMK AO2\ SLP030 T00060000= 201702151051 METAR KJFK 151051Z 18004KT 10SM OVC250 00/M01 A2959 RMK AO2\ SLP021 T00001006= 201702151151 METAR KJFK 151151Z 18004KT 10SM SCT075 BKN240 01/01 A2958\ RMK AO2 SLP017 4/002 T00110006 10028\ 21006 56018= 201702151251 METAR KJFK 151251Z 00000KT 10SM SCT075 OVC220 03/02 A2955\ RMK AO2 SLP005 T00280017= 201702151351 METAR KJFK 151351Z 00000KT 10SM BKN080 OVC190 03/02 A2951\ RMK AO2 SLP993 T00330022= 201702151451 METAR KJFK 151451Z 18008KT 10SM BKN080 OVC170 04/02 A2949\ RMK AO2 SLP987 T00390017 56030= 201702151551 METAR KJFK 151551Z 20004KT 10SM FEW085 BKN210 OVC270 04/02\ A2947 RMK AO2 SLP978 T00440017= 201702151651 METAR KJFK 151651Z 21004KT 10SM FEW085 BKN210 BKN270 05/02\ A2943 RMK AO2 SLP965 T00500017= 201702151751 METAR KJFK 151751Z 19005KT 10SM BKN085 BKN270 06/02 A2940\ RMK AO2 SLP955 4/001 T00560017 10056\ 20006 58032= 201702151851 METAR KJFK 151851Z 24008KT 10SM FEW032 BKN075 BKN270 07/01\ A2936 RMK AO2 SLP942 T00670011= 201702151951 METAR KJFK 151951Z 23009KT 10SM FEW034 FEW080 SCT260 07/02\ A2935 RMK AO2 SLP937 T00720017= 201702152051 METAR KJFK 152051Z 18006KT 10SM FEW034 SCT075 BKN100 BKN260\ 07/02 A2932 RMK AO2 SLP928 T00670022\ 56027= 201702152151 METAR KJFK 152151Z 29019G26KT 10SM FEW043 BKN055 BKN075 BKN250\ 08/00 A2932 RMK AO2 PK WND 30026/2150\ SLP929 VCSH SE-SW AND NW-N T00780000= 201702152251 METAR KJFK 152251Z 29018G26KT 10SM SCT036 SCT070 BKN110 BKN250\ 06/01 A2934 RMK AO2 SLP936 PK WND\ 28028/2154 VCSH NW-N T00560006= 201702152351 METAR KJFK 152351Z 31020G25KT 10SM FEW012 BKN021 BKN045 OVC130\ 04/01 A2938 RMK AO2 PK WND 29029/2315\ RAB19E38 SLP948 4/001 P0000 60000\ T00390006 10078 20039 53020= 201702160051 METAR KJFK 160051Z 30020G25KT 10SM FEW024 BKN030 BKN100 04/M01\ A2941 RMK AO2 PK WND 30026/0021 SLP958\ T00391006= 201702160151 METAR KJFK 160151Z 31020G28KT 10SM FEW031 FEW043 BKN110 03/M03\ A2943 RMK AO2 PK WND 30030/0112 SLP966\ T00331028= 201702160251 METAR KJFK 160251Z 31021G34KT 10SM FEW037 FEW110 03/M04 A2944\ RMK AO2 PK WND 31034/0246 SLP970\ T00331039 53012= 201702160351 METAR KJFK 160351Z 30019G26KT 10SM FEW037 03/M04 A2945 RMK\ AO2 PK WND 31030/0301 SLP974 T00281039= 201702160451 METAR KJFK 160451Z 30016G22KT 10SM BKN036 03/M04 A2947 RMK\ AO2 PK WND 30026/0355 SLP978 T00281039\ 400781006= 201702160551 METAR KJFK 160551Z 31014G24KT 10SM BKN036 03/M04 A2948 RMK\ AO2 PK WND 29026/0515 SLP981 4/001\ T00281039 10044 20028 51012= 201702160651 METAR KJFK 160651Z 29021G26KT 10SM BKN037 02/M05 A2948 RMK\ AO2 PK WND 29028/0633 SLP982 T00171050= 201702160751 METAR KJFK 160751Z 29021G27KT 10SM FEW038 01/M07 A2948 RMK\ AO2 PK WND 29028/0714 SLP981 T00111067= 201702160851 METAR KJFK 160851Z 29018G28KT 10SM SCT038 01/M07 A2949 RMK\ AO2 PK WND 29028/0849 SLP986 T00061072\ 53004= 201702160951 METAR KJFK 160951Z 30019G26KT 10SM BKN042 01/M07 A2950 RMK\ AO2 PK WND 29030/0914 SLP991 T00061067= 201702161051 METAR KJFK 161051Z 30015G23KT 10SM BKN043 01/M07 A2952 RMK\ AO2 SLP996 T00061067= 201702161151 METAR KJFK 161151Z 30015KT 10SM BKN043 00/M07 A2954 RMK AO2\ PK WND 32028/1109 SLP004 T00001072\ 10028 20000 53018= 201702161251 METAR KJFK 161251Z 31021G26KT 10SM BKN043 01/M08 A2957 RMK\ AO2 PK WND 31031/1157 SLP011 T00061078= 201702161351 METAR KJFK 161351Z 29013G21KT 10SM SCT042 01/M08 A2958 RMK\ AO2 PK WND 32027/1256 SLP015 T00061078= 201702161451 METAR KJFK 161451Z 30017G24KT 10SM SCT042 01/M08 A2959 RMK\ AO2 PK WND 30031/1410 SLP019 T00111083\ 51016= 201702161551 METAR KJFK 161551Z 29019G30KT 10SM SCT042 SCT220 02/M08 A2960\ RMK AO2 PK WND 30030/1543 SLP022\ T00221083= 201702161651 METAR KJFK 161651Z 29022G27KT 10SM FEW044 SCT220 03/M08 A2960\ RMK AO2 PK WND 29028/1637 SLP022\ T00281083= 201702161751 METAR KJFK 161751Z 29019G27KT 10SM FEW048 BKN230 03/M08 A2959\ RMK AO2 PK WND 28029/1729 SLP020\ T00281083 10033 20000 50001= 201702161851 METAR KJFK 161851Z 30015G30KT 10SM FEW050 BKN250 03/M08 A2960\ RMK AO2 PK WND 29032/1815 SLP021\ T00331083= 201702161951 METAR KJFK 161951Z 28020G25KT 10SM SCT050 BKN250 02/M09 A2961\ RMK AO2 PK WND 32032/1920 SLP025\ T00221089= 201702162051 METAR KJFK 162051Z 30020G25KT 10SM SCT050 SCT250 02/M09 A2963\ RMK AO2 PK WND 31030/2027 SLP033\ T00171094 53013= 201702162151 METAR KJFK 162151Z 31023G29KT 10SM FEW050 FEW090 SCT250 02/M09\ A2965 RMK AO2 PK WND 30032/2117 SLP038\ T00171094= 201702162251 METAR KJFK 162251Z 31022G29KT 10SM FEW047 FEW090 SCT250 01/M09\ A2968 RMK AO2 PK WND 31031/2240 SLP051\ T00061094= 201702162351 METAR KJFK 162351Z 30021G28KT 10SM FEW047 FEW090 SCT170 SCT250\ 00/M09 A2972 RMK AO2 PK WND 30031/2304\ SLP062 T00001094 10039 20000 53029= 201702170051 METAR KJFK 170051Z 31019G29KT 10SM BKN046 BKN250 00/M09 A2976\ RMK AO2 PK WND 29031/0005 SLP075\ T00001094= 201702170151 METAR KJFK 170151Z 30026G31KT 10SM FEW044 SCT170 SCT250 M01/M10\ A2976 RMK AO2 PK WND 30031/0150 SLP077\ T10061100= 201702170251 METAR KJFK 170251Z 32023G32KT 10SM FEW044 FEW250 M01/M09\ A2977 RMK AO2 PK WND 32032/0247 SLP082\ T10061094 51019= 201702170351 METAR KJFK 170351Z 32024G32KT 10SM FEW044 FEW250 M02/M09\ A2979 RMK AO2 PK WND 33032/0351 SLP087\ T10171094= 201702170451 METAR KJFK 170451Z 31015G26KT 10SM FEW044 M02/M09 A2981 RMK\ AO2 PK WND 33030/0402 SLP093 T10171094\ 400391017= 201702170551 METAR KJFK 170551Z 31017G23KT 10SM FEW043 M02/M10 A2982 RMK\ AO2 PK WND 32032/0501 SLP097 T10171100\ 10000 21017 51016= 201702170651 METAR KJFK 170651Z 30013G27KT 10SM FEW045 M02/M10 A2983 RMK\ AO2 PK WND 31027/0647 SLP100 T10171100= 201702170751 METAR KJFK 170751Z 28011KT 10SM FEW044 M02/M09 A2983 RMK\ AO2 SLP100 T10221094= 201702170851 METAR KJFK 170851Z 29017G23KT 10SM CLR M02/M09 A2984 RMK\ AO2 SLP103 T10221094 51005= 201702170951 METAR KJFK 170951Z 29014G22KT 10SM CLR M02/M09 A2985 RMK\ AO2 PK WND 31027/0859 SLP106 T10221094= 201702171051 METAR KJFK 171051Z 29016G23KT 10SM CLR M02/M09 A2986 RMK\ AO2 SLP111 T10221089= 201702171151 METAR KJFK 171151Z 30013KT 10SM FEW035 FEW270 M03/M09 A2986\ RMK AO2 SLP112 T10281089 11017 21028\ 51009= 201702171251 METAR KJFK 171251Z 29018KT 10SM FEW035 BKN270 M02/M09 A2988\ RMK AO2 SLP118 T10171089= 201702171351 METAR KJFK 171351Z 29013KT 10SM FEW040 BKN250 M01/M09 A2988\ RMK AO2 SLP118 T10061089= 201702171451 METAR KJFK 171451Z 32017G23KT 10SM SCT250 01/M08 A2988 RMK\ AO2 SLP118 T00061083 51006= 201702171551 METAR KJFK 171551Z 31016G21KT 10SM FEW250 02/M09 A2987 RMK\ AO2 SLP115 T00221089= 201702171651 METAR KJFK 171651Z 30015G19KT 10SM FEW250 04/M09 A2986 RMK\ AO2 SLP110 T00391089= 201702171751 METAR KJFK 171751Z 30016KT 10SM FEW200 FEW250 04/M09 A2984\ RMK AO2 SLP103 T00441089 10050 21028\ 58015= 201702171851 METAR KJFK 171851Z 31014G20KT 10SM FEW200 FEW250 06/M09 A2982\ RMK AO2 SLP098 T00561089= 201702171951 METAR KJFK 171951Z 29013KT 10SM FEW260 06/M09 A2982 RMK AO2\ SLP098 T00611094= 201702172051 METAR KJFK 172051Z 31014G21KT 10SM SCT260 06/M09 A2981 RMK\ AO2 SLP095 T00611094 56008= 201702172151 METAR KJFK 172151Z 31010KT 10SM BKN250 06/M09 A2983 RMK AO2\ SLP099 T00561094= 201702172251 METAR KJFK 172251Z 30012KT 10SM FEW170 BKN250 05/M09 A2985\ RMK AO2 SLP107 T00501094= 201702172351 METAR KJFK 172351Z 29013KT 10SM FEW190 BKN250 04/M09 A2988\ RMK AO2 SLP117 T00441089 10067 20044\ 53022= 201702180051 METAR KJFK 180051Z 29005KT 10SM BKN180 BKN250 05/M08 A2989\ RMK AO2 SLP121 T00501083= 201702180151 METAR KJFK 180151Z 28009KT 10SM FEW100 BKN170 BKN250 04/M09\ A2990 RMK AO2 SLP125 T00441089= 201702180251 METAR KJFK 180251Z 29006KT 10SM SCT170 BKN250 04/M09 A2992\ RMK AO2 SLP131 T00391089 53014= 201702180351 METAR KJFK 180351Z 30011KT 10SM BKN170 BKN250 04/M09 A2991\ RMK AO2 SLP129 T00391089= 201702180451 METAR KJFK 180451Z 00000KT 10SM FEW170 SCT250 03/M09 A2991\ RMK AO2 SLP128 T00281089 400671028= 201702180551 METAR KJFK 180551Z 00000KT 10SM SCT250 02/M06 A2991 RMK AO2\ SLP128 T00221061 10050 20011 56003= 201702180651 METAR KJFK 180651Z 00000KT 10SM FEW250 00/M06 A2991 RMK AO2\ SLP128 T00001056= 201702180751 METAR KJFK 180751Z 20003KT 10SM FEW170 FEW250 01/M06 A2991\ RMK AO2 SLP127 T00061056= 201702180851 METAR KJFK 180851Z 19003KT 10SM FEW170 FEW250 00/M07 A2990\ RMK AO2 SLP123 T00001067 58005= 201702180951 METAR KJFK 180951Z 20007KT 10SM FEW250 00/M03 A2989 RMK AO2\ SLP122 T00001028= 201702181051 METAR KJFK 181051Z 22006KT 10SM FEW250 00/M03 A2988 RMK AO2\ SLP119 T00001033= 201702181151 METAR KJFK 181151Z 21007KT 10SM FEW250 01/M03 A2987 RMK AO2\ SLP116 T00061033 10022 21011 58007= 201702181251 METAR KJFK 181251Z 23005KT 10SM FEW250 03/M02 A2987 RMK AO2\ SLP115 T00281022= 201702181351 METAR KJFK 181351Z 23007KT 10SM SCT250 05/M04 A2987 RMK AO2\ SLP115 T00501039= 201702181451 METAR KJFK 181451Z 22011KT 10SM BKN160 BKN250 06/M04 A2988\ RMK AO2 SLP117 T00611044 53001= 201702181551 METAR KJFK 181551Z 21008KT 10SM FEW170 SCT250 08/M05 A2984\ RMK AO2 SLP105 T00781050= 201702181651 METAR KJFK 181651Z 19008KT 10SM BKN250 08/M01 A2979 RMK AO2\ PRESFR SLP089 T00831006= 201702181751 METAR KJFK 181751Z 18007KT 10SM FEW160 SCT250 10/03 A2975\ RMK AO2 SLP072 T01000028 10100 20006\ 58045= 201702181851 METAR KJFK 181851Z 17009KT 10SM SCT250 10/04 A2972 RMK AO2\ SLP063 T01000044= 201702181951 METAR KJFK 181951Z 17008KT 10SM BKN250 11/04 A2970 RMK AO2\ SLP057 T01110044= 201702182051 METAR KJFK 182051Z 17006KT 10SM BKN250 10/04 A2969 RMK AO2\ SLP053 T01000044 56019= 201702182151 METAR KJFK 182151Z 16004KT 10SM BKN250 10/05 A2968 RMK AO2\ SLP051 T01000050= 201702182251 METAR KJFK 182251Z 15003KT 10SM FEW200 BKN250 09/04 A2969\ RMK AO2 SLP052 T00940039= 201702182351 METAR KJFK 182351Z 18005KT 10SM FEW200 SCT250 07/04 A2969\ RMK AO2 SLP053 T00670039 10117 20067\ 55001= 201702190051 METAR KJFK 190051Z 20006KT 10SM FEW200 BKN250 07/04 A2969\ RMK AO2 SLP052 T00720039= 201702190151 METAR KJFK 190151Z 24008KT 10SM FEW200 BKN250 09/03 A2969\ RMK AO2 SLP053 T00940033= 201702190251 METAR KJFK 190251Z 24009KT 10SM FEW200 BKN250 09/02 A2969\ RMK AO2 SLP053 T00890022 55000= 201702190351 METAR KJFK 190351Z 25008KT 10SM FEW200 BKN250 11/02 A2968\ RMK AO2 SLP051 T01060022= 201702190451 METAR KJFK 190451Z 26011KT 10SM FEW200 BKN250 12/02 A2968\ RMK AO2 SLP050 T01170022 401171011= 201702190551 METAR KJFK 190551Z 25012KT 10SM BKN250 12/02 A2969 RMK AO2\ SLP052 T01220017 10122 20067 55000= 201702190651 METAR KJFK 190651Z 25012KT 10SM SCT200 BKN250 11/02 A2969\ RMK AO2 SLP055 T01110017= 201702190751 METAR KJFK 190751Z 25010KT 10SM SCT130 BKN250 10/02 A2971\ RMK AO2 SLP060 T01000017= 201702190851 METAR KJFK 190851Z 26011KT 10SM SCT130 BKN250 11/02 A2972\ RMK AO2 SLP064 T01110017 53012= 201702190951 METAR KJFK 190951Z 24003KT 10SM BKN130 BKN250 09/02 A2973\ RMK AO2 SLP066 T00940022= 201702191051 METAR KJFK 191051Z 23009KT 10SM BKN130 BKN250 09/02 A2975\ RMK AO2 SLP073 T00940022= 201702191151 METAR KJFK 191151Z 24010KT 10SM BKN130 BKN250 09/03 A2977\ RMK AO2 SLP080 T00940028 10122 20078\ 53016= 201702191251 METAR KJFK 191251Z 24008KT 10SM BKN110 BKN250 11/03 A2980\ RMK AO2 SLP091 T01060028= 201702191351 METAR KJFK 191351Z 24008KT 10SM BKN110 BKN250 13/03 A2982\ RMK AO2 SLP098 T01330033= 201702191451 METAR KJFK 191451Z 25008KT 10SM SCT110 SCT200 BKN250 15/04\ A2983 RMK AO2 SLP099 T01500039 51019= 201702191551 METAR KJFK 191551Z 29011KT 10SM FEW110 FEW200 BKN240 17/03\ A2982 RMK AO2 SLP098 T01720033= 201702191651 METAR KJFK 191651Z 27010KT 10SM FEW110 SCT220 BKN260 17/03\ A2982 RMK AO2 SLP097 T01720033= 201702191751 METAR KJFK 191751Z 26007KT 10SM FEW130 SCT230 BKN260 17/04\ A2981 RMK AO2 SLP094 T01720039 10178\ 20089 58005= 201702191851 METAR KJFK 191851Z 26013KT 10SM FEW130 FEW220 SCT260 19/02\ A2980 RMK AO2 SLP091 T01890022= 201702191951 METAR KJFK 191951Z 30014G25KT 10SM FEW130 FEW200 SCT250 19/M01\ A2980 RMK AO2 SLP091 T01941006= 201702192051 METAR KJFK 192051Z 31015G22KT 10SM FEW120 FEW250 19/M01 A2982\ RMK AO2 SLP099 T01941011 53005= 201702192151 METAR KJFK 192151Z 30013G21KT 10SM FEW250 18/00 A2985 RMK\ AO2 SLP107 T01830000= 201702192251 METAR KJFK 192251Z 32008KT 10SM FEW070 FEW250 16/M01 A2987\ RMK AO2 SLP116 T01611011= 201702192351 METAR KJFK 192351Z 30009KT 10SM CLR 16/M01 A2989 RMK AO2\ SLP121 T01611011 10200 20161 51022= 201702200051 METAR KJFK 200051Z 33007KT 10SM CLR 15/M01 A2991 RMK AO2\ SLP128 T01501006= 201702200151 METAR KJFK 200151Z 36011KT 10SM CLR 14/00 A2994 RMK AO2 SLP138\ T01390000= 201702200251 METAR KJFK 200251Z 34012KT 10SM CLR 13/00 A2997 RMK AO2 SLP147\ T01330000 53025= 201702200351 METAR KJFK 200351Z 33008KT 10SM CLR 12/00 A2998 RMK AO2 SLP150\ T01170000= 201702200451 METAR KJFK 200451Z 33011KT 10SM CLR 12/01 A2998 RMK AO2 SLP153\ T01170006 402000078= 201702200551 METAR KJFK 200551Z 33013G22KT 10SM CLR 11/02 A3000 RMK AO2\ SLP159 T01110017 10167 20111 53012= 201702200651 METAR KJFK 200651Z 33014KT 10SM CLR 11/01 A3002 RMK AO2 SLP164\ T01060011= 201702200751 METAR KJFK 200751Z 32011KT 10SM SCT250 10/01 A3003 RMK AO2\ SLP167 T01000011= 201702200851 METAR KJFK 200851Z 32010KT 10SM FEW250 09/01 A3005 RMK AO2\ SLP176 T00890006 53018= 201702200951 METAR KJFK 200951Z 31010KT 10SM CLR 08/01 A3008 RMK AO2 SLP187\ T00780006= 201702201051 METAR KJFK 201051Z 31011KT 10SM CLR 08/01 A3011 RMK AO2 SLP194\ T00780006= 201702201151 METAR KJFK 201151Z 32013KT 10SM FEW035 FEW250 07/01 A3014\ RMK AO2 SLP206 T00720006 10111 20072\ 53030= 201702201251 METAR KJFK 201251Z 32014KT 10SM FEW035 FEW250 08/01 A3016\ RMK AO2 SLP212 T00780006= 201702201351 METAR KJFK 201351Z 34010KT 10SM FEW250 09/01 A3018 RMK AO2\ SLP218 T00940006= 201702201451 METAR KJFK 201451Z 31010KT 10SM FEW042 10/01 A3020 RMK AO2\ SLP226 T01000006 53020= 201702201551 METAR KJFK 201551Z 36010KT 10SM FEW045 FEW250 11/M01 A3020\ RMK AO2 SLP228 T01111006= 201702201651 METAR KJFK 201651Z 34009KT 10SM FEW055 FEW250 12/M03 A3019\ RMK AO2 SLP224 T01221028= 201702201751 METAR KJFK 201751Z 34009KT 300V010 10SM FEW060 FEW250 13/M03\ A3018 RMK AO2 SLP220 T01281033 10128\ 20072 58006= 201702201851 METAR KJFK 201851Z 30008G17KT 10SM FEW250 13/M05 A3017 RMK\ AO2 SLP216 T01281050= 201702201951 METAR KJFK 201951Z 34014G19KT 10SM FEW250 13/M07 A3017 RMK\ AO2 SLP215 T01281072= 201702202051 METAR KJFK 202051Z 32010G19KT 10SM FEW250 13/M09 A3019 RMK\ AO2 SLP222 T01281094 53002= 201702202151 METAR KJFK 202151Z 33011KT 10SM FEW250 12/M11 A3021 RMK AO2\ SLP231 T01171106= 201702202251 METAR KJFK 202251Z 03014KT 10SM FEW250 09/M11 A3026 RMK AO2\ WSHFT 2202 SLP246 T00941106= 201702202351 METAR KJFK 202351Z 01014KT 10SM FEW250 08/M12 A3030 RMK AO2\ SLP259 T00831117 10133 20083 53037= 201702210051 METAR KJFK 210051Z 02014G21KT 10SM FEW250 07/M12 A3032 RMK\ AO2 SLP266 T00671122= 201702210151 METAR KJFK 210151Z 04016G23KT 10SM FEW250 06/M12 A3034 RMK\ AO2 SLP273 T00611117= 201702210251 METAR KJFK 210251Z 02012G20KT 10SM FEW250 06/M09 A3034 RMK\ AO2 SLP275 T00561089 51016= 201702210351 METAR KJFK 210351Z 02009KT 10SM FEW250 04/M09 A3036 RMK AO2\ SLP280 T00441094= 201702210451 METAR KJFK 210451Z 02007KT 10SM FEW250 03/M10 A3037 RMK AO2\ SLP282 T00331100 401330033= 201702210551 METAR KJFK 210551Z 03008KT 10SM FEW250 02/M11 A3038 RMK AO2\ SLP286 T00221106 10083 20022 51012= 201702210651 METAR KJFK 210651Z 02007KT 10SM FEW250 02/M10 A3038 RMK AO2\ SLP287 T00171100= 201702210751 METAR KJFK 210751Z 04007KT 10SM FEW250 01/M09 A3038 RMK AO2\ SLP285 T00111094= 201702210851 METAR KJFK 210851Z 04006KT 10SM FEW250 01/M09 A3037 RMK AO2\ SLP285 T00061089 58002= 201702210951 METAR KJFK 210951Z 02005KT 10SM FEW250 01/M08 A3040 RMK AO2\ SLP293 T00061083= 201702211051 METAR KJFK 211051Z 04007KT 10SM SCT250 M01/M08 A3040 RMK\ AO2 SLP292 T10061083= 201702211151 METAR KJFK 211151Z 07007KT 10SM FEW190 BKN250 00/M07 A3038\ RMK AO2 SLP285 T00001072 10028 21006\ 50001= 201702211251 METAR KJFK 211251Z 05004KT 10SM FEW170 BKN250 02/M06 A3041\ RMK AO2 SLP296 T00221061= 201702211351 METAR KJFK 211351Z 11006KT 10SM SCT200 BKN250 04/M07 A3040\ RMK AO2 SLP292 T00391067= 201702211451 METAR KJFK 211451Z 12005KT 10SM SCT200 BKN240 05/M04 A3039\ RMK AO2 SLP291 T00501039 50005= 201702211551 METAR KJFK 211551Z 16007KT 10SM FEW190 BKN260 06/M02 A3038\ RMK AO2 SLP288 T00611022= 201702211651 METAR KJFK 211651Z 17007KT 10SM SCT190 BKN260 07/M02 A3036\ RMK AO2 SLP280 T00671022= 201702211751 METAR KJFK 211751Z 17010KT 10SM FEW035 FEW190 BKN260 07/M01\ A3033 RMK AO2 SLP270 T00721011 10072\ 20006 58021= 201702211851 METAR KJFK 211851Z 17008KT 10SM FEW035 SCT190 OVC260 07/M01\ A3029 RMK AO2 SLP257 T00671006= 201702211951 METAR KJFK 211951Z 15010KT 10SM FEW035 SCT190 BKN250 06/M01\ A3027 RMK AO2 SLP250 T00611006= 201702212051 METAR KJFK 212051Z 15009KT 10SM SCT170 BKN250 06/00 A3026\ RMK AO2 SLP245 T00610000 56025= 201702212351 METAR KJFK 212351Z 17009KT 10SM SCT210 BKN250 06/02 A3022\ RMK SLP234 T00560017 10072 20056\ 56011= 201702220051 METAR KJFK 220051Z 18009KT 10SM SCT210 BKN250 06/02 A3022\ RMK SLP231 T00560022= 201702220151 METAR KJFK 220151Z 19008KT 10SM BKN230 05/03 A3021 RMK SLP229\ T00500028= 201702220251 METAR KJFK 220251Z 21010KT 10SM FEW035 OVC230 06/03 A3020\ RMK SLP224 T00560033 58010= 201702220351 METAR KJFK 220351Z 22007KT 10SM OVC200 05/03 A3017 RMK SLP216\ T00500028= 201702220451 METAR KJFK 220451Z 23008KT 10SM BKN190 05/03 A3015 RMK SLP208\ T00500028 400721006= 201702220551 METAR KJFK 220551Z 21006KT 10SM SCT140 OVC190 05/03 A3012\ RMK SLP199 T00500028 10056 20050\ 56025= 201702220651 METAR KJFK 220651Z 20007KT 10SM OVC130 05/03 A3009 RMK SLP189\ T00500033= 201702220751 METAR KJFK 220751Z 24005KT 10SM BKN130 OVC200 04/03 A3009\ RMK SLP188 T00440033= 201702220851 METAR KJFK 220851Z 23005KT 10SM SCT095 OVC130 05/03 A3010\ RMK SLP192 T00500033 55008= 201702220951 METAR KJFK 220951Z 21006KT 10SM SCT095 OVC150 04/03 A3008\ RMK SLP184 T00390028= 201702221051 METAR KJFK 221051Z 22004KT 10SM SCT090 OVC140 05/03 A3008\ RMK AO2 SLP185 T00500033= 201702221151 METAR KJFK 221151Z 22006KT 10SM FEW075 FEW120 OVC160 05/03\ A3007 RMK AO2 SLP183 T00500033 10056\ 20039 56009= 201702221251 METAR KJFK 221251Z 23004KT 10SM FEW022 BKN070 BKN160 OVC230\ 06/04 A3007 RMK AO2 SLP182 VCSH W-NW\ T00610039= 201702221351 METAR KJFK 221351Z 23007KT 10SM FEW075 BKN140 BKN250 07/04\ A3006 RMK AO2 SLP179 VCSH NE-E T00670039= 201702221451 METAR KJFK 221451Z 20005KT 10SM BKN085 BKN160 BKN250 07/04\ A3005 RMK AO2 SLP176 T00720039 58006= 201702221551 METAR KJFK 221551Z 20005KT 10SM SCT110 BKN150 OVC250 08/04\ A3003 RMK AO2 SLP170 T00780039= 201702221651 METAR KJFK 221651Z 20008KT 10SM FEW100 BKN150 OVC250 08/04\ A3001 RMK AO2 SLP162 T00830044= 201702221751 METAR KJFK 221751Z 21006KT 10SM FEW100 BKN160 BKN250 09/04\ A2998 RMK AO2 SLP151 T00890044 10089\ 20050 58025= 201702221851 METAR KJFK 221851Z 20004KT 10SM FEW110 SCT160 BKN250 10/04\ A2994 RMK AO2 SLP139 T01000044= 201702221951 METAR KJFK 221951Z 17009KT 10SM FEW100 SCT130 BKN250 10/05\ A2994 RMK AO2 SLP138 T01000050= 201702222051 METAR KJFK 222051Z 18004KT 10SM FEW120 BKN250 10/06 A2993\ RMK AO2 SLP134 T01000061 56017= 201702222151 METAR KJFK 222151Z 19006KT 10SM FEW120 FEW170 BKN250 09/07\ A2993 RMK AO2 SLP135 T00940067= 201702222251 METAR KJFK 222251Z 19005KT 10SM BKN100 BKN250 08/07 A2993\ RMK AO2 SLP136 T00830067= 201702222351 METAR KJFK 222351Z 16004KT 10SM BKN100 OVC250 08/07 A2993\ RMK AO2 SLP135 T00830072 10106 20083\ 50001= 201702230051 METAR KJFK 230051Z 00000KT 10SM BKN120 BKN250 08/07 A2993\ RMK AO2 SLP134 T00780072= 201702230151 METAR KJFK 230151Z 00000KT 10SM FEW120 BKN250 07/06 A2993\ RMK AO2 SLP135 T00670056= 201702230251 METAR KJFK 230251Z 18003KT 10SM BKN250 06/06 A2992 RMK AO2\ SLP131 T00560056 58004= 201702230351 METAR KJFK 230351Z 14003KT 10SM BKN250 06/06 A2991 RMK AO2\ SLP128 T00560056= 201702230451 METAR KJFK 230451Z 00000KT 10SM BKN250 06/06 A2990 RMK AO2\ SLP124 T00560056 401060039= 201702230551 METAR KJFK 230551Z 21003KT 10SM BKN250 06/05 A2990 RMK SLP124\ T00560050 10083 20044 56008= 201702230651 METAR KJFK 230651Z 00000KT 10SM SCT250 04/04 A2990 RMK AO2\ SLP125 T00440044= 201702230751 METAR KJFK 230751Z 15004KT 9SM FEW250 04/04 A2989 RMK AO2\ SLP123 T00440044= 201702230851 METAR KJFK 230851Z 12003KT 10SM SCT250 06/04 A2989 RMK AO2\ SLP122 T00560044 58001= 201702230951 METAR KJFK 230951Z 13003KT 8SM FEW250 04/03 A2990 RMK AO2\ SLP123 T00440033= 201702231051 METAR KJFK 231051Z 00000KT 6SM BR FEW250 04/03 A2990 RMK\ SLP125 T00440033= 201702231151 METAR KJFK 231151Z 17004KT 1/8SM R04R/1000FT FG VV002 06/06\ A2991 RMK AO2 SFC VIS 1/2 SLP128\ T00610061 10061 20033 53006= 201702231251 METAR KJFK 231251Z 19004KT 1/8SM R04R/0800V2600FT FG VV002\ 06/06 A2992 RMK AO2 SFC VIS 1/4 SLP131\ T00610061= 201702231351 METAR KJFK 231351Z 20004KT 1/4SM R04R/2600V3000FT FG VV003\ 07/07 A2993 RMK AO2 SFC VIS 1/2 SLP135\ T00670067= 201702231451 METAR KJFK 231451Z 19005KT 1/4SM R04R/3000V3500FT -DZ FG\ VV003 08/08 A2993 RMK AO2 SFC VIS\ 1/2 DZB48 SLP134 P0000 60000 T00830083\ 50006= 201702231551 METAR KJFK 231551Z 17006KT 1/2SM R04R/P6000FT BR FEW000 BKN003\ OVC011 09/09 A2991 RMK AO2 SFC VIS\ 1 3/4 DZE20 SLP127 BR FEW000 P0000\ T00940094= 201702231651 METAR KJFK 231651Z 19006KT 3SM BR OVC006 09/08 A2990 RMK\ AO2 SFC VIS 4 SLP123 T00940083= 201702231751 METAR KJFK 231751Z 16006KT 2SM BR OVC005 09/08 A2987 RMK\ AO2 SFC VIS 5 SLP113 CIG 003V007\ 60000 T00940083 10094 20056 58021= 201702231851 METAR KJFK 231851Z 16006KT 7SM FEW007 SCT250 12/10 A2985\ RMK AO2 SLP108 T01170100= 201702231951 METAR KJFK 231951Z 17010KT 4SM BR SCT002 BKN260 11/10 A2984\ RMK AO2 SLP106 T01110100= 201702232051 METAR KJFK 232051Z 17008KT 10SM FEW005 FEW100 SCT250 13/11\ A2983 RMK AO2 SLP101 T01330111 56012= 201702232151 METAR KJFK 232151Z 00000KT 10SM FEW005 FEW040 SCT100 SCT250\ 12/10 A2984 RMK AO2 SLP104 T01170100= 201702232251 METAR KJFK 232251Z 23007KT 200V270 10SM FEW050 SCT250 10/09\ A2986 RMK AO2 SLP111 T01000089= 201702232351 METAR KJFK 232351Z 19008KT 10SM FEW050 FEW250 09/08 A2988\ RMK AO2 SLP118 T00890078 10139 20089\ 53018= 201702240051 METAR KJFK 240051Z 18005KT 10SM SCT070 BKN250 09/08 A2989\ RMK AO2 SLP122 T00890078= 201702240151 METAR KJFK 240151Z 17006KT 10SM SCT090 BKN250 09/08 A2990\ RMK AO2 SLP126 T00940083= 201702240251 METAR KJFK 240251Z 17006KT 10SM FEW080 BKN095 BKN250 09/08\ A2991 RMK AO2 SLP128 T00890083 51009= 201702240351 METAR KJFK 240351Z 17007KT 10SM SCT070 09/08 A2991 RMK AO2\ SLP128 T00890083= 201702240451 METAR KJFK 240451Z 00000KT 10SM FEW070 SCT250 09/08 A2992\ RMK AO2 SLP131 T00890083 401390033= 201702240551 METAR KJFK 240551Z 16005KT 10SM SCT090 09/09 A2993 RMK AO2\ SLP133 T00940089 10100 20083 53005= 201702240651 METAR KJFK 240651Z 17005KT 10SM SCT090 09/08 A2993 RMK AO2\ SLP135 T00890083= 201702240751 METAR KJFK 240751Z 00000KT 10SM FEW090 08/08 A2993 RMK AO2\ SLP136 T00830083= 201702240851 METAR KJFK 240851Z 14005KT 10SM FEW090 08/08 A2993 RMK AO2\ SLP135 T00780078 50002= 201702240951 METAR KJFK 240951Z 16004KT 9SM FEW090 FEW250 08/08 A2994\ RMK AO2 SLP140 T00780078= 201702241051 METAR KJFK 241051Z 00000KT 10SM FEW130 BKN250 08/08 A2995\ RMK AO2 SLP141 T00830083= 201702241151 METAR KJFK 241151Z 18005KT 10SM FEW190 BKN280 07/07 A2996\ RMK AO2 SLP143 T00720072 10094 20072\ 51008= 201702241251 METAR KJFK 241251Z 17006KT 10SM FEW190 SCT280 10/09 A2996\ RMK AO2 SLP146 T01000094= 201702241351 METAR KJFK 241351Z 00000KT 10SM FEW170 SCT300 12/10 A2997\ RMK AO2 SLP148 T01170100= 201702241451 METAR KJFK 241451Z 18006KT 10SM FEW095 FEW170 BKN300 14/11\ A2998 RMK AO2 SLP151 ACSL DSNT SE\ T01390106 52008= 201702241551 METAR KJFK 241551Z 18008KT 10SM FEW030 FEW170 SCT300 14/11\ A2997 RMK AO2 SLP150 T01440106= 201702241651 METAR KJFK 241651Z 18009KT 10SM FEW035 FEW170 SCT300 15/11\ A2996 RMK AO2 SLP143 T01500106= 201702241751 METAR KJFK 241751Z 17014KT 10SM FEW017 FEW040 FEW300 16/11\ A2993 RMK AO2 SLP135 T01560111 10161\ 20072 58016= 201702241851 METAR KJFK 241851Z 18020KT 10SM FEW045 FEW300 17/11 A2990\ RMK AO2 SLP125 T01670111 $= 201702241951 METAR KJFK 241951Z 18018KT 10SM FEW045 SCT270 15/12 A2989\ RMK AO2 SLP120 T01500117= 201702242051 METAR KJFK 242051Z 18017KT 10SM FEW045 SCT250 14/12 A2989\ RMK AO2 PK WND 18028/2036 SLP119\ T01440117 56016= 201702242151 METAR KJFK 242151Z 18018KT 10SM FEW025 FEW045 BKN250 13/12\ A2988 RMK AO2 PK WND 18028/2129 SLP117\ T01330117= 201702242251 METAR KJFK 242251Z 18018G25KT 10SM FEW010 FEW045 FEW110 SCT250\ 12/12 A2988 RMK AO2 PK WND 18026/2221\ SLP118 T01170117= 201702242351 METAR KJFK 242351Z 18018KT 10SM FEW010 FEW110 SCT250 12/12\ A2988 RMK AO2 SLP119 T01170117 10167\ 20117 55000= 201702250051 METAR KJFK 250051Z 18018KT 10SM FEW003 SCT250 12/12 A2988\ RMK AO2 SLP117 T01220122= 201702250151 METAR KJFK 250151Z 19014KT 1/2SM R04R/4000V5500FT BR OVC002\ 11/11 A2988 RMK AO2 SFC VIS 3/4 SLP119\ T01060106= 201702250251 METAR KJFK 250251Z 18011KT 1/4SM R04R/2000V3500FT FG VV001\ 10/10 A2988 RMK AO2 SLP117 T01000100\ 57002= 201702250351 METAR KJFK 250351Z 18009KT 1/4SM R04R/4500VP6000FT FG VV002\ 10/10 A2989 RMK AO2 SFC VIS 1/2 SLP121\ T01000100= 201702250451 METAR KJFK 250451Z 19006KT 1/4SM R04R/2400V4000FT FG OVC002\ 11/11 A2987 RMK AO2 SLP115 T01060106\ 401670072= 201702250551 METAR KJFK 250551Z 17007KT 1/4SM R04R/2400V5000FT FG VV002\ 11/11 A2987 RMK AO2 SLP113 T01060106\ 10122 20094 58004= 201702250651 METAR KJFK 250651Z 17005KT 1/4SM R04R/2400V3000FT FG VV002\ 10/10 A2986 RMK AO2 SFC VIS 1/2 SLP110\ T01000100= 201702250751 METAR KJFK 250751Z 17003KT 1/4SM R04R/2400V2800FT FG VV002\ 10/10 A2985 RMK AO2 SLP106 T01000100= 201702250851 METAR KJFK 250851Z 15005KT 1/4SM R04R/1400V1600FT FG VV002\ 09/09 A2983 RMK AO2 SLP101 T00940094\ 58012= 201702250951 METAR KJFK 250951Z 13007KT 1/4SM R04R/1600V2400FT FG VV002\ 10/10 A2981 RMK AO2 SLP095 T01000100= 201702251051 METAR KJFK 251051Z 12006KT 1/4SM R04R/1200V1400FT FG VV002\ 10/10 A2981 RMK AO2 SLP093 T01000100= 201702251151 METAR KJFK 251151Z 14006KT 1/4SM R04R/0800V1200FT FG VV002\ 09/09 A2980 RMK AO2 SLP092 T00890089\ 10106 20089 56009= 201702251251 METAR KJFK 251251Z 12004KT 1/4SM R04R/1200FT FG VV002 10/10\ A2979 RMK AO2 SLP088 T01000100= 201702251351 METAR KJFK 251351Z 14005KT 1/4SM R04R/1200FT FG VV001 11/11\ A2977 RMK AO2 SLP081 T01060106= 201702251451 METAR KJFK 251451Z 15003KT M1/4SM R04R/0800V1200FT FG VV001\ 12/12 A2975 RMK AO2 SLP075 T01170117\ 58017= 201702251551 METAR KJFK 251551Z 14008KT 1/4SM R04R/2600V5500FT BR OVC002\ 12/12 A2973 RMK AO2 SFC VIS 3/4 SLP068\ T01220122= 201702251651 METAR KJFK 251651Z 14016G20KT 5SM BR SCT002 BKN006 14/12\ A2970 RMK AO2 SLP057 T01390122= 201702251751 METAR KJFK 251751Z 14018KT 10SM SCT003 SCT060 BKN250 16/13\ A2966 RMK AO2 SLP042 T01560128 10156\ 20089 58026= 201702251851 METAR KJFK 251851Z 16018KT 10SM FEW009 FEW023 SCT060 BKN250\ 17/14 A2961 RMK AO2 SLP026 T01720139= 201702251951 METAR KJFK 251951Z 17015KT 7SM SCT003 BKN030 OVC250 14/12\ A2958 RMK AO2 SLP017 T01390117= 201702252051 METAR KJFK 252051Z 16017KT 1SM R04R/P6000FT BR BKN003 OVC028\ 14/13 A2952 RMK AO2 SFC VIS 5 SLP995\ T01390128 58047= 201702252151 METAR KJFK 252151Z 17012KT 1SM R04R/P6000FT BR BKN003 BKN028\ OVC250 12/12 A2951 RMK AO2 SFC VIS\ 1 1/2 SLP992 T01170117= 201702252251 METAR KJFK 252251Z 16009G18KT 1/4SM R04R/2200V2800FT FG VV001\ 11/11 A2951 RMK AO2 SLP992 T01110111= 201702252351 METAR KJFK 252351Z 23014KT 1/4SM R04R/3500VP6000FT +TSRA\ BR BKN003 OVC025CB 10/10 A2956 RMK\ AO2 SFC VIS 1 1/4 RAB31 TSB41 PRESRR\ SLP008 OCNL LTGIC SW-W TS SW-W MOV\ NE P0008 60008 T01000100 10172 20100\ 53016= 201702260051 METAR KJFK 260051Z 28018G25KT 6SM RA BR FEW011 BKN019 OVC060\ 13/13 A2956 RMK AO2 TSE07 SLP009\ P0024 T01280128= 201702260151 METAR KJFK 260151Z 32012G18KT 10SM -RA FEW011 BKN070 BKN130\ OVC190 11/08 A2960 RMK AO2 PK WND\ 29032/0109 RAE22B47 SLP022 P0002\ T01110078= 201702260251 METAR KJFK 260251Z 29008KT 10SM FEW020 FEW080 SCT100 SCT130\ BKN250 11/06 A2960 RMK AO2 RAE37\ SLP025 P0000 60026 T01060056 53015= 201702260351 METAR KJFK 260351Z 29014KT 10SM BKN033 BKN110 10/05 A2962\ RMK AO2 SLP031 T01000050= 201702260451 METAR KJFK 260451Z 31019G26KT 10SM SCT035 BKN120 08/03 A2965\ RMK AO2 PK WND 33029/0440 SLP041\ T00830028 401720083= 201702260551 METAR KJFK 260551Z 32020G28KT 10SM BKN035 BKN065 BKN130 07/02\ A2970 RMK AO2 PK WND 31030/0524 PRESRR\ SLP057 60026 T00720017 10128 20072\ 53033= 201702260651 METAR KJFK 260651Z 30018G27KT 10SM BKN036 BKN060 07/00 A2973\ RMK AO2 PK WND 31028/0639 SLP067\ T00670000= 201702260751 METAR KJFK 260751Z 30013KT 10SM SCT036 BKN060 07/00 A2976\ RMK AO2 PK WND 30027/0702 SLP076\ T00670000= 201702260851 METAR KJFK 260851Z 31017G23KT 10SM BKN045 06/M02 A2978 RMK\ AO2 PK WND 29027/0826 SLP083 T00611022\ 51025= 201702260951 METAR KJFK 260951Z 31022G28KT 10SM SCT042 BKN055 04/M05 A2982\ RMK AO2 PK WND 31030/0941 SLP098\ T00441050= 201702261051 METAR KJFK 261051Z 31016G26KT 10SM SCT042 SCT060 03/M07 A2986\ RMK AO2 PK WND 32031/1041 SLP112\ T00331067= 201702261151 METAR KJFK 261151Z 30019G27KT 10SM BKN049 BKN060 03/M07 A2990\ RMK AO2 PK WND 29029/1118 SLP125\ 70034 T00331072 10072 20033 51042= 201702261251 METAR KJFK 261251Z 31023G33KT 10SM BKN050 BKN060 03/M07 A2994\ RMK AO2 PK WND 30033/1247 SLP138\ T00331072= 201702261351 METAR KJFK 261351Z 30017G25KT 10SM BKN049 04/M06 A2996 RMK\ AO2 PK WND 28031/1331 SLP146 T00391061= 201702261451 METAR KJFK 261451Z 30020G26KT 10SM BKN049 04/M07 A2999 RMK\ AO2 PK WND 32029/1418 SLP156 T00441067\ 51031= 201702261551 METAR KJFK 261551Z 30018G28KT 10SM BKN050 05/M08 A3001 RMK\ AO2 PK WND 32028/1547 SLP161 T00501083= 201702261651 METAR KJFK 261651Z 28015G22KT 10SM BKN055 06/M08 A3003 RMK\ AO2 PK WND 29027/1639 SLP167 T00561083= 201702261751 METAR KJFK 261751Z 29016G24KT 10SM SCT060 06/M08 A3002 RMK\ AO2 PK WND 27026/1719 SLP165 T00611083\ 10067 20033 50009= 201702261851 METAR KJFK 261851Z 31015G24KT 10SM SCT060 07/M09 A3003 RMK\ AO2 SLP168 T00671089= 201702261951 METAR KJFK 261951Z 30014G20KT 10SM SCT065 07/M08 A3005 RMK\ AO2 SLP175 T00671083= 201702262051 METAR KJFK 262051Z 29018G24KT 10SM CLR 07/M09 A3007 RMK AO2\ PK WND 28028/2014 SLP180 T00671089\ 53015= 201702262151 METAR KJFK 262151Z 27014G21KT 10SM SCT065 06/M09 A3010 RMK\ AO2 SLP191 T00611094= 201702262251 METAR KJFK 262251Z 26019G23KT 10SM SCT060 04/M07 A3013 RMK\ AO2 SLP203 T00441067= 201702262351 METAR KJFK 262351Z 27017G24KT 10SM SCT060 04/M07 A3018 RMK\ AO2 PK WND 28028/2319 SLP219 T00441072\ 10072 20044 53039= 201702270051 METAR KJFK 270051Z 28013KT 10SM FEW060 04/M08 A3021 RMK AO2\ PK WND 27026/2353 SLP228 T00391078= 201702270151 METAR KJFK 270151Z 28014G20KT 10SM CLR 04/M08 A3024 RMK AO2\ SLP238 T00391078= 201702270251 METAR KJFK 270251Z 28010KT 10SM CLR 03/M08 A3026 RMK AO2\ SLP246 T00331083 51026= 201702270351 METAR KJFK 270351Z 27009KT 10SM CLR 03/M08 A3027 RMK AO2\ SLP249 T00331078= 201702270451 METAR KJFK 270451Z 27011KT 10SM CLR 03/M08 A3029 RMK AO2\ SLP256 T00281083 400830028= 201702270551 METAR KJFK 270551Z 25007KT 10SM CLR 02/M07 A3031 RMK AO2\ SLP262 T00221072 10044 20022 53016= 201702270651 METAR KJFK 270651Z 22006KT 10SM CLR 00/M06 A3031 RMK AO2\ SLP265 T00001061= 201702270751 METAR KJFK 270751Z 24007KT 10SM CLR 01/M05 A3032 RMK AO2\ SLP268 T00061050= 201702270851 METAR KJFK 270851Z 23009KT 10SM CLR 01/M04 A3035 RMK AO2\ SLP276 T00061044 53014= 201702270951 METAR KJFK 270951Z 24010KT 10SM CLR 01/M04 A3037 RMK AO2\ SLP284 T00111039= 201702271051 METAR KJFK 271051Z 24013KT 10SM CLR 02/M04 A3040 RMK AO2\ SLP294 T00221039= 201702271151 METAR KJFK 271151Z 23009KT 10SM FEW120 FEW250 01/M03 A3039\ RMK AO2 SLP291 T00111033 10022 20000\ 50015= 201702271251 METAR KJFK 271251Z 24010KT 10SM FEW120 SCT250 03/M03 A3042\ RMK AO2 SLP302 T00331028= 201702271351 METAR KJFK 271351Z 23012KT 10SM FEW120 BKN220 04/M03 A3043\ RMK AO2 SLP305 T00441028= 201702271451 METAR KJFK 271451Z 23013KT 10SM FEW120 SCT210 BKN270 06/M02\ A3045 RMK AO2 SLP309 T00611022 51018= 201702271551 METAR KJFK 271551Z 23013KT 10SM FEW100 BKN240 09/M03 A3044\ RMK AO2 SLP308 T00891033= 201702271651 METAR KJFK 271651Z 24012KT 10SM FEW100 BKN210 BKN260 10/M03\ A3044 RMK AO2 SLP307 T01001028= 201702271751 METAR KJFK 271751Z 18011KT 10SM FEW090 SCT210 BKN260 11/M03\ A3041 RMK AO2 SLP296 T01061028 10111\ 20011 58013= 201702271851 METAR KJFK 271851Z 18011KT 10SM FEW090 FEW200 OVC260 09/03\ A3039 RMK AO2 SLP291 T00890033= 201702271951 METAR KJFK 271951Z 19020KT 10SM SCT100 SCT110 SCT220 OVC260\ 09/03 A3038 RMK AO2 SLP287 T00890028= 201702272051 METAR KJFK 272051Z 19017KT 10SM BKN085 OVC250 08/03 A3038\ RMK AO2 SLP286 T00780033 56011= 201702272151 METAR KJFK 272151Z 19018KT 10SM FEW065 BKN080 BKN100 BKN180\ BKN250 08/04 A3038 RMK AO2 PK WND\ 19027/2124 SLP287 T00780039= 201702272251 METAR KJFK 272251Z 20015KT 10SM FEW065 SCT100 SCT180 BKN250\ 08/04 A3040 RMK AO2 SLP292 T00830039= 201702272351 METAR KJFK 272351Z 23011KT 10SM FEW065 BKN120 BKN250 08/02\ A3041 RMK AO2 SLP299 T00830022 10106\ 20078 53013= 201702280051 METAR KJFK 280051Z 23008KT 10SM SCT100 SCT130 BKN250 08/02\ A3041 RMK AO2 SLP296 T00780017= 201702280151 METAR KJFK 280151Z 19006KT 10SM SCT120 BKN250 06/03 A3041\ RMK AO2 SLP298 T00610033= 201702280251 METAR KJFK 280251Z 21008KT 10SM FEW110 SCT170 BKN250 07/04\ A3042 RMK AO2 SLP300 T00720039 53001= 201702280351 METAR KJFK 280351Z 22006KT 10SM SCT085 BKN250 05/03 A3041\ RMK AO2 SLP298 T00500033= 201702280451 METAR KJFK 280451Z 19007KT 10SM FEW090 BKN150 BKN250 07/03\ A3041 RMK AO2 SLP297 T00670033 401110000= 201702280551 METAR KJFK 280551Z 00000KT 10SM BKN085 OVC150 07/03 A3041\ RMK AO2 SLP296 T00670033 10089 20050\ 56003= 201702280651 METAR KJFK 280651Z 00000KT 10SM OVC085 06/03 A3039 RMK AO2\ SLP291 T00610033= 201702280751 METAR KJFK 280751Z 16004KT 10SM OVC100 07/04 A3038 RMK AO2\ SLP288 T00720044= 201702280851 METAR KJFK 280851Z 15003KT 10SM OVC095 07/04 A3037 RMK AO2\ SLP284 T00720044 56013= 201702280951 METAR KJFK 280951Z 11003KT 10SM SCT095 OVC120 06/04 A3037\ RMK AO2 SLP284 T00610044= 201702281051 METAR KJFK 281051Z 00000KT 10SM OVC100 06/05 A3037 RMK AO2\ SLP284 T00610050= 201702281151 METAR KJFK 281151Z 08003KT 10SM SCT095 BKN120 07/05 A3036\ RMK AO2 SLP279 T00670050 10072 20061\ 58005= 201702281251 METAR KJFK 281251Z 08004KT 10SM FEW055 BKN085 BKN120 BKN250\ 08/06 A3037 RMK AO2 SLP283 T00780056= 201702281351 METAR KJFK 281351Z 07005KT 10SM SCT032 BKN250 10/07 A3036\ RMK AO2 SLP282 TCU DSNT S T01000067= 201702281451 METAR KJFK 281451Z 12007KT 10SM SCT032 SCT250 12/08 A3036\ RMK AO2 SLP279 T01170078 58000= 201702281551 METAR KJFK 281551Z 13006KT 10SM BKN030 13/08 A3034 RMK AO2\ SLP275 T01280078= 201702281651 METAR KJFK 281651Z 13007KT 10SM BKN015 BKN250 13/08 A3031\ RMK AO2 SLP264 T01330083= 201702281751 METAR KJFK 281751Z 13008KT 10SM BKN015 BKN250 14/09 A3029\ RMK AO2 SLP255 T01390094 10144 20067\ 58024= 201702281851 METAR KJFK 281851Z 15010KT 10SM BKN014 BKN250 13/10 A3025\ RMK AO2 SLP243 T01330100= 201702281951 METAR KJFK 281951Z 12007KT 10SM OVC011 13/11 A3022 RMK AO2\ SLP233 T01280106= 201702282051 METAR KJFK 282051Z 14009KT 10SM OVC008 12/11 A3019 RMK AO2\ SLP223 T01220106 56033= 201702282151 METAR KJFK 282151Z 13005KT 1/4SM R04R/2800V5500FT BR OVC002\ 11/11 A3018 RMK AO2 SFC VIS 1 1/4\ SLP219 VIS LWR E T01060106= 201702282251 METAR KJFK 282251Z 12006KT 1/4SM R04R/1800V2200FT FG VV002\ 11/11 A3019 RMK AO2 SFC VIS 1/2 SLP221\ T01060106= 201702282351 METAR KJFK 282351Z 12008KT 1/4SM R04R/2800V3000FT FG VV002\ 10/10 A3016 RMK AO2 SFC VIS 1/2 SLP212\ T01000100 10139 20100 58011=}
