 201711010051 METAR KJFK 010051Z 28013KT 10SM FEW250 11/M02 A3020 RMK AO2\ SLP225 T01061022= 201711010151 METAR KJFK 010151Z 28011KT 10SM FEW250 10/M02 A3023 RMK AO2\ SLP236 T01001017= 201711010251 METAR KJFK 010251Z 30009KT 10SM FEW250 09/M02 A3024 RMK AO2\ SLP240 T00941022 51025= 201711010351 METAR KJFK 010351Z 31007KT 10SM SCT250 08/M02 A3026 RMK AO2\ SLP245 T00781022= 201711010451 METAR KJFK 010451Z 32006KT 10SM BKN250 07/M02 A3027 RMK AO2\ SLP250 T00671022 401500067= 201711010551 METAR KJFK 010551Z 34006KT 10SM BKN250 07/M02 A3028 RMK AO2\ SLP252 T00671017 10111 20061 51012= 201711010651 METAR KJFK 010651Z 00000KT 10SM SCT250 05/M01 A3029 RMK AO2\ SLP256 T00501011= 201711010751 METAR KJFK 010751Z 06003KT 10SM FEW090 BKN250 05/M01 A3028\ RMK AO2 SLP254 T00501006= 201711010851 METAR KJFK 010851Z 06004KT 10SM BKN250 04/02 A3028 RMK AO2\ SLP254 T00390017 50002= 201711010951 METAR KJFK 010951Z 00000KT 10SM BKN250 04/01 A3031 RMK AO2\ SLP262 T00440006= 201711011051 METAR KJFK 011051Z 00000KT 10SM SCT100 BKN250 06/01 A3032\ RMK AO2 SLP266 T00560011= 201711011151 METAR KJFK 011151Z 03003KT 10SM BKN085 BKN250 06/03 A3034\ RMK AO2 SLP272 T00560033 10067 20033\ 51019= 201711011251 METAR KJFK 011251Z 03005KT 10SM BKN070 BKN250 08/03 A3036\ RMK AO2 SLP279 T00830033= 201711011351 METAR KJFK 011351Z 07005KT 10SM BKN070 BKN110 BKN250 10/03\ A3036 RMK AO2 SLP280 T01000033= 201711011451 METAR KJFK 011451Z 08003KT 10SM BKN060 BKN110 BKN250 12/04\ A3036 RMK AO2 SLP282 T01170039 51009= 201711011551 METAR KJFK 011551Z 13005KT 10SM BKN055 BKN110 BKN250 13/05\ A3035 RMK AO2 SLP278 T01280050= 201711011651 METAR KJFK 011651Z 14007KT 10SM BKN049 BKN110 OVC250 13/03\ A3034 RMK AO2 SLP273 T01330033 VISNO\ W $= 201711011751 METAR KJFK 011751Z 14007KT 10SM SCT050 BKN120 BKN250 14/03\ A3033 RMK AO2 SLP271 T01440033 10144\ 20056 56010 VISNO W $= 201711011851 METAR KJFK 011851Z 10007KT 10SM FEW050 SCT090 BKN110 BKN130\ OVC250 14/04 A3032 RMK AO2 SLP268\ T01390039 VISNO W $= 201711011951 METAR KJFK 011951Z 11007KT 10SM FEW050 SCT090 BKN110 BKN130\ BKN250 14/04 A3031 RMK AO2 SLP262\ T01390039 $= 201711012051 METAR KJFK 012051Z 09010KT 10SM FEW090 BKN120 BKN250 13/04\ A3030 RMK AO2 SLP261 T01330039 56010\ $= 201711012151 METAR KJFK 012151Z 09009KT 10SM BKN110 BKN250 13/05 A3030\ RMK AO2 SLP260 T01280050 $= 201711012251 METAR KJFK 012251Z 08008KT 10SM SCT110 BKN230 12/06 A3030\ RMK AO2 SLP259 T01220056 $= 201711012351 METAR KJFK 012351Z 00000KT 10SM FEW045 BKN100 BKN250 12/07\ A3031 RMK AO2 SLP263 T01220072 10144\ 20117 53002 $= 201711020051 METAR KJFK 020051Z 11004KT 10SM SCT046 BKN100 BKN130 13/10\ A3029 RMK AO2 SLP258 T01330100 $= 201711020151 METAR KJFK 020151Z 13007KT 10SM FEW025 BKN034 OVC130 15/12\ A3029 RMK AO2 SLP256 T01500122 $= 201711020251 METAR KJFK 020251Z 13006KT 10SM OVC034 16/14 A3028 RMK AO2\ SLP255 T01560139 56008 $= 201711020351 METAR KJFK 020351Z 14008KT 10SM OVC033 16/15 A3027 RMK AO2\ SLP251 T01560150 $= 201711020451 METAR KJFK 020451Z 15007KT 10SM SCT032 OVC130 16/16 A3028\ RMK AO2 SLP252 T01560156 401610033\ $= 201711020551 METAR KJFK 020551Z 15004KT 10SM OVC011 16/16 A3027 RMK AO2\ SLP250 T01610161 10161 20117 56005\ $= 201711020651 METAR KJFK 020651Z 16005KT 10SM OVC009 16/16 A3027 RMK AO2\ SLP250 T01610161 $= 201711020751 METAR KJFK 020751Z 16006KT 10SM BKN009 BKN025 OVC140 17/17\ A3026 RMK AO2 SLP245 T01670167 $= 201711020851 METAR KJFK 020851Z 18006KT 9SM BKN008 OVC150 16/16 A3026\ RMK AO2 SLP246 T01610161 55004 $= 201711020951 METAR KJFK 020951Z 18008KT 9SM FEW007 FEW250 16/16 A3026\ RMK AO2 SLP246 T01610161 $= 201711021051 METAR KJFK 021051Z 20007KT 1/8SM R04R/2800VP6000FT BR VV002\ 16/16 A3027 RMK AO2 SFC VIS 3/4 SLP249\ T01610161 $= 201711021151 METAR KJFK 021151Z 18004KT 0SM R04R/0800V1200FT FG VV002\ 16/16 A3027 RMK AO2 SFC VIS 1/4 SLP248\ T01560156 10167 20156 52002 $= 201711021251 METAR KJFK 021251Z 24003KT 0SM R04R/1200V2200FT FG VV002\ 17/17 A3028 RMK AO2 SFC VIS 1/2 SLP252\ T01670167 $= 201711021351 METAR KJFK 021351Z 20004KT 0SM R04R/3500VP6000FT BR VV002\ 17/17 A3029 RMK AO2 SFC VIS 3/4 SLP257\ T01720172 $= 201711021451 METAR KJFK 021451Z 23005KT 2SM BR FEW000 OVC005 18/18 A3029\ RMK AO2 SFC VIS 3 SLP256 VIS SW-NW\ 1 1/2 CIG 003V007 BR FEW000 T01830178\ 50007= 201711021551 METAR KJFK 021551Z 17005KT 8SM SCT008 BKN040 BKN130 BKN250\ 19/18 A3028 RMK AO2 SLP253 SCT V\ BKN T01890178= 201711021651 METAR KJFK 021651Z 17013KT 10SM FEW012 FEW036 SCT130 SCT250\ 21/17 A3026 RMK AO2 SLP245 T02110172= 201711021751 METAR KJFK 021751Z 18014KT 10SM FEW038 FEW130 SCT250 21/17\ A3024 RMK AO2 SLP241 ACSL SW T02110172\ 10211 20156 58015= 201711021851 METAR KJFK 021851Z 18011G19KT 10SM FEW020 FEW039 FEW130 SCT250\ 21/17 A3023 RMK AO2 SLP236 T02110167= 201711021951 METAR KJFK 021951Z 18013KT 10SM FEW023 FEW039 FEW100 SCT250\ 21/16 A3021 RMK AO2 SLP231 T02060161= 201711022051 METAR KJFK 022051Z 17012KT 10SM FEW039 FEW100 SCT250 19/16\ A3021 RMK AO2 SLP229 T01940161 56012= 201711022151 METAR KJFK 022151Z 17013KT 10SM FEW025 FEW039 BKN250 18/16\ A3021 RMK AO2 SLP229 T01780161= 201711022251 METAR KJFK 022251Z 16010KT 10SM FEW025 FEW039 BKN250 18/17\ A3021 RMK AO2 SLP231 T01780167= 201711022351 METAR KJFK 022351Z 17011KT 10SM BKN250 17/17 A3021 RMK AO2\ SLP229 T01720167 10217 20172 50000= 201711030051 METAR KJFK 030051Z 17012KT 10SM FEW100 BKN250 17/17 A3020\ RMK AO2 SLP226 T01720167= 201711030151 METAR KJFK 030151Z 18008KT 10SM FEW012 FEW100 SCT250 17/17\ A3021 RMK AO2 SLP229 T01670167= 201711030251 METAR KJFK 030251Z 19008KT 9SM FEW012 SCT120 BKN250 17/17\ A3020 RMK AO2 SLP227 T01670167 56002= 201711030351 METAR KJFK 030351Z 20005KT 9SM FEW006 SCT120 BKN250 16/16\ A3019 RMK AO2 SLP223 T01560156= 201711030451 METAR KJFK 030451Z 19007KT 8SM FEW005 SCT120 BKN250 16/16\ A3017 RMK AO2 SLP216 T01610161 402170156= 201711030551 METAR KJFK 030551Z 19005KT 6SM BR SCT003 SCT120 OVC250 16/16\ A3016 RMK AO2 SLP211 T01560156 10172\ 20156 58015= 201711030651 METAR KJFK 030651Z 18004KT 6SM BR SCT003 SCT120 BKN250 15/15\ A3015 RMK AO2 SLP208 T01500150= 201711030751 METAR KJFK 030751Z 17008KT 4SM BR SCT003 BKN250 16/16 A3012\ RMK AO2 SLP198 SCT003 V BKN T01560156= 201711030851 METAR KJFK 030851Z 16004KT 1/2SM R04R/1600VP6000FT FG BKN002\ BKN250 14/14 A3010 RMK AO2 TWR VIS\ 1 SLP192 T01440144 58019= 201711030951 METAR KJFK 030951Z 18003KT 5SM BR FEW004 BKN250 15/15 A3011\ RMK AO2 SLP194 T01500150= 201711031051 METAR KJFK 031051Z 19006KT 7SM FEW004 BKN250 15/15 A3010\ RMK AO2 SLP191 T01500150= 201711031151 METAR KJFK 031151Z 19008KT 8SM FEW006 BKN250 15/15 A3008\ RMK AO2 SLP185 T01500150 10156 20139\ 58007= 201711031251 METAR KJFK 031251Z 20006KT 10SM FEW007 SCT250 16/16 A3008\ RMK AO2 SLP186 T01610161= 201711031351 METAR KJFK 031351Z 19008KT 10SM SCT250 18/17 A3007 RMK AO2\ SLP181 T01780167= 201711031451 METAR KJFK 031451Z 21008KT 10SM FEW024 SCT250 19/16 A3007\ RMK AO2 SLP181 T01890161 57004= 201711031551 METAR KJFK 031551Z 19007KT 10SM FEW032 BKN250 19/16 A3004\ RMK AO2 SLP174 T01890161= 201711031651 METAR KJFK 031651Z 19007KT 10SM FEW035 FEW170 BKN250 21/17\ A3001 RMK AO2 SLP162 T02110167= 201711031751 METAR KJFK 031751Z 19009KT 10SM FEW035 FEW140 BKN250 21/17\ A2999 RMK AO2 SLP154 T02060167 10211\ 20150 58027= 201711031851 METAR KJFK 031851Z 20007KT 10SM FEW035 FEW065 SCT140 BKN250\ 22/16 A2998 RMK AO2 SLP152 T02170161= 201711031951 METAR KJFK 031951Z 22009KT 10SM FEW035 SCT065 BKN250 22/16\ A2998 RMK AO2 SLP151 T02220161= 201711032051 METAR KJFK 032051Z 23010KT 10SM FEW035 SCT060 SCT075 BKN250\ 21/16 A2998 RMK AO2 SLP153 T02060156\ 55001= 201711032151 METAR KJFK 032151Z 28008KT 10SM FEW043 BKN065 BKN080 BKN250\ 22/16 A3001 RMK AO2 SLP160 T02170156= 201711032251 METAR KJFK 032251Z 34018G22KT 10SM SCT040 BKN055 BKN250 21/14\ A3004 RMK AO2 RAB33E43 SLP173 P0000\ T02110139= 201711032351 METAR KJFK 032351Z 33020G25KT 10SM FEW040 BKN250 18/12 A3009\ RMK AO2 SLP187 60000 T01830122 10228\ 20183 53034= 201711040051 METAR KJFK 040051Z 33018KT 10SM FEW040 FEW130 BKN250 16/10\ A3012 RMK AO2 SLP200 T01610100= 201711040151 METAR KJFK 040151Z 34014G23KT 10SM BKN250 13/06 A3015 RMK\ AO2 PK WND 34029/0103 SLP210 T01330061= 201711040251 METAR KJFK 040251Z 33016G21KT 10SM BKN250 13/06 A3019 RMK\ AO2 SLP223 T01280056 53036= 201711040351 METAR KJFK 040351Z 35017G24KT 10SM SCT250 12/03 A3021 RMK\ AO2 SLP230 T01170033= 201711040451 METAR KJFK 040451Z 01010KT 10SM SCT250 11/03 A3024 RMK AO2\ SLP239 T01060028 402280106= 201711040551 METAR KJFK 040551Z 01010KT 10SM BKN250 10/02 A3024 RMK AO2\ SLP240 T01000022 10183 20100 51017= 201711040651 METAR KJFK 040651Z 01011KT 10SM SCT250 10/02 A3026 RMK AO2\ SLP245 T01000017= 201711040751 METAR KJFK 040751Z 36007KT 10SM BKN250 09/02 A3027 RMK AO2\ SLP251 T00940017= 201711040851 METAR KJFK 040851Z 01007KT 10SM BKN250 09/02 A3029 RMK AO2\ SLP257 T00890022 53017= 201711040951 METAR KJFK 040951Z 01006KT 10SM BKN250 08/02 A3030 RMK AO2\ SLP260 T00780022= 201711041051 METAR KJFK 041051Z 02006KT 10SM BKN250 08/03 A3031 RMK AO2\ SLP264 T00780028= 201711041151 METAR KJFK 041151Z 36006KT 10SM BKN250 07/03 A3034 RMK AO2\ SLP273 T00720028 10100 20067 53017= 201711041251 METAR KJFK 041251Z 01012KT 10SM BKN250 09/03 A3035 RMK AO2\ SLP277 T00940028= 201711041351 METAR KJFK 041351Z 03009KT 10SM BKN250 11/02 A3035 RMK AO2\ SLP276 T01060022= 201711041451 METAR KJFK 041451Z 03010KT 10SM BKN250 12/02 A3035 RMK AO2\ SLP276 T01170017 51003= 201711041551 METAR KJFK 041551Z 02008KT 10SM BKN250 12/02 A3034 RMK AO2\ SLP275 T01220022= 201711041651 METAR KJFK 041651Z VRB03KT 10SM BKN250 13/02 A3033 RMK AO2\ SLP271 T01280022= 201711041751 METAR KJFK 041751Z VRB03KT 10SM FEW050 BKN250 13/02 A3032\ RMK AO2 SLP267 T01280022 10133 20072\ 58009= 201711041851 METAR KJFK 041851Z 11007KT 10SM FEW040 BKN250 13/03 A3031\ RMK AO2 SLP264 T01330028= 201711041951 METAR KJFK 041951Z AUTO 12009KT 10SM CLR 13/03 A3032 RMK\ AO2 SLP266 T01280033= 201711042051 METAR KJFK 042051Z 12008KT 10SM FEW040 BKN250 12/04 A3032\ RMK AO2 SLP268 T01170044 53001= 201711042151 METAR KJFK 042151Z 10008KT 10SM FEW040 BKN240 11/06 A3032\ RMK AO2 SLP267 T01110061= 201711042251 METAR KJFK 042251Z 08007KT 10SM FEW040 BKN250 11/06 A3033\ RMK AO2 SLP269 T01060061= 201711042351 METAR KJFK 042351Z 07006KT 10SM FEW040 BKN250 10/07 A3033\ RMK AO2 SLP268 T01000067 10139 20100\ 52001= 201711050051 METAR KJFK 050051Z 04007KT 10SM FEW030 SCT180 BKN250 10/07\ A3032 RMK AO2 SLP268 T01000067= 201711050151 METAR KJFK 050151Z 06009KT 10SM FEW036 SCT170 BKN250 10/07\ A3030 RMK AO2 SLP261 T01000067= 201711050251 METAR KJFK 050251Z 07004KT 10SM BKN028 BKN040 OVC170 11/07\ A3032 RMK AO2 SLP266 T01110072 55002= 201711050351 METAR KJFK 050351Z 04008KT 10SM SCT034 BKN041 BKN120 OVC160\ 11/07 A3032 RMK AO2 SLP268 T01110072= 201711050451 METAR KJFK 050451Z 05007KT 10SM FEW028 BKN033 BKN042 OVC150\ 12/08 A3034 RMK AO2 SLP274 T01170078\ 401390067= 201711050551 METAR KJFK 050551Z 07007KT 10SM -RA FEW038 SCT075 OVC090\ 11/09 A3032 RMK AO2 RAB04 SLP268\ P0000 60000 T01060089 10117 20094\ 50002= 201711050651 METAR KJFK 050651Z 07011KT 10SM -RA FEW060 BKN085 OVC100\ 11/09 A3028 RMK AO2 SLP254 P0002\ T01060094= 201711050751 METAR KJFK 050751Z 07009KT 10SM FEW034 SCT060 OVC090 11/09\ A3029 RMK AO2 RAE05B25E42 SLP256\ P0000 T01110089= 201711050851 METAR KJFK 050851Z 04007KT 10SM FEW027 SCT034 OVC085 11/09\ A3029 RMK AO2 SLP257 60002 T01110094\ 55011= 201711050951 METAR KJFK 050951Z 04005KT 10SM BKN027 OVC038 11/10 A3030\ RMK AO2 RAB0854E32 SLP260 P0000 T01110100= 201711051051 METAR KJFK 051051Z 06008KT 10SM BKN026 OVC034 11/10 A3029\ RMK AO2 RAB21E47 SLP256 P0001 T01110100= 201711051151 METAR KJFK 051151Z 05008KT 10SM BKN023 OVC028 11/10 A3029\ RMK AO2 SLP256 60003 70003 T01110100\ 10111 20106 58001= 201711051251 METAR KJFK 051251Z 06009KT 10SM SCT018 BKN024 BKN065 12/11\ A3029 RMK AO2 SLP255 T01220106= 201711051351 METAR KJFK 051351Z 07008KT 10SM OVC016 13/11 A3028 RMK AO2\ SLP254 T01280111= 201711051451 METAR KJFK 051451Z 07009KT 10SM BKN009 BKN014 OVC021 13/12\ A3027 RMK AO2 SLP248 T01330122 58007= 201711051551 METAR KJFK 051551Z 07009KT 10SM OVC009 14/13 A3025 RMK AO2\ SLP243 T01390133= 201711051651 METAR KJFK 051651Z 07005KT 7SM -DZ OVC008 14/14 A3022 RMK\ AO2 DZB05 SLP232 P0000 T01440139= 201711051751 METAR KJFK 051751Z 10007KT 9SM -DZ OVC008 16/14 A3019 RMK\ AO2 SLP224 P0000 60000 T01560144\ 10156 20111 58024= 201711051851 METAR KJFK 051851Z 11006KT 5SM -RA BR OVC005 16/16 A3017\ RMK AO2 DZE20RAB20 SLP215 P0001 T01560156= 201711051951 METAR KJFK 051951Z 13008KT 2 1/2SM BR BKN005 OVC014 16/16\ A3016 RMK AO2 RAE05B34E39 SLP212\ P0000 T01610161= 201711052051 METAR KJFK 052051Z 12010KT 7SM FEW008 SCT013 OVC020 16/16\ A3013 RMK AO2 SLP201 P0001 60002\ T01610161 58023= 201711052151 METAR KJFK 052151Z 11009KT 10SM FEW011 BKN025 OVC031 16/16\ A3012 RMK AO2 SLP200 T01610156= 201711052251 METAR KJFK 052251Z 12006KT 10SM BKN009 BKN020 OVC039 16/16\ A3012 RMK AO2 SLP198 T01610156= 201711052351 METAR KJFK 052351Z 12007KT 10SM BKN006 BKN020 OVC030 16/16\ A3009 RMK AO2 SLP188 60002 T01610161\ 10161 20156 58014= 201711060051 METAR KJFK 060051Z 15005KT 10SM BKN005 BKN010 OVC027 16/16\ A3008 RMK AO2 SLP187 T01610161= 201711060151 METAR KJFK 060151Z 17004KT 3SM BR OVC003 16/16 A3008 RMK\ AO2 SLP184 T01560156= 201711060251 METAR KJFK 060251Z 21008KT 1/2SM R04R/P6000FT FG BKN002 BKN007\ BKN120 16/16 A3008 RMK AO2 SLP184\ T01560156 56004= 201711060351 METAR KJFK 060351Z 22009KT 0SM R04R/2000V4000FT FG VV002\ 16/16 A3006 RMK AO2 SFC VIS 1/4 SLP179\ T01560156= 201711060451 METAR KJFK 060451Z 22007KT 0SM R04R/1800V5500FT FG VV002\ 15/15 A3005 RMK AO2 SFC VIS 1/4 SLP175\ T01500150 401610106= 201711060551 METAR KJFK 060551Z 19008KT 1SM R04R/P6000FT BR OVC004 15/15\ A3003 RMK AO2 SFC VIS 6 SLP167 T01500150\ 10161 20144 58017= 201711060651 METAR KJFK 060651Z 19011KT 1/2SM R04R/P6000FT BR BKN004 BKN024\ OVC100 15/15 A3001 RMK AO2 SFC VIS\ 6 SLP161 T01500150= 201711060751 METAR KJFK 060751Z 19013KT 1/2SM R04R/P6000FT BR OVC004 16/16\ A3000 RMK AO2 SFC VIS 5 SLP158 T01560156= 201711060851 METAR KJFK 060851Z 18014KT 8SM FEW004 OVC016 16/16 A2997\ RMK AO2 SLP149 T01560156 58018= 201711060951 METAR KJFK 060951Z 18013KT 7SM FEW005 OVC012 16/16 A2997\ RMK AO2 SLP147 T01610161= 201711061051 METAR KJFK 061051Z 19011KT 8SM OVC014 16/16 A2995 RMK AO2\ SLP141 T01610161= 201711061151 METAR KJFK 061151Z 19010KT 7SM OVC014 17/17 A2994 RMK AO2\ SLP137 70002 T01670167 10167 20150\ 58012= 201711061251 METAR KJFK 061251Z 19015KT 7SM -DZ OVC015 17/17 A2994 RMK\ AO2 DZB27 SLP139 P0000 T01670167\ $= 201711061351 METAR KJFK 061351Z 20010KT 6SM -DZ BR OVC014 17/17 A2995\ RMK AO2 SLP140 CIG 012V016 P0000\ T01670167 $= 201711061451 METAR KJFK 061451Z 24008KT 4SM -RA BR FEW007 OVC012 17/17\ A2994 RMK AO2 DZE43RAB43 SLP138 VIS\ E-SE 2 1/2 P0000 60000 T01720167\ 50001 $= 201711061551 METAR KJFK 061551Z 24008KT 9SM SCT014 OVC022 17/17 A2992\ RMK AO2 RAE01 SLP132 P0000 T01720167\ $= 201711061651 METAR KJFK 061651Z 25008KT 10SM FEW018 BKN027 OVC100 18/16\ A2991 RMK AO2 SLP127 T01780161 $= 201711061751 METAR KJFK 061751Z 23008KT 10SM FEW028 SCT090 BKN160 BKN210\ 18/16 A2989 RMK AO2 SLP123 60000\ T01830156 10183 20167 56016 $= 201711061851 METAR KJFK 061851Z 23009KT 10SM FEW024 BKN080 OVC170 18/16\ A2990 RMK AO2 SLP125 T01830156 $= 201711061951 METAR KJFK 061951Z 25009KT 10SM FEW030 BKN095 BKN170 18/16\ A2991 RMK AO2 SLP127 T01780156 $= 201711062051 METAR KJFK 062051Z 21005KT 10SM FEW024 BKN090 BKN210 18/16\ A2990 RMK AO2 SLP125 VIRGA N T01780156\ 50003= 201711062151 METAR KJFK 062151Z 25007KT 10SM FEW030 FEW070 BKN140 BKN250\ 17/16 A2992 RMK AO2 SLP131 T01670156= 201711062251 METAR KJFK 062251Z 31018G24KT 10SM SCT023 BKN034 BKN044 BKN150\ 18/14 A2996 RMK AO2 RAB2153E04 SLP145\ P0000 T01780144= 201711062351 METAR KJFK 062351Z 33015G24KT 10SM SCT041 SCT150 15/11 A3000\ RMK AO2 SLP158 60000 T01500106 10189\ 20150 53033= 201711070051 METAR KJFK 070051Z 33012G20KT 10SM SCT024 SCT040 SCT150 13/09\ A3003 RMK AO2 SLP169 T01330089= 201711070151 METAR KJFK 070151Z 34014G20KT 10SM BKN023 13/08 A3007 RMK\ AO2 SLP182 T01280078= 201711070251 METAR KJFK 070251Z 33015G23KT 10SM BKN025 BKN200 11/05 A3009\ RMK AO2 SLP189 T01060050 51030= 201711070351 METAR KJFK 070351Z 33013G18KT 10SM SCT180 09/05 A3010 RMK\ AO2 SLP194 T00940050= 201711070451 METAR KJFK 070451Z 35008KT 10SM FEW180 08/04 A3011 RMK AO2\ SLP197 T00830044 401890083= 201711070551 METAR KJFK 070551Z 35011KT 10SM CLR 08/04 A3013 RMK AO2 SLP202\ T00780039 10150 20078 53014= 201711070651 METAR KJFK 070651Z 35011KT 10SM CLR 07/03 A3013 RMK AO2 SLP202\ T00720028= 201711070751 METAR KJFK 070751Z 35007KT 10SM CLR 07/03 A3015 RMK AO2 SLP209\ T00670028= 201711070851 METAR KJFK 070851Z 36008KT 10SM CLR 06/02 A3016 RMK AO2 SLP214\ T00610022 53012= 201711070951 METAR KJFK 070951Z 36012KT 10SM CLR 06/02 A3018 RMK AO2 SLP219\ T00610022= 201711071051 METAR KJFK 071051Z 02006KT 10SM CLR 06/02 A3019 RMK AO2 SLP221\ T00560017= 201711071151 METAR KJFK 071151Z 02009KT 10SM FEW032 FEW150 SCT250 06/02\ A3019 RMK AO2 SLP222 T00610017 10078\ 20056 51008= 201711071251 METAR KJFK 071251Z 03010KT 10SM FEW035 SCT160 BKN250 08/02\ A3020 RMK AO2 SLP225 T00780022= 201711071351 METAR KJFK 071351Z 03011KT 10SM FEW035 FEW110 SCT160 BKN270\ 08/02 A3021 RMK AO2 SLP229 T00830022= 201711071451 METAR KJFK 071451Z 04013KT 10SM BKN029 BKN270 09/03 A3022\ RMK AO2 SLP232 CIG 026V032 T00890033\ 51010= 201711071551 METAR KJFK 071551Z 02007KT 10SM BKN028 BKN150 OVC260 09/03\ A3021 RMK AO2 SLP231 T00940033= 201711071651 METAR KJFK 071651Z 02012KT 10SM SCT027 BKN038 OVC140 09/03\ A3020 RMK AO2 SLP225 SCT V BKN T00940028= 201711071751 METAR KJFK 071751Z 04007KT 10SM OVC032 10/02 A3019 RMK AO2\ SLP223 T01000022 10100 20061 58009\ $= 201711071851 METAR KJFK 071851Z 02008G18KT 10SM BKN030 OVC095 09/03 A3011\ RMK AO2 RAB29E39 SLP196 P0000 T00940028\ $= 201711071951 METAR KJFK 071951Z 35010KT 10SM FEW015 OVC032 09/02 A3017\ RMK AO2 RAB1857E10 PRESRR SLP217\ P0000 T00940022 $= 201711072051 METAR KJFK 072051Z 01009KT 9SM -RA BKN036 OVC065 08/04 A3015\ RMK AO2 RAB06 PRESFR SLP209 P0002\ 60002 T00780044 56014 $= 201711072151 METAR KJFK 072151Z 01012KT 5SM +RA BR SCT036 BKN055 OVC070\ 07/04 A3012 RMK AO2 SLP200 P0012\ T00670044 $= 201711072251 METAR KJFK 072251Z 35011KT 6SM RA BR SCT013 SCT036 OVC070\ 06/05 A3015 RMK AO2 PRESRR SLP208\ P0018 T00560050= 201711072351 METAR KJFK 072351Z 36012KT 6SM RA BR FEW011 SCT041 OVC065\ 06/05 A3018 RMK AO2 SLP218 P0017\ 60049 T00560050 10100 20056 53009= 201711080051 METAR KJFK 080051Z 36012KT 10SM -RA BKN013 BKN028 OVC038\ 06/05 A3017 RMK AO2 SLP215 BKN013\ V SCT P0010 T00560050= 201711080151 METAR KJFK 080151Z 02016KT 8SM -RA FEW012 FEW048 OVC065 06/04\ A3017 RMK AO2 SLP216 P0006 T00560044= 201711080251 METAR KJFK 080251Z 01014KT 7SM -RA FEW011 OVC037 06/04 A3016\ RMK AO2 SLP214 P0006 60022 T00560044\ 56004= 201711080351 METAR KJFK 080351Z 02011KT 8SM -RA BKN011 OVC035 06/05 A3016\ RMK AO2 SLP214 P0004 T00560050= 201711080451 METAR KJFK 080451Z 02014KT 10SM -RA BKN013 OVC038 05/04 A3017\ RMK AO2 SLP214 P0003 T00500044 401000050= 201711080551 METAR KJFK 080551Z 01015KT 10SM -RA OVC012 05/04 A3017 RMK\ AO2 SLP215 P0000 60029 T00500039\ 10056 20050 53001= 201711080651 METAR KJFK 080651Z 02011KT 10SM OVC012 05/04 A3016 RMK AO2\ RAE16 SLP213 P0000 T00500039= 201711080751 METAR KJFK 080751Z 02017G22KT 10SM OVC012 05/04 A3016 RMK\ AO2 SLP213 T00500039= 201711080851 METAR KJFK 080851Z 02014KT 10SM OVC015 05/03 A3018 RMK AO2\ SLP220 60000 T00500033 53005= 201711080951 METAR KJFK 080951Z 02011KT 10SM FEW017 BKN041 OVC060 05/03\ A3020 RMK AO2 SLP226 T00500028= 201711081051 METAR KJFK 081051Z 02015KT 10SM FEW017 OVC042 05/02 A3020\ RMK AO2 SLP226 T00500022= 201711081151 METAR KJFK 081151Z 36015KT 10SM SCT020 BKN043 BKN160 05/03\ A3024 RMK AO2 SLP240 60000 70078\ T00500028 10050 20050 53020= 201711081251 METAR KJFK 081251Z 01011KT 10SM BKN019 OVC044 05/03 A3025\ RMK AO2 SLP244 SCT V BKN T00500028= 201711081351 METAR KJFK 081351Z 01014KT 10SM BKN018 BKN045 BKN160 06/03\ A3027 RMK AO2 SLP248 T00610028= 201711081451 METAR KJFK 081451Z 02012KT 10SM BKN017 BKN045 BKN160 BKN250\ 07/03 A3027 RMK AO2 SLP248 T00670033\ 51008= 201711081551 METAR KJFK 081551Z 02013KT 10SM BKN018 BKN160 07/03 A3026\ RMK AO2 SLP247 T00720033= 201711081651 METAR KJFK 081651Z 36010KT 10SM BKN019 BKN160 BKN250 08/03\ A3025 RMK AO2 SLP244 T00780033= 201711081751 METAR KJFK 081751Z 02011KT 10SM BKN022 08/04 A3024 RMK AO2\ SLP238 T00830039 10083 20050 58009= 201711081851 METAR KJFK 081851Z VRB05KT 10SM BKN025 09/03 A3024 RMK AO2\ SLP239 T00890033= 201711081951 METAR KJFK 081951Z 04007KT 10SM BKN030 09/03 A3024 RMK AO2\ SLP240 CIG 027V033 T00890033= 201711082051 METAR KJFK 082051Z 05006KT 10SM BKN031 09/03 A3025 RMK AO2\ SLP242 T00890033 53004= 201711082151 METAR KJFK 082151Z 05007KT 10SM BKN032 BKN044 08/03 A3026\ RMK AO2 SLP245 T00830033= 201711082251 METAR KJFK 082251Z 06005KT 10SM FEW032 BKN040 08/03 A3027\ RMK AO2 SLP249 T00830033= 201711082351 METAR KJFK 082351Z 07005KT 10SM OVC039 08/04 A3028 RMK AO2\ SLP252 T00830039 10089 20078 52009= 201711090051 METAR KJFK 090051Z 05006KT 10SM BKN038 08/04 A3028 RMK AO2\ SLP254 T00830039= 201711090151 METAR KJFK 090151Z 05006KT 10SM BKN039 08/04 A3028 RMK AO2\ SLP253 T00830039= 201711090251 METAR KJFK 090251Z 06005KT 10SM FEW023 SCT037 07/03 A3027\ RMK AO2 SLP249 T00720033 58003= 201711090351 METAR KJFK 090351Z 04004KT 10SM FEW022 07/03 A3026 RMK AO2\ SLP245 T00670033= 201711090451 METAR KJFK 090451Z 05004KT 10SM FEW022 FEW040 06/04 A3026\ RMK AO2 SLP246 T00560039 400890050= 201711090551 METAR KJFK 090551Z 05006KT 10SM FEW020 FEW040 05/03 A3025\ RMK AO2 SLP243 T00500033 10083 20050\ 56006= 201711090651 METAR KJFK 090651Z 05005KT 10SM FEW015 FEW040 04/03 A3025\ RMK AO2 SLP244 T00440028= 201711090751 METAR KJFK 090751Z 05006KT 10SM FEW015 04/03 A3024 RMK AO2\ SLP238 T00390028= 201711090851 METAR KJFK 090851Z 04006KT 10SM FEW015 04/03 A3023 RMK AO2\ SLP236 T00390028 58007= 201711090951 METAR KJFK 090951Z 05004KT 10SM FEW015 03/02 A3025 RMK AO2\ SLP243 T00330022= 201711091051 METAR KJFK 091051Z 05003KT 10SM FEW015 SCT130 04/02 A3025\ RMK AO2 SLP243 T00390017= 201711091151 METAR KJFK 091151Z 03004KT 10SM FEW018 SCT044 BKN130 04/02\ A3025 RMK AO2 SLP244 T00440022 10050\ 20033 51007= 201711091251 METAR KJFK 091251Z 06006KT 10SM FEW021 SCT044 BKN130 06/02\ A3025 RMK AO2 SLP242 T00560022= 201711091351 METAR KJFK 091351Z 07009KT 10SM FEW025 FEW045 BKN130 08/03\ A3023 RMK AO2 SLP238 T00780033= 201711091451 METAR KJFK 091451Z 08008KT 10SM FEW031 FEW045 SCT130 11/03\ A3021 RMK AO2 SLP229 T01060033 58015= 201711091551 METAR KJFK 091551Z 09005KT 10SM FEW033 FEW045 FEW130 11/04\ A3018 RMK AO2 SLP220 T01110039= 201711091651 METAR KJFK 091651Z 13007KT 10SM FEW035 FEW045 SCT130 12/04\ A3015 RMK AO2 SLP210 T01170044= 201711091751 METAR KJFK 091751Z VRB06KT 10SM FEW035 SCT045 SCT250 12/05\ A3013 RMK AO2 SLP201 T01220050 10122\ 20044 56028= 201711091851 METAR KJFK 091851Z VRB04KT 10SM FEW030 SCT045 SCT250 12/06\ A3010 RMK AO2 SLP193 T01220056= 201711091951 METAR KJFK 091951Z 00000KT 10SM SCT039 SCT050 BKN250 12/03\ A3009 RMK AO2 SLP188 T01220033= 201711092051 METAR KJFK 092051Z 13007KT 10SM FEW034 BKN041 BKN090 12/06\ A3008 RMK AO2 SLP186 T01170061 56015= 201711092151 METAR KJFK 092151Z 10003KT 10SM -RA BKN038 BKN080 BKN095\ 11/07 A3008 RMK AO2 RAB21 SLP185\ P0000 T01110067= 201711092251 METAR KJFK 092251Z 09003KT 10SM -RA BKN030 BKN080 11/08 A3006\ RMK AO2 RAE30B46 SLP180 P0000 T01110078= 201711092351 METAR KJFK 092351Z 10003KT 10SM SCT029 BKN036 BKN080 11/08\ A3004 RMK AO2 RAE00 SLP173 P0000\ 60000 T01110083 10128 20106 58012= 201711100051 METAR KJFK 100051Z 17007KT 10SM SCT027 BKN042 BKN080 12/08\ A3003 RMK AO2 SLP169 T01170078= 201711100151 METAR KJFK 100151Z 19010KT 10SM FEW027 BKN042 BKN080 12/08\ A3002 RMK AO2 SLP165 T01220083= 201711100251 METAR KJFK 100251Z 19011KT 10SM FEW025 SCT031 OVC043 12/09\ A3000 RMK AO2 SLP158 T01220089 58016= 201711100351 METAR KJFK 100351Z 22013KT 10SM FEW025 SCT038 BKN047 12/09\ A2998 RMK AO2 SLP150 T01220094= 201711100451 METAR KJFK 100451Z 24012KT 10SM OVC034 12/09 A2997 RMK AO2\ SLP148 T01170094 401280033= 201711100551 METAR KJFK 100551Z 25015G23KT 8SM -RA FEW017 OVC031 11/09\ A2996 RMK AO2 RAB02E14B42 SLP146\ P0000 60000 T01060094 10128 20106\ 56012= 201711100651 METAR KJFK 100651Z 26012KT 10SM FEW013 FEW047 09/09 A2996\ RMK AO2 RAE14 SLP143 P0000 T00940089= 201711100751 METAR KJFK 100751Z 26012KT 10SM FEW015 09/07 A2995 RMK AO2\ SLP141 T00890072= 201711100851 METAR KJFK 100851Z 27015G23KT 10SM FEW018 09/07 A2995 RMK\ AO2 SLP142 60000 T00890067 55003= 201711100951 METAR KJFK 100951Z 31022G26KT 10SM FEW020 08/04 A2999 RMK\ AO2 PK WND 33026/0951 SLP156 T00830044= 201711101051 METAR KJFK 101051Z 31015G23KT 10SM FEW025 SCT050 07/01 A3003\ RMK AO2 PK WND 32028/1003 SLP168\ T00670006= 201711101151 METAR KJFK 101151Z 32021G31KT 10SM SCT047 SCT250 05/M02 A3008\ RMK AO2 PK WND 33034/1109 PRESRR\ SLP186 60000 T00501017 10106 20050\ 53043= 201711101251 METAR KJFK 101251Z 32025G34KT 10SM FEW050 FEW250 03/M07 A3014\ RMK AO2 PK WND 31037/1205 SLP206\ T00331067= 201711101351 METAR KJFK 101351Z 32021G28KT 10SM FEW055 SCT250 04/M09 A3018\ RMK AO2 PK WND 33030/1332 SLP218\ T00391094= 201711101451 METAR KJFK 101451Z 34019G29KT 10SM FEW060 SCT250 04/M09 A3020\ RMK AO2 PK WND 34032/1415 SLP226\ T00441094 51040= 201711101551 METAR KJFK 101551Z 32024G32KT 10SM SCT055 BKN250 03/M11 A3023\ RMK AO2 PK WND 31032/1500 SLP235\ VIRGA OHD T00331106= 201711101651 METAR KJFK 101651Z 33023G35KT 10SM FEW055 BKN240 03/M13 A3023\ RMK AO2 PK WND 33035/1646 SLP237\ T00281133= 201711101751 METAR KJFK 101751Z 31022G30KT 10SM FEW055 BKN240 02/M13 A3026\ RMK AO2 PK WND 31034/1732 SLP245\ T00221128 10050 20022 51019= 201711101851 METAR KJFK 101851Z 32022G34KT 10SM FEW055 BKN240 02/M14 A3026\ RMK AO2 PK WND 33034/1848 SLP247\ T00221144= 201711101951 METAR KJFK 101951Z 31019G25KT 10SM FEW060 SCT250 02/M14 A3027\ RMK AO2 PK WND 30031/1910 SLP251\ T00221144= 201711102051 METAR KJFK 102051Z 34017G22KT 10SM FEW060 FEW250 02/M14 A3032\ RMK AO2 PK WND 34032/2009 SLP265\ T00171139 53020= 201711102151 METAR KJFK 102151Z 31019G26KT 10SM FEW060 FEW250 00/M14 A3037\ RMK AO2 PK WND 32031/2118 SLP282\ T00001139= 201711102251 METAR KJFK 102251Z 33016KT 10SM FEW250 M01/M15 A3042 RMK\ AO2 PK WND 32029/2203 SLP299 T10111150= 201711102351 METAR KJFK 102351Z 34015G24KT 10SM FEW250 M02/M16 A3045 RMK\ AO2 PK WND 33027/2304 SLP311 T10171156\ 10033 21017 51045= 201711110051 METAR KJFK 110051Z 33019G26KT 10SM CLR M02/M15 A3048 RMK\ AO2 PK WND 32027/0003 SLP321 T10221150= 201711110151 METAR KJFK 110151Z 33016KT 10SM CLR M02/M15 A3050 RMK AO2\ PK WND 32027/0057 SLP327 T10221150= 201711110251 METAR KJFK 110251Z 32019G24KT 10SM CLR M03/M14 A3052 RMK\ AO2 SLP335 T10331144 51025= 201711110351 METAR KJFK 110351Z 33016KT 10SM CLR M03/M14 A3052 RMK AO2\ SLP334 T10331139= 201711110451 METAR KJFK 110451Z 33013KT 10SM CLR M04/M13 A3051 RMK AO2\ SLP331 T10391133 401171039= 201711110551 METAR KJFK 110551Z 32012KT 10SM CLR M04/M13 A3051 RMK AO2\ SLP330 T10391128 11017 21039 56005= 201711110651 METAR KJFK 110651Z 31008KT 10SM CLR M04/M12 A3051 RMK AO2\ SLP330 T10391122= 201711110751 METAR KJFK 110751Z 32013KT 10SM CLR M04/M12 A3051 RMK AO2\ SLP331 T10391117= 201711110851 METAR KJFK 110851Z 31013KT 10SM CLR M04/M11 A3053 RMK AO2\ SLP338 T10441111 53008= 201711110951 METAR KJFK 110951Z 31016G25KT 10SM CLR M04/M11 A3053 RMK\ AO2 SLP339 T10391111= 201711111051 METAR KJFK 111051Z 31011KT 10SM CLR M04/M11 A3054 RMK AO2\ SLP340 T10441106= 201711111151 METAR KJFK 111151Z 32010KT 10SM FEW030 SCT130 SCT250 M04/M11\ A3055 RMK AO2 SLP344 T10391106 11039\ 21044 53006= 201711111251 METAR KJFK 111251Z 34009KT 10SM FEW040 SCT130 SCT250 M03/M11\ A3058 RMK AO2 SLP353 T10281111= 201711111351 METAR KJFK 111351Z 34009KT 10SM FEW050 SCT250 M02/M11 A3058\ RMK AO2 SLP355 T10171111= 201711111451 METAR KJFK 111451Z 34010KT 10SM FEW050 SCT250 00/M11 A3058\ RMK AO2 SLP356 T00001111 51012= 201711111551 METAR KJFK 111551Z 33010KT 10SM FEW065 SCT250 01/M13 A3058\ RMK AO2 SLP355 T00061128= 201711111651 METAR KJFK 111651Z 34009G19KT 10SM FEW065 SCT250 02/M12 A3056\ RMK AO2 SLP348 T00171122= 201711111751 METAR KJFK 111751Z 33010KT 10SM FEW070 SCT250 03/M13 A3053\ RMK AO2 SLP339 T00281128 10028 21039\ 58017= 201711111851 METAR KJFK 111851Z 01007KT 10SM FEW070 SCT250 03/M12 A3052\ RMK AO2 SLP333 T00281122= 201711111951 METAR KJFK 111951Z 36005KT 10SM BKN250 03/M12 A3051 RMK AO2\ SLP332 T00331122= 201711112051 METAR KJFK 112051Z 34006KT 10SM BKN250 02/M13 A3052 RMK AO2\ SLP333 T00221128 55005= 201711112151 METAR KJFK 112151Z 36005KT 10SM BKN250 01/M12 A3053 RMK AO2\ SLP338 T00111117= 201711112251 METAR KJFK 112251Z 00000KT 10SM BKN250 01/M10 A3055 RMK AO2\ SLP344 T00111100= 201711112351 METAR KJFK 112351Z 07003KT 10SM BKN250 01/M11 A3055 RMK AO2\ SLP345 T00111106 10033 20006 51012= 201711120051 METAR KJFK 120051Z 00000KT 10SM BKN250 01/M11 A3056 RMK AO2\ SLP346 T00111106= 201711120151 METAR KJFK 120151Z 04003KT 10SM BKN250 01/M10 A3054 RMK AO2\ SLP342 T00111100= 201711120251 METAR KJFK 120251Z 05003KT 10SM BKN200 BKN250 01/M09 A3053\ RMK AO2 SLP339 T00061094 58006= 201711120351 METAR KJFK 120351Z 03005KT 10SM BKN200 01/M09 A3052 RMK AO2\ SLP334 T00061089= 201711120451 METAR KJFK 120451Z 01005KT 10SM SCT200 SCT250 00/M08 A3053\ RMK AO2 SLP336 T00001083 400331044= 201711120551 METAR KJFK 120551Z 03005KT 10SM FEW200 SCT250 M01/M06 A3050\ RMK AO2 SLP329 T10111061 10017 21011\ 58009= 201711120651 METAR KJFK 120651Z 01003KT 10SM FEW200 BKN250 M01/M07 A3051\ RMK AO2 SLP332 T10061072= 201711120751 METAR KJFK 120751Z 00000KT 10SM FEW200 BKN250 M01/M06 A3052\ RMK AO2 SLP333 T10061056= 201711120851 METAR KJFK 120851Z 35003KT 10SM FEW200 BKN250 00/M07 A3051\ RMK AO2 SLP332 T00001072 50003= 201711120951 METAR KJFK 120951Z 00000KT 10SM CLR M01/M04 A3051 RMK AO2\ SLP332 T10061044= 201711121051 METAR KJFK 121051Z 04003KT 10SM BKN200 BKN250 M01/M05 A3051\ RMK AO2 SLP330 T10061050= 201711121151 METAR KJFK 121151Z 02004KT 10SM FEW030 SCT200 BKN250 00/M06\ A3051 RMK AO2 SLP332 T00001061 10006\ 21017 53000= 201711121251 METAR KJFK 121251Z 02004KT 10SM FEW030 SCT200 BKN250 01/M04\ A3051 RMK AO2 SLP331 T00061039= 201711121351 METAR KJFK 121351Z 00000KT 10SM FEW040 SCT200 BKN250 04/M07\ A3051 RMK AO2 SLP332 T00391067= 201711121451 METAR KJFK 121451Z 23003KT 10SM FEW040 FEW130 SCT220 BKN260\ 05/M06 A3050 RMK AO2 SLP328 T00501056\ 58004= 201711121551 METAR KJFK 121551Z 24005KT 10SM FEW040 FEW130 SCT220 BKN260\ 05/M06 A3050 RMK AO2 SLP327 T00501061= 201711121651 METAR KJFK 121651Z 27003KT 10SM BKN037 BKN220 BKN260 06/M06\ A3047 RMK AO2 SLP317 T00611061= 201711121751 METAR KJFK 121751Z 24006KT 10SM SCT037 BKN220 BKN260 07/M04\ A3045 RMK AO2 SLP311 T00721039 10072\ 20000 58018= 201711121851 METAR KJFK 121851Z VRB05KT 10SM FEW036 SCT220 BKN260 07/M03\ A3044 RMK AO2 SLP307 T00721028= 201711121951 METAR KJFK 121951Z 19004KT 10SM FEW039 SCT200 SCT250 07/M02\ A3043 RMK AO2 SLP303 T00721022= 201711122051 METAR KJFK 122051Z 20004KT 10SM FEW200 BKN250 06/M02 A3043\ RMK AO2 SLP304 T00611022 55007= 201711122151 METAR KJFK 122151Z 17003KT 10SM FEW200 SCT250 05/M01 A3043\ RMK AO2 SLP303 VIRGA W T00501011= 201711122251 METAR KJFK 122251Z 14003KT 10SM FEW200 SCT250 04/M01 A3042\ RMK AO2 SLP301 T00441011= 201711122351 METAR KJFK 122351Z 09005KT 10SM BKN170 BKN250 04/M01 A3042\ RMK AO2 SLP301 T00441006 10078 20039\ 55002= 201711130051 METAR KJFK 130051Z 03003KT 10SM BKN150 BKN250 05/M01 A3042\ RMK AO2 SLP301 T00501006= 201711130151 METAR KJFK 130151Z 05004KT 10SM BKN150 BKN250 05/M01 A3043\ RMK AO2 SLP302 T00501006= 201711130251 METAR KJFK 130251Z 04005KT 10SM BKN160 BKN250 04/00 A3042\ RMK AO2 SLP300 T00440000 58001= 201711130351 METAR KJFK 130351Z 03005KT 10SM OVC150 05/00 A3041 RMK AO2\ SLP295 T00500000= 201711130451 METAR KJFK 130451Z 03004KT 10SM OVC140 06/01 A3040 RMK AO2\ SLP295 T00560006 400781017= 201711130551 METAR KJFK 130551Z 04004KT 10SM FEW020 BKN150 04/01 A3039\ RMK AO2 SLP290 T00440011 10056 20039\ 57010= 201711130651 METAR KJFK 130651Z 36004KT 10SM FEW025 BKN140 OVC190 04/01\ A3038 RMK AO2 SLP286 T00440006= 201711130751 METAR KJFK 130751Z 04005KT 10SM OVC120 05/00 A3036 RMK AO2\ SLP281 T00500000= 201711130851 METAR KJFK 130851Z 03003KT 10SM OVC110 06/00 A3036 RMK AO2\ SLP282 T00560000 55009= 201711130951 METAR KJFK 130951Z 04004KT 10SM SCT033 OVC110 06/01 A3037\ RMK AO2 SLP283 T00560011= 201711131051 METAR KJFK 131051Z 05007KT 10SM SCT033 OVC100 06/02 A3034\ RMK AO2 SLP272 T00610017= 201711131151 METAR KJFK 131151Z 06007KT 10SM SCT033 BKN080 OVC140 07/02\ A3033 RMK AO2 SLP270 T00670022 10067\ 20044 58012= 201711131251 METAR KJFK 131251Z 04006KT 10SM -RA SCT038 BKN055 OVC095\ 07/03 A3036 RMK AO2 RAB32 SLP279\ P0000 T00670033= 201711131351 METAR KJFK 131351Z 03007KT 10SM -RA FEW025 BKN047 OVC075\ 07/04 A3035 RMK AO2 SLP275 P0002\ T00670039= 201711131451 METAR KJFK 131451Z 03009KT 10SM -RA BKN042 OVC070 07/04 A3035\ RMK AO2 RAE26B46 SLP275 P0001 60003\ T00670044 51005= 201711131551 METAR KJFK 131551Z 02011KT 8SM -RA SCT041 OVC055 07/05 A3034\ RMK AO2 SLP275 P0000 T00670050= 201711131651 METAR KJFK 131651Z 02009KT 10SM -RA SCT037 BKN060 OVC140\ 07/06 A3031 RMK AO2 SLP263 P0000\ T00670056= 201711131751 METAR KJFK 131751Z 36010KT 10SM FEW032 BKN060 OVC140 08/06\ A3028 RMK AO2 RAE1658 SLP254 P0000\ 60003 T00830061 10083 20067 58022= 201711131851 METAR KJFK 131851Z 36011KT 10SM BKN055 BKN140 08/06 A3028\ RMK AO2 SLP253 T00830056= 201711131951 METAR KJFK 131951Z 02013KT 10SM BKN050 OVC065 08/04 A3028\ RMK AO2 SLP253 T00830039= 201711132051 METAR KJFK 132051Z 36011KT 10SM FEW050 BKN060 08/04 A3028\ RMK AO2 SLP252 T00830039 57002= 201711132151 METAR KJFK 132151Z 36008KT 10SM BKN060 08/03 A3028 RMK AO2\ SLP253 T00780033= 201711132251 METAR KJFK 132251Z 36010KT 10SM SCT055 07/03 A3030 RMK AO2\ SLP258 T00720028= 201711132351 METAR KJFK 132351Z 01009KT 10SM FEW055 07/03 A3031 RMK AO2\ SLP262 T00670028 10083 20067 53011= 201711140051 METAR KJFK 140051Z 35009KT 10SM FEW055 06/03 A3032 RMK AO2\ SLP267 T00560028= 201711140151 METAR KJFK 140151Z 36008KT 10SM FEW055 05/02 A3033 RMK AO2\ SLP269 T00500022= 201711140251 METAR KJFK 140251Z 35008KT 10SM FEW055 04/02 A3032 RMK AO2\ SLP266 T00440017 50004= 201711140351 METAR KJFK 140351Z 36008KT 10SM CLR 04/01 A3031 RMK AO2 SLP263\ T00440011= 201711140451 METAR KJFK 140451Z 35007KT 10SM CLR 04/01 A3031 RMK AO2 SLP262\ T00390006 400830039= 201711140551 METAR KJFK 140551Z 35009KT 10SM CLR 04/00 A3030 RMK AO2 SLP258\ T00390000 10067 20033 58008= 201711140651 METAR KJFK 140651Z 35009KT 10SM CLR 03/M01 A3030 RMK AO2\ SLP261 T00331011= 201711140751 METAR KJFK 140751Z 35007KT 10SM CLR 03/M01 A3030 RMK AO2\ SLP259 T00331006= 201711140851 METAR KJFK 140851Z 35008KT 10SM CLR 03/M01 A3030 RMK AO2\ SLP261 T00331006 51002= 201711140951 METAR KJFK 140951Z 35009KT 10SM CLR 03/M01 A3030 RMK AO2\ SLP261 T00281006= 201711141051 METAR KJFK 141051Z 34011KT 10SM FEW045 03/00 A3031 RMK AO2\ SLP264 T00280000= 201711141151 METAR KJFK 141151Z 36009KT 10SM FEW015 SCT045 SCT250 03/M01\ A3032 RMK AO2 SLP267 70003 T00281006\ 10039 20022 53007= 201711141251 METAR KJFK 141251Z 35007KT 10SM FEW015 FEW045 SCT170 BKN250\ 04/01 A3034 RMK AO2 SLP273 T00440006= 201711141351 METAR KJFK 141351Z 36009KT 10SM FEW018 FEW055 SCT170 BKN250\ 06/02 A3034 RMK AO2 SLP273 T00610022= 201711141451 METAR KJFK 141451Z 04008KT 10SM SCT018 BKN050 BKN250 07/03\ A3035 RMK AO2 SLP277 CIG LWR NE-SE\ T00670028 51010= 201711141551 METAR KJFK 141551Z 01008KT 10SM BKN020 BKN050 BKN250 07/02\ A3034 RMK AO2 SLP273 T00670022= 201711141651 METAR KJFK 141651Z 02008KT 9SM BKN019 BKN050 OVC250 07/03\ A3032 RMK AO2 SLP266 T00670028= 201711141751 METAR KJFK 141751Z 01009KT 10SM BKN020 BKN050 BKN250 07/03\ A3030 RMK AO2 SLP261 T00720028 10072\ 20028 58017= 201711141851 METAR KJFK 141851Z 02012KT 10SM BKN022 BKN055 08/03 A3029\ RMK AO2 SLP257 T00780028= 201711141951 METAR KJFK 141951Z 03009KT 10SM BKN022 BKN060 07/03 A3029\ RMK AO2 SLP257 T00720028= 201711142051 METAR KJFK 142051Z 03011KT 10SM BKN021 BKN060 BKN250 07/03\ A3030 RMK AO2 SLP259 T00670028 55002= 201711142151 METAR KJFK 142151Z 03009KT 10SM BKN021 BKN060 06/03 A3030\ RMK AO2 SLP259 T00610028= 201711142251 METAR KJFK 142251Z 05007KT 10SM BKN022 OVC060 06/02 A3031\ RMK AO2 SLP263 T00610022= 201711142351 METAR KJFK 142351Z 02008KT 10SM BKN024 BKN060 06/02 A3032\ RMK AO2 SLP265 T00610022 10078 20061\ 53006= 201711150051 METAR KJFK 150051Z 02009KT 10SM FEW024 BKN060 06/02 A3031\ RMK AO2 SLP265 T00610022= 201711150151 METAR KJFK 150151Z 03007KT 10SM FEW024 BKN055 06/02 A3032\ RMK AO2 SLP265 T00560017= 201711150251 METAR KJFK 150251Z 03008KT 10SM FEW021 BKN060 06/01 A3031\ RMK AO2 SLP264 T00560011 50000= 201711150351 METAR KJFK 150351Z 02007KT 10SM FEW022 BKN060 06/01 A3030\ RMK AO2 SLP261 T00560006= 201711150451 METAR KJFK 150451Z 02006KT 10SM FEW024 BKN060 05/01 A3031\ RMK AO2 SLP264 T00500011 400780022= 201711150551 METAR KJFK 150551Z 36009KT 10SM FEW024 OVC060 05/01 A3031\ RMK AO2 SLP262 T00500011 10061 20050\ 56002= 201711150651 METAR KJFK 150651Z 36008KT 10SM FEW024 OVC060 05/01 A3030\ RMK AO2 SLP259 T00500011= 201711150751 METAR KJFK 150751Z 36007KT 10SM BKN060 04/01 A3029 RMK AO2\ SLP258 T00440011= 201711150851 METAR KJFK 150851Z 01008KT 10SM BKN060 04/01 A3030 RMK AO2\ SLP260 T00440011 55002= 201711150951 METAR KJFK 150951Z 01006KT 10SM BKN055 04/01 A3030 RMK AO2\ SLP260 T00390006= 201711151051 METAR KJFK 151051Z 02007KT 10SM FEW055 03/01 A3031 RMK AO2\ SLP262 T00330006= 201711151151 METAR KJFK 151151Z 02007KT 10SM FEW026 FEW055 FEW250 03/00\ A3031 RMK AO2 SLP264 T00280000 10050\ 20022 53003= 201711151251 METAR KJFK 151251Z 02007KT 10SM FEW028 FEW055 FEW250 03/01\ A3032 RMK AO2 SLP268 T00330006= 201711151351 METAR KJFK 151351Z 04010KT 10SM FEW033 FEW055 FEW250 06/01\ A3032 RMK AO2 SLP266 T00560011= 201711151451 METAR KJFK 151451Z 06007KT 10SM FEW036 FEW250 07/02 A3030\ RMK AO2 SLP261 T00720017 58002= 201711151551 METAR KJFK 151551Z 05009KT 10SM FEW036 SCT250 08/02 A3028\ RMK AO2 SLP253 T00830017= 201711151651 METAR KJFK 151651Z 13007KT 10SM SCT036 SCT250 09/01 A3025\ RMK AO2 SLP242 T00940011= 201711151751 METAR KJFK 151751Z 10009KT 10SM SCT038 SCT075 SCT250 09/02\ A3022 RMK AO2 SLP233 T00940017 10094\ 20028 58029= 201711151851 METAR KJFK 151851Z 10007KT 10SM SCT040 SCT075 SCT250 09/02\ A3020 RMK AO2 SLP225 T00940022= 201711151951 METAR KJFK 151951Z 11005KT 10SM FEW040 SCT070 SCT250 09/01\ A3019 RMK AO2 SLP222 T00940006= 201711152051 METAR KJFK 152051Z 10006KT 10SM FEW030 BKN045 09/02 A3018\ RMK AO2 SLP221 T00890022 56012= 201711152151 METAR KJFK 152151Z 09007KT 10SM FEW030 OVC046 08/03 A3018\ RMK AO2 SLP218 T00830033= 201711152251 METAR KJFK 152251Z 09008KT 10SM OVC042 09/03 A3017 RMK AO2\ SLP215 T00890033= 201711152351 METAR KJFK 152351Z 10008KT 10SM OVC045 08/03 A3016 RMK AO2\ SLP211 T00830033 10100 20083 58009= 201711160051 METAR KJFK 160051Z 09012KT 10SM FEW029 OVC040 08/03 A3012\ RMK AO2 SLP199 T00830033= 201711160151 METAR KJFK 160151Z 08007KT 10SM FEW031 BKN046 OVC200 08/04\ A3011 RMK AO2 SLP196 T00830039= 201711160251 METAR KJFK 160251Z 13008KT 10SM FEW033 OVC045 10/06 A3010\ RMK AO2 SLP191 T01000056 56020= 201711160351 METAR KJFK 160351Z 14010KT 10SM OVC034 11/06 A3008 RMK AO2\ SLP184 T01060056= 201711160451 METAR KJFK 160451Z 13011KT 10SM OVC035 11/06 A3005 RMK AO2\ SLP175 T01060061 401060022= 201711160551 METAR KJFK 160551Z 13011KT 10SM OVC037 11/07 A3003 RMK AO2\ SLP168 T01110067 10111 20083 58023= 201711160651 METAR KJFK 160651Z 15013KT 10SM OVC034 12/07 A3001 RMK AO2\ SLP162 T01170067= 201711160751 METAR KJFK 160751Z 17014KT 10SM OVC034 12/07 A2999 RMK AO2\ RAB21E31 SLP155 P0000 T01170067= 201711160851 METAR KJFK 160851Z 16016KT 10SM SCT033 OVC060 12/08 A2996\ RMK AO2 SLP144 60000 T01170078 58024= 201711160951 METAR KJFK 160951Z 16014KT 10SM SCT033 OVC070 12/08 A2993\ RMK AO2 RAB0859E13 SLP135 P0000 T01170083= 201711161051 METAR KJFK 161051Z 16014KT 10SM BKN024 OVC049 11/09 A2991\ RMK AO2 RAB36E48 SLP128 P0000 T01110094= 201711161151 METAR KJFK 161151Z 16014KT 6SM -RA BR BKN021 OVC037 12/10\ A2989 RMK AO2 RAB13 SLP122 P0001\ 60001 70001 T01170100 10122 20111\ 56022= 201711161251 METAR KJFK 161251Z 25008KT 10SM SCT028 BKN037 OVC060 11/11\ A2989 RMK AO2 PK WND 16026/1200 WSHFT\ 1157 RAE37 SLP122 SCT V BKN VCSH\ E-SE AND SW-W P0012 T01110111= 201711161351 METAR KJFK 161351Z 23012KT 10SM -RA FEW022 BKN047 BKN090\ 11/11 A2988 RMK AO2 RAB00 SLP118\ P0000 T01110106= 201711161451 METAR KJFK 161451Z 23012KT 10SM FEW025 BKN049 11/10 A2986\ RMK AO2 RAE00 SLP112 P0000 60012\ T01110100 58010= 201711161551 METAR KJFK 161551Z 25011KT 10SM FEW030 BKN060 BKN095 12/09\ A2983 RMK AO2 SLP102 T01170094= 201711161651 METAR KJFK 161651Z 25010KT 10SM FEW023 BKN060 BKN110 12/09\ A2979 RMK AO2 SLP089 T01170089= 201711161751 METAR KJFK 161751Z 23012KT 10SM FEW032 BKN075 13/09 A2978\ RMK AO2 SLP084 60012 T01330089 10133\ 20111 56029= 201711161851 METAR KJFK 161851Z 27015G21KT 10SM SCT035 BKN070 14/04 A2976\ RMK AO2 SLP077 T01390039= 201711161951 METAR KJFK 161951Z 27019G34KT 10SM SCT037 SCT070 13/03 A2977\ RMK AO2 PK WND 27034/1946 SLP081\ VIRGA SW-W VCSH NW-N T01330028= 201711162051 METAR KJFK 162051Z 28017G29KT 10SM FEW038 SCT085 11/03 A2980\ RMK AO2 PK WND 28033/1955 SLP090\ T01110028 53006= 201711162151 METAR KJFK 162151Z 30019G26KT 10SM FEW047 FEW085 11/01 A2982\ RMK AO2 PK WND 30026/2150 SLP099\ T01060011= 201711162251 METAR KJFK 162251Z 27015KT 10SM FEW047 FEW085 10/02 A2984\ RMK AO2 PK WND 31028/2214 SLP106\ T01000017= 201711162351 METAR KJFK 162351Z 28017G25KT 10SM FEW045 FEW085 09/01 A2986\ RMK AO2 SLP110 T00940011 10139 20094\ 51020= 201711170051 METAR KJFK 170051Z 28018G28KT 10SM FEW045 FEW085 09/01 A2987\ RMK AO2 PK WND 29028/0047 SLP113\ T00890006= 201711170151 METAR KJFK 170151Z 26018G22KT 10SM FEW045 FEW085 08/01 A2989\ RMK AO2 PK WND 27028/0053 SLP119\ T00830011= 201711170251 METAR KJFK 170251Z 27017G24KT 10SM FEW039 SCT047 08/01 A2990\ RMK AO2 SLP124 T00830011 53015= 201711170351 METAR KJFK 170351Z 32015KT 10SM BKN035 BKN055 BKN075 08/02\ A2991 RMK AO2 RAB10E36 SLP127 VCSH\ W-NW P0000 T00780017= 201711170451 METAR KJFK 170451Z 29011KT 10SM BKN040 BKN075 07/03 A2991\ RMK AO2 RAB0353E03 SLP129 P0000 T00670028\ 401390067= 201711170551 METAR KJFK 170551Z 30016G26KT 10SM SCT036 BKN065 07/01 A2993\ RMK AO2 PK WND 28027/0537 SLP133\ 60000 T00670011 10094 20067 53009= 201711170651 METAR KJFK 170651Z 31016KT 10SM FEW034 FEW060 06/M01 A2994\ RMK AO2 PK WND 30028/0609 SLP137\ T00611006= 201711170751 METAR KJFK 170751Z 29021G26KT 10SM FEW039 06/M01 A2995 RMK\ AO2 PK WND 29026/0751 SLP141 T00611011= 201711170851 METAR KJFK 170851Z 30025G31KT 10SM BKN047 06/M03 A2997 RMK\ AO2 PK WND 29031/0851 SLP147 T00611028\ 53013= 201711170951 METAR KJFK 170951Z 31019G25KT 10SM SCT047 06/M03 A2999 RMK\ AO2 PK WND 30031/0922 SLP154 T00561033= 201711171051 METAR KJFK 171051Z 31018G27KT 10SM FEW047 04/M04 A3000 RMK\ AO2 PK WND 32029/1032 SLP160 T00441039= 201711171151 METAR KJFK 171151Z 32021G29KT 10SM SCT047 04/M04 A3002 RMK\ AO2 PK WND 33033/1126 SLP165 70012\ T00441039 10067 20044 51018= 201711171251 METAR KJFK 171251Z 30021G29KT 10SM FEW045 04/M03 A3005 RMK\ AO2 PK WND 32030/1156 SLP174 T00441033= 201711171351 METAR KJFK 171351Z 30013G22KT 10SM SCT039 SCT047 06/M03 A3006\ RMK AO2 PK WND 30031/1310 SLP177\ T00561033= 201711171451 METAR KJFK 171451Z 31021G26KT 10SM SCT044 06/M04 A3009 RMK\ AO2 PK WND 31026/1448 SLP189 T00611039\ 53024= 201711171551 METAR KJFK 171551Z 29018G23KT 10SM FEW050 07/M03 A3008 RMK\ AO2 PK WND 30029/1458 SLP184 T00721033= 201711171651 METAR KJFK 171651Z 29018G25KT 10SM FEW050 FEW250 08/M04 A3006\ RMK AO2 PK WND 30027/1633 SLP179\ T00781044= 201711171751 METAR KJFK 171751Z 29021G24KT 10SM FEW055 FEW250 08/M05 A3006\ RMK AO2 PK WND 30026/1652 SLP178\ T00831050 10083 20044 56011= 201711171851 METAR KJFK 171851Z 30013G26KT 10SM FEW250 09/M06 A3006 RMK\ AO2 PK WND 27026/1848 SLP179 T00891061= 201711171951 METAR KJFK 171951Z 30019G25KT 10SM SCT250 09/M08 A3006 RMK\ AO2 PK WND 29026/1939 SLP179 T00891078= 201711172051 METAR KJFK 172051Z 31017KT 10SM SCT250 08/M09 A3007 RMK AO2\ PK WND 29026/1958 SLP183 FU PLUME\ NW DRFTG SE T00831094 53005= 201711172151 METAR KJFK 172151Z 30013G19KT 10SM FEW013 SCT250 08/M09 A3008\ RMK AO2 SLP184 FU FEW013 T00781089= 201711172251 METAR KJFK 172251Z 31014G22KT 10SM SCT250 07/M09 A3008 RMK\ AO2 SLP187 T00721094= 201711172351 METAR KJFK 172351Z 31011KT 10SM FEW250 06/M09 A3009 RMK AO2\ SLP187 T00611089 10089 20056 51004= 201711180051 METAR KJFK 180051Z 31006KT 10SM FEW250 05/M09 A3010 RMK AO2\ SLP191 T00501089= 201711180151 METAR KJFK 180151Z 31009KT 10SM FEW250 04/M09 A3008 RMK AO2\ SLP187 T00441089= 201711180251 METAR KJFK 180251Z 28006KT 10SM FEW250 04/M08 A3010 RMK AO2\ SLP192 T00391083 53005= 201711180351 METAR KJFK 180351Z 30008KT 10SM FEW150 04/M08 A3009 RMK AO2\ SLP188 T00391083= 201711180451 METAR KJFK 180451Z 30008KT 10SM FEW250 04/M08 A3008 RMK AO2\ SLP185 T00391083 400890033= 201711180551 METAR KJFK 180551Z 30007KT 10SM FEW250 03/M08 A3006 RMK AO2\ SLP179 T00331083 10061 20028 58013= 201711180651 METAR KJFK 180651Z 00000KT 10SM FEW250 02/M08 A3006 RMK AO2\ SLP179 T00221083= 201711180751 METAR KJFK 180751Z 09004KT 10SM SCT250 00/M05 A3004 RMK AO2\ PRESFR SLP170 T00001050= 201711180851 METAR KJFK 180851Z 09004KT 10SM FEW250 M01/M04 A3002 RMK\ AO2 SLP163 T10111039 58016= 201711180951 METAR KJFK 180951Z 00000KT 10SM FEW250 M01/M04 A3003 RMK\ AO2 SLP168 T10061044= 201711181051 METAR KJFK 181051Z 00000KT 10SM FEW150 SCT250 M01/M03 A3001\ RMK AO2 SLP162 T10061033= 201711181151 METAR KJFK 181151Z 00000KT 10SM FEW150 BKN250 00/M03 A3000\ RMK AO2 SLP159 T00001033 10033 21022\ 58004= 201711181251 METAR KJFK 181251Z 20010KT 10SM FEW150 BKN200 BKN250 06/00\ A2999 RMK AO2 SLP154 T00560000= 201711181351 METAR KJFK 181351Z 21016KT 10SM SCT170 BKN250 08/M01 A2997\ RMK AO2 SLP148 T00781006= 201711181451 METAR KJFK 181451Z 22015KT 10SM BKN140 BKN250 08/01 A2994\ RMK AO2 SLP139 T00830006 58020= 201711181551 METAR KJFK 181551Z 22016KT 10SM BKN150 BKN250 10/02 A2991\ RMK AO2 SLP128 T01000022= 201711181651 METAR KJFK 181651Z 20013KT 10SM FEW110 BKN150 BKN250 09/03\ A2985 RMK AO2 PRESFR SLP107 T00940033= 201711181751 METAR KJFK 181751Z 18019G24KT 10SM FEW110 BKN150 BKN250 11/05\ A2980 RMK AO2 SLP090 T01110050 10111\ 20000 58049= 201711181851 METAR KJFK 181851Z 18018G26KT 10SM -RA SCT075 BKN100 BKN150\ BKN250 11/03 A2974 RMK AO2 PK WND\ 18026/1847 RAB42 SLP071 P0000 T01110033= 201711181951 METAR KJFK 181951Z 18020G30KT 10SM -RA FEW075 BKN090 OVC140\ 11/06 A2970 RMK AO2 PK WND 19030/1949\ RAE03B44 SLP055 P0000 T01110056= 201711182051 METAR KJFK 182051Z 19017KT 10SM -RA BKN075 OVC090 11/08 A2969\ RMK AO2 PK WND 19028/2001 SLP053\ P0000 60000 T01110078 56037= 201711182151 METAR KJFK 182151Z 20018KT 10SM -RA BKN075 OVC090 11/08 A2966\ RMK AO2 SLP043 P0001 T01110083= 201711182251 METAR KJFK 182251Z 20013KT 8SM -RA BKN060 BKN075 OVC090 11/09\ A2965 RMK AO2 SLP038 P0002 T01110089= 201711182351 METAR KJFK 182351Z 21011KT 5SM RA BR FEW060 SCT070 OVC090\ 11/09 A2963 RMK AO2 SLP033 P0002\ 60005 T01060089 10117 20106 56020= 201711190051 METAR KJFK 190051Z 21012KT 10SM FEW036 BKN050 OVC090 11/08\ A2961 RMK AO2 RAE32 SLP025 P0010\ T01060078= 201711190151 METAR KJFK 190151Z 17006KT 10SM -RA BKN070 BKN090 OVC110\ 10/09 A2956 RMK AO2 RAB0056 SLP010\ P0003 T01000089= 201711190251 METAR KJFK 190251Z 18016KT 10SM -RA FEW090 BKN110 OVC150\ 13/12 A2952 RMK AO2 RAE0154B10 SLP995\ P0000 60013 T01280117 58038= 201711190351 METAR KJFK 190351Z 18020G26KT 10SM FEW080 BKN110 OVC150 13/12\ A2946 RMK AO2 PK WND 18026/0343 RAE0252B30E41\ SLP975 P0001 T01330122= 201711190451 METAR KJFK 190451Z 19020KT 10SM FEW080 FEW110 OVC170 13/12\ A2943 RMK AO2 PK WND 18027/0415 SLP965\ P0001 T01330122 401391022= 201711190551 METAR KJFK 190551Z 19018KT 10SM FEW080 SCT120 SCT150 BKN180\ 13/12 A2939 RMK AO2 SLP953 60015\ T01280117 10139 20100 56042= 201711190651 METAR KJFK 190651Z 18019KT 10SM BKN065 OVC080 14/12 A2935\ RMK AO2 SLP939 T01390117= 201711190751 METAR KJFK 190751Z 19020KT 6SM -RA BR BKN030 OVC060 13/13\ A2934 RMK AO2 RAB08 SLP935 P0002\ T01330128= 201711190851 METAR KJFK 190851Z 21019KT 6SM -RA BR BKN021 OVC060 14/13\ A2931 RMK AO2 SLP926 P0003 60005\ T01390133 56027= 201711190951 METAR KJFK 190951Z 20017KT 5SM -RA BR BKN019 OVC080 14/13\ A2928 RMK AO2 PK WND 21026/0932 SLP916\ P0009 T01390133= 201711191051 METAR KJFK 191051Z 20017KT 7SM -RA BKN022 BKN060 OVC090 14/13\ A2926 RMK AO2 SLP909 P0007 T01390133= 201711191151 METAR KJFK 191151Z 21019G25KT 10SM -RA BKN021 OVC075 14/13\ A2925 RMK AO2 SLP904 P0002 60023\ 70043 T01440133 10144 20128 56022= 201711191251 METAR KJFK 191251Z 25022G31KT 5SM -RA BR SCT018 BKN024 OVC040\ 14/12 A2927 RMK AO2 PK WND 25031/1247\ SLP911 P0002 T01390122= 201711191351 METAR KJFK 191351Z 28019G36KT 10SM SCT037 BKN044 BKN100 BKN200\ 12/06 A2934 RMK AO2 PK WND 28042/1306\ RAE04 PRESRR SLP934 P0000 T01170061= 201711191451 METAR KJFK 191451Z 28025G35KT 10SM FEW035 BKN044 BKN100 BKN200\ 12/04 A2939 RMK AO2 PK WND 26035/1408\ PRESRR SLP953 60002 T01170044 53049= 201711191551 METAR KJFK 191551Z 30026G34KT 10SM BKN047 BKN200 12/02 A2944\ RMK AO2 PK WND 29037/1518 SLP970\ T01170017= 201711191651 METAR KJFK 191651Z 28031G41KT 10SM BKN050 11/00 A2948 RMK\ AO2 PK WND 29041/1617 PRESRR SLP983\ T01110000= 201711191751 METAR KJFK 191751Z 30018G31KT 10SM BKN050 11/00 A2950 RMK\ AO2 PK WND 30044/1706 SLP990 60002\ T01110000 10144 20100 51037= 201711191851 METAR KJFK 191851Z 31026G34KT 10SM BKN050 11/M01 A2951 RMK\ AO2 PK WND 31035/1754 SLP992 T01061006= 201711191951 METAR KJFK 191951Z 32023G30KT 10SM BKN050 09/M01 A2956 RMK\ AO2 PK WND 31041/1924 SLP009 T00941011= 201711192051 METAR KJFK 192051Z 30019G28KT 10SM SCT050 08/M03 A2960 RMK\ AO2 PK WND 31035/2019 SLP024 T00831028\ 53035= 201711192151 METAR KJFK 192151Z 32016G21KT 10SM SCT050 07/M03 A2963 RMK\ AO2 PK WND 32033/2101 SLP034 T00721033= 201711192251 METAR KJFK 192251Z 31021G28KT 10SM BKN060 08/M04 A2968 RMK\ AO2 PK WND 31028/2251 SLP050 T00781044= 201711192351 METAR KJFK 192351Z 30010KT 10SM BKN065 08/M04 A2970 RMK AO2\ SLP057 T00781039 10111 20072 51033= 201711200051 METAR KJFK 200051Z 30014G23KT 10SM OVC075 08/M03 A2972 RMK\ AO2 SLP065 T00781033= 201711200151 METAR KJFK 200151Z 28010KT 10SM SCT050 OVC070 08/M03 A2975\ RMK AO2 CIG 050 W SLP073 T00781028= 201711200251 METAR KJFK 200251Z 27013KT 10SM SCT060 BKN090 06/00 A2977\ RMK AO2 SLP081 T00610000 52024= 201711200351 METAR KJFK 200351Z 32017G25KT 10SM FEW038 OVC060 06/M01 A2980\ RMK AO2 SLP089 VCSH NW-N T00561006= 201711200451 METAR KJFK 200451Z 28017G22KT 10SM FEW035 SCT065 05/M01 A2981\ RMK AO2 SLP095 T00501011 401440044= 201711200551 METAR KJFK 200551Z 28015G21KT 10SM SCT070 05/M03 A2983 RMK\ AO2 SLP102 T00501033 10083 20044\ 51021= 201711200651 METAR KJFK 200651Z 27020KT 10SM OVC060 04/M02 A2986 RMK AO2\ PK WND 27026/0640 RAB23E33 SLP111\ VCSH SE AND W P0000 T00441022= 201711200751 METAR KJFK 200751Z 27014KT 10SM FEW049 BKN060 OVC080 04/M03\ A2989 RMK AO2 PK WND 28028/0715 RAB0657E06\ SLP121 P0000 T00391028= 201711200851 METAR KJFK 200851Z 29012KT 10SM FEW045 BKN075 04/M04 A2992\ RMK AO2 SLP131 60000 T00391039 53029= 201711200951 METAR KJFK 200951Z 28014G21KT 10SM SCT047 SCT080 03/M04 A2995\ RMK AO2 SLP143 T00331044= 201711201051 METAR KJFK 201051Z 28012KT 10SM FEW047 BKN080 03/M03 A2998\ RMK AO2 SLP152 T00331028= 201711201151 METAR KJFK 201151Z 28011G18KT 10SM SCT039 BKN060 03/M03 A3001\ RMK AO2 SNB32E44 SLP160 VCSH NW-NE\ AND SE 931000 P0000 60000 70002 T00331028\ 10050 20028 51029= 201711201251 METAR KJFK 201251Z 28013KT 10SM FEW037 BKN060 03/M04 A3004\ RMK AO2 SLP171 VIRGA SE T00331039= 201711201351 METAR KJFK 201351Z 28016G22KT 10SM FEW042 BKN060 BKN095 04/M03\ A3006 RMK AO2 SLP178 VIRGA N-NE T00441033= 201711201451 METAR KJFK 201451Z 27013KT 10SM SCT044 BKN055 BKN095 05/M04\ A3006 RMK AO2 SLP180 T00501039 51020= 201711201551 METAR KJFK 201551Z 29015KT 10SM FEW038 BKN055 06/M05 A3006\ RMK AO2 SLP180 T00561050= 201711201651 METAR KJFK 201651Z 28014G22KT 10SM FEW042 BKN060 07/M05 A3004\ RMK AO2 SLP173 T00721050= 201711201751 METAR KJFK 201751Z 25014G26KT 10SM SCT060 SCT250 08/M06 A3003\ RMK AO2 PK WND 25026/1745 SLP169\ T00831056 10083 20028 58011= 201711201851 METAR KJFK 201851Z 27017G26KT 10SM FEW065 SCT250 08/M06 A3004\ RMK AO2 PK WND 27026/1843 SLP172\ T00831056= 201711201951 METAR KJFK 201951Z 27018G23KT 10SM FEW065 SCT250 08/M05 A3005\ RMK AO2 SLP177 T00831050= 201711202051 METAR KJFK 202051Z 25015KT 10SM FEW060 SCT250 08/M04 A3008\ RMK AO2 PK WND 27027/1953 SLP186\ T00781039 53017= 201711202151 METAR KJFK 202151Z 25018KT 10SM FEW060 SCT250 07/M03 A3010\ RMK AO2 SLP192 T00721033= 201711202251 METAR KJFK 202251Z 25015KT 10SM SCT250 07/M03 A3011 RMK AO2\ SLP197 T00671028= 201711202351 METAR KJFK 202351Z 25019KT 10SM FEW250 07/M03 A3012 RMK AO2\ SLP199 T00671028 10083 20067 51014= 201711210051 METAR KJFK 210051Z 24017G22KT 10SM FEW250 07/M02 A3013 RMK\ AO2 SLP202 T00721022= 201711210151 METAR KJFK 210151Z 25017KT 10SM FEW250 07/M03 A3013 RMK AO2\ SLP202 T00721028= 201711210251 METAR KJFK 210251Z 26014KT 10SM FEW250 07/M03 A3013 RMK AO2\ SLP204 T00671028 51004= 201711210351 METAR KJFK 210351Z 23015KT 10SM CLR 06/M01 A3015 RMK AO2\ SLP211 T00561011= 201711210451 METAR KJFK 210451Z 25014KT 10SM CLR 06/M01 A3015 RMK AO2\ SLP209 T00611011 400830028= 201711210551 METAR KJFK 210551Z 24016KT 10SM CLR 06/M01 A3014 RMK AO2\ SLP206 T00611006 10072 20056 50002= 201711210651 METAR KJFK 210651Z 25010KT 10SM SCT250 06/M01 A3014 RMK AO2\ SLP206 T00561006= 201711210751 METAR KJFK 210751Z 24012KT 10SM SCT250 06/00 A3015 RMK AO2\ SLP209 T00610000= 201711210851 METAR KJFK 210851Z 24013KT 10SM BKN250 06/01 A3014 RMK AO2\ SLP207 T00610006 50000= 201711210951 METAR KJFK 210951Z 22010KT 10SM BKN250 05/00 A3013 RMK AO2\ SLP204 T00500000= 201711211051 METAR KJFK 211051Z 23014KT 10SM SCT250 05/01 A3015 RMK AO2\ SLP210 T00500006= 201711211151 METAR KJFK 211151Z 23012KT 10SM SCT250 06/01 A3015 RMK AO2\ SLP211 T00610006 10061 20044 53004= 201711211251 METAR KJFK 211251Z 23014KT 10SM BKN250 08/02 A3016 RMK AO2\ SLP212 T00780022= 201711211351 METAR KJFK 211351Z 21017KT 10SM SCT250 09/02 A3016 RMK AO2\ SLP212 T00940017= 201711211451 METAR KJFK 211451Z 21014KT 10SM FEW170 SCT250 11/02 A3015\ RMK AO2 SLP210 T01110022 58000= 201711211551 METAR KJFK 211551Z 20014KT 10SM FEW170 SCT250 12/02 A3014\ RMK AO2 SLP205 T01220022= 201711211651 METAR KJFK 211651Z 22019KT 10SM FEW170 BKN250 14/01 A3011\ RMK AO2 SLP196 T01390006= 201711211751 METAR KJFK 211751Z 20013KT 10SM BKN250 14/02 A3008 RMK AO2\ SLP186 T01390017 10139 20056 58025= 201711211851 METAR KJFK 211851Z 19013KT 10SM FEW200 BKN250 13/07 A3006\ RMK AO2 SLP179 T01330067= 201711211951 METAR KJFK 211951Z 19014KT 10SM BKN250 12/06 A3005 RMK AO2\ SLP174 T01220056= 201711212051 METAR KJFK 212051Z 19015KT 10SM BKN250 12/06 A3004 RMK AO2\ SLP172 T01170061 56014= 201711212151 METAR KJFK 212151Z 19015KT 10SM BKN250 11/07 A3004 RMK AO2\ SLP172 T01110067= 201711212251 METAR KJFK 212251Z 19016KT 10SM BKN250 11/06 A3005 RMK AO2\ SLP175 T01110061= 201711212351 METAR KJFK 212351Z 20015KT 10SM BKN250 11/06 A3007 RMK AO2\ SLP181 T01110056 10139 20111 53009= 201711220051 METAR KJFK 220051Z 20011KT 10SM BKN250 10/06 A3007 RMK AO2\ SLP182 T01000061= 201711220151 METAR KJFK 220151Z 22007KT 10SM BKN250 09/06 A3007 RMK AO2\ SLP181 T00940056= 201711220251 METAR KJFK 220251Z 22008KT 10SM BKN250 09/06 A3007 RMK AO2\ SLP181 T00940061 50000= 201711220351 METAR KJFK 220351Z 24007KT 10SM FEW050 BKN250 10/06 A3005\ RMK AO2 SLP177 T01000061= 201711220451 METAR KJFK 220451Z 20007KT 10SM FEW040 OVC220 09/06 A3005\ RMK AO2 SLP174 T00890061 401390044= 201711220551 METAR KJFK 220551Z 17005KT 10SM FEW050 OVC220 09/07 A3002\ RMK AO2 SLP166 T00890067 10111 20089\ 58015= 201711220651 METAR KJFK 220651Z 00000KT 10SM FEW050 OVC210 09/07 A3000\ RMK AO2 SLP159 T00890072= 201711220751 METAR KJFK 220751Z 00000KT 10SM SCT047 BKN090 OVC210 11/08\ A2999 RMK AO2 SLP154 T01060083= 201711220851 METAR KJFK 220851Z 00000KT 10SM FEW049 BKN110 09/08 A2996\ RMK AO2 SLP145 T00890078 58021= 201711220951 METAR KJFK 220951Z 00000KT 8SM -RA BKN045 OVC110 10/08 A2994\ RMK AO2 RAB46 SLP139 P0000 T01000083= 201711221051 METAR KJFK 221051Z 00000KT 10SM -RA BKN033 OVC060 11/10 A2992\ RMK AO2 SLP131 P0001 T01110100= 201711221151 METAR KJFK 221151Z 15004KT 5SM RA BR SCT008 BKN021 OVC033\ 11/11 A2992 RMK AO2 SLP132 SCT V\ BKN P0010 60011 70011 T01060106 10111\ 20083 55013= 201711221251 METAR KJFK 221251Z 00000KT 6SM RA BR OVC006 11/11 A2991 RMK\ AO2 SLP130 P0008 T01110111= 201711221351 METAR KJFK 221351Z 28006KT 6SM -RA BR FEW006 BKN015 OVC055\ 12/12 A2991 RMK AO2 SLP126 P0011\ T01170117= 201711221451 METAR KJFK 221451Z 30009KT 10SM FEW009 BKN017 BKN060 OVC200\ 12/11 A2989 RMK AO2 RAE47 SLP122\ BKN017 V SCT VCSH NE-SE P0004 60023\ T01220111 58010= 201711221551 METAR KJFK 221551Z 02006KT 10SM FEW020 BKN047 OVC080 12/08\ A2989 RMK AO2 SLP121 RAB02E17 P0001\ T01170083= 201711221651 METAR KJFK 221651Z 32008KT 10SM FEW025 BKN065 BKN095 OVC220\ 12/08 A2989 RMK AO2 RAB1552E47 SLP120\ P0000 T01170083= 201711221751 METAR KJFK 221751Z 32020KT 10SM FEW025 BKN070 BKN110 11/07\ A2987 RMK AO2 RAB1656E38 SLP116 P0000\ 60024 T01110067 10122 20106 58006= 201711221851 METAR KJFK 221851Z 30019KT 10SM FEW026 BKN033 BKN100 11/04\ A2988 RMK AO2 PK WND 31027/1829 SLP118\ T01110044= 201711221951 METAR KJFK 221951Z 30017G21KT 10SM BKN037 BKN048 11/04 A2990\ RMK AO2 PK WND 30027/1920 SLP123\ T01060039= 201711222051 METAR KJFK 222051Z 31022G26KT 10SM SCT041 SCT250 09/01 A2994\ RMK AO2 PK WND 30027/2037 SLP137\ T00940006 53021= 201711222151 METAR KJFK 222151Z 32022G31KT 10SM SCT042 SCT250 07/M01 A2997\ RMK AO2 PK WND 31031/2143 SLP147\ T00721011= 201711222251 METAR KJFK 222251Z 31019KT 10SM SCT042 06/M02 A2999 RMK AO2\ PK WND 30031/2200 SLP156 T00611022= 201711222351 METAR KJFK 222351Z 32015G27KT 10SM BKN042 06/M03 A3001 RMK\ AO2 PK WND 30028/2253 SLP163 T00561028\ 10122 20056 51026= 201711230051 METAR KJFK 230051Z 31018G25KT 10SM FEW042 04/M03 A3005 RMK\ AO2 PK WND 30033/0020 SLP174 T00441033= 201711230151 METAR KJFK 230151Z 30018G24KT 10SM FEW040 03/M04 A3006 RMK\ AO2 PK WND 30029/0057 SLP179 T00331044= 201711230251 METAR KJFK 230251Z 31014G22KT 10SM FEW040 03/M05 A3008 RMK\ AO2 SLP185 T00281050 51023= 201711230351 METAR KJFK 230351Z 31018G23KT 10SM FEW040 02/M06 A3009 RMK\ AO2 SLP189 T00221056= 201711230451 METAR KJFK 230451Z 31014KT 10SM FEW044 02/M06 A3010 RMK AO2\ SLP191 T00171061 401720017= 201711230551 METAR KJFK 230551Z 32014G22KT 10SM FEW045 01/M07 A3008 RMK\ AO2 SLP186 T00111067 10056 20011\ 50001= 201711230651 METAR KJFK 230651Z 32013KT 10SM CLR 01/M07 A3010 RMK AO2\ SLP193 T00061067= 201711230751 METAR KJFK 230751Z 32013KT 10SM CLR 01/M07 A3010 RMK AO2\ SLP192 T00061067= 201711230851 METAR KJFK 230851Z 33011G19KT 10SM CLR 00/M07 A3009 RMK AO2\ SLP190 T00001067 50004= 201711230951 METAR KJFK 230951Z 33012KT 10SM CLR 00/M07 A3009 RMK AO2\ SLP188 T00001067= 201711231051 METAR KJFK 231051Z 33009KT 10SM CLR 00/M07 A3010 RMK AO2\ SLP192 T00001067= 201711231151 METAR KJFK 231151Z 32007KT 10SM FEW035 FEW310 00/M07 A3012\ RMK AO2 SLP200 70024 T00001067 10011\ 21006 53010= 201711231251 METAR KJFK 231251Z 33004KT 10SM FEW035 FEW310 01/M06 A3013\ RMK AO2 SLP203 T00061061= 201711231351 METAR KJFK 231351Z 32008KT 10SM FEW038 FEW300 02/M06 A3013\ RMK AO2 SLP204 T00221061= 201711231451 METAR KJFK 231451Z 35008KT 10SM FEW042 FEW300 03/M06 A3013\ RMK AO2 SLP202 T00281061 50001= 201711231551 METAR KJFK 231551Z 36009KT 10SM FEW045 FEW300 04/M06 A3011\ RMK AO2 SLP194 T00391061= 201711231651 METAR KJFK 231651Z VRB03KT 10SM FEW050 FEW300 04/M07 A3008\ RMK AO2 SLP186 T00391067= 201711231751 METAR KJFK 231751Z 31008KT 10SM FEW050 FEW300 06/M07 A3007\ RMK AO2 SLP180 T00561067 10056 21006\ 56021= 201711231851 METAR KJFK 231851Z 26005KT 10SM FEW055 FEW180 FEW300 06/M07\ A3004 RMK AO2 SLP173 T00561072= 201711231951 METAR KJFK 231951Z 31005KT 10SM FEW180 FEW300 06/M07 A3003\ RMK AO2 SLP170 T00611072= 201711232051 METAR KJFK 232051Z 22008KT 10SM FEW160 FEW250 05/M07 A3003\ RMK AO2 SLP168 T00501067 56012= 201711232151 METAR KJFK 232151Z 22009KT 10SM FEW250 03/M04 A3003 RMK AO2\ SLP169 T00331044= 201711232251 METAR KJFK 232251Z 24007KT 10SM SCT250 02/M04 A3003 RMK AO2\ SLP168 T00221039= 201711232351 METAR KJFK 232351Z 25011KT 10SM FEW160 SCT250 04/M04 A3004\ RMK AO2 SLP172 T00441044 10061 20022\ 53004= 201711240051 METAR KJFK 240051Z 26012KT 10SM FEW190 SCT250 04/M05 A3003\ RMK AO2 SLP167 T00391050= 201711240151 METAR KJFK 240151Z 26008KT 10SM FEW190 FEW250 03/M05 A3004\ RMK AO2 SLP170 T00331050= 201711240251 METAR KJFK 240251Z 26011KT 10SM FEW250 03/M05 A3005 RMK AO2\ SLP177 T00331050 53004= 201711240351 METAR KJFK 240351Z 27005KT 10SM FEW250 03/M06 A3005 RMK AO2\ SLP176 T00281056= 201711240451 METAR KJFK 240451Z 29006KT 10SM FEW250 03/M06 A3005 RMK AO2\ SLP177 T00281056 400611006= 201711240551 METAR KJFK 240551Z 27006KT 10SM CLR 03/M06 A3005 RMK AO2\ SLP175 T00281056 10044 20022 58001= 201711240651 METAR KJFK 240651Z 26005KT 10SM CLR 01/M04 A3005 RMK AO2\ SLP174 T00111044= 201711240751 METAR KJFK 240751Z 28006KT 10SM CLR 02/M04 A3005 RMK AO2\ SLP176 T00221044= 201711240851 METAR KJFK 240851Z 27006KT 10SM CLR 02/M04 A3005 RMK AO2\ SLP174 T00221044 58001= 201711240951 METAR KJFK 240951Z 25009KT 10SM CLR 01/M04 A3005 RMK AO2\ SLP176 T00061039= 201711241051 METAR KJFK 241051Z 24008KT 10SM CLR 01/M04 A3006 RMK AO2\ SLP178 T00111039= 201711241151 METAR KJFK 241151Z 25005KT 10SM FEW070 FEW250 01/M03 A3007\ RMK AO2 SLP182 T00111033 10028 20006\ 53008= 201711241251 METAR KJFK 241251Z 26007KT 10SM FEW250 03/M03 A3007 RMK AO2\ SLP183 T00281033= 201711241351 METAR KJFK 241351Z 00000KT 10SM CLR 04/M04 A3007 RMK AO2\ SLP183 T00441039= 201711241451 METAR KJFK 241451Z 24005KT 10SM CLR 06/M03 A3007 RMK AO2\ SLP183 T00561028 51001= 201711241551 METAR KJFK 241551Z 23005KT 10SM CLR 07/M03 A3006 RMK AO2\ SLP179 T00671033= 201711241651 METAR KJFK 241651Z 24006KT 10SM CLR 08/M04 A3005 RMK AO2\ SLP174 T00781039= 201711241751 METAR KJFK 241751Z 24008KT 10SM CLR 08/M05 A3003 RMK AO2\ SLP169 T00831050 10083 20006 58014= 201711241851 METAR KJFK 241851Z 24007KT 10SM CLR 09/M04 A3001 RMK AO2\ SLP160 T00891044= 201711241951 METAR KJFK 241951Z 20006KT 10SM FEW250 08/M02 A2999 RMK AO2\ SLP154 T00831022= 201711242051 METAR KJFK 242051Z 18008KT 10SM FEW250 08/M01 A2998 RMK AO2\ SLP153 T00781011 56016= 201711242151 METAR KJFK 242151Z 18007KT 10SM FEW250 07/01 A2999 RMK AO2\ SLP154 T00670006= 201711242251 METAR KJFK 242251Z 20012KT 10SM CLR 08/01 A2999 RMK AO2 SLP154\ T00780006= 201711242351 METAR KJFK 242351Z 22008KT 10SM CLR 07/02 A2999 RMK AO2 SLP155\ T00720017 10089 20061 51002= 201711250051 METAR KJFK 250051Z 22007KT 10SM CLR 07/02 A2999 RMK AO2 SLP155\ T00720017= 201711250151 METAR KJFK 250151Z 20011KT 10SM CLR 07/02 A2999 RMK AO2 SLP154\ T00670022= 201711250251 METAR KJFK 250251Z 22008KT 10SM CLR 06/02 A2997 RMK AO2 SLP150\ T00560017 58005= 201711250351 METAR KJFK 250351Z 22008KT 10SM CLR 05/00 A2997 RMK AO2 SLP147\ T00500000= 201711250451 METAR KJFK 250451Z 25009KT 10SM CLR 05/01 A2995 RMK AO2 SLP143\ T00500011 400890006= 201711250551 METAR KJFK 250551Z 22008KT 10SM CLR 05/02 A2994 RMK AO2 SLP138\ T00500017 10078 20044 58011= 201711250651 METAR KJFK 250651Z 24004KT 10SM CLR 04/01 A2992 RMK AO2 SLP132\ T00440011= 201711250751 METAR KJFK 250751Z 23008KT 10SM CLR 03/02 A2991 RMK AO2 SLP128\ T00330017= 201711250851 METAR KJFK 250851Z 22008KT 10SM CLR 04/02 A2989 RMK AO2 SLP120\ T00390022 58018= 201711250951 METAR KJFK 250951Z 24005KT 10SM CLR 06/03 A2988 RMK AO2 SLP118\ T00560028= 201711251051 METAR KJFK 251051Z 23007KT 10SM CLR 03/01 A2987 RMK AO2 SLP113\ T00330006= 201711251151 METAR KJFK 251151Z 24008KT 10SM FEW050 FEW250 03/02 A2986\ RMK AO2 SLP109 T00330017 10056 20028\ 58011= 201711251251 METAR KJFK 251251Z 21005KT 10SM SCT250 06/03 A2984 RMK AO2\ SLP105 T00610028= 201711251351 METAR KJFK 251351Z 22011KT 10SM BKN250 08/05 A2985 RMK AO2\ SLP106 T00830050= 201711251451 METAR KJFK 251451Z 23010KT 10SM FEW050 FEW120 BKN250 08/05\ A2983 RMK AO2 SLP100 VIRGA ALQDS\ T00830050 58009= 201711251551 METAR KJFK 251551Z 21010KT 10SM FEW120 SCT200 BKN250 09/03\ A2980 RMK AO2 SLP092 VIRGA ALQDS\ T00890033= 201711251651 METAR KJFK 251651Z 19009KT 10SM FEW120 FEW200 SCT250 11/03\ A2976 RMK AO2 SLP078 VIRGA E T01060033= 201711251751 METAR KJFK 251751Z 18007KT 10SM FEW120 FEW200 SCT250 11/04\ A2972 RMK AO2 PRESFR SLP065 VIRGA\ E T01110039 10111 20033 58035= 201711251851 METAR KJFK 251851Z 20009KT 10SM FEW200 BKN250 12/06 A2972\ RMK AO2 SLP063 T01170056= 201711251951 METAR KJFK 251951Z 19008KT 10SM BKN210 11/07 A2970 RMK AO2\ SLP056 T01110067= 201711252051 METAR KJFK 252051Z 18009KT 10SM BKN210 11/07 A2969 RMK AO2\ SLP053 T01060072 58012= 201711252151 METAR KJFK 252151Z 19007KT 10SM BKN210 11/08 A2969 RMK AO2\ SLP053 T01060083= 201711252251 METAR KJFK 252251Z 23008KT 10SM SCT120 BKN200 11/07 A2970\ RMK AO2 SLP058 T01110067= 201711252351 METAR KJFK 252351Z 25009KT 10SM BKN100 OVC190 11/05 A2971\ RMK AO2 SLP059 T01110050 10122 20094\ 53005= 201711260051 METAR KJFK 260051Z 25008KT 10SM FEW065 SCT100 BKN190 OVC240\ 11/03 A2972 RMK AO2 SLP064 T01110033= 201711260151 METAR KJFK 260151Z 28011KT 10SM FEW065 SCT200 OVC250 12/02\ A2973 RMK AO2 SLP066 T01220017= 201711260251 METAR KJFK 260251Z 26011KT 10SM OVC075 12/02 A2973 RMK AO2\ SLP066 T01170022 51008= 201711260351 METAR KJFK 260351Z 26011KT 10SM FEW075 FEW110 SCT190 11/02\ A2974 RMK AO2 SLP070 T01060022= 201711260451 METAR KJFK 260451Z 27010KT 10SM SCT080 BKN200 11/03 A2975\ RMK AO2 SLP074 T01060028 401220028= 201711260551 METAR KJFK 260551Z 30011KT 10SM BKN090 BKN220 11/02 A2976\ RMK AO2 SLP078 T01110022 10122 20100\ 53012= 201711260651 METAR KJFK 260651Z 32017KT 10SM SCT090 BKN240 10/02 A2979\ RMK AO2 SLP087 T01000022= 201711260751 METAR KJFK 260751Z 31014KT 10SM BKN085 09/01 A2980 RMK AO2\ SLP092 T00940006= 201711260851 METAR KJFK 260851Z 31018KT 10SM SCT080 09/M01 A2983 RMK AO2\ PK WND 30027/0841 SLP100 T00891006\ 51022= 201711260951 METAR KJFK 260951Z 29012G18KT 10SM FEW080 08/01 A2985 RMK\ AO2 SLP107 T00780011= 201711261051 METAR KJFK 261051Z 30012KT 10SM FEW065 08/00 A2987 RMK AO2\ SLP116 T00780000= 201711261151 METAR KJFK 261151Z 28009KT 10SM FEW030 FEW065 07/01 A2990\ RMK AO2 SLP126 T00720011 10111 20067\ 53025= 201711261251 METAR KJFK 261251Z 28013KT 10SM SCT046 BKN065 08/01 A2993\ RMK AO2 SLP134 T00830006= 201711261351 METAR KJFK 261351Z 30019G29KT 10SM BKN045 BKN060 BKN130 08/M02\ A2994 RMK AO2 PK WND 31029/1345 SLP139\ ACSL SE T00831017= 201711261451 METAR KJFK 261451Z 31021G32KT 10SM FEW045 FEW060 SCT250 08/M02\ A2995 RMK AO2 PK WND 31032/1447 SLP141\ T00831022 51016= 201711261551 METAR KJFK 261551Z 33021G27KT 10SM FEW045 FEW060 SCT250 08/M02\ A2996 RMK AO2 PK WND 32031/1510 SLP146\ T00831022= 201711261651 METAR KJFK 261651Z 29017G23KT 10SM FEW045 SCT250 08/M03 A2996\ RMK AO2 PK WND 33028/1605 SLP146\ T00831033= 201711261751 METAR KJFK 261751Z 29015KT 10SM FEW050 SCT250 08/M04 A2996\ RMK AO2 SLP144 T00831039 10089 20072\ 50002= 201711261851 METAR KJFK 261851Z 30014KT 10SM FEW050 BKN240 08/M04 A2993\ RMK AO2 PK WND 32026/1809 SLP136\ T00781039= 201711261951 METAR KJFK 261951Z 31015KT 10SM FEW050 BKN220 08/M04 A2995\ RMK AO2 SLP142 T00781044= 201711262051 METAR KJFK 262051Z 30014KT 10SM FEW050 BKN190 BKN250 07/M04\ A2996 RMK AO2 SLP145 T00721044 53001= 201711262151 METAR KJFK 262151Z 31012G19KT 10SM BKN200 BKN250 07/M04 A2997\ RMK AO2 SLP149 T00721044= 201711262251 METAR KJFK 262251Z 30010KT 10SM BKN210 BKN250 07/M04 A2998\ RMK AO2 SLP153 T00671044= 201711262351 METAR KJFK 262351Z 31008KT 10SM SCT200 SCT250 06/M04 A3000\ RMK AO2 SLP157 T00561044 10089 20056\ 51012= 201711270051 METAR KJFK 270051Z 30006KT 10SM FEW200 05/M04 A3001 RMK AO2\ SLP160 T00501039= 201711270151 METAR KJFK 270151Z 28008KT 10SM CLR 05/M04 A3001 RMK AO2\ SLP161 T00501039= 201711270251 METAR KJFK 270251Z 25010KT 10SM FEW250 05/M03 A3000 RMK AO2\ SLP157 T00501028 50001= 201711270351 METAR KJFK 270351Z 28011KT 10SM BKN210 05/M04 A3000 RMK AO2\ SLP157 T00501039= 201711270451 METAR KJFK 270451Z 26009KT 10SM BKN200 05/M03 A2999 RMK AO2\ SLP154 T00501033 401110044= 201711270551 METAR KJFK 270551Z 25012KT 10SM SCT200 BKN250 04/M03 A2999\ RMK AO2 SLP154 T00441033 10061 20044\ 56003= 201711270651 METAR KJFK 270651Z 26013KT 10SM BKN180 BKN250 04/M03 A2999\ RMK AO2 SLP155 T00441033= 201711270751 METAR KJFK 270751Z 26012KT 10SM OVC190 04/M03 A2998 RMK AO2\ SLP151 T00441033= 201711270851 METAR KJFK 270851Z 26013KT 10SM BKN180 OVC250 04/M03 A2998\ RMK AO2 SLP152 T00441033 58002= 201711270951 METAR KJFK 270951Z 27012KT 10SM SCT250 04/M03 A2999 RMK AO2\ SLP155 T00441033= 201711271051 METAR KJFK 271051Z 27014KT 10SM FEW190 FEW250 04/M03 A3001\ RMK AO2 SLP162 T00441033= 201711271151 METAR KJFK 271151Z 27017KT 10SM FEW035 FEW190 FEW250 04/M03\ A3003 RMK AO2 SLP169 T00441033 10050\ 20044 53017= 201711271251 METAR KJFK 271251Z 27012KT 10SM FEW190 FEW250 06/M02 A3005\ RMK AO2 SLP176 T00561022= 201711271351 METAR KJFK 271351Z 28012KT 10SM FEW048 SCT160 SCT330 07/M02\ A3006 RMK AO2 SLP180 T00721022= 201711271451 METAR KJFK 271451Z 28013G20KT 10SM FEW050 FEW160 BKN330 08/M03\ A3006 RMK AO2 SLP180 T00781028 50011= 201711271551 METAR KJFK 271551Z 30016G22KT 10SM FEW050 BKN330 09/M02 A3006\ RMK AO2 SLP178 T00941022= 201711271651 METAR KJFK 271651Z 29013KT 10SM FEW055 FEW140 BKN310 09/M03\ A3005 RMK AO2 SLP174 T00941028= 201711271751 METAR KJFK 271751Z 30013KT 10SM FEW055 SCT300 10/M03 A3004\ RMK AO2 SLP173 T01001033 10106 20044\ 56007= 201711271851 METAR KJFK 271851Z 31016KT 10SM FEW055 SCT300 11/M03 A3004\ RMK AO2 SLP172 T01061033= 201711271951 METAR KJFK 271951Z 30016KT 10SM FEW060 SCT270 11/M04 A3005\ RMK AO2 SLP175 T01111039= 201711272051 METAR KJFK 272051Z 31011KT 10SM SCT260 11/M04 A3008 RMK AO2\ SLP187 T01061039 53014= 201711272151 METAR KJFK 272151Z 33007KT 10SM SCT260 09/M04 A3012 RMK AO2\ SLP198 T00891039= 201711272251 METAR KJFK 272251Z 33011KT 10SM SCT250 09/M04 A3015 RMK AO2\ SLP210 T00891044= 201711272351 METAR KJFK 272351Z 34010KT 10SM SCT250 07/M04 A3020 RMK AO2\ SLP225 T00721044 10111 20072 53038= 201711280051 METAR KJFK 280051Z 35008KT 10SM BKN250 07/M04 A3022 RMK AO2\ SLP234 T00721039= 201711280151 METAR KJFK 280151Z 36009KT 10SM BKN250 06/M04 A3024 RMK AO2\ SLP241 T00611044= 201711280251 METAR KJFK 280251Z 01009KT 10SM BKN250 05/M04 A3026 RMK AO2\ SLP246 T00501044 51020= 201711280351 METAR KJFK 280351Z 34007KT 10SM FEW250 04/M04 A3030 RMK AO2\ SLP260 T00391044= 201711280451 METAR KJFK 280451Z 35004KT 10SM FEW250 03/M04 A3031 RMK AO2\ SLP264 T00331044 401110033= 201711280551 METAR KJFK 280551Z 02007KT 10SM FEW250 03/M04 A3031 RMK AO2\ SLP264 T00281039 10078 20017 51019= 201711280651 METAR KJFK 280651Z 08004KT 10SM BKN250 02/M03 A3034 RMK AO2\ SLP275 T00221033= 201711280751 METAR KJFK 280751Z 04004KT 10SM BKN250 01/M03 A3036 RMK AO2\ SLP281 T00111033= 201711280851 METAR KJFK 280851Z 04005KT 10SM BKN250 01/M04 A3037 RMK AO2\ SLP285 T00061039 51021= 201711280951 METAR KJFK 280951Z 04004KT 10SM BKN250 01/M04 A3039 RMK AO2\ SLP291 T00061039= 201711281051 METAR KJFK 281051Z 11003KT 10SM SCT250 01/M03 A3043 RMK AO2\ SLP302 T00061033= 201711281151 METAR KJFK 281151Z 08006KT 10SM SCT250 00/M03 A3043 RMK AO2\ SLP303 T00001033 10033 21006 51018= 201711281251 METAR KJFK 281251Z 07008KT 10SM SCT250 02/M03 A3045 RMK AO2\ SLP309 T00171033= 201711281351 METAR KJFK 281351Z 07009KT 10SM FEW180 SCT250 03/M04 A3045\ RMK AO2 SLP312 T00331039= 201711281451 METAR KJFK 281451Z 09009KT 10SM BKN250 06/M03 A3047 RMK AO2\ SLP317 T00611028 52014= 201711281551 METAR KJFK 281551Z 09011KT 10SM SCT250 07/M01 A3046 RMK AO2\ SLP313 T00721006= 201711281651 METAR KJFK 281651Z 10007KT 10SM FEW042 SCT250 08/01 A3043\ RMK AO2 SLP304 T00830006= 201711281751 METAR KJFK 281751Z 13011KT 10SM FEW040 FEW250 10/02 A3041\ RMK AO2 SLP296 T01000017 10100 20000\ 58021= 201711281851 METAR KJFK 281851Z 16011KT 10SM SCT031 SCT250 10/03 A3039\ RMK AO2 SLP291 T01000033= 201711281951 METAR KJFK 281951Z 16010KT 10SM BKN029 BKN250 10/05 A3037\ RMK AO2 SLP285 T01000050= 201711282051 METAR KJFK 282051Z 17011KT 10SM BKN029 11/06 A3035 RMK AO2\ SLP276 T01060061 58020= 201711282151 METAR KJFK 282151Z 17009KT 10SM FEW024 11/08 A3033 RMK AO2\ SLP269 T01060083= 201711282251 METAR KJFK 282251Z 18013KT 10SM FEW024 11/08 A3032 RMK AO2\ SLP265 T01110083= 201711282351 METAR KJFK 282351Z 19015KT 10SM CLR 11/09 A3030 RMK AO2 SLP261\ T01060089 10111 20100 56015= 201711290051 METAR KJFK 290051Z 20014KT 10SM CLR 11/08 A3031 RMK AO2 SLP262\ T01060083= 201711290151 METAR KJFK 290151Z 20013KT 10SM CLR 10/09 A3030 RMK AO2 SLP258\ T01000089= 201711290251 METAR KJFK 290251Z 20009KT 10SM CLR 09/08 A3028 RMK AO2 SLP253\ T00940078 58008= 201711290351 METAR KJFK 290351Z 20007KT 10SM CLR 08/07 A3025 RMK AO2 SLP244\ T00780072= 201711290451 METAR KJFK 290451Z 21006KT 10SM CLR 08/07 A3022 RMK AO2 SLP234\ T00780067 401111006= 201711290551 METAR KJFK 290551Z 21011KT 10SM CLR 09/08 A3018 RMK AO2 SLP218\ T00940078 10106 20072 58035= 201711290651 METAR KJFK 290651Z 23009KT 10SM FEW040 09/08 A3017 RMK AO2\ SLP217 T00940083= 201711290751 METAR KJFK 290751Z 21014KT 10SM FEW040 10/09 A3015 RMK AO2\ SLP208 T01000089= 201711290851 METAR KJFK 290851Z 23010KT 10SM CLR 09/08 A3013 RMK AO2 SLP201\ T00890083 58017= 201711290951 METAR KJFK 290951Z 23007KT 9SM CLR 07/07 A3011 RMK AO2 SLP196\ T00720072= 201711291051 METAR KJFK 291051Z 24010KT 10SM CLR 08/08 A3009 RMK AO2 SLP190\ T00830078= 201711291151 METAR KJFK 291151Z 25011KT 9SM FEW040 SCT085 08/08 A3010\ RMK AO2 SLP193 T00830078 10100 20072\ 55008= 201711291251 METAR KJFK 291251Z 24012KT 9SM BKN085 09/08 A3009 RMK AO2\ SLP190 T00890083= 201711291351 METAR KJFK 291351Z 25013KT 10SM SCT085 SCT250 10/07 A3010\ RMK AO2 SLP192 T01000067= 201711291451 METAR KJFK 291451Z 26010KT 10SM BKN085 11/06 A3010 RMK AO2\ SLP192 T01060061 56002= 201711291551 METAR KJFK 291551Z 27014KT 10SM FEW085 SCT250 14/03 A3009\ RMK AO2 SLP188 T01390033= 201711291651 METAR KJFK 291651Z 27015G22KT 10SM FEW250 16/02 A3007 RMK\ AO2 SLP182 T01610017= 201711291751 METAR KJFK 291751Z 27012KT 10SM FEW060 FEW250 17/01 A3007\ RMK AO2 SLP182 T01720011 10172 20083\ 56010= 201711291851 METAR KJFK 291851Z 29017G25KT 10SM FEW250 18/00 A3006 RMK\ AO2 SLP179 T01780000= 201711291951 METAR KJFK 291951Z 32020G26KT 10SM FEW250 18/M03 A3008 RMK\ AO2 PK WND 31026/1938 SLP187 T01781033= 201711292051 METAR KJFK 292051Z 34020G25KT 10SM FEW250 16/M06 A3013 RMK\ AO2 PK WND 33027/1952 SLP201 T01561061\ 53019= 201711292151 METAR KJFK 292151Z 33017G28KT 10SM FEW250 13/M04 A3018 RMK\ AO2 PK WND 34028/2145 SLP218 T01281039= 201711292251 METAR KJFK 292251Z 33020G26KT 10SM FEW250 12/M04 A3021 RMK\ AO2 PK WND 33026/2243 SLP231 T01171044= 201711292351 METAR KJFK 292351Z 35013KT 10SM FEW250 11/M03 A3026 RMK AO2\ SLP245 T01061028 10178 20100 51044= 201711300051 METAR KJFK 300051Z 33010KT 10SM CLR 09/M03 A3027 RMK AO2\ SLP248 T00891028= 201711300151 METAR KJFK 300151Z 36010KT 10SM CLR 08/M03 A3030 RMK AO2\ SLP260 T00831028= 201711300251 METAR KJFK 300251Z 36007KT 10SM CLR 07/M03 A3030 RMK AO2\ SLP261 T00721028 51016= 201711300351 METAR KJFK 300351Z 36008KT 10SM CLR 06/M03 A3032 RMK AO2\ SLP268 T00611033= 201711300451 METAR KJFK 300451Z 01013KT 10SM CLR 06/M03 A3032 RMK AO2\ SLP267 T00561033 401780044= 201711300551 METAR KJFK 300551Z 02010KT 10SM CLR 05/M03 A3031 RMK AO2\ SLP264 T00501033 10106 20044 50003= 201711300651 METAR KJFK 300651Z 03004KT 10SM CLR 04/M03 A3032 RMK AO2\ SLP268 T00391033= 201711300751 METAR KJFK 300751Z 36005KT 10SM FEW250 03/M03 A3035 RMK AO2\ SLP275 T00281028= 201711300851 METAR KJFK 300851Z 36006KT 10SM FEW250 02/M03 A3034 RMK AO2\ SLP274 T00221028 50010= 201711300951 METAR KJFK 300951Z 32005KT 10SM SCT250 02/M03 A3037 RMK AO2\ SLP282 T00221028= 201711301051 METAR KJFK 301051Z 01007KT 10SM BKN250 03/M02 A3035 RMK AO2\ SLP277 T00281022= 201711301151 METAR KJFK 301151Z 03006KT 10SM BKN250 03/M02 A3035 RMK AO2\ PRESRR SLP275 T00281022 10050 20017\ 50001= 201711301251 METAR KJFK 301251Z 00000KT 10SM FEW035 BKN240 03/M02 A3035\ RMK AO2 SLP277 T00281022= 201711301351 METAR KJFK 301351Z 06010KT 10SM FEW035 OVC220 04/M02 A3033\ RMK AO2 SLP270 T00391022= 201711301451 METAR KJFK 301451Z 04005KT 10SM FEW040 BKN230 05/M02 A3032\ RMK AO2 SLP268 T00501022 58007= 201711301551 METAR KJFK 301551Z 04004KT 10SM FEW033 BKN220 06/M01 A3031\ RMK AO2 SLP262 T00611011= 201711301651 METAR KJFK 301651Z 03004KT 10SM BKN034 BKN220 08/01 A3027\ RMK AO2 SLP250 T00780006= 201711301751 METAR KJFK 301751Z 04003KT 10SM SCT038 BKN250 09/02 A3023\ RMK AO2 SLP238 T00890017 10094 20028\ 58030= 201711301851 METAR KJFK 301851Z 09003KT 10SM BKN035 BKN250 10/03 A3019\ RMK AO2 SLP224 BKN035 V SCT T01000033= 201711301951 METAR KJFK 301951Z 13007KT 10SM FEW027 SCT036 SCT065 SCT250\ 11/05 A3016 RMK AO2 SLP214 T01060050= 201711302051 METAR KJFK 302051Z 12003KT 10SM FEW036 SCT070 10/06 A3013\ RMK AO2 SLP203 T01000056 56035= 201711302151 METAR KJFK 302151Z 13005KT 10SM FEW031 FEW070 SCT250 09/07\ A3011 RMK AO2 SLP195 T00890067= 201711302251 METAR KJFK 302251Z 15007KT 10SM SCT028 SCT070 BKN250 08/07\ A3009 RMK AO2 SLP189 T00830067= 201711302351 METAR KJFK 302351Z 17008KT 10SM BKN025 BKN250 11/08 A3008\ RMK AO2 SLP185 T01060083 10106 20083\ 56018=}
