 201708010051 METAR KJFK 010051Z 19008KT 10SM FEW040 FEW060 FEW130 FEW250\ 24/18 A3004 RMK AO2 SLP173 T02390183= 201708010151 METAR KJFK 010151Z 19009KT 10SM FEW250 24/19 A3005 RMK AO2\ SLP175 T02390189= 201708010251 METAR KJFK 010251Z 19007KT 10SM CLR 23/19 A3004 RMK AO2 SLP173\ T02330194 50002= 201708010351 METAR KJFK 010351Z 22004KT 10SM FEW250 23/21 A3003 RMK AO2\ SLP169 T02280206= 201708010451 METAR KJFK 010451Z 22005KT 10SM FEW250 22/19 A3003 RMK AO2\ SLP167 T02220189 403000189= 201708010551 METAR KJFK 010551Z 20004KT 10SM FEW250 22/19 A3002 RMK AO2\ SLP165 T02220194 10244 20217 56008= 201708010651 METAR KJFK 010651Z 20005KT 10SM CLR 22/20 A3002 RMK AO2 SLP164\ T02170200= 201708010751 METAR KJFK 010751Z 21004KT 10SM CLR 22/20 A3002 RMK AO2 SLP164\ T02170200= 201708010851 METAR KJFK 010851Z 22003KT 10SM CLR 22/21 A3002 RMK AO2 SLP166\ T02170206 53001= 201708010951 METAR KJFK 010951Z 01003KT 10SM CLR 21/20 A3003 RMK AO2 SLP169\ T02110200= 201708011051 METAR KJFK 011051Z 36006KT 10SM CLR 23/19 A3004 RMK AO2 SLP172\ T02280194= 201708011151 METAR KJFK 011151Z 36005KT 10SM CLR 26/19 A3005 RMK AO2 SLP176\ T02560194 10256 20206 53010= 201708011251 METAR KJFK 011251Z 02010KT 10SM CLR 27/18 A3006 RMK AO2 SLP178\ T02720183= 201708011351 METAR KJFK 011351Z 03008KT 10SM CLR 29/18 A3006 RMK AO2 SLP178\ T02890183= 201708011451 METAR KJFK 011451Z VRB04KT 10SM FEW047 30/18 A3006 RMK AO2\ SLP178 T03000183 50002= 201708011551 METAR KJFK 011551Z 18004KT 10SM FEW055 30/18 A3005 RMK AO2\ SLP175 T03000178= 201708011651 METAR KJFK 011651Z 19012KT 10SM FEW060 30/19 A3004 RMK AO2\ SLP172 T03000194= 201708011751 METAR KJFK 011751Z 19010KT 10SM FEW060 30/19 A3004 RMK AO2\ SLP171 TCU DSNT W T03000189 10311\ 20256 56007= 201708011851 METAR KJFK 011851Z 18010KT 10SM FEW060 31/18 A3003 RMK AO2\ SLP168 TCU DSNT SW T03110178= 201708011951 METAR KJFK 011951Z 16008KT 10SM FEW060 FEW250 30/19 A3001\ RMK AO2 SLP163 TCU DSNT W T03000189= 201708012051 METAR KJFK 012051Z 17010KT 10SM FEW060 FEW250 29/18 A3001\ RMK AO2 SLP162 CB DSNT W TCU DSNT\ W T02940183 56009= 201708012151 METAR KJFK 012151Z 18011KT 10SM FEW060 FEW100 FEW250 28/22\ A3001 RMK AO2 SLP162 TCU DSNT W T02780217= 201708012251 METAR KJFK 012251Z 18011KT 10SM FEW060 FEW100 SCT250 27/20\ A3001 RMK AO2 SLP163 T02720200= 201708012351 METAR KJFK 012351Z 18010KT 10SM FEW060 SCT250 25/22 A3003\ RMK AO2 SLP168 CB DSNT W T02500222\ 10311 20250 53006= 201708020051 METAR KJFK 020051Z 20006KT 10SM FEW060 FEW100 SCT250 24/21\ A3004 RMK AO2 SLP171 T02440211= 201708020151 METAR KJFK 020151Z 17006KT 10SM FEW250 24/21 A3005 RMK AO2\ SLP174 T02440211= 201708020251 METAR KJFK 020251Z 18007KT 10SM FEW250 24/22 A3005 RMK AO2\ SLP176 T02440222 51008= 201708020351 METAR KJFK 020351Z 17005KT 10SM SCT250 24/23 A3005 RMK AO2\ SLP175 T02390228= 201708020451 METAR KJFK 020451Z 18004KT 8SM FEW060 FEW120 BKN250 23/23\ A3005 RMK AO2 SLP175 T02330233 403110206= 201708020551 METAR KJFK 020551Z 16003KT 10SM BKN065 BKN250 23/23 A3004\ RMK AO2 RAB19E32 SLP173 P0000 60000\ T02330228 10250 20233 58003= 201708020651 METAR KJFK 020651Z 18005KT 10SM SCT065 BKN250 23/22 A3005\ RMK AO2 SLP174 T02330217= 201708020751 METAR KJFK 020751Z 16004KT 10SM FEW065 BKN250 23/22 A3004\ RMK AO2 SLP171 T02280217= 201708020851 METAR KJFK 020851Z 19005KT 10SM SCT065 SCT250 23/22 A3004\ RMK AO2 SLP172 T02280217 57001= 201708020951 METAR KJFK 020951Z 18006KT 10SM FEW070 FEW120 FEW200 BKN250\ 23/22 A3005 RMK AO2 SLP175 T02280222= 201708021051 METAR KJFK 021051Z 20004KT 9SM FEW050 SCT130 BKN250 23/22\ A3006 RMK AO2 LTG DSNT S SLP178 CB\ DSNT SW TCU DSNT SE-DSNT S T02330222= 201708021151 METAR KJFK 021151Z 19010KT 10SM FEW050 FEW130 BKN250 24/22\ A3007 RMK AO2 LTG DSNT S SLP183 OCNL\ LTGIC DSNT S CB DSNT S VCSH S-SW\ T02390222 10239 20228 53010= 201708021251 METAR KJFK 021251Z 21004KT 10SM FEW050 SCT180 BKN250 25/22\ A3007 RMK AO2 SLP182 T02500217= 201708021351 METAR KJFK 021351Z 25007KT 10SM FEW065 FEW180 BKN260 27/22\ A3008 RMK AO2 SLP186 T02670222= 201708021451 METAR KJFK 021451Z 19007KT 10SM FEW038 FEW080 SCT180 BKN260\ 28/22 A3008 RMK AO2 SLP185 ACC N\ AND SW T02780217 53002= 201708021551 METAR KJFK 021551Z 17008KT 10SM FEW044 SCT150 BKN260 28/20\ A3008 RMK AO2 SLP185 T02830200= 201708021651 METAR KJFK 021651Z 18008KT 10SM FEW045 FEW090 BKN150 BKN250\ 29/21 A3006 RMK AO2 LTG DSNT W-N\ SLP179 CB DSNT SW-DSNT N VCSH NW\ T02940206= 201708021751 METAR KJFK 021751Z 17008KT 10SM FEW045 SCT090 BKN180 BKN250\ 28/22 A3006 RMK AO2 LTG DSNT SW-N\ SLP177 CB DSNT NE AND DSNT SW-DSNT\ W T02780222 10294 20239 58008= 201708021851 METAR KJFK 021851Z 17011KT 10SM FEW020 FEW045 SCT160 BKN250\ 28/23 A3005 RMK AO2 LTG DSNT W AND\ NW SLP176 CB DSNT NW TCU DSNT NW\ T02780233= 201708021951 METAR KJFK 021951Z 19011KT 10SM FEW010 FEW045 FEW090 SCT130\ BKN250 27/23 A3003 RMK AO2 LTG DSNT\ SW AND NW SLP170 T02670233= 201708022051 METAR KJFK 022051Z 20014KT 10SM FEW020 SCT048 BKN150 OVC250\ 26/23 A3007 RMK AO2 LTG DSNT W-N\ SLP180 CB DSNT SW T02560228 53003= 201708022151 METAR KJFK 022151Z 31016KT 5SM RA BR SCT031 BKN055 OVC080\ 22/20 A3010 RMK AO2 PK WND 32031/2127\ WSHFT 2114 LTG DSNT N AND NW RAB06\ TSE14 SLP193 CB DSNT NW P0001 T02170200= 201708022251 METAR KJFK 022251Z 01008KT 10SM FEW050 FEW110 BKN130 BKN250\ 22/20 A3007 RMK AO2 RAE16 SLP182\ P0000 T02220200= 201708022351 METAR KJFK 022351Z 11003KT 10SM FEW050 BKN160 BKN250 22/19\ A3008 RMK AO2 SLP185 60001 T02220189\ 10278 20217 51004= 201708030051 METAR KJFK 030051Z 11004KT 10SM FEW050 BKN150 BKN250 23/19\ A3009 RMK AO2 SLP189 T02280189= 201708030151 METAR KJFK 030151Z 16003KT 10SM BKN150 BKN250 22/19 A3010\ RMK AO2 SLP191 T02220194= 201708030251 METAR KJFK 030251Z 13003KT 10SM SCT120 BKN250 23/20 A3010\ RMK AO2 SLP194 T02280200 51009= 201708030351 METAR KJFK 030351Z 06003KT 10SM SCT140 BKN260 22/20 A3011\ RMK AO2 SLP194 T02220200= 201708030451 METAR KJFK 030451Z 00000KT 10SM SCT140 BKN260 22/20 A3010\ RMK AO2 SLP194 T02170200 402940217= 201708030551 METAR KJFK 030551Z 00000KT 10SM SCT140 BKN260 22/20 A3009\ RMK AO2 SLP190 T02170200 10228 20211\ 58003= 201708030651 METAR KJFK 030651Z 02004KT 10SM FEW030 SCT140 BKN260 22/21\ A3009 RMK AO2 RAB05E19 SLP189 P0000\ T02170206= 201708030751 METAR KJFK 030751Z 00000KT 10SM FEW140 SCT220 OVC260 22/21\ A3010 RMK AO2 SLP191 T02170206= 201708030851 METAR KJFK 030851Z 05003KT 10SM FEW140 BKN220 OVC260 22/20\ A3009 RMK AO2 SLP190 60000 T02170200\ 57001= 201708030951 METAR KJFK 030951Z 13003KT 10SM FEW020 FEW120 SCT220 SCT260\ 21/20 A3010 RMK AO2 SLP194 T02060200= 201708031051 METAR KJFK 031051Z 08003KT 9SM FEW020 FEW120 FEW260 21/21\ A3012 RMK AO2 SLP199 T02110206= 201708031151 METAR KJFK 031151Z 00000KT 9SM FEW016 SCT170 24/21 A3013\ RMK AO2 SLP203 60000 70001 T02390211\ 10239 20200 52014= 201708031251 METAR KJFK 031251Z 00000KT 10SM SCT018 SCT170 24/21 A3015\ RMK AO2 SLP208 T02440211= 201708031351 METAR KJFK 031351Z 23005KT 10SM FEW026 FEW170 26/21 A3015\ RMK AO2 SLP208 T02610206= 201708031451 METAR KJFK 031451Z VRB03KT 10SM FEW032 27/21 A3014 RMK AO2\ SLP207 T02670211 50003= 201708031551 METAR KJFK 031551Z 17006KT 10SM FEW035 27/21 A3014 RMK AO2\ SLP205 T02720206= 201708031651 METAR KJFK 031651Z 19008KT 10SM FEW035 28/21 A3013 RMK AO2\ SLP202 T02780206= 201708031751 METAR KJFK 031751Z 18010KT 10SM FEW035 28/21 A3012 RMK AO2\ SLP199 T02780211 10283 20233 58007= 201708031851 METAR KJFK 031851Z 16011KT 10SM FEW020 FEW040 27/22 A3011\ RMK AO2 SLP196 T02720217= 201708031951 METAR KJFK 031951Z 16013KT 10SM SCT011 SCT040 SCT100 27/23\ A3009 RMK AO2 SLP189 T02670228= 201708032051 METAR KJFK 032051Z 16010KT 10SM FEW011 FEW040 FEW100 SCT250\ 27/22 A3008 RMK AO2 SLP184 T02670217\ 58015= 201708032151 METAR KJFK 032151Z 16012KT 10SM FEW011 FEW040 FEW100 SCT250\ 26/22 A3007 RMK AO2 SLP183 TCU DSNT\ NW T02610222= 201708032251 METAR KJFK 032251Z 15011KT 10SM FEW040 SCT140 SCT170 BKN250\ 25/22 A3007 RMK AO2 LTG DSNT W SLP184\ TCU DSNT W AND NW VCSH W T02500217= 201708032351 METAR KJFK 032351Z 17012KT 10SM FEW040 FEW080 BKN110 BKN190\ BKN240 25/20 A3010 RMK AO2 SLP191\ TCU DSNT NW T02500200 10278 20250\ 53007= 201708040051 METAR KJFK 040051Z 17009KT 10SM FEW040 BKN110 BKN210 BKN250\ 25/22 A3009 RMK AO2 RAB15E26 SLP190\ OCNL LTGIC DSNT W CB DSNT W P0000\ T02500217= 201708040151 METAR KJFK 040151Z 18010KT 10SM FEW040 BKN120 BKN140 BKN230\ 24/22 A3011 RMK AO2 SLP195 T02440222= 201708040251 METAR KJFK 040251Z 19011KT 10SM FEW040 BKN130 BKN250 24/23\ A3011 RMK AO2 SLP196 60000 T02440228\ 53004= 201708040351 METAR KJFK 040351Z 19008KT 10SM FEW040 SCT120 BKN140 BKN250\ 24/22 A3009 RMK AO2 SLP190 T02390222= 201708040451 METAR KJFK 040451Z 18008KT 10SM FEW050 SCT130 BKN250 23/23\ A3008 RMK AO2 SLP186 T02330228 402830200= 201708040551 METAR KJFK 040551Z 19009KT 10SM FEW130 BKN250 23/23 A3008\ RMK AO2 SLP186 60000 T02330228 10250\ 20233 55009= 201708040651 METAR KJFK 040651Z 17008KT 10SM FEW150 BKN250 23/23 A3007\ RMK AO2 SLP183 T02330228= 201708040751 METAR KJFK 040751Z 19007KT 10SM FEW130 BKN250 23/23 A3007\ RMK AO2 SLP183 T02330228= 201708040851 METAR KJFK 040851Z 18006KT 10SM BKN008 BKN037 BKN050 BKN250\ 23/23 A3007 RMK AO2 SLP182 T02330233\ 56004= 201708040951 METAR KJFK 040951Z 18007KT 10SM BKN007 BKN060 BKN250 23/23\ A3007 RMK AO2 LTG DSNT W SLP184 T02330233= 201708041051 METAR KJFK 041051Z 18008KT 10SM BKN008 BKN026CB BKN260 24/23\ A3008 RMK AO2 LTG DSNT W AND NW SLP184\ CB S AND SW-W MOV NE VCSH W-NW T02390233= 201708041151 METAR KJFK 041151Z 21006KT 8SM -TSRA BKN011 BKN024CB BKN075\ BKN260 23/21 A3009 RMK AO2 LTG DSNT\ NW RAB04 TSB04 SLP189 OCNL LTGICCG\ NW-NE TS NW-NE MOV NE CB SW MOV NE\ P0001 60001 70001 T02280211 10244\ 20228 53006= 201708041251 METAR KJFK 041251Z 15006KT 10SM TS FEW012 SCT037CB BKN110\ BKN260 24/23 A3008 RMK AO2 LTG DSNT\ NW RAE45 SLP185 OCNL LTGIC W-NW TS\ W-NW MOV NE CB NE-E MOV NE TCU SW\ VCSH NE AND W-NW P0003 T02390233= 201708041351 METAR KJFK 041351Z 15010KT 10SM FEW012 FEW040CB SCT070 SCT160\ 24/22 A3007 RMK AO2 RAB31E37 TSE15\ SLP183 CB NE-E MOV NE TCU NW VCSH\ NE P0002 T02440222= 201708041451 METAR KJFK 041451Z 14009KT 10SM FEW011 FEW023 SCT100 26/23\ A3007 RMK AO2 SLP183 60005 T02610228\ 55005= 201708041551 METAR KJFK 041551Z 17012KT 10SM FEW013 FEW250 27/22 A3007\ RMK AO2 SLP181 T02670222= 201708041651 METAR KJFK 041651Z 16012KT 10SM FEW016 FEW250 27/21 A3006\ RMK AO2 SLP177 T02720206= 201708041751 METAR KJFK 041751Z 17011KT 10SM FEW017 FEW042 FEW250 27/22\ A3004 RMK AO2 SLP173 CB DSNT NE TCU\ DSNT W 60005 T02720222 10278 20228\ 58010= 201708041851 METAR KJFK 041851Z 15012KT 10SM FEW012 FEW042 FEW250 28/21\ A3001 RMK AO2 SLP162 CB DSNT W AND\ NW TCU DSNT W T02780211= 201708041951 METAR KJFK 041951Z 16016KT 10SM FEW015 FEW048 FEW250 27/22\ A2999 RMK AO2 SLP155 TCU DSNT NW\ T02670217= 201708042051 METAR KJFK 042051Z 16012KT 10SM FEW015 FEW048 FEW250 27/22\ A2999 RMK AO2 SLP154 T02670217 56019= 201708042151 METAR KJFK 042151Z 15012KT 10SM BKN010 BKN048 BKN250 26/24\ A2999 RMK AO2 SLP153 T02610239= 201708042251 METAR KJFK 042251Z 16015G20KT 10SM BKN011 BKN048 26/23 A2995\ RMK AO2 SLP143 T02560233= 201708042351 METAR KJFK 042351Z 15013KT 10SM SCT012 SCT250 24/23 A2996\ RMK AO2 SLP144 T02440228 10278 20244\ 55010= 201708050051 METAR KJFK 050051Z 15009KT 10SM SCT012 SCT048 SCT250 24/23\ A2996 RMK AO2 SLP146 T02440228= 201708050151 METAR KJFK 050151Z 14009KT 10SM FEW012 FEW250 24/23 A2996\ RMK AO2 SLP145 T02390228= 201708050251 METAR KJFK 050251Z 15010KT 10SM SCT009 SCT250 24/23 A2996\ RMK AO2 SLP146 T02390233 52002= 201708050351 METAR KJFK 050351Z 16011KT 10SM BKN008 24/24 A2995 RMK AO2\ SLP141 T02440239= 201708050451 METAR KJFK 050451Z 16013KT 10SM BKN008 24/24 A2994 RMK AO2\ SLP138 T02390239 402830228= 201708050551 METAR KJFK 050551Z 17011KT 10SM BKN008 BKN090 24/24 A2991\ RMK AO2 SLP130 T02440239 10244 20239\ 58017= 201708050651 METAR KJFK 050651Z 17013KT 10SM BKN008 BKN090 24/24 A2990\ RMK AO2 SLP123 T02440239= 201708050751 METAR KJFK 050751Z 15011KT 10SM BKN009 BKN028 BKN090 24/24\ A2987 RMK AO2 SLP116 T02440239= 201708050851 METAR KJFK 050851Z 16012KT 10SM BKN008 BKN030 24/24 A2986\ RMK AO2 LTG DSNT SW-NW SLP112 T02440239\ 56017= 201708050951 METAR KJFK 050951Z 16010KT 2SM +TSRA BR FEW009 BKN039CB OVC100\ 24/24 A2987 RMK AO2 LTG DSNT N AND\ S AND NW RAB29 TSB11 SLP115 OCNL\ LTGICCC OHD TS OHD MOV E P0006 T02390239= 201708051051 METAR KJFK 051051Z 18006KT 4SM RA BR SCT010 SCT030 BKN085\ OVC130 22/22 A2985 RMK AO2 WSHFT\ 0953 TSE50 SLP108 OCNL LTGIC DSNT\ NE CB DSNT NE P0020 T02170217= 201708051151 METAR KJFK 051151Z 20008KT 10SM BKN006 BKN010 OVC110 22/22\ A2986 RMK AO2 RAE15 SLP112 P0001\ 60027 70032 T02170217 10244 20217\ 55000= 201708051251 METAR KJFK 051251Z 22009KT 10SM SCT008 BKN012 OVC120 22/22\ A2988 RMK AO2 RAB04E26 SLP118 P0000\ T02220217= 201708051351 METAR KJFK 051351Z 24010KT 10SM SCT008 OVC010 23/22 A2989\ RMK AO2 SLP123 T02280217= 201708051451 METAR KJFK 051451Z 23012KT 10SM SCT014 BKN023 BKN130 BKN230\ 24/22 A2990 RMK AO2 SLP124 BKN023\ V SCT 60000 T02440217 51012= 201708051551 METAR KJFK 051551Z 24009KT 10SM FEW018 SCT026 BKN034 BKN230\ 26/21 A2989 RMK AO2 SLP121 T02610211= 201708051651 METAR KJFK 051651Z 25009KT 10SM SCT029 BKN039 BKN250 26/21\ A2989 RMK AO2 SLP120 T02610206= 201708051751 METAR KJFK 051751Z 26010KT 10SM SCT037 OVC050 27/19 A2987\ RMK AO2 SLP115 60000 T02670189 10272\ 20217 58008= 201708051851 METAR KJFK 051851Z 25013KT 10SM SCT033 BKN042 27/17 A2987\ RMK AO2 SLP114 T02670172= 201708051951 METAR KJFK 051951Z 23015KT 10SM FEW046 FEW250 27/17 A2985\ RMK AO2 SLP109 T02720172= 201708052051 METAR KJFK 052051Z 26016G22KT 10SM SCT048 SCT250 27/15 A2986\ RMK AO2 SLP112 T02720150 55004= 201708052151 METAR KJFK 052151Z 27012G24KT 10SM FEW050 27/14 A2987 RMK\ AO2 SLP114 T02670144= 201708052251 METAR KJFK 052251Z 27018G26KT 10SM SCT060 26/14 A2989 RMK\ AO2 PK WND 26026/2244 SLP122 T02560139= 201708052351 METAR KJFK 052351Z 29014G23KT 10SM FEW065 25/12 A2992 RMK\ AO2 SLP130 T02500122 10278 20250\ 53018= 201708060051 METAR KJFK 060051Z 31013G19KT 10SM FEW065 24/12 A2995 RMK\ AO2 SLP141 T02440117= 201708060151 METAR KJFK 060151Z 29010KT 10SM FEW250 24/12 A2997 RMK AO2\ SLP148 T02390122= 201708060251 METAR KJFK 060251Z 30008KT 10SM FEW045 FEW060 FEW250 23/13\ A2998 RMK AO2 SLP152 T02330128 51022= 201708060351 METAR KJFK 060351Z 31007KT 10SM FEW250 22/13 A2998 RMK AO2\ SLP152 T02220128= 201708060451 METAR KJFK 060451Z 30009KT 10SM FEW250 22/13 A2998 RMK AO2\ SLP153 T02170128 402780217= 201708060551 METAR KJFK 060551Z 31014G20KT 10SM SCT250 22/11 A2999 RMK\ AO2 SLP154 T02170111 10250 20217\ 53003= 201708060651 METAR KJFK 060651Z 30013KT 10SM SCT250 21/11 A3000 RMK AO2\ SLP157 T02110111= 201708060751 METAR KJFK 060751Z 30010KT 10SM BKN250 21/11 A3002 RMK AO2\ SLP166 T02060111= 201708060851 METAR KJFK 060851Z 31010KT 10SM SCT250 20/11 A3002 RMK AO2\ SLP167 T02000106 51012= 201708060951 METAR KJFK 060951Z 31010KT 10SM SCT250 19/11 A3004 RMK AO2\ SLP171 T01940111= 201708061051 METAR KJFK 061051Z 32010KT 10SM FEW200 SCT250 19/12 A3005\ RMK AO2 SLP176 T01940117= 201708061151 METAR KJFK 061151Z 31013KT 10SM FEW200 SCT250 21/11 A3008\ RMK AO2 SLP186 T02060111 10217 20189\ 53019= 201708061251 METAR KJFK 061251Z 30012KT 10SM SCT240 BKN280 21/12 A3010\ RMK AO2 SLP191 T02110117= 201708061351 METAR KJFK 061351Z 33010KT 10SM CLR 22/12 A3010 RMK AO2 SLP192\ T02220117= 201708061451 METAR KJFK 061451Z 30010G16KT 10SM FEW130 SCT240 BKN280 24/11\ A3011 RMK AO2 SLP195 T02390106 51008= 201708061551 METAR KJFK 061551Z 29009KT 10SM FEW055 FEW130 SCT240 BKN280\ 24/11 A3010 RMK AO2 SLP194 T02440106= 201708061651 METAR KJFK 061651Z 24010KT 10SM FEW055 FEW130 BKN200 BKN260\ 25/12 A3010 RMK AO2 SLP193 T02500117= 201708061751 METAR KJFK 061751Z 25012KT 10SM FEW055 FEW130 BKN180 BKN260\ 25/11 A3009 RMK AO2 SLP190 T02500111\ 10256 20206 58005= 201708061851 METAR KJFK 061851Z 25013KT 10SM FEW060 BKN160 BKN250 25/11\ A3009 RMK AO2 SLP190 T02500111= 201708061951 METAR KJFK 061951Z 26013KT 10SM FEW060 BKN130 BKN170 BKN250\ 24/12 A3009 RMK AO2 SLP189 T02440117= 201708062051 METAR KJFK 062051Z 25012KT 10SM FEW065 SCT130 BKN180 BKN250\ 24/13 A3009 RMK AO2 SLP190 T02440128\ 55000= 201708062151 METAR KJFK 062151Z 23013KT 10SM FEW065 FEW130 BKN200 BKN250\ 24/13 A3009 RMK AO2 SLP188 T02390133= 201708062251 METAR KJFK 062251Z 24011KT 10SM FEW065 BKN200 BKN250 24/13\ A3009 RMK AO2 SLP189 VIRGA OHD T02390128= 201708062351 METAR KJFK 062351Z 25012KT 10SM FEW130 SCT200 BKN250 23/12\ A3011 RMK AO2 SLP195 T02330122 10267\ 20228 53005= 201708070051 METAR KJFK 070051Z 25011KT 10SM SCT200 BKN250 23/13 A3011\ RMK AO2 SLP197 T02280128= 201708070151 METAR KJFK 070151Z 25008KT 10SM SCT200 BKN250 22/13 A3012\ RMK AO2 SLP198 T02170133= 201708070251 METAR KJFK 070251Z 25007KT 10SM FEW150 FEW200 BKN250 22/13\ A3013 RMK AO2 SLP202 T02170133 53007= 201708070351 METAR KJFK 070351Z 25007KT 10SM FEW150 BKN210 BKN250 22/13\ A3013 RMK AO2 SLP202 T02170133= 201708070451 METAR KJFK 070451Z 24005KT 10SM FEW150 SCT210 BKN250 21/14\ A3013 RMK AO2 SLP202 T02110139 402670189= 201708070551 METAR KJFK 070551Z 22005KT 10SM FEW130 SCT200 BKN250 19/15\ A3012 RMK AO2 SLP200 T01940150 10233\ 20189 58001= 201708070651 METAR KJFK 070651Z 21004KT 10SM BKN120 BKN200 BKN250 20/17\ A3012 RMK AO2 SLP198 T02000172= 201708070751 METAR KJFK 070751Z 22006KT 10SM BKN120 BKN200 BKN250 20/17\ A3011 RMK AO2 SLP197 T02000172= 201708070851 METAR KJFK 070851Z 21005KT 10SM BKN110 BKN150 BKN250 20/17\ A3010 RMK AO2 SLP194 T02000167 58007= 201708070951 METAR KJFK 070951Z 17003KT 10SM BKN100 BKN150 BKN200 21/17\ A3011 RMK AO2 SLP194 T02060167= 201708071051 METAR KJFK 071051Z 17003KT 10SM BKN090 BKN150 OVC200 21/17\ A3011 RMK AO2 SLP195 T02110172= 201708071151 METAR KJFK 071151Z 16004KT 10SM -RA FEW050 BKN090 OVC150\ 22/18 A3011 RMK AO2 RAB19E29B45 SLP195\ P0000 60000 T02170183 10217 20189\ 51001= 201708071251 METAR KJFK 071251Z 19003KT 10SM -RA SCT041 OVC085 22/19 A3010\ RMK AO2 RAE1158B32 SLP192 P0000 T02170194= 201708071351 METAR KJFK 071351Z 27007KT 10SM BKN018 BKN038 OVC075 22/19\ A3009 RMK AO2 RAE10 SLP189 P0000\ T02170194= 201708071451 METAR KJFK 071451Z 33004KT 9SM -RA SCT015 OVC045 22/19 A3009\ RMK AO2 RAB1357 SLP189 P0000 60000\ T02170194 56005= 201708071551 METAR KJFK 071551Z 03005KT 8SM -RA SCT024 BKN048 OVC060 22/20\ A3009 RMK AO2 RAE03B27 SLP190 P0000\ T02170200= 201708071651 METAR KJFK 071651Z 02006KT 10SM -RA SCT020 BKN043 OVC075\ 21/21 A3008 RMK AO2 SLP187 P0004\ T02110206= 201708071751 METAR KJFK 071751Z 07006KT 6SM -RA BR FEW012 BKN037 OVC095\ 21/21 A3006 RMK AO2 SLP180 P0005\ 60009 T02060206 10222 20206 58009= 201708071851 METAR KJFK 071851Z 16008KT 8SM -RA FEW012 FEW022 OVC047 21/17\ A3005 RMK AO2 SLP175 P0006 T02060172= 201708071951 METAR KJFK 071951Z 14009KT 7SM RA BKN039 BKN046 OVC110 19/17\ A3004 RMK AO2 SLP171 P0006 T01940167= 201708072051 METAR KJFK 072051Z 12009KT 10SM -RA BKN024 BKN034 OVC110\ 19/18 A2999 RMK AO2 SLP154 P0012\ 60024 T01940183 58025= 201708072151 METAR KJFK 072151Z 14011KT 10SM SCT016 BKN021 BKN031 OVC140\ 21/20 A2996 RMK AO2 RAE48 SLP147\ P0001 T02110200= 201708072251 METAR KJFK 072251Z 12010KT 10SM -RA BKN020 OVC038 21/19 A2997\ RMK AO2 RAB32 SLP148 P0000 T02060189= 201708072351 METAR KJFK 072351Z 09006KT 10SM BKN021 BKN034 OVC100 20/18\ A2995 RMK AO2 RAE2252B23E39 SLP143\ P0000 60025 T02000183 10211 20189\ 56011= 201708080051 METAR KJFK 080051Z 08007KT 10SM -RA BKN020 BKN065 OVC095\ 20/19 A2992 RMK AO2 RAB39 SLP132\ P0000 T02000189= 201708080151 METAR KJFK 080151Z 11009KT 10SM -RA BKN013 BKN027 OVC110\ 21/20 A2992 RMK AO2 SLP130 P0003\ T02060200= 201708080251 METAR KJFK 080251Z 04006KT 8SM -RA OVC009 20/20 A2992 RMK\ AO2 RAE0154B29 SLP133 P0000 60003\ T02000200 53000= 201708080351 METAR KJFK 080351Z 01007KT 7SM OVC009 19/19 A2990 RMK AO2\ RAE51 SLP126 P0002 T01940194= 201708080451 METAR KJFK 080451Z 01006KT 7SM OVC009 19/19 A2990 RMK AO2\ SLP123 T01940194 402220189= 201708080551 METAR KJFK 080551Z 02007KT 7SM BKN009 BKN022 BKN150 19/19\ A2988 RMK AO2 SLP117 60005 T01940194\ 10206 20194 58009= 201708080651 METAR KJFK 080651Z 35007KT 10SM OVC006 19/19 A2988 RMK AO2\ SLP118 T01940194= 201708080751 METAR KJFK 080751Z 03003KT 10SM OVC007 19/19 A2988 RMK AO2\ SLP118 T01940194= 201708080851 METAR KJFK 080851Z 34006KT 10SM OVC008 19/19 A2988 RMK AO2\ SLP119 T01940194 51003= 201708080951 METAR KJFK 080951Z 01005KT 10SM SCT009 OVC032 19/19 A2988\ RMK AO2 SLP117 T01940194= 201708081051 METAR KJFK 081051Z 36004KT 10SM FEW008 OVC012 19/19 A2990\ RMK AO2 SLP123 T01940194= 201708081151 METAR KJFK 081151Z 36005KT 10SM SCT011 OVC026 20/19 A2991\ RMK AO2 SLP128 70039 T02000194 10206\ 20189 53009= 201708081251 METAR KJFK 081251Z 35007KT 5SM -DZ BR FEW008 BKN017 OVC022\ 19/19 A2993 RMK AO2 DZB48 SLP134\ P0000 T01940194= 201708081351 METAR KJFK 081351Z 35011KT 10SM FEW011 SCT018 BKN032 BKN210\ 22/19 A2993 RMK AO2 DZE05 SLP136\ SCT V BKN P0000 T02170189= 201708081451 METAR KJFK 081451Z 01012KT 10SM FEW022 BKN030 BKN210 22/18\ A2995 RMK AO2 SLP141 CIG 028V032\ 60000 T02170178 51013= 201708081551 METAR KJFK 081551Z 01015KT 10SM BKN030 BKN220 23/17 A2996\ RMK AO2 SLP145 CIG 027V033 T02330167= 201708081651 METAR KJFK 081651Z 02013KT 10SM BKN032 BKN220 24/17 A2998\ RMK AO2 SLP151 T02440167= 201708081751 METAR KJFK 081751Z 36011KT 10SM SCT034 BKN250 25/16 A2998\ RMK AO2 SLP152 60000 T02500161 10256\ 20194 51010= 201708081851 METAR KJFK 081851Z 02010G15KT 330V050 10SM SCT041 BKN250\ 26/16 A2998 RMK AO2 SLP152 T02610161= 201708081951 METAR KJFK 081951Z 34011KT 10SM SCT045 BKN250 27/15 A2998\ RMK AO2 SLP153 T02720150= 201708082051 METAR KJFK 082051Z 01008KT 10SM FEW045 SCT200 BKN250 27/15\ A2998 RMK AO2 SLP152 T02720150 52000= 201708082151 METAR KJFK 082151Z 02006KT 10SM FEW045 FEW210 BKN250 27/14\ A2999 RMK AO2 SLP154 T02670144= 201708082251 METAR KJFK 082251Z 18003KT 10SM FEW045 SCT250 26/16 A3001\ RMK AO2 SLP160 T02560156= 201708082351 METAR KJFK 082351Z 17006KT 10SM FEW045 SCT250 23/18 A3003\ RMK AO2 SLP168 T02330183 10278 20233\ 53017= 201708090051 METAR KJFK 090051Z 17006KT 10SM FEW055 SCT250 22/19 A3005\ RMK AO2 SLP177 T02220194= 201708090151 METAR KJFK 090151Z 22005KT 10SM FEW055 FEW250 22/19 A3007\ RMK AO2 SLP183 T02170194= 201708090251 METAR KJFK 090251Z 24006KT 10SM FEW050 22/17 A3009 RMK AO2\ SLP188 T02220172 51019= 201708090351 METAR KJFK 090351Z 26007KT 10SM SCT055 23/17 A3010 RMK AO2\ SLP192 T02280167= 201708090451 METAR KJFK 090451Z 24006KT 10SM FEW060 21/18 A3010 RMK AO2\ SLP194 T02110178 402780189= 201708090551 METAR KJFK 090551Z 30006KT 10SM FEW085 23/16 A3011 RMK AO2\ SLP196 T02280161 10233 20206 51008= 201708090651 METAR KJFK 090651Z 32006KT 10SM FEW085 21/16 A3012 RMK AO2\ SLP198 T02110156= 201708090751 METAR KJFK 090751Z 34004KT 10SM CLR 19/16 A3013 RMK AO2 SLP202\ T01940161= 201708090851 METAR KJFK 090851Z 35004KT 10SM CLR 19/16 A3014 RMK AO2 SLP206\ T01890156 53009= 201708090951 METAR KJFK 090951Z 00000KT 10SM FEW250 19/16 A3016 RMK AO2\ SLP212 T01940161= 201708091051 METAR KJFK 091051Z 34005KT 10SM FEW050 FEW250 20/17 A3018\ RMK AO2 SLP220 T02000167= 201708091151 METAR KJFK 091151Z 35005KT 10SM FEW050 FEW250 23/17 A3019\ RMK AO2 SLP224 T02280172 10228 20183\ 51018= 201708091251 METAR KJFK 091251Z 00000KT 10SM FEW250 24/16 A3020 RMK AO2\ SLP227 T02440156= 201708091351 METAR KJFK 091351Z 36008KT 10SM FEW250 26/12 A3021 RMK AO2\ SLP229 T02610122= 201708091451 METAR KJFK 091451Z 36006KT 10SM FEW250 27/12 A3022 RMK AO2\ SLP232 T02670122 53008= 201708091551 METAR KJFK 091551Z VRB04KT 10SM FEW065 FEW250 27/12 A3021\ RMK AO2 SLP231 T02720117= 201708091651 METAR KJFK 091651Z 17010KT 10SM FEW065 FEW250 27/16 A3020\ RMK AO2 SLP228 T02670156= 201708091751 METAR KJFK 091751Z 19011KT 10SM FEW065 27/14 A3020 RMK AO2\ SLP227 T02720144 10283 20228 56005= 201708091851 METAR KJFK 091851Z 18009KT 10SM FEW065 27/16 A3020 RMK AO2\ SLP225 T02670161= 201708091951 METAR KJFK 091951Z 18009KT 10SM FEW065 27/16 A3019 RMK AO2\ SLP224 T02720161= 201708092051 METAR KJFK 092051Z 18008KT 10SM FEW070 27/17 A3018 RMK AO2\ SLP221 T02670172 58007= 201708092151 METAR KJFK 092151Z 18010KT 10SM FEW070 26/18 A3019 RMK AO2\ SLP223 T02560178= 201708092251 METAR KJFK 092251Z 18008KT 10SM FEW070 FEW250 24/17 A3020\ RMK AO2 SLP225 T02440167= 201708092351 METAR KJFK 092351Z 18008KT 10SM FEW070 FEW250 23/18 A3021\ RMK AO2 SLP230 T02330178 10278 20233\ 53009= 201708100051 METAR KJFK 100051Z 19009KT 10SM FEW070 FEW250 23/18 A3023\ RMK AO2 SLP235 T02280183= 201708100151 METAR KJFK 100151Z 20008KT 10SM FEW250 23/18 A3024 RMK AO2\ SLP240 T02280178= 201708100251 METAR KJFK 100251Z 20008KT 10SM FEW250 22/18 A3024 RMK AO2\ SLP240 T02170183 51011= 201708100351 METAR KJFK 100351Z 21005KT 10SM SCT250 21/19 A3024 RMK AO2\ SLP240 T02110194= 201708100451 METAR KJFK 100451Z 22006KT 10SM BKN260 21/19 A3024 RMK AO2\ SLP240 T02110189 402830183= 201708100551 METAR KJFK 100551Z 21006KT 10SM BKN260 21/19 A3024 RMK AO2\ SLP239 T02060189 10239 20206 56001= 201708100651 METAR KJFK 100651Z 20003KT 10SM FEW011 BKN260 21/18 A3024\ RMK AO2 SLP239 T02060183= 201708100751 METAR KJFK 100751Z 22005KT 10SM FEW010 SCT250 20/18 A3023\ RMK AO2 SLP237 T02000183= 201708100851 METAR KJFK 100851Z 21005KT 10SM FEW250 20/19 A3023 RMK AO2\ SLP237 T02000189 56003= 201708100951 METAR KJFK 100951Z 00000KT 10SM FEW250 21/18 A3023 RMK AO2\ SLP236 T02060183= 201708101051 METAR KJFK 101051Z 00000KT 6SM FU CLR 21/18 A3024 RMK AO2\ SLP239 T02060183= 201708101151 METAR KJFK 101151Z 00000KT 7SM FEW010 23/19 A3025 RMK AO2\ SLP242 FU FEW010 T02280194 10228\ 20194 53005= 201708101251 METAR KJFK 101251Z 18004KT 8SM CLR 24/20 A3026 RMK AO2 SLP245\ T02390200= 201708101351 METAR KJFK 101351Z 18007KT 10SM FEW035 FEW320 25/20 A3026\ RMK AO2 SLP245 T02500200= 201708101451 METAR KJFK 101451Z 19004KT 10SM FEW040 FEW320 25/20 A3025\ RMK AO2 SLP243 T02500200 50001= 201708101551 METAR KJFK 101551Z VRB06KT 10SM FEW043 FEW300 27/19 A3024\ RMK AO2 SLP241 T02720189= 201708101651 METAR KJFK 101651Z 17006KT 10SM FEW050 FEW300 28/18 A3023\ RMK AO2 SLP238 T02780178= 201708101751 METAR KJFK 101751Z 17011KT 10SM FEW050 SCT270 28/19 A3023\ RMK AO2 SLP237 T02780189 10278 20228\ 56006= 201708101851 METAR KJFK 101851Z 16012KT 10SM FEW050 SCT260 27/20 A3022\ RMK AO2 SLP234 T02670200= 201708101951 METAR KJFK 101951Z 17011KT 10SM FEW055 SCT250 27/21 A3021\ RMK AO2 SLP230 T02670206= 201708102051 METAR KJFK 102051Z 18011KT 10SM FEW055 SCT250 26/17 A3020\ RMK AO2 SLP227 T02610167 58010= 201708102151 METAR KJFK 102151Z 16009KT 10SM SCT200 BKN250 24/17 A3019\ RMK AO2 SLP221 T02440167= 201708102251 METAR KJFK 102251Z 16008KT 10SM FEW120 FEW200 BKN250 24/17\ A3020 RMK AO2 SLP226 T02390172= 201708102351 METAR KJFK 102351Z 18009KT 10SM FEW180 BKN250 23/18 A3019\ RMK AO2 SLP223 T02330183 10278 20228\ 56004= 201708110051 METAR KJFK 110051Z 18006KT 10SM SCT210 BKN250 22/18 A3019\ RMK AO2 SLP224 T02220183= 201708110151 METAR KJFK 110151Z 18006KT 10SM SCT210 BKN250 22/18 A3019\ RMK AO2 SLP224 T02220183= 201708110251 METAR KJFK 110251Z 18005KT 10SM BKN220 22/18 A3019 RMK AO2\ SLP221 T02220178 58002= 201708110351 METAR KJFK 110351Z 19005KT 10SM SCT210 21/18 A3018 RMK AO2\ SLP221 T02110178= 201708110451 METAR KJFK 110451Z 17004KT 10SM FEW200 21/18 A3019 RMK AO2\ SLP222 T02110183 402780194= 201708110551 METAR KJFK 110551Z 18004KT 10SM OVC160 21/18 A3018 RMK AO2\ SLP220 T02110183 10228 20206 58001= 201708110651 METAR KJFK 110651Z 22006KT 10SM BKN160 21/18 A3018 RMK AO2\ SLP220 T02060178= 201708110751 METAR KJFK 110751Z 22006KT 10SM BKN150 21/17 A3017 RMK AO2\ SLP218 T02110172= 201708110851 METAR KJFK 110851Z 21004KT 10SM BKN150 20/16 A3017 RMK AO2\ SLP214 T02000161 58006= 201708110951 METAR KJFK 110951Z 21003KT 10SM FEW150 20/16 A3017 RMK AO2\ SLP215 T02000161= 201708111051 METAR KJFK 111051Z 19004KT 10SM FEW150 SCT310 21/18 A3017\ RMK AO2 SLP217 T02060178= 201708111151 METAR KJFK 111151Z 22005KT 10SM FEW150 SCT310 23/18 A3018\ RMK AO2 SLP220 T02280178 10228 20194\ 53006= 201708111251 METAR KJFK 111251Z 18007KT 10SM SCT130 SCT290 24/17 A3017\ RMK AO2 SLP217 T02390172= 201708111351 METAR KJFK 111351Z 18007KT 10SM FEW130 BKN270 25/15 A3016\ RMK AO2 SLP214 T02500150= 201708111451 METAR KJFK 111451Z 19009KT 10SM FEW095 FEW170 BKN270 26/14\ A3017 RMK AO2 SLP216 T02560144 55004= 201708111551 METAR KJFK 111551Z 21010KT 10SM FEW043 FEW095 SCT170 BKN270\ 26/17 A3017 RMK AO2 SLP215 T02610167= 201708111651 METAR KJFK 111651Z 18010KT 10SM FEW045 SCT100 BKN150 BKN270\ 27/16 A3015 RMK AO2 SLP209 T02670161= 201708111751 METAR KJFK 111751Z 17013KT 10SM FEW050 SCT095 BKN270 27/18\ A3014 RMK AO2 SLP207 T02670178 10272\ 20228 58009= 201708111851 METAR KJFK 111851Z 17013KT 10SM FEW050 BKN100 BKN260 26/19\ A3013 RMK AO2 SLP203 T02610189= 201708111951 METAR KJFK 111951Z 18014KT 10SM FEW050 SCT100 BKN260 26/19\ A3011 RMK AO2 SLP195 T02560189= 201708112051 METAR KJFK 112051Z 17013KT 10SM FEW050 SCT100 BKN260 25/18\ A3010 RMK AO2 SLP192 T02500183 56015= 201708112151 METAR KJFK 112151Z 17013KT 10SM FEW050 SCT070 BKN100 BKN260\ 25/17 A3008 RMK AO2 SLP186 T02500167= 201708112251 METAR KJFK 112251Z 16015KT 10SM FEW050 SCT070 BKN120 BKN260\ 24/18 A3007 RMK AO2 SLP181 T02440178= 201708112351 METAR KJFK 112351Z 16012KT 10SM FEW050 FEW070 BKN120 BKN260\ 23/18 A3006 RMK AO2 SLP178 T02330183\ 10267 20233 56014= 201708120051 METAR KJFK 120051Z 18011KT 10SM FEW050 BKN110 BKN260 23/19\ A3006 RMK AO2 RAB27E37 SLP177 P0000\ T02330189= 201708120151 METAR KJFK 120151Z 16009KT 10SM FEW025 FEW065 BKN100 BKN260\ 23/20 A3004 RMK AO2 RAB26E43 SLP173\ P0000 T02280200= 201708120251 METAR KJFK 120251Z 16008KT 10SM FEW025 FEW060 SCT095 BKN130\ 23/20 A3003 RMK AO2 SLP169 60000\ T02280200 58008= 201708120351 METAR KJFK 120351Z 16008KT 10SM FEW025 FEW060 BKN095 OVC140\ 23/19 A3002 RMK AO2 SLP164 T02280194= 201708120451 METAR KJFK 120451Z 17007KT 10SM FEW025 SCT070 BKN095 OVC140\ 23/20 A3001 RMK AO2 SLP163 T02280200\ 402720194= 201708120551 METAR KJFK 120551Z 20010KT 2SM R04R/5500VP6000FT +TSRA BR\ BKN017 BKN025CB OVC060 21/19 A3003\ RMK AO2 LTG DSNT NE AND W RAB18 TSB39\ PRESRR SLP168 OCNL LTGIC SW TS SW\ MOV NE P0009 60009 T02060189 10233\ 20206 55001= 201708120651 METAR KJFK 120651Z 06003KT 7SM -RA FEW028 OVC048 21/19 A3001\ RMK AO2 TSE0554B0555E18 SLP161 P0008\ T02060194= 201708120751 METAR KJFK 120751Z 09007KT 10SM -RA SCT012 BKN034 OVC075\ 19/19 A2998 RMK AO2 RAE12B42 SLP153\ P0000 T01890189= 201708120851 METAR KJFK 120851Z 04006KT 10SM SCT035 BKN050 OVC065 18/18\ A2996 RMK AO2 RAE0754B14E40 SLP146\ P0000 60008 T01830178 56022= 201708120951 METAR KJFK 120951Z 05004KT 10SM BKN025 BKN045 BKN090 BKN150\ 19/18 A2997 RMK AO2 SLP148 T01890178= 201708121051 METAR KJFK 121051Z 06004KT 10SM BKN022 BKN150 19/18 A2997\ RMK AO2 SLP149 T01890178= 201708121151 METAR KJFK 121151Z 04004KT 10SM BKN021 OVC200 19/19 A2997\ RMK AO2 SLP148 60008 70017 T01940189\ 10206 20183 50002= 201708121251 METAR KJFK 121251Z 09004KT 10SM BKN020 BKN150 BKN250 20/19\ A2997 RMK AO2 SLP147 T02000189= 201708121351 METAR KJFK 121351Z 11005KT 10SM SCT010 BKN019 BKN150 BKN250\ 22/20 A2996 RMK AO2 SLP147 T02170200= 201708121451 METAR KJFK 121451Z 13004KT 10SM BKN017 OVC150 22/20 A2997\ RMK AO2 SLP147 T02220200 55000= 201708121551 METAR KJFK 121551Z 14008KT 10SM BKN014 OVC150 22/21 A2997\ RMK AO2 SLP148 T02220206= 201708121651 METAR KJFK 121651Z 16006KT 10SM BKN017 BKN150 BKN250 23/21\ A2996 RMK AO2 SLP144 T02330206= 201708121751 METAR KJFK 121751Z 18006KT 10SM SCT010 BKN017 OVC250 23/21\ A2995 RMK AO2 SLP142 T02330211 10239\ 20194 58005= 201708121851 METAR KJFK 121851Z 20007KT 10SM SCT013 OVC018 24/21 A2994\ RMK AO2 SLP139 T02390211= 201708121951 METAR KJFK 121951Z VRB03KT 10SM BKN018 BKN024 24/21 A2993\ RMK AO2 SLP134 T02440206= 201708122051 METAR KJFK 122051Z 21007KT 10SM FEW017 BKN032 BKN200 26/22\ A2992 RMK AO2 SLP131 T02560217 56011= 201708122151 METAR KJFK 122151Z 15009KT 10SM FEW021 SCT030 BKN200 24/22\ A2990 RMK AO2 SLP123 T02390217= 201708122251 METAR KJFK 122251Z 16008KT 10SM FEW020 SCT030 BKN200 BKN250\ 23/22 A2990 RMK AO2 SLP126 T02330222= 201708122351 METAR KJFK 122351Z 14009G17KT 10SM BKN009 OVC017 23/22 A2991\ RMK AO2 PRESRR SLP127 T02330222 10256\ 20228 55005= 201708130051 METAR KJFK 130051Z 18010KT 10SM OVC009 24/23 A2991 RMK AO2\ SLP127 T02390228= 201708130151 METAR KJFK 130151Z 18012KT 10SM FEW010 BKN025 BKN060 23/23\ A2989 RMK AO2 RAB00E25 SLP123 P0004\ T02330233= 201708130251 METAR KJFK 130251Z 19010KT 10SM FEW008 SCT033 BKN250 23/23\ A2989 RMK AO2 SLP121 60004 T02330233\ 58006= 201708130351 METAR KJFK 130351Z 20009KT 10SM FEW008 SCT034 SCT250 23/23\ A2988 RMK AO2 SLP119 T02280228= 201708130451 METAR KJFK 130451Z 19006KT 10SM SCT008 SCT033 SCT250 23/23\ A2988 RMK AO2 SLP118 T02280228 402560183= 201708130551 METAR KJFK 130551Z 21006KT 10SM FEW008 SCT014 BKN026 23/23\ A2988 RMK AO2 SLP116 60004 T02280228\ 10239 20228 56004= 201708130651 METAR KJFK 130651Z 23004KT 10SM SCT007 BKN017 22/22 A2986\ RMK AO2 SLP111 T02220222= 201708130751 METAR KJFK 130751Z 28007KT 10SM SCT010 SCT023 SCT250 23/23\ A2985 RMK AO2 SLP108 T02280228= 201708130851 METAR KJFK 130851Z 21004KT 10SM BKN010 22/22 A2986 RMK AO2\ SLP111 T02220222 55006= 201708130951 METAR KJFK 130951Z 29005KT 10SM SCT011 SCT250 22/22 A2987\ RMK AO2 SLP115 T02220222= 201708131051 METAR KJFK 131051Z 33004KT 10SM FEW011 SCT250 23/22 A2989\ RMK AO2 SLP120 T02280217= 201708131151 METAR KJFK 131151Z 33009KT 10SM FEW015 BKN250 24/21 A2990\ RMK AO2 SLP126 70004 T02390211 10239\ 20217 53015= 201708131251 METAR KJFK 131251Z 33011KT 10SM FEW020 SCT250 25/19 A2991\ RMK AO2 SLP129 T02500194= 201708131351 METAR KJFK 131351Z 32011KT 10SM FEW040 SCT250 26/18 A2992\ RMK AO2 SLP131 T02610178= 201708131451 METAR KJFK 131451Z 34011KT 10SM FEW040 SCT250 28/17 A2993\ RMK AO2 SLP136 T02780172 53010= 201708131551 METAR KJFK 131551Z 34013KT 10SM FEW045 SCT250 29/17 A2994\ RMK AO2 SLP137 T02890172= 201708131651 METAR KJFK 131651Z 35012KT 10SM SCT047 SCT250 29/18 A2993\ RMK AO2 SLP135 T02940178= 201708131751 METAR KJFK 131751Z 33010KT 10SM SCT050 SCT250 28/17 A2994\ RMK AO2 SLP137 T02830167 10294 20239\ 53001= 201708131851 METAR KJFK 131851Z 30008KT 270V340 10SM SCT055 SCT250 29/16\ A2994 RMK AO2 SLP140 T02890161= 201708131951 METAR KJFK 131951Z VRB06KT 10SM SCT060 SCT250 30/16 A2994\ RMK AO2 SLP140 T03000156= 201708132051 METAR KJFK 132051Z 35008KT 10SM SCT060 BKN250 30/16 A2995\ RMK AO2 SLP143 T03000156 52005= 201708132151 METAR KJFK 132151Z 30007KT 10SM SCT060 BKN250 29/15 A2996\ RMK AO2 SLP146 T02890150= 201708132251 METAR KJFK 132251Z 31010KT 10SM SCT065 BKN250 28/15 A2997\ RMK AO2 SLP149 T02830150= 201708132351 METAR KJFK 132351Z 32007KT 10SM FEW060 BKN250 27/14 A2998\ RMK AO2 SLP153 T02670144 10306 20267\ 53010= 201708140051 METAR KJFK 140051Z 00000KT 10SM SCT060 BKN250 27/16 A3000\ RMK AO2 SLP157 T02720156= 201708140151 METAR KJFK 140151Z VRB03KT 10SM FEW060 SCT250 26/16 A3000\ RMK AO2 SLP160 T02560156= 201708140251 METAR KJFK 140251Z 02004KT 10SM CLR 25/16 A3001 RMK AO2 SLP162\ T02500161 51009= 201708140351 METAR KJFK 140351Z 15003KT 10SM FEW060 FEW250 24/18 A3002\ RMK AO2 SLP166 T02390178= 201708140451 METAR KJFK 140451Z 14003KT 10SM FEW060 FEW250 23/18 A3002\ RMK AO2 SLP167 T02280183 403060217= 201708140551 METAR KJFK 140551Z 00000KT 10SM FEW060 FEW250 22/18 A3002\ RMK AO2 SLP166 T02220183 10272 20217\ 50004= 201708140651 METAR KJFK 140651Z 07003KT 10SM SCT250 21/18 A3002 RMK AO2\ SLP167 T02110178= 201708140751 METAR KJFK 140751Z 04004KT 10SM SCT250 21/19 A3002 RMK AO2\ SLP166 T02060189= 201708140851 METAR KJFK 140851Z 04004KT 10SM SCT250 20/18 A3002 RMK AO2\ SLP166 T02000183 58000= 201708140951 METAR KJFK 140951Z 05005KT 10SM FEW060 BKN250 20/18 A3003\ RMK AO2 SLP168 T02000183= 201708141051 METAR KJFK 141051Z 05007KT 10SM FEW060 BKN280 22/18 A3004\ RMK AO2 SLP172 T02170183= 201708141151 METAR KJFK 141151Z 06006KT 10SM FEW060 BKN280 23/18 A3005\ RMK AO2 SLP176 T02330178 10233 20200\ 53010= 201708141251 METAR KJFK 141251Z 07005KT 10SM FEW037 FEW060 FEW190 BKN280\ 25/18 A3005 RMK AO2 SLP176 T02500178= 201708141351 METAR KJFK 141351Z 10008KT 10SM FEW037 SCT060 BKN190 BKN270\ 27/17 A3004 RMK AO2 SLP173 T02670167= 201708141451 METAR KJFK 141451Z 12008KT 10SM FEW040 SCT060 SCT170 BKN270\ 27/16 A3005 RMK AO2 SLP174 T02670161\ 55002= 201708141551 METAR KJFK 141551Z 14008KT 10SM FEW040 BKN200 OVC270 27/17\ A3004 RMK AO2 SLP172 T02670167= 201708141651 METAR KJFK 141651Z 15009KT 10SM FEW045 BKN180 OVC270 27/19\ A3003 RMK AO2 SLP170 T02670189= 201708141751 METAR KJFK 141751Z 18006KT 10SM FEW045 BKN190 OVC270 27/19\ A3002 RMK AO2 SLP166 T02670194 10267\ 20233 58008= 201708141851 METAR KJFK 141851Z 19007KT 10SM FEW045 SCT180 SCT220 OVC260\ 27/18 A3001 RMK AO2 SLP161 T02670183= 201708141951 METAR KJFK 141951Z 16005KT 10SM FEW045 BKN150 OVC260 26/19\ A2999 RMK AO2 SLP156 T02560194= 201708142051 METAR KJFK 142051Z 17007KT 10SM FEW045 BKN150 OVC260 25/20\ A2999 RMK AO2 SLP155 T02500200 56011= 201708142151 METAR KJFK 142151Z 17008KT 10SM FEW045 FEW100 BKN140 OVC250\ 25/21 A2997 RMK AO2 SLP150 T02500206= 201708142251 METAR KJFK 142251Z 15006KT 10SM FEW045 FEW110 BKN130 BKN250\ 25/21 A2997 RMK AO2 SLP150 T02500211= 201708142351 METAR KJFK 142351Z 17009KT 10SM FEW040 SCT120 BKN160 BKN250\ 24/22 A2998 RMK AO2 SLP151 T02440217\ 10272 20244 55003= 201708150051 METAR KJFK 150051Z 18009KT 10SM SCT150 BKN250 24/22 A2997\ RMK AO2 SLP150 T02390222= 201708150151 METAR KJFK 150151Z 18007KT 10SM BKN140 BKN250 24/22 A2998\ RMK AO2 SLP150 T02390222= 201708150251 METAR KJFK 150251Z 19008KT 10SM SCT140 OVC240 23/22 A2998\ RMK AO2 SLP150 T02330217 55001= 201708150351 METAR KJFK 150351Z 19007KT 10SM SCT090 OVC140 23/22 A2996\ RMK AO2 SLP147 T02330217= 201708150451 METAR KJFK 150451Z 20006KT 10SM -RA OVC090 23/22 A2996 RMK\ AO2 RAB14 SLP145 P0000 T02330222\ 402720200= 201708150551 METAR KJFK 150551Z 21007KT 10SM -RA FEW090 OVC140 23/22 A2996\ RMK AO2 RAE01B50 SLP145 P0000 60000\ T02280217 10244 20228 56005= 201708150651 METAR KJFK 150651Z 26008KT 5SM +RA BR BKN050 OVC100 22/21\ A2996 RMK AO2 SLP145 P0006 T02170211= 201708150751 METAR KJFK 150751Z 33005KT 10SM -RA FEW048 OVC080 21/21 A2996\ RMK AO2 SLP144 P0008 T02110206= 201708150851 METAR KJFK 150851Z 35005KT 5SM RA BR FEW041 OVC075 21/20\ A2995 RMK AO2 SLP141 P0010 60024\ T02060200 58003= 201708150951 METAR KJFK 150951Z 02005KT 10SM OVC055 21/21 A2994 RMK AO2\ RAE32 SLP138 P0002 T02060206= 201708151051 METAR KJFK 151051Z 08004KT 10SM SCT055 BKN070 BKN150 BKN250\ 21/21 A2994 RMK AO2 SLP139 T02060206= 201708151151 METAR KJFK 151151Z 05003KT 10SM FEW048 SCT060 BKN085 BKN130\ BKN250 22/21 A2994 RMK AO2 SLP139\ 60026 70026 T02170206 10228 20200\ 56002= 201708151251 METAR KJFK 151251Z 14003KT 10SM BKN047 BKN095 BKN180 22/21\ A2995 RMK AO2 SLP142 T02220211= 201708151351 METAR KJFK 151351Z 14006KT 10SM SCT050 BKN095 BKN140 23/22\ A2994 RMK AO2 SLP140 T02330217= 201708151451 METAR KJFK 151451Z 13008KT 10SM FEW012 FEW049 BKN100 BKN150\ 24/22 A2994 RMK AO2 SLP138 T02390217\ 58001= 201708151551 METAR KJFK 151551Z 12008KT 9SM SCT013 BKN070 OVC100 23/22\ A2993 RMK AO2 SLP135 T02330217= 201708151651 METAR KJFK 151651Z 13006KT 5SM RA BR SCT012 BKN075 OVC100\ 23/22 A2993 RMK AO2 RAB1552E20B39\ SLP135 P0000 T02330222= 201708151751 METAR KJFK 151751Z 16007KT 4SM RA BR FEW008 BKN012 OVC100\ 23/22 A2992 RMK AO2 SLP132 P0011\ 60011 T02280222 10244 20217 56006= 201708151851 METAR KJFK 151851Z 19005KT 9SM -RA FEW009 BKN012 OVC024 23/23\ A2992 RMK AO2 SLP132 BKN V SCT P0005\ T02280228= 201708151951 METAR KJFK 151951Z 18006KT 10SM FEW008 BKN019 OVC043 23/23\ A2991 RMK AO2 RAE43 SLP128 P0001\ T02280228= 201708152051 METAR KJFK 152051Z 15005KT 10SM -RA FEW008 SCT019 OVC041\ 23/22 A2990 RMK AO2 RAB37 SLP126\ P0001 60007 T02280222 58007= 201708152151 METAR KJFK 152151Z 18004KT 10SM SCT009 BKN031 OVC049 23/22\ A2991 RMK AO2 RAE19 SLP128 P0000\ T02280222= 201708152251 METAR KJFK 152251Z 15004KT 10SM FEW012 SCT028 BKN046 OVC130\ 23/22 A2991 RMK AO2 SLP128 T02280222= 201708152351 METAR KJFK 152351Z 16005KT 10SM FEW009 SCT018 OVC023 23/22\ A2991 RMK AO2 SLP128 60007 T02280222\ 10228 20228 50000= 201708160051 METAR KJFK 160051Z 13006KT 10SM FEW009 BKN020 OVC110 23/22\ A2991 RMK AO2 SLP129 T02280222= 201708160151 METAR KJFK 160151Z 00000KT 9SM BKN015 OVC110 23/22 A2992\ RMK AO2 SLP131 T02280222= 201708160251 METAR KJFK 160251Z 12003KT 10SM OVC012 23/22 A2992 RMK AO2\ SLP132 T02280222 52004= 201708160351 METAR KJFK 160351Z 16005KT 10SM SCT012 SCT031 22/22 A2992\ RMK AO2 SLP130 T02220222= 201708160451 METAR KJFK 160451Z 20003KT 10SM SCT012 22/22 A2992 RMK AO2\ SLP130 T02170217 402440200= 201708160551 METAR KJFK 160551Z 21004KT 9SM SCT011 21/21 A2992 RMK AO2\ SLP130 T02110211 10228 20211 56002= 201708160651 METAR KJFK 160651Z 23005KT 8SM BKN007 21/21 A2992 RMK AO2\ SLP131 T02110211= 201708160751 METAR KJFK 160751Z 24004KT 5SM BR BKN004 22/22 A2992 RMK\ AO2 SLP130 T02170217= 201708160851 METAR KJFK 160851Z 28006KT 5SM BR BKN007 22/22 A2992 RMK\ AO2 SLP132 T02170217 53002= 201708160951 METAR KJFK 160951Z 29006KT 6SM BR BKN009 BKN030 22/22 A2994\ RMK AO2 SLP138 T02170217= 201708161051 METAR KJFK 161051Z 32004KT 5SM BR FEW009 FEW100 22/22 A2996\ RMK AO2 SLP144 T02170217= 201708161151 METAR KJFK 161151Z 32007KT 8SM FEW011 FEW350 23/22 A2996\ RMK AO2 SLP145 70018 T02330217 10233\ 20211 51013= 201708161251 METAR KJFK 161251Z 33009KT 10SM FEW350 24/21 A2996 RMK AO2\ SLP145 T02440206= 201708161351 METAR KJFK 161351Z 31006KT 10SM FEW350 27/21 A2997 RMK AO2\ SLP147 T02670206= 201708161451 METAR KJFK 161451Z 34008KT 10SM FEW350 28/19 A2997 RMK AO2\ SLP148 T02780194 53003= 201708161551 METAR KJFK 161551Z 33012G16KT 10SM FEW046 SCT350 29/18 A2996\ RMK AO2 SLP146 T02890183= 201708161651 METAR KJFK 161651Z 36008KT 10SM FEW050 SCT350 30/17 A2996\ RMK AO2 SLP143 T03000172= 201708161751 METAR KJFK 161751Z 01006KT 10SM FEW055 BKN350 31/17 A2995\ RMK AO2 SLP142 T03060172 10306 20233\ 56006= 201708161851 METAR KJFK 161851Z 35012G15KT 10SM SCT060 BKN270 31/17 A2996\ RMK AO2 SLP144 T03060172= 201708161951 METAR KJFK 161951Z 01003KT 10SM SCT065 BKN080 BKN260 29/17\ A2996 RMK AO2 SLP145 T02890167= 201708162051 METAR KJFK 162051Z 04007KT 10SM SCT065 SCT080 BKN260 30/18\ A2996 RMK AO2 SLP143 T03000178 50001= 201708162151 METAR KJFK 162151Z VRB04KT 10SM SCT060 SCT085 BKN260 29/18\ A2995 RMK AO2 SLP142 T02890178= 201708162251 METAR KJFK 162251Z 04005KT 10SM FEW060 FEW075 SCT260 29/17\ A2996 RMK AO2 SLP146 T02940172= 201708162351 METAR KJFK 162351Z 18006KT 10SM FEW060 FEW075 FEW260 26/22\ A2998 RMK AO2 SLP150 T02560217 10311\ 20256 53007= 201708170051 METAR KJFK 170051Z 18007KT 10SM FEW040 FEW060 FEW250 24/22\ A2999 RMK AO2 SLP156 T02440222= 201708170151 METAR KJFK 170151Z 15003KT 10SM FEW060 FEW250 24/23 A3000\ RMK AO2 SLP160 T02440228= 201708170251 METAR KJFK 170251Z 10003KT 10SM FEW060 24/22 A3001 RMK AO2\ SLP161 T02440222 51011= 201708170351 METAR KJFK 170351Z 02003KT 10SM CLR 24/22 A3002 RMK AO2 SLP164\ T02390222= 201708170451 METAR KJFK 170451Z 02003KT 10SM CLR 23/22 A3002 RMK AO2 SLP164\ T02330222 403110211= 201708170551 METAR KJFK 170551Z 01006KT 10SM FEW100 23/20 A3003 RMK AO2\ SLP167 T02280200 10256 20228 51006= 201708170651 METAR KJFK 170651Z 02009KT 10SM SCT085 22/17 A3003 RMK AO2\ SLP167 T02220172= 201708170751 METAR KJFK 170751Z 02008KT 10SM OVC080 22/14 A3003 RMK AO2\ SLP169 T02220144= 201708170851 METAR KJFK 170851Z 02007KT 10SM OVC080 22/15 A3003 RMK AO2\ SLP169 T02170150 51002= 201708170951 METAR KJFK 170951Z 02006KT 10SM BKN080 21/16 A3004 RMK AO2\ SLP173 T02060161= 201708171051 METAR KJFK 171051Z 01006KT 10SM BKN080 BKN330 21/16 A3006\ RMK AO2 SLP179 T02110156= 201708171151 METAR KJFK 171151Z 05007KT 10SM FEW055 BKN080 BKN330 22/16\ A3008 RMK AO2 SLP185 T02220161 10228\ 20206 53017= 201708171251 METAR KJFK 171251Z 06007KT 10SM FEW055 BKN080 23/17 A3008\ RMK AO2 SLP186 T02280167= 201708171351 METAR KJFK 171351Z 12007KT 10SM FEW043 SCT080 BKN330 24/17\ A3008 RMK AO2 SLP187 T02440167= 201708171451 METAR KJFK 171451Z 13010KT 10SM FEW046 SCT075 SCT330 26/15\ A3007 RMK AO2 SLP182 T02560150 58003= 201708171551 METAR KJFK 171551Z 11008KT 10SM FEW050 FEW075 SCT310 26/15\ A3007 RMK AO2 SLP181 T02610150= 201708171651 METAR KJFK 171651Z 13009KT 10SM FEW050 FEW075 SCT310 26/17\ A3006 RMK AO2 SLP180 T02610167= 201708171751 METAR KJFK 171751Z 14008KT 10SM FEW050 SCT280 26/17 A3005\ RMK AO2 SLP174 T02610172 10267 20217\ 58008= 201708171851 METAR KJFK 171851Z 13010KT 10SM FEW050 BKN270 26/17 A3003\ RMK AO2 SLP169 T02560172= 201708171951 METAR KJFK 171951Z 14011KT 10SM FEW050 BKN270 25/17 A3002\ RMK AO2 SLP164 T02500172= 201708172051 METAR KJFK 172051Z 14011KT 10SM FEW050 BKN260 25/18 A3000\ RMK AO2 SLP160 T02500178 56014= 201708172151 METAR KJFK 172151Z 13008KT 10SM BKN260 25/19 A2999 RMK AO2\ SLP155 T02500189= 201708172251 METAR KJFK 172251Z 15007KT 10SM FEW070 BKN260 24/20 A2999\ RMK AO2 SLP155 T02440200= 201708172351 METAR KJFK 172351Z 12006KT 10SM FEW011 SCT070 BKN250 23/21\ A2999 RMK AO2 SLP155 T02330211 10267\ 20233 55004= 201708180051 METAR KJFK 180051Z 12007KT 10SM BKN010 BKN250 23/22 A2999\ RMK AO2 SLP155 T02330222= 201708180151 METAR KJFK 180151Z 13006KT 10SM BKN008 OVC240 24/23 A2999\ RMK AO2 SLP155 T02390228= 201708180251 METAR KJFK 180251Z 14007KT 9SM BKN007 24/23 A3000 RMK AO2\ SLP159 T02390233 53004= 201708180351 METAR KJFK 180351Z 15007KT 7SM OVC008 24/24 A2998 RMK AO2\ SLP153 T02440239= 201708180451 METAR KJFK 180451Z 15007KT 5SM BR OVC006 24/24 A2996 RMK\ AO2 SLP146 T02440244 402670206= 201708180551 METAR KJFK 180551Z 16009KT 5SM BR OVC006 24/24 A2994 RMK\ AO2 SLP139 T02440244 10244 20233\ 58019= 201708180651 METAR KJFK 180651Z 18010KT 9SM OVC006 24/24 A2993 RMK AO2\ SLP133 T02440244= 201708180751 METAR KJFK 180751Z 18010KT 10SM FEW006 SCT039 OVC065 24/24\ A2992 RMK AO2 SLP132 T02390239= 201708180851 METAR KJFK 180851Z 18010KT 10SM FEW006 BKN047 OVC250 24/24\ A2991 RMK AO2 SLP128 T02390239 56011= 201708180951 METAR KJFK 180951Z 17012KT 10SM FEW007 BKN045 24/23 A2990\ RMK AO2 SLP124 T02390233= 201708181051 METAR KJFK 181051Z 17011KT 10SM FEW008 BKN039 OVC077 24/24\ A2990 RMK AO2 SLP126 T02440239= 201708181151 METAR KJFK 181151Z 17013KT 9SM -RA SCT009 BKN039 OVC047 24/24\ A2989 RMK AO2 LTG DSNT NW RAB29 SLP122\ P0000 60000 T02390239 10244 20239\ 56006= 201708181251 METAR KJFK 181251Z 19014G20KT 9SM BKN007 OVC032CB 24/24 A2988\ RMK AO2 LTG DSNT W-NE RAE01B39E50\ SLP118 CB N MOV E P0001 T02390239= 201708181351 METAR KJFK 181351Z 25010G18KT 4SM -TSRA BR BKN005 BKN010\ OVC030CB 24/24 A2989 RMK AO2 LTG\ DSNT NE AND E RAB00 TSE02B04E48B49\ SLP121 OCNL LTGICCG NE TS NE MOV\ E P0014 T02390239= 201708181451 METAR KJFK 181451Z 20009KT 6SM BR BKN005 BKN010 OVC018 25/25\ A2989 RMK AO2 LTG DSNT E RAE41 TSE14\ SLP121 P0009 60024 T02500250 56002= 201708181551 METAR KJFK 181551Z 19008KT 10SM FEW008 BKN017 OVC034 26/26\ A2988 RMK AO2 SLP117 T02560256= 201708181651 METAR KJFK 181651Z 18016KT 10SM FEW010 BKN018 OVC024 26/25\ A2987 RMK AO2 SLP114 T02560250= 201708181751 METAR KJFK 181751Z 19015KT 10SM SCT005 OVC014 26/26 A2986\ RMK AO2 SLP110 60024 T02610256 10272\ 20239 58007= 201708181851 METAR KJFK 181851Z 19013KT 10SM FEW006 OVC017 25/25 A2984\ RMK AO2 SLP103 T02500250= 201708181951 METAR KJFK 181951Z 19015KT 10SM SCT006 BKN015 OVC027 26/26\ A2981 RMK AO2 RAB1854E18 SLP094 P0000\ T02610256= 201708182051 METAR KJFK 182051Z 18015G18KT 9SM BKN006 OVC018 26/26 A2979\ RMK AO2 SLP088 60000 T02560256 56022= 201708182151 METAR KJFK 182151Z 18014G22KT 2 1/2SM BR BKN005 OVC022 25/25\ A2980 RMK AO2 SFC VIS 6 LTG DSNT\ SW SLP090 T02500250= 201708182251 METAR KJFK 182251Z 19017KT 7SM SCT005 SCT035 BKN160 BKN250\ 25/25 A2980 RMK AO2 PK WND 19026/2154\ LTG DSNT SW-NW SLP091 CB DSNT SW\ T02500250= 201708182351 METAR KJFK 182351Z 20011KT 8SM -TSRA FEW009 SCT035CB BKN120\ BKN140 BKN250 24/24 A2981 RMK AO2\ LTG DSNT NE AND SW AND NW RAB03 TSB11\ SLP094 OCNL LTGCCCG N-E TS N-E MOV\ E P0001 60001 T02390239 10261 20233\ 53004= 201708190051 METAR KJFK 190051Z 21008KT 10SM FEW035 SCT065 SCT100 BKN160\ BKN210 23/23 A2979 RMK AO2 LTG DSNT\ E-S RAE34 TSE32 SLP086 FRQ LTGICCC\ DSNT E-S CB DSNT E-S P0002 T02280228= 201708190151 METAR KJFK 190151Z 20011KT 10SM FEW100 SCT120 BKN250 23/23\ A2981 RMK AO2 SLP094 T02280228= 201708190251 METAR KJFK 190251Z 23009KT 10SM BKN100 BKN250 23/23 A2982\ RMK AO2 SLP096 60002 T02280228 53003= 201708190351 METAR KJFK 190351Z 25010KT 10SM SCT036 SCT080 SCT100 OVC250\ 23/23 A2983 RMK AO2 SLP100 T02330228= 201708190451 METAR KJFK 190451Z 24009KT 10SM FEW036 SCT080 BKN250 23/23\ A2980 RMK AO2 SLP091 T02280228 402720228= 201708190551 METAR KJFK 190551Z 25006KT 10SM SCT080 BKN250 23/23 A2978\ RMK AO2 SLP085 60002 T02280228 10244\ 20228 58011= 201708190651 METAR KJFK 190651Z 26009KT 10SM SCT010 SCT110 BKN250 23/23\ A2978 RMK AO2 SLP086 T02280228= 201708190751 METAR KJFK 190751Z 25007KT 10SM BKN008 23/23 A2979 RMK AO2\ SLP087 T02280228= 201708190851 METAR KJFK 190851Z 27010KT 10SM OVC009 23/23 A2980 RMK AO2\ SLP092 T02280228 53007= 201708190951 METAR KJFK 190951Z 27008KT 10SM FEW011 BKN250 23/23 A2982\ RMK AO2 SLP098 T02280228= 201708191051 METAR KJFK 191051Z 28008KT 10SM SCT080 BKN250 23/23 A2983\ RMK AO2 SLP100 T02280228= 201708191151 METAR KJFK 191151Z 30006KT 10SM FEW100 BKN250 23/23 A2984\ RMK AO2 SLP104 VIRGA OHD 70027 T02330233\ 10239 20228 51012= 201708191251 METAR KJFK 191251Z 35010KT 10SM FEW020 SCT130 BKN250 25/21\ A2985 RMK AO2 SLP107 T02500206= 201708191351 METAR KJFK 191351Z 34006KT 10SM FEW030 SCT090 BKN250 28/19\ A2986 RMK AO2 SLP113 T02780194= 201708191451 METAR KJFK 191451Z 29006KT 10SM FEW030 FEW090 BKN250 29/19\ A2987 RMK AO2 SLP114 T02940194 51010= 201708191551 METAR KJFK 191551Z 21009KT 10SM SCT050 SCT100 BKN250 29/22\ A2987 RMK AO2 SLP114 T02890222= 201708191651 METAR KJFK 191651Z 21012KT 10SM SCT050 SCT100 BKN250 29/21\ A2987 RMK AO2 SLP114 T02940211= 201708191751 METAR KJFK 191751Z 22011KT 10SM SCT055 SCT100 BKN250 30/20\ A2986 RMK AO2 SLP111 T03000200 10306\ 20233 58002= 201708191851 METAR KJFK 191851Z 19011KT 10SM SCT050 SCT090 BKN260 29/21\ A2985 RMK AO2 SLP106 T02940206= 201708191951 METAR KJFK 191951Z AUTO 20015KT 10SM FEW060 30/20 A2984 RMK\ AO2 SLP106 T03000200= 201708192051 METAR KJFK 192051Z 18013KT 10SM FEW060 FEW100 SCT250 29/21\ A2983 RMK AO2 SLP102 T02890206 56009= 201708192151 METAR KJFK 192151Z 19010KT 10SM FEW055 SCT250 28/21 A2983\ RMK AO2 SLP102 T02830206= 201708192251 METAR KJFK 192251Z 21008KT 10SM FEW055 FEW130 SCT250 28/22\ A2984 RMK AO2 SLP103 T02780217= 201708192351 METAR KJFK 192351Z 23012KT 10SM FEW055 FEW130 SCT250 27/21\ A2985 RMK AO2 SLP108 T02720206 10300\ 20267 53006= 201708200051 METAR KJFK 200051Z 23009KT 10SM FEW130 FEW250 27/20 A2987\ RMK AO2 SLP114 T02720200= 201708200151 METAR KJFK 200151Z 24007KT 10SM FEW160 FEW250 26/21 A2989\ RMK AO2 SLP120 T02610206= 201708200251 METAR KJFK 200251Z 24008KT 10SM SCT180 SCT250 27/21 A2990\ RMK AO2 SLP125 T02670206 51016= 201708200351 METAR KJFK 200351Z 20006KT 10SM SCT050 SCT120 SCT180 SCT250\ 25/21 A2989 RMK AO2 SLP122 T02500211= 201708200451 METAR KJFK 200451Z 24012KT 10SM FEW050 SCT130 SCT250 25/21\ A2990 RMK AO2 SLP125 T02500211 403060228= 201708200551 METAR KJFK 200551Z 26012KT 10SM FEW050 FEW140 FEW250 25/19\ A2991 RMK AO2 SLP126 T02500189 10278\ 20244 53002= 201708200651 METAR KJFK 200651Z 27011KT 10SM FEW140 FEW250 24/19 A2992\ RMK AO2 SLP131 T02390194= 201708200751 METAR KJFK 200751Z 27011KT 10SM FEW250 23/18 A2993 RMK AO2\ SLP136 T02280183= 201708200851 METAR KJFK 200851Z 29007KT 10SM FEW250 22/18 A2996 RMK AO2\ SLP144 T02220178 53018= 201708200951 METAR KJFK 200951Z 30009KT 10SM FEW250 22/17 A2998 RMK AO2\ SLP153 T02220172= 201708201051 METAR KJFK 201051Z 30012KT 10SM FEW250 22/17 A3001 RMK AO2\ SLP161 T02170167= 201708201151 METAR KJFK 201151Z 32012KT 10SM FEW250 23/17 A3002 RMK AO2\ SLP167 T02280167 10250 20217 51023= 201708201251 METAR KJFK 201251Z 32011KT 10SM FEW250 24/17 A3003 RMK AO2\ SLP170 T02390167= 201708201351 METAR KJFK 201351Z 32012KT 10SM FEW040 FEW250 26/16 A3004\ RMK AO2 SLP172 T02560161= 201708201451 METAR KJFK 201451Z 31008G17KT 10SM FEW045 FEW250 26/16 A3006\ RMK AO2 SLP178 T02610156 53011= 201708201551 METAR KJFK 201551Z 29013G20KT 10SM FEW050 SCT250 27/15 A3006\ RMK AO2 SLP178 T02720150= 201708201651 METAR KJFK 201651Z 28008G16KT 250V320 10SM FEW050 SCT250\ 28/15 A3006 RMK AO2 SLP180 T02780150= 201708201751 METAR KJFK 201751Z 31013G17KT 10SM FEW050 SCT250 28/15 A3007\ RMK AO2 SLP183 T02830150 10283 20228\ 53006= 201708201851 METAR KJFK 201851Z 31012G20KT 10SM SCT050 SCT250 29/16 A3007\ RMK AO2 SLP181 T02890156= 201708201951 METAR KJFK 201951Z 34014KT 10SM FEW050 SCT250 29/16 A3006\ RMK AO2 SLP179 T02890156= 201708202051 METAR KJFK 202051Z 34008KT 10SM FEW060 SCT250 29/15 A3006\ RMK AO2 SLP180 T02890150 55003= 201708202151 METAR KJFK 202151Z 31008G14KT 10SM SCT060 SCT250 28/14 A3007\ RMK AO2 SLP183 T02830144= 201708202251 METAR KJFK 202251Z 29009KT 10SM FEW060 FEW250 28/14 A3008\ RMK AO2 SLP187 T02780144= 201708202351 METAR KJFK 202351Z 30011KT 10SM FEW060 SCT250 27/14 A3010\ RMK AO2 SLP192 T02720144 10294 20272\ 53012= 201708210051 METAR KJFK 210051Z 31011KT 10SM FEW250 27/14 A3012 RMK AO2\ SLP197 T02670144= 201708210151 METAR KJFK 210151Z 30008KT 10SM FEW250 27/14 A3014 RMK AO2\ SLP207 T02670144= 201708210251 METAR KJFK 210251Z 28007KT 10SM FEW250 26/15 A3015 RMK AO2\ SLP209 T02610150 51017= 201708210351 METAR KJFK 210351Z 26006KT 10SM FEW250 24/17 A3017 RMK AO2\ SLP214 T02440167= 201708210451 METAR KJFK 210451Z 25006KT 10SM FEW250 23/19 A3017 RMK AO2\ SLP216 T02280194 402940217= 201708210551 METAR KJFK 210551Z 26005KT 10SM CLR 23/18 A3018 RMK AO2 SLP218\ T02330178 10272 20228 51009= 201708210651 METAR KJFK 210651Z 22005KT 10SM CLR 22/19 A3017 RMK AO2 SLP215\ T02170189= 201708210751 METAR KJFK 210751Z 23004KT 10SM FEW250 22/20 A3017 RMK AO2\ SLP215 T02170200= 201708210851 METAR KJFK 210851Z 25006KT 10SM FEW250 22/19 A3018 RMK AO2\ SLP220 T02170194 53003= 201708210951 METAR KJFK 210951Z 25007KT 10SM FEW250 22/19 A3019 RMK AO2\ SLP223 T02170194= 201708211051 METAR KJFK 211051Z 23006KT 10SM BKN320 22/20 A3020 RMK AO2\ SLP227 T02220200= 201708211151 METAR KJFK 211151Z 26007KT 10SM BKN320 24/19 A3021 RMK AO2\ SLP230 T02390194 10239 20211 51010= 201708211251 METAR KJFK 211251Z 24006KT 10SM BKN290 26/19 A3021 RMK AO2\ SLP230 T02610194= 201708211351 METAR KJFK 211351Z VRB05KT 10SM FEW220 BKN290 28/18 A3020\ RMK AO2 SLP226 T02780183= 201708211451 METAR KJFK 211451Z 19007KT 10SM BKN270 27/21 A3021 RMK AO2\ SLP229 T02670211 55001= 201708211551 METAR KJFK 211551Z 23008KT 10SM SCT270 29/19 A3020 RMK AO2\ SLP226 T02890194= 201708211651 METAR KJFK 211651Z 20012KT 10SM SCT250 29/18 A3018 RMK AO2\ SLP218 T02940178= 201708211751 METAR KJFK 211751Z 19009KT 10SM FEW042 FEW190 BKN250 28/19\ A3017 RMK AO2 SLP216 T02830194 10306\ 20239 56014= 201708211851 METAR KJFK 211851Z 19012KT 10SM FEW042 BKN250 27/20 A3016\ RMK AO2 SLP212 T02670200= 201708211951 METAR KJFK 211951Z 19015KT 10SM FEW045 FEW200 BKN250 28/21\ A3015 RMK AO2 SLP209 T02780206= 201708212051 METAR KJFK 212051Z 19018KT 10SM SCT050 SCT180 BKN250 27/21\ A3013 RMK AO2 SLP203 T02720211 58013= 201708212151 METAR KJFK 212151Z 19015KT 10SM FEW050 FEW250 27/22 A3013\ RMK AO2 SLP202 T02670217= 201708212251 METAR KJFK 212251Z 19015KT 10SM FEW050 BKN250 26/22 A3010\ RMK AO2 SLP194 T02610222= 201708212351 METAR KJFK 212351Z 19012KT 10SM FEW050 FEW150 BKN250 25/23\ A3011 RMK AO2 SLP197 T02500233 10289\ 20250 55006= 201708220051 METAR KJFK 220051Z 20012KT 10SM FEW050 BKN250 26/23 A3012\ RMK AO2 SLP201 T02560228= 201708220151 METAR KJFK 220151Z 21009KT 10SM BKN250 25/23 A3012 RMK AO2\ SLP201 T02500228= 201708220251 METAR KJFK 220251Z 20007KT 10SM SCT250 24/22 A3011 RMK AO2\ SLP197 T02440222 50000= 201708220351 METAR KJFK 220351Z 22007KT 10SM SCT250 24/22 A3011 RMK AO2\ SLP194 T02390222= 201708220451 METAR KJFK 220451Z 19006KT 10SM SCT250 23/22 A3010 RMK AO2\ SLP192 T02330222 403060211= 201708220551 METAR KJFK 220551Z 22006KT 10SM SCT250 23/23 A3009 RMK AO2\ SLP188 T02330228 10256 20233 58009= 201708220651 METAR KJFK 220651Z 21009KT 10SM SCT250 23/23 A3007 RMK AO2\ SLP183 T02330233= 201708220751 METAR KJFK 220751Z 21007KT 10SM FEW012 BKN250 23/23 A3005\ RMK AO2 SLP176 T02330233= 201708220851 METAR KJFK 220851Z 20007KT 10SM BKN011 OVC250 23/23 A3005\ RMK AO2 SLP174 T02330233 56014= 201708220951 METAR KJFK 220951Z 21006KT 9SM OVC008 23/23 A3004 RMK AO2\ SLP173 T02330233= 201708221051 METAR KJFK 221051Z 20007KT 8SM BKN008 OVC250 23/23 A3004\ RMK AO2 SLP173 T02330233= 201708221151 METAR KJFK 221151Z 22007KT 9SM OVC008 24/24 A3004 RMK AO2\ SLP171 T02440239 10244 20233 58003= 201708221251 METAR KJFK 221251Z 23009KT 6SM BR BKN006 BKN012 24/24 A3003\ RMK AO2 SLP169 T02440239= 201708221351 METAR KJFK 221351Z 23010KT 7SM OVC010 25/24 A3002 RMK AO2\ SLP165 CIG 008V012 T02500244= 201708221451 METAR KJFK 221451Z 20008KT 8SM BKN011 26/24 A3001 RMK AO2\ SLP161 T02610244 58010= 201708221551 METAR KJFK 221551Z 20009KT 9SM BKN014 BKN250 28/24 A2999\ RMK AO2 SLP154 BKN014 V SCT T02830244= 201708221651 METAR KJFK 221651Z 17010KT 9SM FEW016 SCT250 29/24 A2996\ RMK AO2 SLP147 T02890244= 201708221751 METAR KJFK 221751Z 19015KT 10SM FEW023 FEW250 29/26 A2995\ RMK AO2 SLP141 T02940256 10294 20239\ 56020= 201708221851 METAR KJFK 221851Z 18014KT 10SM FEW028 FEW250 29/26 A2991\ RMK AO2 SLP127 T02940256= 201708221951 METAR KJFK 221951Z 18019KT 10SM FEW040 FEW250 29/25 A2987\ RMK AO2 SLP114 T02890250= 201708222051 METAR KJFK 222051Z 18022G29KT 10SM FEW045 SCT250 28/25 A2984\ RMK AO2 PK WND 19030/2032 SLP104\ T02830250 56037= 201708222151 METAR KJFK 222151Z 19022G29KT 10SM FEW045 SCT250 27/25 A2981\ RMK AO2 PK WND 19032/2112 SLP096\ T02720250= 201708222251 METAR KJFK 222251Z 19021G28KT 10SM FEW045 BKN250 26/24 A2980\ RMK AO2 PK WND 18030/2214 SLP092\ T02610244= 201708222351 METAR KJFK 222351Z 19020KT 10SM FEW045 FEW100 BKN250 26/24\ A2980 RMK AO2 PK WND 19029/2340 SLP090\ T02560244 10300 20256 56013= 201708230051 METAR KJFK 230051Z 19017KT 10SM FEW100 BKN250 26/24 A2979\ RMK AO2 PK WND 19027/2357 SLP086\ T02560244= 201708230151 METAR KJFK 230151Z 20014KT 10SM FEW045 FEW140 BKN250 26/24\ A2978 RMK AO2 SLP083 FRQ LTGIC DSNT\ W-NW CB DSNT W-NW T02560239= 201708230251 METAR KJFK 230251Z 21014KT 10SM FEW045 BKN180 OVC250 26/24\ A2980 RMK AO2 LTG DSNT W AND NW PRESRR\ SLP092 FRQ LTGICCA DSNT W-NW CB DSNT\ W-NW MOV E T02560244 53002= 201708230351 METAR KJFK 230351Z 26017G23KT 10SM -TSRA SCT060CB OVC110\ 24/23 A2982 RMK AO2 PK WND 24031/0309\ LTG DSNT ALQDS RAB11 TSE0255B11 SLP098\ OCNL LTGICCA SW-W TS SW-W MOV E P0002\ T02390228= 201708230451 METAR KJFK 230451Z 26013KT 6SM -TSRA BR SCT060CB OVC100 23/23\ A2982 RMK AO2 LTG DSNT SW SLP096\ OCNL LTGIC S TS S MOV E P0012 T02330228\ 403000233= 201708230551 METAR KJFK 230551Z 23009KT 9SM -RA FEW050 OVC100 23/23 A2978\ RMK AO2 TSE22 SLP085 P0009 60023\ T02330233 10267 20233 58007= 201708230651 METAR KJFK 230651Z 22012KT 10SM FEW009 FEW044 BKN140 OVC210\ 23/23 A2978 RMK AO2 RAE10 SLP083\ P0000 T02330233= 201708230751 METAR KJFK 230751Z 23012KT 10SM BKN012 OVC140 23/23 A2977\ RMK AO2 SLP080 T02330233= 201708230851 METAR KJFK 230851Z 25009KT 10SM -RA FEW011 OVC120 23/23 A2977\ RMK AO2 RAB27 SLP080 P0000 60000\ T02330233 56005= 201708230951 METAR KJFK 230951Z 26009KT 10SM -RA FEW011 SCT048 OVC110\ 24/23 A2977 RMK AO2 RAE27B49 SLP081\ P0000 T02390233= 201708231051 METAR KJFK 231051Z 27008KT 10SM FEW011 BKN120 BKN250 24/23\ A2978 RMK AO2 RAE03 SLP085 P0000\ T02390233= 201708231151 METAR KJFK 231151Z 29007KT 10SM FEW016 BKN095 BKN250 24/23\ A2980 RMK AO2 SLP091 60000 70023\ T02440228 10244 20233 53011= 201708231251 METAR KJFK 231251Z 33015KT 10SM FEW022 SCT029 BKN085 BKN250\ 24/21 A2982 RMK AO2 SLP096 FROPA\ T02390206= 201708231351 METAR KJFK 231351Z 32009KT 10SM FEW043 BKN120 BKN250 25/15\ A2983 RMK AO2 SLP101 T02500150= 201708231451 METAR KJFK 231451Z 34010KT 10SM SCT080 SCT120 BKN260 26/14\ A2984 RMK AO2 SLP106 T02610139 51015= 201708231551 METAR KJFK 231551Z 30012KT 10SM FEW120 BKN270 27/13 A2984\ RMK AO2 SLP105 T02720128= 201708231651 METAR KJFK 231651Z 31011KT 10SM FEW120 BKN270 28/13 A2984\ RMK AO2 SLP105 T02780133= 201708231751 METAR KJFK 231751Z 30007KT 10SM FEW060 FEW130 BKN270 28/12\ A2984 RMK AO2 SLP104 T02780122 10289\ 20233 56002= 201708231851 METAR KJFK 231851Z 29009KT 10SM FEW060 FEW130 FEW210 BKN260\ 29/11 A2983 RMK AO2 SLP100 T02890111= 201708231951 METAR KJFK 231951Z 31009KT 10SM FEW060 FEW150 FEW210 BKN260\ 29/12 A2983 RMK AO2 SLP100 T02890117= 201708232051 METAR KJFK 232051Z 28011G17KT 10SM FEW065 FEW150 BKN260 28/12\ A2983 RMK AO2 SLP099 T02780117 56005= 201708232151 METAR KJFK 232151Z 33007G16KT 10SM FEW065 FEW150 BKN260 28/12\ A2983 RMK AO2 SLP102 T02780122= 201708232251 METAR KJFK 232251Z 30012KT 10SM FEW065 FEW150 SCT260 27/11\ A2983 RMK AO2 SLP102 T02670111= 201708232351 METAR KJFK 232351Z 31010KT 10SM FEW065 SCT260 26/12 A2985\ RMK AO2 SLP108 T02560117 10289 20256\ 53009= 201708240051 METAR KJFK 240051Z 34007KT 10SM FEW065 SCT250 25/12 A2987\ RMK AO2 SLP114 T02500117= 201708240151 METAR KJFK 240151Z 34008KT 10SM FEW065 FEW250 24/11 A2987\ RMK AO2 SLP114 T02390111= 201708240251 METAR KJFK 240251Z 02004KT 10SM FEW250 23/13 A2987 RMK AO2\ SLP115 T02330128 51007= 201708240351 METAR KJFK 240351Z 02003KT 10SM CLR 22/14 A2988 RMK AO2 SLP119\ T02170139= 201708240451 METAR KJFK 240451Z 02003KT 10SM CLR 21/15 A2989 RMK AO2 SLP120\ T02060150 402890206= 201708240551 METAR KJFK 240551Z 00000KT 10SM CLR 19/17 A2988 RMK AO2 SLP118\ T01940167 10256 20194 50003= 201708240651 METAR KJFK 240651Z 03003KT 10SM CLR 19/16 A2988 RMK AO2 SLP119\ T01890161= 201708240751 METAR KJFK 240751Z 00000KT 10SM CLR 19/15 A2988 RMK AO2 SLP118\ T01890150= 201708240851 METAR KJFK 240851Z 34006KT 10SM CLR 19/15 A2989 RMK AO2 SLP122\ T01890150 53004= 201708240951 METAR KJFK 240951Z 35003KT 10SM FEW070 FEW250 19/14 A2991\ RMK AO2 SLP128 T01940139= 201708241051 METAR KJFK 241051Z 07003KT 10SM FEW070 FEW250 19/16 A2993\ RMK AO2 SLP133 T01890156= 201708241151 METAR KJFK 241151Z 35009KT 10SM FEW070 FEW250 21/14 A2994\ RMK AO2 SLP140 T02110144 10211 20183\ 53018= 201708241251 METAR KJFK 241251Z 35010KT 10SM FEW070 FEW250 23/14 A2995\ RMK AO2 SLP141 T02280144= 201708241351 METAR KJFK 241351Z 02011KT 10SM FEW250 24/14 A2995 RMK AO2\ SLP142 T02390139= 201708241451 METAR KJFK 241451Z VRB06KT 10SM FEW050 FEW080 FEW250 26/14\ A2995 RMK AO2 SLP141 T02560144 50001= 201708241551 METAR KJFK 241551Z 35007KT 10SM FEW055 SCT250 26/12 A2994\ RMK AO2 SLP139 T02610122= 201708241651 METAR KJFK 241651Z 32009KT 10SM SCT055 SCT250 27/13 A2993\ RMK AO2 SLP135 T02670128= 201708241751 METAR KJFK 241751Z 33012G16KT 10SM SCT065 SCT250 28/12 A2992\ RMK AO2 SLP131 T02780117 10278 20211\ 58010= 201708241851 METAR KJFK 241851Z 31010G18KT 10SM SCT070 SCT250 29/10 A2992\ RMK AO2 SLP131 T02890100= 201708241951 METAR KJFK 241951Z 30011G17KT 10SM SCT070 SCT250 27/09 A2992\ RMK AO2 SLP130 T02670094= 201708242051 METAR KJFK 242051Z 31009G15KT 250V350 10SM BKN075 BKN250\ 27/09 A2992 RMK AO2 SLP133 T02720094\ 53002= 201708242151 METAR KJFK 242151Z 31010KT 10SM SCT080 SCT250 26/09 A2993\ RMK AO2 SLP134 T02610094= 201708242251 METAR KJFK 242251Z 34010KT 10SM FEW075 BKN090 BKN250 26/10\ A2993 RMK AO2 SLP134 T02560100= 201708242351 METAR KJFK 242351Z 36011KT 10SM FEW050 BKN075 BKN250 24/10\ A2994 RMK AO2 SLP139 T02440100 10289\ 20244 53006= 201708250051 METAR KJFK 250051Z 33011KT 10SM FEW075 SCT090 24/09 A2996\ RMK AO2 SLP145 T02390094= 201708250151 METAR KJFK 250151Z 35007KT 10SM SCT090 23/09 A2996 RMK AO2\ SLP147 T02280094= 201708250251 METAR KJFK 250251Z 35004KT 10SM FEW090 22/10 A2997 RMK AO2\ SLP147 T02170100 51008= 201708250351 METAR KJFK 250351Z 35003KT 10SM FEW090 21/11 A2998 RMK AO2\ SLP152 T02110106= 201708250451 METAR KJFK 250451Z 36006KT 10SM FEW070 21/12 A2999 RMK AO2\ SLP157 T02060117 402890183= 201708250551 METAR KJFK 250551Z 36006KT 10SM FEW070 19/14 A3000 RMK AO2\ SLP158 T01940139 10244 20194 51010= 201708250651 METAR KJFK 250651Z 35006KT 10SM FEW070 19/13 A3002 RMK AO2\ SLP165 T01890128= 201708250751 METAR KJFK 250751Z 36007KT 10SM FEW090 19/13 A3002 RMK AO2\ SLP166 T01890133= 201708250851 METAR KJFK 250851Z 35007KT 10SM FEW090 18/13 A3003 RMK AO2\ SLP170 T01780133 51013= 201708250951 METAR KJFK 250951Z 01005KT 10SM FEW090 SCT160 18/13 A3005\ RMK AO2 SLP175 T01830133= 201708251051 METAR KJFK 251051Z 36006KT 10SM FEW090 SCT160 18/14 A3007\ RMK AO2 SLP181 VIRGA W T01830139= 201708251151 METAR KJFK 251151Z 36011KT 10SM FEW090 SCT160 SCT210 20/13\ A3007 RMK AO2 SLP183 T02000133 10200\ 20178 51013= 201708251251 METAR KJFK 251251Z 36012KT 10SM FEW043 FEW110 FEW160 21/14\ A3009 RMK AO2 SLP190 T02110139= 201708251351 METAR KJFK 251351Z 34009KT 10SM FEW045 FEW160 23/14 A3010\ RMK AO2 SLP192 T02280144= 201708251451 METAR KJFK 251451Z 32007KT 290V350 10SM FEW045 FEW160 24/14\ A3010 RMK AO2 SLP194 T02390139 51011= 201708251551 METAR KJFK 251551Z 01007KT 330V030 10SM SCT048 25/13 A3010\ RMK AO2 SLP193 T02500133= 201708251651 METAR KJFK 251651Z 02007KT 10SM SCT055 24/12 A3010 RMK AO2\ SLP192 T02390117= 201708251751 METAR KJFK 251751Z VRB04KT 10SM BKN060 25/12 A3010 RMK AO2\ SLP194 T02500117 10267 20200 55000= 201708251851 METAR KJFK 251851Z 21010KT 10SM SCT055 BKN080 23/14 A3010\ RMK AO2 SLP193 T02330144= 201708251951 METAR KJFK 251951Z 16006KT 10SM BKN055 BKN090 24/13 A3010\ RMK AO2 SLP193 T02390133= 201708252051 METAR KJFK 252051Z 14003KT 10SM BKN060 BKN090 24/13 A3011\ RMK AO2 SLP197 T02390133 53003= 201708252151 METAR KJFK 252151Z 11004KT 10SM BKN060 BKN090 24/12 A3013\ RMK AO2 SLP202 T02390122= 201708252251 METAR KJFK 252251Z 00000KT 10SM BKN060 BKN085 24/13 A3013\ RMK AO2 SLP204 T02390128= 201708252351 METAR KJFK 252351Z 12003KT 10SM BKN060 BKN100 23/13 A3015\ RMK AO2 SLP209 T02330128 10250 20233\ 52012= 201708260051 METAR KJFK 260051Z 00000KT 10SM SCT060 BKN100 23/13 A3017\ RMK AO2 SLP215 T02280128= 201708260151 METAR KJFK 260151Z 05004KT 10SM FEW055 BKN100 22/13 A3018\ RMK AO2 SLP219 T02170133= 201708260251 METAR KJFK 260251Z 06004KT 10SM BKN065 21/13 A3019 RMK AO2\ SLP222 T02110133 51013= 201708260351 METAR KJFK 260351Z 01007KT 10SM FEW065 20/14 A3019 RMK AO2\ SLP223 T02000139= 201708260451 METAR KJFK 260451Z 01006KT 10SM FEW065 SCT250 20/14 A3020\ RMK AO2 SLP227 T02000144 402670178= 201708260551 METAR KJFK 260551Z 03008KT 10SM FEW065 FEW250 19/13 A3021\ RMK AO2 SLP228 T01940128 10233 20194\ 53006= 201708260651 METAR KJFK 260651Z 01005KT 10SM FEW065 FEW100 18/13 A3021\ RMK AO2 SLP230 T01830128= 201708260751 METAR KJFK 260751Z 01007KT 10SM FEW065 FEW100 18/12 A3022\ RMK AO2 SLP233 T01830117= 201708260851 METAR KJFK 260851Z 35008KT 10SM FEW065 FEW100 17/12 A3023\ RMK AO2 SLP237 T01720117 53009= 201708260951 METAR KJFK 260951Z 36006KT 10SM FEW065 FEW100 FEW250 17/12\ A3024 RMK AO2 SLP241 T01670117= 201708261051 METAR KJFK 261051Z 01006KT 10SM FEW070 FEW100 17/12 A3026\ RMK AO2 SLP246 T01720117= 201708261151 METAR KJFK 261151Z 36009KT 10SM FEW070 FEW100 19/12 A3026\ RMK AO2 SLP247 T01890117 10194 20167\ 51010= 201708261251 METAR KJFK 261251Z 36007KT 10SM FEW100 21/12 A3026 RMK AO2\ SLP246 T02060117= 201708261351 METAR KJFK 261351Z VRB06KT 10SM FEW100 22/12 A3027 RMK AO2\ SLP251 T02220122= 201708261451 METAR KJFK 261451Z 01005KT 10SM FEW065 FEW100 24/10 A3028\ RMK AO2 SLP252 T02390100 53004= 201708261551 METAR KJFK 261551Z 36008KT 330V040 10SM FEW055 25/09 A3027\ RMK AO2 SLP249 T02500094= 201708261651 METAR KJFK 261651Z 00000KT 10SM FEW050 24/09 A3025 RMK AO2\ SLP244 T02440094= 201708261751 METAR KJFK 261751Z 33009KT 10SM FEW050 26/06 A3025 RMK AO2\ SLP245 T02560061 10261 20189 56007= 201708261851 METAR KJFK 261851Z 00000KT 10SM FEW060 26/06 A3023 RMK AO2\ SLP237 T02610056= 201708261951 METAR KJFK 261951Z 19012KT 10SM CLR 25/09 A3023 RMK AO2 SLP236\ T02500094= 201708262051 METAR KJFK 262051Z 17009KT 10SM FEW065 24/10 A3022 RMK AO2\ SLP235 T02440100 56010= 201708262151 METAR KJFK 262151Z 17009KT 10SM FEW065 23/11 A3022 RMK AO2\ SLP234 T02330106= 201708262251 METAR KJFK 262251Z 16005KT 10SM FEW065 22/12 A3023 RMK AO2\ SLP235 T02220117= 201708262351 METAR KJFK 262351Z 13003KT 10SM FEW065 21/12 A3024 RMK AO2\ SLP239 T02110122 10267 20211 53004= 201708270051 METAR KJFK 270051Z 00000KT 10SM CLR 21/13 A3025 RMK AO2 SLP243\ T02060128= 201708270151 METAR KJFK 270151Z 08003KT 10SM CLR 19/14 A3026 RMK AO2 SLP245\ T01940139= 201708270251 METAR KJFK 270251Z 08003KT 10SM FEW250 18/14 A3026 RMK AO2\ SLP248 T01830139 51009= 201708270351 METAR KJFK 270351Z 05003KT 10SM FEW250 18/14 A3026 RMK AO2\ SLP247 T01830144= 201708270451 METAR KJFK 270451Z 02004KT 10SM FEW250 18/14 A3027 RMK AO2\ SLP248 T01780139 402670167= 201708270551 METAR KJFK 270551Z 04003KT 10SM FEW250 17/14 A3026 RMK AO2\ SLP245 T01670139 10211 20167 58003= 201708270651 METAR KJFK 270651Z 03004KT 10SM FEW250 17/14 A3025 RMK AO2\ SLP243 T01670144= 201708270751 METAR KJFK 270751Z 02005KT 10SM FEW250 16/13 A3026 RMK AO2\ SLP245 T01610128= 201708270851 METAR KJFK 270851Z 04005KT 10SM FEW060 FEW250 16/13 A3026\ RMK AO2 SLP245 T01560133 55000= 201708270951 METAR KJFK 270951Z 35007KT 10SM FEW060 SCT250 16/12 A3026\ RMK AO2 SLP248 T01560122= 201708271051 METAR KJFK 271051Z 01007KT 10SM FEW060 SCT250 16/12 A3027\ RMK AO2 SLP249 T01610122= 201708271151 METAR KJFK 271151Z 02009KT 10SM FEW060 SCT250 18/13 A3027\ RMK AO2 SLP249 T01780128 10178 20156\ 51004= 201708271251 METAR KJFK 271251Z 03009KT 10SM FEW065 BKN250 20/13 A3027\ RMK AO2 SLP251 T02000128= 201708271351 METAR KJFK 271351Z 05007KT 10SM FEW030 SCT250 22/13 A3029\ RMK AO2 SLP255 T02220133= 201708271451 METAR KJFK 271451Z 00000KT 10SM FEW035 BKN250 23/13 A3029\ RMK AO2 SLP255 T02330128 51006= 201708271551 METAR KJFK 271551Z 06004KT 10SM SCT050 BKN250 25/09 A3028\ RMK AO2 SLP252 T02500094= 201708271651 METAR KJFK 271651Z 05009KT 10SM SCT060 BKN250 26/10 A3026\ RMK AO2 SLP248 T02560100= 201708271751 METAR KJFK 271751Z 14008KT 10SM BKN060 BKN250 24/11 A3026\ RMK AO2 SLP245 T02440106 10267 20183\ 58010= 201708271851 METAR KJFK 271851Z 10008KT 10SM SCT060 BKN250 25/11 A3024\ RMK AO2 SLP239 T02500106= 201708271951 METAR KJFK 271951Z 10010KT 10SM SCT060 BKN250 25/11 A3023\ RMK AO2 SLP235 T02500111= 201708272051 METAR KJFK 272051Z 12011KT 10SM FEW060 BKN250 24/12 A3022\ RMK AO2 SLP233 T02390122 56012= 201708272151 METAR KJFK 272151Z 14010KT 10SM FEW060 BKN250 23/12 A3024\ RMK AO2 SLP239 T02280122= 201708272251 METAR KJFK 272251Z 13007KT 10SM BKN250 22/13 A3024 RMK AO2\ SLP240 T02220133= 201708272351 METAR KJFK 272351Z 09006KT 10SM FEW060 BKN250 21/14 A3024\ RMK AO2 SLP241 VIRGA OHD T02060139\ 10256 20206 51008= 201708280051 METAR KJFK 280051Z 08004KT 10SM BKN250 20/14 A3025 RMK AO2\ SLP244 T02000139= 201708280151 METAR KJFK 280151Z 08003KT 10SM BKN250 19/14 A3026 RMK AO2\ SLP245 T01940139= 201708280251 METAR KJFK 280251Z 07004KT 10SM BKN250 19/14 A3027 RMK AO2\ SLP251 T01890139 53009= 201708280351 METAR KJFK 280351Z 06005KT 10SM BKN250 18/14 A3027 RMK AO2\ SLP251 T01830139= 201708280451 METAR KJFK 280451Z 05005KT 10SM BKN250 18/14 A3027 RMK AO2\ SLP251 T01780139 402670156= 201708280551 METAR KJFK 280551Z 05005KT 10SM BKN250 17/14 A3026 RMK AO2\ SLP246 T01720144 10206 20172 58004= 201708280651 METAR KJFK 280651Z 07006KT 10SM BKN250 17/14 A3024 RMK AO2\ SLP241 T01720144= 201708280751 METAR KJFK 280751Z 05006KT 10SM SCT250 17/14 A3024 RMK AO2\ SLP241 T01670139= 201708280851 METAR KJFK 280851Z 05006KT 10SM SCT250 16/14 A3025 RMK AO2\ SLP245 T01610139 55002= 201708280951 METAR KJFK 280951Z 05007KT 10SM FEW250 16/13 A3026 RMK AO2\ SLP245 T01560133= 201708281051 METAR KJFK 281051Z 04006KT 10SM FEW033 BKN260 16/14 A3029\ RMK AO2 SLP257 T01610139= 201708281151 METAR KJFK 281151Z 06007KT 10SM FEW035 BKN260 19/14 A3032\ RMK AO2 SLP265 T01890144 10189 20156\ 53021= 201708281251 METAR KJFK 281251Z 06010KT 10SM FEW037 BKN260 21/14 A3031\ RMK AO2 SLP264 T02110139= 201708281351 METAR KJFK 281351Z 04011KT 10SM FEW040 FEW210 BKN260 22/14\ A3032 RMK AO2 SLP265 T02220144= 201708281451 METAR KJFK 281451Z 06012KT 10SM SCT048 BKN260 23/11 A3031\ RMK AO2 SLP264 T02280111 58002= 201708281551 METAR KJFK 281551Z 06011G17KT 10SM SCT050 BKN260 23/10 A3029\ RMK AO2 SLP258 T02330100= 201708281651 METAR KJFK 281651Z 05007KT 10SM SCT050 BKN260 24/10 A3029\ RMK AO2 SLP255 T02390100= 201708281751 METAR KJFK 281751Z 13012KT 10SM SCT050 OVC260 25/11 A3029\ RMK AO2 SLP255 T02500111 10256 20189\ 55008= 201708281851 METAR KJFK 281851Z 11017KT 10SM SCT050 OVC260 24/11 A3027\ RMK AO2 SLP251 T02390111= 201708281951 METAR KJFK 281951Z 12016KT 10SM SCT050 BKN260 23/11 A3027\ RMK AO2 SLP251 T02330111= 201708282051 METAR KJFK 282051Z 11015KT 10SM SCT050 BKN250 23/12 A3027\ RMK AO2 SLP249 T02280117 56006= 201708282151 METAR KJFK 282151Z 11013KT 10SM FEW050 BKN250 23/11 A3028\ RMK AO2 SLP253 T02280111= 201708282251 METAR KJFK 282251Z 11011KT 10SM FEW050 BKN250 22/12 A3029\ RMK AO2 SLP257 T02170122= 201708282351 METAR KJFK 282351Z 08008KT 10SM FEW050 BKN250 20/14 A3028\ RMK AO2 SLP255 T02000139 10244 20200\ 50006= 201708290051 METAR KJFK 290051Z 09007KT 10SM FEW040 BKN250 19/14 A3028\ RMK AO2 SLP253 T01940139= 201708290151 METAR KJFK 290151Z 09008KT 10SM FEW040 BKN250 19/13 A3027\ RMK AO2 SLP250 T01890133= 201708290251 METAR KJFK 290251Z 08007KT 10SM FEW036 OVC260 19/13 A3027\ RMK AO2 SLP249 T01890133 56006= 201708290351 METAR KJFK 290351Z 05005KT 10SM FEW035 OVC260 18/13 A3026\ RMK AO2 SLP247 T01830133= 201708290451 METAR KJFK 290451Z 04006KT 10SM FEW036 OVC250 18/14 A3026\ RMK AO2 SLP247 T01830139 402560156= 201708290551 METAR KJFK 290551Z 04006KT 10SM FEW036 OVC230 18/14 A3025\ RMK AO2 SLP243 T01780139 10200 20178\ 58006= 201708290651 METAR KJFK 290651Z 06007KT 10SM FEW035 OVC240 18/14 A3022\ RMK AO2 SLP234 T01780139= 201708290751 METAR KJFK 290751Z 06008KT 10SM OVC230 18/14 A3022 RMK AO2\ SLP232 T01780139= 201708290851 METAR KJFK 290851Z 06009KT 10SM OVC210 18/14 A3022 RMK AO2\ SLP232 T01780144 55010= 201708290951 METAR KJFK 290951Z 05009KT 10SM FEW040 OVC180 18/14 A3021\ RMK AO2 SLP231 T01780144= 201708291051 METAR KJFK 291051Z 07011G18KT 10SM FEW044 OVC170 18/14 A3022\ RMK AO2 SLP233 T01830144= 201708291151 METAR KJFK 291151Z 06012KT 10SM FEW045 BKN140 OVC220 19/14\ A3022 RMK AO2 SLP233 T01890144 10189\ 20178 53001= 201708291251 METAR KJFK 291251Z 06010KT 10SM FEW024 SCT047 BKN140 OVC220\ 19/14 A3021 RMK AO2 SLP230 T01890144= 201708291351 METAR KJFK 291351Z 06012G20KT 10SM SCT046 BKN110 OVC170 19/14\ A3020 RMK AO2 SLP227 SCT V BKN T01940144= 201708291451 METAR KJFK 291451Z 06013KT 10SM FEW026 BKN045 OVC140 20/15\ A3021 RMK AO2 SLP228 T02000150 55005= 201708291551 METAR KJFK 291551Z 06013KT 10SM FEW025 SCT065 BKN120 OVC190\ 20/15 A3019 RMK AO2 SLP223 T02000150= 201708291651 METAR KJFK 291651Z 06009KT 10SM -RA FEW025 SCT044 OVC110\ 20/15 A3019 RMK AO2 RAB14 SLP222\ P0000 T02000150= 201708291751 METAR KJFK 291751Z 05009KT 10SM -RA FEW022 SCT040 OVC110\ 19/16 A3017 RMK AO2 SLP216 P0001\ 60001 T01890161 10206 20189 58012= 201708291851 METAR KJFK 291851Z 04008KT 10SM -RA FEW022 FEW040 BKN110\ OVC130 18/16 A3014 RMK AO2 SLP207\ P0003 T01830161= 201708291951 METAR KJFK 291951Z 05008KT 10SM -RA FEW022 BKN110 OVC130\ 18/17 A3013 RMK AO2 SLP203 P0004\ T01780167= 201708292051 METAR KJFK 292051Z 05010KT 10SM -RA FEW022 BKN110 OVC130\ 18/17 A3010 RMK AO2 SLP191 P0002\ 60009 T01780167 58025= 201708292151 METAR KJFK 292151Z 05011KT 9SM -RA FEW015 BKN110 OVC130 17/16\ A3008 RMK AO2 SLP185 P0006 T01720161= 201708292251 METAR KJFK 292251Z 04011KT 7SM RA FEW015 SCT044 BKN110 OVC130\ 17/16 A3008 RMK AO2 SLP185 P0007\ T01670161= 201708292351 METAR KJFK 292351Z 05013KT 8SM RA FEW021 FEW047 OVC120 17/16\ A3007 RMK AO2 SLP181 P0010 60032\ T01670161 10189 20167 56010= 201708300051 METAR KJFK 300051Z 04012KT 10SM -RA FEW021 SCT065 BKN095\ OVC130 17/17 A3005 RMK AO2 SLP177\ P0005 T01670167= 201708300151 METAR KJFK 300151Z 05012KT 10SM -RA FEW012 OVC110 17/17 A3003\ RMK AO2 SLP168 P0004 T01670167= 201708300251 METAR KJFK 300251Z 01010KT 9SM -RA BKN013 OVC110 17/17 A3003\ RMK AO2 SLP167 P0004 60013 T01670167\ 56014= 201708300351 METAR KJFK 300351Z 03011KT 10SM -RA OVC014 17/17 A3000 RMK\ AO2 SLP159 P0005 T01720172= 201708300451 METAR KJFK 300451Z 05013KT 10SM -RA FEW013 OVC040 17/17 A2999\ RMK AO2 SLP155 P0005 T01670167 402060167= 201708300551 METAR KJFK 300551Z 04013KT 10SM -RA BKN012 OVC035 16/16 A2996\ RMK AO2 SLP144 P0004 60027 T01610161\ 10172 20161 58024= 201708300651 METAR KJFK 300651Z 02008KT 10SM OVC010 16/16 A2995 RMK AO2\ RAE45 SLP141 P0001 T01610161= 201708300751 METAR KJFK 300751Z 01011KT 8SM OVC012 16/16 A2993 RMK AO2\ RAB11E49 SLP135 P0001 T01610161= 201708300851 METAR KJFK 300851Z 01013KT 10SM BKN015 OVC048 16/16 A2993\ RMK AO2 SLP135 60002 T01560156 56009= 201708300951 METAR KJFK 300951Z 02012KT 10SM FEW017 OVC050 16/14 A2994\ RMK AO2 SLP137 T01560144= 201708301051 METAR KJFK 301051Z 36011KT 10SM FEW017 OVC055 16/14 A2996\ RMK AO2 SLP143 T01560144= 201708301151 METAR KJFK 301151Z 35011KT 10SM FEW018 SCT075 BKN095 16/15\ A2997 RMK AO2 SLP149 60002 70062\ T01610150 10161 20156 53014= 201708301251 METAR KJFK 301251Z 36011G20KT 10SM FEW022 FEW090 FEW250 18/14\ A2997 RMK AO2 SLP147 T01830139= 201708301351 METAR KJFK 301351Z 35015KT 10SM FEW028 FEW250 20/13 A2997\ RMK AO2 SLP149 T02000133= 201708301451 METAR KJFK 301451Z 34013KT 10SM FEW040 FEW250 22/12 A2997\ RMK AO2 SLP148 T02170117 56001= 201708301551 METAR KJFK 301551Z 35013G18KT 10SM FEW043 23/11 A2998 RMK\ AO2 SLP150 T02330111= 201708301651 METAR KJFK 301651Z 34011G16KT 10SM FEW047 FEW250 24/12 A2997\ RMK AO2 SLP148 T02440117= 201708301751 METAR KJFK 301751Z 31008KT 10SM FEW050 FEW250 25/12 A2995\ RMK AO2 SLP142 T02500117 10250 20161\ 58006= 201708301851 METAR KJFK 301851Z 29004KT 10SM FEW055 FEW250 26/09 A2994\ RMK AO2 SLP137 T02560094= 201708301951 METAR KJFK 301951Z 22011KT 10SM FEW055 FEW250 26/11 A2993\ RMK AO2 SLP135 T02610111= 201708302051 METAR KJFK 302051Z 21011KT 10SM FEW055 FEW250 25/13 A2993\ RMK AO2 SLP134 T02500133 56008= 201708302151 METAR KJFK 302151Z 22011KT 10SM FEW055 SCT250 25/15 A2993\ RMK AO2 SLP133 T02500150= 201708302251 METAR KJFK 302251Z 23014KT 10SM FEW060 SCT250 23/16 A2993\ RMK AO2 SLP134 T02330161= 201708302351 METAR KJFK 302351Z 23012KT 10SM FEW060 SCT250 23/17 A2993\ RMK AO2 SLP135 T02280167 10267 20228\ 53001= 201708310051 METAR KJFK 310051Z 23011KT 10SM FEW250 22/17 A2994 RMK AO2\ SLP139 T02220167= 201708310151 METAR KJFK 310151Z 25012KT 10SM FEW250 23/16 A2995 RMK AO2\ SLP142 T02280156= 201708310251 METAR KJFK 310251Z 26010KT 10SM FEW250 22/16 A2995 RMK AO2\ SLP141 T02220161 50006= 201708310351 METAR KJFK 310351Z 26010KT 10SM FEW250 22/16 A2994 RMK AO2\ SLP138 T02170156= 201708310451 METAR KJFK 310451Z 26009KT 10SM FEW250 21/16 A2993 RMK AO2\ SLP136 T02110161 402670156= 201708310551 METAR KJFK 310551Z 25011KT 10SM FEW250 21/16 A2993 RMK AO2\ SLP135 T02060161 10228 20206 56006= 201708310651 METAR KJFK 310651Z 25012KT 10SM FEW250 20/17 A2992 RMK AO2\ SLP130 T02000167= 201708310751 METAR KJFK 310751Z 26009KT 10SM FEW250 19/16 A2992 RMK AO2\ SLP131 T01940161= 201708310851 METAR KJFK 310851Z 26010KT 10SM FEW250 19/16 A2992 RMK AO2\ SLP132 T01940161 55003= 201708310951 METAR KJFK 310951Z 25010KT 10SM FEW250 19/16 A2993 RMK AO2\ SLP136 T01940161= 201708311051 METAR KJFK 311051Z 26009KT 10SM SCT330 19/17 A2994 RMK AO2\ SLP140 T01940167= 201708311151 METAR KJFK 311151Z 27009KT 10SM FEW330 21/16 A2995 RMK AO2\ SLP141 T02060161 10206 20183 51008= 201708311251 METAR KJFK 311251Z 26009KT 10SM FEW330 22/17 A2994 RMK AO2\ SLP139 T02220167= 201708311351 METAR KJFK 311351Z 28008KT 10SM SCT330 24/16 A2994 RMK AO2\ SLP138 T02440161= 201708311451 METAR KJFK 311451Z 24010KT 10SM FEW042 SCT330 26/17 A2993\ RMK AO2 SLP135 T02560167 58006= 201708311551 METAR KJFK 311551Z 26014KT 10SM FEW045 FEW330 27/17 A2991\ RMK AO2 SLP129 T02670172= 201708311651 METAR KJFK 311651Z 27014KT 10SM SCT047 SCT330 28/16 A2990\ RMK AO2 SLP124 T02830161= 201708311751 METAR KJFK 311751Z 31014G20KT 10SM SCT055 29/16 A2989 RMK\ AO2 SLP121 T02940161 10294 20206\ 56014= 201708311851 METAR KJFK 311851Z 28012KT 10SM SCT055 BKN100 BKN250 29/16\ A2987 RMK AO2 SLP115 T02890161= 201708311951 METAR KJFK 311951Z 34015G22KT 10SM SCT055 BKN075 BKN100 BKN140\ BKN250 26/16 A2988 RMK AO2 SLP119\ VCSH SW-W T02560161= 201708312051 METAR KJFK 312051Z 32014KT 10SM FEW050 BKN080 BKN100 BKN250\ 26/15 A2990 RMK AO2 RAB1956E11 SLP124\ P0000 60000 T02610150 53003= 201708312151 METAR KJFK 312151Z 30013KT 10SM FEW050 FEW080 FEW100 BKN250\ 26/14 A2990 RMK AO2 SLP123 T02610144= 201708312251 METAR KJFK 312251Z 32013G20KT 10SM FEW055 FEW080 SCT130 BKN250\ 24/13 A2991 RMK AO2 SLP129 T02440133= 201708312351 METAR KJFK 312351Z 35011KT 10SM FEW055 SCT130 BKN250 23/13\ A2993 RMK AO2 SLP135 60000 T02330128\ 10300 20233 53010=}
