  201712010051 METAR KJFK 010051Z 16009KT 10SM BKN022 BKN240 11/09 A3007\ RMK AO2 SLP184 T01060089= 201712010151 METAR KJFK 010151Z 17009KT 10SM FEW022 SCT095 BKN250 11/09\ A3007 RMK AO2 SLP181 T01060089= 201712010251 METAR KJFK 010251Z 18010KT 10SM FEW013 FEW075 BKN095 OVC250\ 11/10 A3006 RMK AO2 SLP179 T01110100\ 58007= 201712010351 METAR KJFK 010351Z 25005KT 10SM -RA FEW013 BKN045 OVC070\ 11/10 A3006 RMK AO2 RAB23 SLP178\ P0000 T01060100= 201712010451 METAR KJFK 010451Z 24005KT 10SM -RA OVC039 09/09 A3004 RMK\ AO2 SLP171 P0001 T00940089 401170017= 201712010551 METAR KJFK 010551Z 24005KT 10SM OVC036 09/08 A3003 RMK AO2\ RAE22 SLP167 P0001 60002 T00940083\ 10117 20094 58012= 201712010651 METAR KJFK 010651Z 23004KT 10SM OVC024 09/08 A3003 RMK AO2\ SLP167 T00940083= 201712010751 METAR KJFK 010751Z 25005KT 10SM OVC020 09/08 A3003 RMK AO2\ SLP168 T00940083= 201712010851 METAR KJFK 010851Z 28006KT 10SM SCT048 09/07 A3003 RMK AO2\ SLP169 T00890072 53001= 201712010951 METAR KJFK 010951Z 32013KT 10SM SCT050 09/06 A3006 RMK AO2\ SLP179 T00890061= 201712011051 METAR KJFK 011051Z 33012KT 10SM CLR 08/04 A3009 RMK AO2 SLP188\ T00780044= 201712011151 METAR KJFK 011151Z 33012KT 10SM FEW050 FEW250 07/03 A3013\ RMK AO2 SLP201 70002 T00720033 10100\ 20072 53032= 201712011251 METAR KJFK 011251Z 33006KT 10SM FEW035 FEW050 FEW250 08/02\ A3015 RMK AO2 SLP208 T00780022= 201712011351 METAR KJFK 011351Z 32015KT 10SM FEW038 FEW250 09/02 A3016\ RMK AO2 SLP213 T00890022= 201712011451 METAR KJFK 011451Z 34013KT 10SM FEW040 FEW250 10/02 A3018\ RMK AO2 SLP218 T01000017 51017= 201712011551 METAR KJFK 011551Z 33012KT 10SM FEW045 FEW250 11/01 A3018\ RMK AO2 SLP221 T01060006= 201712011651 METAR KJFK 011651Z 33009KT 10SM SCT045 SCT250 11/00 A3018\ RMK AO2 SLP220 T01110000= 201712011751 METAR KJFK 011751Z 35010KT 10SM FEW047 FEW250 11/M01 A3017\ RMK AO2 SLP217 T01111006 10117 20067\ 58001= 201712011851 METAR KJFK 011851Z 34010KT 10SM FEW050 FEW250 11/M01 A3017\ RMK AO2 SLP215 T01111006= 201712011951 METAR KJFK 011951Z 32013KT 10SM FEW050 FEW250 11/M01 A3018\ RMK AO2 SLP218 T01111006= 201712012051 METAR KJFK 012051Z 33012KT 10SM FEW050 FEW250 10/00 A3020\ RMK AO2 SLP228 T01000000 53010= 201712012151 METAR KJFK 012151Z 32011KT 10SM FEW050 FEW250 09/M01 A3023\ RMK AO2 SLP235 T00891011= 201712012251 METAR KJFK 012251Z 31007KT 10SM FEW050 FEW250 08/M01 A3025\ RMK AO2 SLP242 T00831006= 201712012351 METAR KJFK 012351Z 33011KT 10SM FEW050 FEW250 08/M01 A3026\ RMK AO2 SLP247 T00781006 10117 20078\ 51019= 201712020051 METAR KJFK 020051Z 34008KT 10SM FEW250 07/M01 A3028 RMK AO2\ SLP252 T00721006= 201712020151 METAR KJFK 020151Z 03007KT 10SM SCT250 06/M01 A3029 RMK AO2\ SLP256 T00611006= 201712020251 METAR KJFK 020251Z 02005KT 10SM FEW250 06/M01 A3029 RMK AO2\ SLP257 T00561006 51011= 201712020351 METAR KJFK 020351Z 02006KT 10SM FEW250 05/M01 A3030 RMK AO2\ SLP261 T00501006= 201712020451 METAR KJFK 020451Z 05007KT 10SM FEW250 04/M01 A3030 RMK AO2\ SLP261 T00391011 401170033= 201712020551 METAR KJFK 020551Z 04005KT 10SM FEW250 03/M01 A3029 RMK AO2\ SLP256 T00331011 10078 20033 58001= 201712020651 METAR KJFK 020651Z 03003KT 10SM SCT250 03/M02 A3031 RMK AO2\ SLP262 T00281017= 201712020751 METAR KJFK 020751Z 34005KT 10SM SCT250 03/M02 A3032 RMK AO2\ SLP265 T00331017= 201712020851 METAR KJFK 020851Z 35004KT 10SM SCT250 03/M01 A3032 RMK AO2\ SLP265 T00281011 51009= 201712020951 METAR KJFK 020951Z 01004KT 10SM FEW200 SCT250 03/M01 A3031\ RMK AO2 SLP263 T00281011= 201712021051 METAR KJFK 021051Z 36005KT 10SM FEW200 SCT250 02/M01 A3031\ RMK AO2 SLP263 T00171011= 201712021151 METAR KJFK 021151Z 36006KT 10SM FEW020 SCT200 SCT250 02/M01\ A3032 RMK AO2 SLP268 T00221011 10033\ 20017 53002= 201712021251 METAR KJFK 021251Z 01004KT 10SM FEW020 SCT200 SCT250 03/M01\ A3034 RMK AO2 SLP272 T00331006= 201712021351 METAR KJFK 021351Z 03004KT 10SM FEW030 SCT200 SCT250 06/01\ A3033 RMK AO2 SLP271 T00560006= 201712021451 METAR KJFK 021451Z VRB03KT 10SM FEW030 SCT200 BKN250 07/00\ A3033 RMK AO2 SLP270 T00670000 50002= 201712021551 METAR KJFK 021551Z 00000KT 10SM FEW030 SCT200 BKN250 08/M01\ A3031 RMK AO2 SLP264 T00781011= 201712021651 METAR KJFK 021651Z 24005KT 10SM FEW030 SCT150 BKN250 09/M02\ A3029 RMK AO2 SLP255 T00891017= 201712021751 METAR KJFK 021751Z 00000KT 10SM FEW030 SCT140 BKN250 09/M01\ A3026 RMK AO2 SLP246 T00891011 10089\ 20022 58024= 201712021851 METAR KJFK 021851Z 18005KT 10SM FEW050 SCT140 BKN250 08/M01\ A3025 RMK AO2 SLP244 T00831006= 201712021951 METAR KJFK 021951Z 18005KT 10SM FEW050 FEW140 BKN220 08/01\ A3025 RMK AO2 SLP242 T00780006= 201712022051 METAR KJFK 022051Z 19004KT 10SM FEW050 SCT210 BKN260 07/01\ A3025 RMK AO2 SLP244 T00670011 55002= 201712022151 METAR KJFK 022151Z 10003KT 10SM FEW050 BKN170 BKN260 07/01\ A3026 RMK AO2 SLP247 T00670011= 201712022251 METAR KJFK 022251Z 13003KT 10SM FEW055 BKN170 OVC260 07/01\ A3027 RMK AO2 SLP249 T00670011= 201712022351 METAR KJFK 022351Z 11005KT 9SM BKN170 OVC260 06/02 A3026\ RMK AO2 SLP245 T00610017 10094 20061\ 50001= 201712030051 METAR KJFK 030051Z 11004KT 10SM SCT150 BKN250 06/01 A3025\ RMK AO2 SLP243 T00610011= 201712030151 METAR KJFK 030151Z 00000KT 10SM FEW150 SCT250 04/01 A3025\ RMK AO2 SLP242 T00440011= 201712030251 METAR KJFK 030251Z 05004KT 10SM FEW100 SCT150 SCT250 04/01\ A3025 RMK AO2 SLP242 T00440011 56003= 201712030351 METAR KJFK 030351Z 05004KT 10SM BKN140 BKN250 04/01 A3025\ RMK AO2 SLP244 T00390006= 201712030451 METAR KJFK 030451Z 03003KT 10SM BKN130 BKN250 04/01 A3025\ RMK AO2 SLP244 T00390011 400940017= 201712030551 METAR KJFK 030551Z 09005KT 10SM SCT120 BKN250 04/01 A3023\ RMK AO2 SLP238 T00390011 10067 20022\ 58004= 201712030651 METAR KJFK 030651Z 10005KT 10SM FEW120 BKN250 03/01 A3022\ RMK AO2 SLP232 T00280011= 201712030751 METAR KJFK 030751Z 05005KT 10SM FEW130 BKN250 03/01 A3022\ RMK AO2 SLP231 T00280011= 201712030851 METAR KJFK 030851Z 05006KT 10SM BKN039 OVC250 04/02 A3022\ RMK AO2 SLP233 T00390017 55005= 201712030951 METAR KJFK 030951Z 06005KT 10SM BKN040 OVC250 04/02 A3022\ RMK AO2 SLP231 T00440017= 201712031051 METAR KJFK 031051Z 08004KT 10SM BKN039 OVC130 05/02 A3023\ RMK AO2 SLP235 T00500022= 201712031151 METAR KJFK 031151Z 07006KT 10SM BKN040 OVC130 05/03 A3022\ RMK AO2 SLP232 T00500028 10056 20028\ 58001= 201712031251 METAR KJFK 031251Z 08003KT 10SM FEW020 BKN040 OVC130 06/03\ A3022 RMK AO2 SLP233 T00560028= 201712031351 METAR KJFK 031351Z 08004KT 10SM FEW020 BKN040 OVC130 07/03\ A3024 RMK AO2 SLP239 T00670028= 201712031451 METAR KJFK 031451Z 07007KT 10SM FEW020 BKN044 OVC120 07/02\ A3024 RMK AO2 SLP240 T00720022 51008= 201712031551 METAR KJFK 031551Z 07006KT 10SM FEW020 BKN046 BKN100 BKN250\ 08/03 A3022 RMK AO2 SLP234 T00830033= 201712031651 METAR KJFK 031651Z 09004KT 10SM FEW020 BKN037 OVC100 09/04\ A3021 RMK AO2 SLP230 T00890039= 201712031751 METAR KJFK 031751Z 11007KT 10SM FEW020 SCT032 OVC042 09/04\ A3019 RMK AO2 SLP223 T00890044 10094\ 20050 58017= 201712031851 METAR KJFK 031851Z 09004KT 10SM BKN026 OVC041 09/05 A3019\ RMK AO2 SLP223 T00890050= 201712031951 METAR KJFK 031951Z 06004KT 10SM BKN028 OVC034 09/04 A3020\ RMK AO2 SLP226 T00890044= 201712032051 METAR KJFK 032051Z 09006KT 10SM BKN025 BKN030 09/05 A3020\ RMK AO2 RAB1958E25 SLP227 P0000 60000\ T00890050 53004= 201712032151 METAR KJFK 032151Z 08004KT 10SM BKN030 BKN047 OVC060 08/05\ A3022 RMK AO2 RAB16E26 SLP232 P0000\ T00780050= 201712032251 METAR KJFK 032251Z 06003KT 10SM BKN034 OVC055 08/05 A3024\ RMK AO2 SLP239 T00780050= 201712032351 METAR KJFK 032351Z 02003KT 10SM BKN035 BKN055 07/04 A3025\ RMK AO2 SLP244 60000 T00720039 10094\ 20072 51017= 201712040051 METAR KJFK 040051Z 04003KT 10SM BKN035 BKN050 07/04 A3026\ RMK AO2 SLP246 T00720039= 201712040151 METAR KJFK 040151Z 03004KT 10SM FEW030 BKN050 06/03 A3027\ RMK AO2 SLP251 T00610033= 201712040251 METAR KJFK 040251Z 35005KT 10SM SCT045 06/03 A3029 RMK AO2\ SLP256 T00560033 53012= 201712040351 METAR KJFK 040351Z 04003KT 10SM FEW045 06/03 A3030 RMK AO2\ SLP258 T00560033= 201712040451 METAR KJFK 040451Z 01004KT 10SM CLR 06/03 A3031 RMK AO2 SLP263\ T00560033 400940028= 201712040551 METAR KJFK 040551Z 33003KT 9SM CLR 04/03 A3032 RMK AO2 SLP265\ T00440028 10078 20039 51009= 201712040651 METAR KJFK 040651Z 07004KT 9SM CLR 03/03 A3032 RMK AO2 SLP266\ T00330028= 201712040751 METAR KJFK 040751Z 36005KT 8SM CLR 03/03 A3034 RMK AO2 SLP274\ T00280028= 201712040851 METAR KJFK 040851Z 35003KT 7SM CLR 03/03 A3035 RMK AO2 SLP278\ T00280028 53013= 201712040951 METAR KJFK 040951Z 03005KT 6SM BR CLR 03/02 A3036 RMK AO2\ SLP280 T00280022= 201712041051 METAR KJFK 041051Z 03006KT 8SM CLR 03/03 A3037 RMK AO2 SLP285\ T00330033= 201712041151 METAR KJFK 041151Z 02005KT 7SM SCT250 03/03 A3041 RMK AO2\ SLP296 T00330028 10044 20017 53018= 201712041251 METAR KJFK 041251Z 05005KT 7SM BKN250 04/03 A3043 RMK AO2\ SLP303 T00390033= 201712041351 METAR KJFK 041351Z 05005KT 9SM BKN250 06/04 A3045 RMK AO2\ SLP309 T00610044= 201712041451 METAR KJFK 041451Z 09006KT 10SM SCT250 08/04 A3046 RMK AO2\ SLP314 T00830044 51018= 201712041551 METAR KJFK 041551Z 12004KT 10SM FEW032 SCT250 09/04 A3046\ RMK AO2 SLP314 T00940039= 201712041651 METAR KJFK 041651Z 14005KT 10SM FEW035 SCT250 10/04 A3045\ RMK AO2 SLP311 T01000039= 201712041751 METAR KJFK 041751Z 15005KT 10SM SCT036 SCT250 09/03 A3044\ RMK AO2 SLP308 T00940033 10100 20028\ 58006= 201712041851 METAR KJFK 041851Z 12008KT 10SM FEW036 SCT250 10/04 A3042\ RMK AO2 SLP301 T01000039= 201712041951 METAR KJFK 041951Z 11009KT 10SM FEW023 SCT210 BKN250 10/05\ A3043 RMK AO2 SLP303 T01000050= 201712042051 METAR KJFK 042051Z 12007KT 9SM FEW023 SCT190 BKN250 09/04\ A3044 RMK AO2 SLP306 T00890044 55002= 201712042151 METAR KJFK 042151Z 11006KT 10SM BKN032 BKN250 08/04 A3043\ RMK AO2 SLP303 T00780044= 201712042251 METAR KJFK 042251Z 14008KT 10SM BKN032 OVC250 09/05 A3042\ RMK AO2 SLP299 T00890050= 201712042351 METAR KJFK 042351Z 15008KT 10SM OVC035 09/04 A3043 RMK AO2\ SLP303 T00940044 10106 20078 55003= 201712050051 METAR KJFK 050051Z 14011KT 10SM OVC035 09/04 A3043 RMK AO2\ SLP303 T00940044= 201712050151 METAR KJFK 050151Z 15010KT 10SM BKN037 BKN250 09/04 A3043\ RMK AO2 SLP302 T00940044= 201712050251 METAR KJFK 050251Z 14010KT 10SM BKN037 BKN180 09/05 A3043\ RMK AO2 SLP304 T00940050 53001= 201712050351 METAR KJFK 050351Z 15010KT 10SM SCT038 BKN200 09/04 A3043\ RMK AO2 SLP303 T00940044= 201712050451 METAR KJFK 050451Z 16012KT 10SM SCT031 OVC160 10/04 A3041\ RMK AO2 SLP296 T01000044 401060017= 201712050551 METAR KJFK 050551Z 16010KT 10SM SCT032 OVC160 10/05 A3039\ RMK AO2 SLP289 T01000050 10100 20089\ 58015= 201712050651 METAR KJFK 050651Z 16011KT 10SM FEW032 OVC130 10/05 A3038\ RMK AO2 SLP287 T01000050= 201712050751 METAR KJFK 050751Z 15015KT 10SM FEW031 OVC140 11/06 A3035\ RMK AO2 SLP276 T01060061= 201712050851 METAR KJFK 050851Z 15012KT 10SM FEW032 SCT120 OVC240 11/07\ A3034 RMK AO2 SLP272 T01060067 58017= 201712050951 METAR KJFK 050951Z 16011KT 10SM BKN036 BKN120 OVC250 11/07\ A3032 RMK AO2 SLP266 T01060067= 201712051051 METAR KJFK 051051Z 15015KT 10SM OVC031 11/08 A3029 RMK AO2\ SLP256 T01110078= 201712051151 METAR KJFK 051151Z 15016G21KT 10SM BKN029 BKN049 BKN150 OVC250\ 11/08 A3029 RMK AO2 SLP255 BKN029\ V SCT T01110083 10111 20100 56018= 201712051251 METAR KJFK 051251Z 15017KT 10SM BKN028 BKN050 OVC150 12/09\ A3028 RMK AO2 SLP252 BKN028 V SCT\ T01170094= 201712051351 METAR KJFK 051351Z 15015KT 10SM BKN029 BKN039 OVC070 12/10\ A3025 RMK AO2 RAB06E48 SLP244 CIG\ 027V031 P0000 T01170100= 201712051451 METAR KJFK 051451Z 14017G24KT 10SM SCT013 BKN025 OVC075 12/11\ A3022 RMK AO2 RAB1353E45 SLP234 P0000\ 60000 T01220111 58021= 201712051551 METAR KJFK 051551Z 15019G26KT 10SM FEW013 BKN028 OVC050 13/12\ A3017 RMK AO2 PK WND 16027/1513 PRESFR\ SLP217 T01280117= 201712051651 METAR KJFK 051651Z 17018G24KT 10SM SCT027 BKN047 OVC160 14/12\ A3014 RMK AO2 PK WND 14026/1620 SLP207\ T01440122= 201712051751 METAR KJFK 051751Z 17015KT 9SM FEW025 BKN047 OVC080 13/12\ A3010 RMK AO2 SLP193 60000 T01330122\ 10144 20111 56040= 201712051851 METAR KJFK 051851Z 17017KT 9SM FEW025 SCT045 BKN065 OVC200\ 14/13 A3006 RMK AO2 SLP179 T01390128= 201712051951 METAR KJFK 051951Z 18024G31KT 10SM FEW024 SCT045 OVC065 14/13\ A3004 RMK AO2 PK WND 19031/1950 SLP173\ T01390128= 201712052051 METAR KJFK 052051Z 19023G26KT 10SM FEW024 SCT049 OVC060 14/13\ A3003 RMK AO2 PK WND 18030/1957 SLP168\ T01390128 56025= 201712052151 METAR KJFK 052151Z 18023G29KT 10SM FEW005 OVC065 13/13 A3000\ RMK AO2 PK WND 17029/2113 SLP159\ T01330133= 201712052251 METAR KJFK 052251Z 17021G29KT 1/2SM R04R/P6000FT BR BKN003\ OVC060 13/13 A2997 RMK AO2 PK WND\ 18030/2157 SFC VIS 4 SLP148 T01330133= 201712052351 METAR KJFK 052351Z 18021G31KT 1/2SM R04R/P6000FT BR OVC004\ 14/14 A2994 RMK AO2 PK WND 18031/2345\ SFC VIS 6 SLP138 T01390139 10144\ 20133 58020= 201712060051 METAR KJFK 060051Z 19023G32KT 3/4SM R04R/P6000FT BR OVC003\ 13/13 A2992 RMK AO2 PK WND 19033/0037\ SFC VIS 4 SLP132 T01330133= 201712060151 METAR KJFK 060151Z 19022G28KT 3/4SM R04R/P6000FT BR OVC002\ 13/13 A2990 RMK AO2 PK WND 19035/0101\ SFC VIS 1 1/2 SLP126 T01330133= 201712060251 METAR KJFK 060251Z 21013KT 2SM +RA BR BKN003 OVC021 13/13\ A2990 RMK AO2 PK WND 19030/0159 RAB0152\ SLP123 P0010 60010 T01280128 56015= 201712060351 METAR KJFK 060351Z 20010KT 4SM RA BR BKN005 OVC044 13/13\ A2988 RMK AO2 SLP116 P0013 T01280128= 201712060451 METAR KJFK 060451Z 19011KT 9SM -RA FEW005 BKN070 OVC110 13/13\ A2983 RMK AO2 SLP100 P0007 T01330133\ 401440100= 201712060551 METAR KJFK 060551Z 20010KT 8SM -RA FEW003 SCT070 OVC110 12/12\ A2982 RMK AO2 SLP097 P0001 60031\ T01220122 10139 20122 56026= 201712060651 METAR KJFK 060651Z 20007KT 7SM FEW003 SCT016 OVC060 12/12\ A2982 RMK AO2 RAE01B35E51 SLP097\ P0000 T01220122= 201712060751 METAR KJFK 060751Z 24006KT 8SM FEW005 BKN060 OVC120 12/12\ A2982 RMK AO2 SLP098 T01220122= 201712060851 METAR KJFK 060851Z 31023G32KT 10SM -RA FEW008 OVC023 11/08\ A2986 RMK AO2 RAB05E21B47 SLP110\ PK WND 290/0841 WSHFT 0840 FROPA\ P0000 60000 T01060078 53012= 201712060951 METAR KJFK 060951Z 30011KT 10SM OVC035 10/06 A2988 RMK AO2\ RAE01B27E38 SLP119 PK WND 29031/0852\ P0000 T01000056= 201712061051 METAR KJFK 061051Z 27010KT 10SM OVC055 10/03 A2992 RMK AO2\ RAB23E42 SLP132 P0000 T01000033= 201712061151 METAR KJFK 061151Z 27017KT 10SM FEW050 OVC070 08/M04 A2995\ RMK AO2 SLP141 60000 70031 T00831039\ 10133 20083 51031= 201712061251 METAR KJFK 061251Z 28014G25KT 10SM FEW050 BKN075 BKN200 08/M05\ A2997 RMK AO2 SLP150 T00781050= 201712061351 METAR KJFK 061351Z 28016KT 10SM FEW050 FEW090 BKN200 07/M06\ A2999 RMK AO2 SLP156 T00671061= 201712061451 METAR KJFK 061451Z 29013G20KT 10SM FEW055 FEW090 BKN200 06/M06\ A3002 RMK AO2 SLP164 T00561061 51024= 201712061551 METAR KJFK 061551Z 30019G24KT 10SM FEW055 FEW090 BKN220 06/M08\ A3001 RMK AO2 SLP162 T00561078= 201712061651 METAR KJFK 061651Z 27014KT 10SM FEW055 FEW120 BKN230 06/M07\ A3000 RMK AO2 SLP160 T00561072= 201712061751 METAR KJFK 061751Z 27011KT 10SM FEW120 BKN250 06/M07 A2998\ RMK AO2 SLP152 T00561072 10083 20050\ 58013= 201712061851 METAR KJFK 061851Z 26014KT 10SM FEW120 BKN250 06/M08 A2997\ RMK AO2 SLP147 T00561078= 201712061951 METAR KJFK 061951Z 24012KT 10SM FEW140 BKN250 06/M07 A2998\ RMK AO2 SLP151 T00561072= 201712062051 METAR KJFK 062051Z 26014KT 10SM FEW140 BKN250 06/M07 A2998\ RMK AO2 SLP152 T00561072 53000= 201712062151 METAR KJFK 062151Z 26014KT 10SM SCT190 BKN250 06/M07 A3000\ RMK AO2 SLP159 T00561072= 201712062251 METAR KJFK 062251Z 27013KT 10SM SCT190 BKN250 06/M07 A3001\ RMK AO2 SLP162 T00561067= 201712062351 METAR KJFK 062351Z 25011KT 10SM FEW190 BKN250 06/M07 A3002\ RMK AO2 SLP166 T00561067 10061 20050\ 51014= 201712070051 METAR KJFK 070051Z 26013KT 10SM BKN250 05/M07 A3002 RMK AO2\ SLP166 T00501072= 201712070151 METAR KJFK 070151Z 26012KT 10SM BKN250 05/M07 A3003 RMK AO2\ SLP167 T00501067= 201712070251 METAR KJFK 070251Z 26013KT 10SM BKN250 05/M06 A3003 RMK AO2\ SLP168 T00501061 53001= 201712070351 METAR KJFK 070351Z 26011KT 10SM BKN250 05/M06 A3003 RMK AO2\ SLP167 T00501056= 201712070451 METAR KJFK 070451Z 25010KT 10SM FEW060 BKN250 05/M04 A3002\ RMK AO2 SLP165 T00501039 401330044= 201712070551 METAR KJFK 070551Z 25012KT 10SM BKN065 BKN250 06/M04 A3001\ RMK AO2 SLP162 T00561039 10056 20044\ 58006= 201712070651 METAR KJFK 070651Z 26013KT 10SM SCT070 BKN250 05/M04 A3001\ RMK AO2 SLP161 T00501039= 201712070751 METAR KJFK 070751Z 26014KT 10SM FEW070 BKN250 04/M04 A3001\ RMK AO2 SLP161 T00441044= 201712070851 METAR KJFK 070851Z 26014KT 10SM FEW070 BKN250 04/M05 A3000\ RMK AO2 SLP158 T00441050 58003= 201712070951 METAR KJFK 070951Z 26014KT 10SM SCT250 04/M05 A3000 RMK AO2\ SLP157 T00391050= 201712071051 METAR KJFK 071051Z 26012KT 10SM FEW250 03/M04 A3001 RMK AO2\ SLP162 T00331044= 201712071151 METAR KJFK 071151Z 26013KT 10SM FEW250 03/M04 A3003 RMK SLP167\ T00331044 10056 20033 53008= 201712071251 METAR KJFK 071251Z 28012KT 10SM FEW095 FEW250 03/M04 A3003\ RMK AO2 SLP170 T00331044= 201712071351 METAR KJFK 071351Z 29013KT 10SM FEW120 FEW250 05/M04 A3004\ RMK AO2 SLP172 T00501044= 201712071451 METAR KJFK 071451Z 28018G25KT 10SM FEW250 06/M07 A3005 RMK\ SLP175 T00561072 53008= 201712071551 METAR KJFK 071551Z 28019G25KT 10SM FEW060 FEW250 07/M08 A3003\ RMK AO2 PK WND 27027/1530 SLP170\ T00671083= 201712071651 METAR KJFK 071651Z 26018G23KT 10SM FEW060 FEW120 FEW250 07/M07\ A3000 RMK AO2 PK WND 29029/1600 SLP160\ T00721072= 201712071751 METAR KJFK 071751Z 28021G28KT 10SM FEW060 FEW250 07/M06 A2999\ RMK PK WND 29028/1743 SLP154 T00721061\ 10072 20033 58021= 201712071851 METAR KJFK 071851Z 27016KT 10SM FEW060 FEW250 07/M07 A2997\ RMK PK WND 27028/1814 SLP149 T00721067= 201712071951 METAR KJFK 071951Z 27018G26KT 10SM FEW060 FEW250 07/M08 A2998\ RMK PK WND 28026/1943 SLP150 T00671078= 201712072051 METAR KJFK 072051Z 25014KT 10SM FEW060 SCT250 06/M07 A2998\ RMK PK WND 27026/2008 SLP153 T00611067= 201712072151 METAR KJFK 072151Z 25013KT 10SM FEW060 SCT250 06/M06 A2999\ RMK SLP156 T00561056= 201712072251 METAR KJFK 072251Z 25012KT 10SM FEW060 FEW250 06/M05 A3000\ RMK SLP157 T00561050= 201712072351 METAR KJFK 072351Z 26012KT 10SM FEW060 FEW250 06/M05 A3002\ RMK SLP163 T00561050 10072 20050\ 53010= 201712080051 METAR KJFK 080051Z 23012KT 10SM FEW060 SCT080 SCT250 05/M03\ A3002 RMK AO2 SLP165 T00501033= 201712080151 METAR KJFK 080151Z 24014G27KT 10SM FEW050 SCT070 BKN090 06/M04\ A3002 RMK PK WND 22027/0147 SLP166\ VCSH E T00561039= 201712080251 METAR KJFK 080251Z 26011KT 10SM SCT060 BKN090 BKN250 06/M03\ A3003 RMK SLP169 T00561028= 201712080351 METAR KJFK 080351Z 26012KT 10SM FEW060 SCT090 BKN250 05/M05\ A3005 RMK SLP176 T00501050= 201712080451 METAR KJFK 080451Z 27014KT 10SM BKN065 OVC250 04/M03 A3006\ RMK SLP177 T00441028 400720033= 201712080551 METAR KJFK 080551Z 28008KT 10SM FEW070 BKN250 04/M03 A3004\ RMK SLP173 T003910033 10061 20039\ 53006= 201712080651 METAR KJFK 080651Z 28010KT 10SM FEW070 BKN250 03/M04 A3006\ RMK AO2 SLP178 T00331044 $= 201712080751 METAR KJFK 080751Z 27009KT 10SM FEW045 BKN250 03/M04 A3006\ RMK SLP180 T002810039= 201712080851 METAR KJFK 080851Z 28007KT 10SM FEW045 BKN250 02/M05 A3007\ RMK SLP181 T00221050 51008= 201712080951 METAR KJFK 080951Z 29008KT 10SM FEW042 BKN180 BKN250 02/M06\ A3009 RMK SLP188 T00221056= 201712081051 METAR KJFK 081051Z 28009KT 10SM BKN180 BKN250 02/M07 A3008\ RMK SLP186 T00221067= 201712081151 METAR KJFK 081151Z 27011KT 10SM BKN160 BKN250 02/M07 A3009\ RMK SLP188 T00171072 10039 20017\ 51007 $= 201712081251 METAR KJFK 081251Z 28007KT 10SM BKN140 BKN250 02/M08 A3010\ RMK AO2 SLP192 T00171078 $= 201712081351 METAR KJFK 081351Z 32010KT 10SM BKN140 BKN250 02/M08 A3011\ RMK AO2 SLP195 T00221083 $= 201712081451 METAR KJFK 081451Z 32005KT 10SM BKN140 OVC260 03/M08 A3012\ RMK AO2 SLP197 T00281078 51010 $= 201712081551 METAR KJFK 081551Z 34005KT 10SM BKN130 BKN260 03/M08 A3009\ RMK SLP190 T00331083 $= 201712081651 METAR KJFK 081651Z 00000KT 10SM BKN120 BKN260 03/M09 A3008\ RMK SLP185 T00281089 $= 201712081751 METAR KJFK 081751Z 26006KT 10SM BKN130 OVC260 03/M08 A3007\ RMK AO2 SLP181 T00331078 10039 20017\ 56017 $= 201712081851 METAR KJFK 081851Z 24007KT 10SM FEW110 BKN140 OVC250 04/M08\ A3006 RMK SLP177 T00391083= 201712081951 METAR KJFK 081951Z 21007KT 10SM BKN120 OVC200 03/M07 A3004\ RMK AO2 SLP172 T00281072= 201712082051 METAR KJFK 082051Z 22010KT 10SM OVC120 03/M08 A3006 RMK SLP178\ T00281078= 201712082151 METAR KJFK 082151Z 25010KT 10SM BKN120 OVC140 03/M08 A3005\ RMK AO2 SLP177 T00281078= 201712082251 METAR KJFK 082251Z 26009KT 10SM OVC110 03/M07 A3005 RMK SLP176\ T00281067= 201712082351 METAR KJFK 082351Z 26011KT 10SM BKN110 OVC130 03/M08 A3003\ RMK AO2 SLP170 T00281083 10039 20028\ 58008= 201712090051 METAR KJFK 090051Z 25010KT 10SM OVC110 02/M08 A3003 RMK AO2\ SLP167 T00221078= 201712090151 METAR KJFK 090151Z 28009KT 10SM BKN110 OVC130 02/M07 A3000\ RMK SLP157 T00221072= 201712090251 METAR KJFK 090251Z 27009KT 10SM OVC100 02/M08 A3000 RMK SLP158\ T00221078= 201712090351 METAR KJFK 090351Z 28008KT 10SM SCT100 OVC120 02/M08 A3001\ RMK AO2 SLP161 T00221083= 201712090451 METAR KJFK 090451Z 27007KT 10SM FEW090 OVC110 02/M08 A2997\ RMK SLP148 T00221083 400440017= 201712090551 METAR KJFK 090551Z 27006KT 10SM BKN085 OVC110 02/M08 A2999\ RMK SLP153 T00221083 10028 20022\ 55005= 201712090651 METAR KJFK 090651Z 25004KT 10SM SCT085 OVC100 02/M08 A2998\ RMK SLP153 T00221083= 201712090751 METAR KJFK 090751Z 00000KT 10SM SCT080 OVC095 02/M08 A2997\ RMK SLP150 T00221083= 201712090851 METAR KJFK 090851Z 28003KT 10SM OVC080 02/M07 A2998 RMK AO2\ SLP150 T00221067 55003= 201712090951 METAR KJFK 090951Z 01004KT 10SM OVC085 02/M08 A2997 RMK AO2\ SLP147 T00221078= 201712091051 METAR KJFK 091051Z 05004KT 10SM BKN080 OVC110 02/M07 A2995\ RMK AO2 SLP140 T00221067= 201712091151 METAR KJFK 091151Z 02007KT 10SM OVC070 02/M08 A2996 RMK AO2\ SLP145 T00221078 10028 20017 55005= 201712091251 METAR KJFK 091251Z 01007KT 10SM BKN060 OVC100 02/M08 A2995\ RMK AO2 SLP143 T00221078= 201712091351 METAR KJFK 091351Z 01010KT 10SM OVC048 02/M07 A2993 RMK AO2\ SLP135 T00221067= 201712091451 METAR KJFK 091451Z 01007KT 5SM -SN OVC033 02/M06 A2994 RMK\ AO2 SNB42 SLP139 P0000 60000 T00171056\ 55006= 201712091551 METAR KJFK 091551Z 36008KT 1SM R04R/P6000FT -SN BR OVC022\ M01/M02 A2993 RMK AO2 SLP135 P0000\ T10061022= 201712091651 METAR KJFK 091651Z 01007KT 1/2SM R04R/5500VP6000FT SN FZFG\ SCT006 OVC013 M01/M02 A2988 RMK AO2\ SLP118 SNINCR 1/1 P0005 T10111017= 201712091751 METAR KJFK 091751Z 02007KT 1SM R04R/5000VP6000FT -SN BR BKN005\ OVC020 M01/M01 A2984 RMK AO2 SLP102\ 931009 4/001 P0004 60009 T10061011\ 10022 21011 56032= 201712091851 METAR KJFK 091851Z 36008KT 1SM R04R/6000VP6000FT -SN BR BKN005\ OVC013 00/M01 A2979 RMK AO2 SLP086\ SNINCR 1/2 P0004 T00001006= 201712091951 METAR KJFK 091951Z 36010KT 1 1/2SM -SN BR BKN008 OVC031 00/M01\ A2977 RMK AO2 SFC VIS 2 VIS 1 1/4\ W SLP079 P0002 T00001006= 201712092051 METAR KJFK 092051Z 01011KT 3/4SM R04R/P6000FT -SN BR BKN006\ OVC019 00/00 A2974 RMK AO2 SFC VIS\ 1 SLP070 P0004 60010 T00000000 56032= 201712092151 METAR KJFK 092151Z 35013KT 3/4SM R04R/P6000FT -SN BR BKN007\ OVC016 00/M01 A2974 RMK AO2 SFC VIS\ 1 1/4 SLP069 P0003 T00001006= 201712092251 METAR KJFK 092251Z 36010G20KT 1 1/4SM -SN BR BKN008 OVC026\ 00/M01 A2972 RMK AO2 SFC VIS 1 1/2\ SLP064 P0002 T00001006= 201712092351 METAR KJFK 092351Z 34010KT 1 1/4SM -SN BR BKN009 OVC014 00/M01\ A2973 RMK AO2 SFC VIS 3 SLP067 931017\ 4/003 P0001 60016 T00001006 10006\ 21006 55003= 201712100051 METAR KJFK 100051Z 34009KT 2SM -SN BR FEW006 BKN009 OVC032\ 00/M01 A2973 RMK AO2 SFC VIS 2 1/2\ SLP068 P0001 T00001006= 201712100151 METAR KJFK 100151Z 34009KT 1SM R04R/P6000FT -SN BR BKN007\ OVC025 00/M01 A2973 RMK AO2 SFC VIS\ 1 3/4 SLP067 P0003 T00001006= 201712100251 METAR KJFK 100251Z 34012KT 1SM R04R/P6000FT -SN BR BKN008\ OVC028 00/M01 A2974 RMK AO2 SFC VIS\ 3 SLP069 P0002 60006 T00001011 53002= 201712100351 METAR KJFK 100351Z 33011KT 2 1/2SM -SN BR BKN008 BKN024 OVC045\ 00/M01 A2973 RMK AO2 SLP069 P0001\ T00001006= 201712100451 METAR KJFK 100451Z 33006KT 9SM -SN SCT012 BKN025 OVC070 00/M01\ A2973 RMK AO2 SLP067 P0001 T00001011\ 400281011= 201712100551 METAR KJFK 100551Z 29009KT 10SM FEW013 SCT075 BKN100 BKN130\ 00/M02 A2974 RMK AO2 SNE37 SLP069\ 931008 4/003 P0000 60008 T00001017\ 10000 20000 53000= 201712100651 METAR KJFK 100651Z 29008KT 10SM FEW013 BKN075 BKN090 01/M01\ A2974 RMK AO2 SLP072 T00061011= 201712100751 METAR KJFK 100751Z 28008KT 10SM FEW013 SCT055 BKN075 01/M02\ A2976 RMK AO2 SLP077 T00061017= 201712100851 METAR KJFK 100851Z 28011KT 10SM FEW060 FEW250 00/M03 A2977\ RMK AO2 SLP080 T00001028 53011= 201712100951 METAR KJFK 100951Z 28010KT 10SM BKN150 M01/M03 A2979 RMK\ AO2 SLP087 T10061028= 201712101051 METAR KJFK 101051Z 28011KT 10SM FEW120 BKN150 M01/M04 A2982\ RMK AO2 SLP098 T10061039= 201712101151 METAR KJFK 101151Z 28010KT 10SM FEW100 BKN150 M01/M05 A2986\ RMK AO2 SLP111 4/003 70033 T10061050\ 10006 21006 53031= 201712101251 METAR KJFK 101251Z 27011KT 10SM FEW100 BKN150 M01/M06 A2990\ RMK AO2 SLP123 T10111056= 201712101351 METAR KJFK 101351Z 27012KT 10SM FEW100 FEW150 M01/M06 A2992\ RMK AO2 SLP133 T10061056= 201712101451 METAR KJFK 101451Z 27015KT 10SM FEW150 00/M05 A2994 RMK AO2\ SLP138 T00001050 51027= 201712101551 METAR KJFK 101551Z 28012KT 10SM CLR 01/M04 A2994 RMK AO2\ SLP138 T00111044= 201712101651 METAR KJFK 101651Z 27014KT 10SM CLR 02/M04 A2993 RMK AO2\ SLP135 T00171039= 201712101751 METAR KJFK 101751Z 27019G24KT 10SM FEW030 03/M04 A2993 RMK\ AO2 SLP135 4/003 933002 T00281039\ 10028 21011 55003= 201712101851 METAR KJFK 101851Z 27014G21KT 10SM SCT030 03/M04 A2993 RMK\ AO2 SLP134 T00331039= 201712101951 METAR KJFK 101951Z 25014KT 10SM BKN040 03/M04 A2995 RMK AO2\ SLP140 T00331039= 201712102051 METAR KJFK 102051Z 25019G23KT 10SM BKN050 03/M04 A2997 RMK\ AO2 SLP147 T00331044 53012= 201712102151 METAR KJFK 102151Z 25019KT 10SM FEW040 SCT055 03/M04 A2998\ RMK AO2 SLP153 T00281044= 201712102251 METAR KJFK 102251Z 25016KT 10SM SCT055 02/M05 A3001 RMK AO2\ SLP160 T00221050= 201712102351 METAR KJFK 102351Z 26013KT 10SM FEW050 BKN170 02/M05 A3001\ RMK AO2 SLP162 4/002 T00221050 10033\ 20022 51015= 201712110051 METAR KJFK 110051Z 25018KT 10SM FEW050 BKN150 03/M04 A3002\ RMK AO2 SLP166 T00281039= 201712110151 METAR KJFK 110151Z 25018KT 10SM FEW050 BKN150 02/M04 A3003\ RMK AO2 SLP167 T00221039= 201712110251 METAR KJFK 110251Z 24016KT 10SM FEW050 SCT120 BKN150 02/M04\ A3003 RMK AO2 SLP169 T00221039 51006= 201712110351 METAR KJFK 110351Z 25014KT 10SM BKN090 OVC120 02/M04 A3004\ RMK AO2 SLP171 T00221039= 201712110451 METAR KJFK 110451Z 24015KT 10SM BKN090 OVC140 02/M03 A3004\ RMK AO2 SLP171 T00221033 400331011= 201712110551 METAR KJFK 110551Z 25015KT 10SM OVC095 02/M04 A3003 RMK AO2\ SLP167 4/002 T00221044 10028 20017\ 58002= 201712110651 METAR KJFK 110651Z 25013KT 10SM OVC100 02/M04 A3002 RMK AO2\ SLP164 T00221039= 201712110751 METAR KJFK 110751Z 25013KT 10SM OVC085 02/M03 A3000 RMK AO2\ SLP159 T00221033= 201712110851 METAR KJFK 110851Z 25018KT 10SM OVC080 02/M04 A3001 RMK AO2\ SLP160 T00221039 55007= 201712110951 METAR KJFK 110951Z 25021G28KT 10SM OVC041 01/M03 A3002 RMK\ AO2 PK WND 25028/0945 SLP166 T00111033= 201712111051 METAR KJFK 111051Z 25013KT 9SM -SN OVC046 01/M02 A3004 RMK\ AO2 SNB36 SLP170 P0000 T00061022= 201712111151 METAR KJFK 111151Z 24013KT 10SM FEW037 BKN070 BKN220 01/M02\ A3004 RMK AO2 SNE12 SLP171 931000\ 4/002 P0000 60000 T00061017 10022\ 20006 51010= 201712111251 METAR KJFK 111251Z 24011KT 10SM FEW035 BKN070 BKN220 01/M02\ A3004 RMK AO2 SLP173 T00111017= 201712111351 METAR KJFK 111351Z 26012KT 10SM FEW035 SCT070 SCT200 01/M01\ A3005 RMK AO2 SLP176 T00111011= 201712111451 METAR KJFK 111451Z 26010KT 10SM FEW035 FEW070 02/M03 A3005\ RMK AO2 SLP176 T00221028 51005= 201712111551 METAR KJFK 111551Z 29014KT 10SM FEW037 FEW070 03/M04 A3006\ RMK AO2 SLP177 T00281039= 201712111651 METAR KJFK 111651Z 29008KT 10SM FEW038 SCT250 03/M04 A3003\ RMK AO2 SLP168 T00331044= 201712111751 METAR KJFK 111751Z 26009KT 10SM FEW038 SCT250 04/M04 A3000\ RMK AO2 SLP160 4/001 T00441039 10044\ 20006 58016= 201712111851 METAR KJFK 111851Z 29007KT 240V310 10SM FEW043 BKN250 05/M04\ A3000 RMK AO2 SLP158 T00501044= 201712111951 METAR KJFK 111951Z 29008KT 10SM FEW050 FEW200 BKN250 04/M05\ A3001 RMK AO2 SLP161 T00441050= 201712112051 METAR KJFK 112051Z 31007KT 10SM FEW050 BKN180 BKN220 04/M06\ A3000 RMK AO2 SLP159 T00441056 58001= 201712112151 METAR KJFK 112151Z 27007KT 10SM FEW050 SCT160 SCT210 BKN250\ 04/M05 A3001 RMK AO2 SLP163 T00391050= 201712112251 METAR KJFK 112251Z 25008KT 10SM FEW050 FEW140 BKN210 BKN250\ 03/M04 A3003 RMK AO2 SLP169 T00281044= 201712112351 METAR KJFK 112351Z 23006KT 10SM FEW140 FEW220 BKN250 02/M04\ A3003 RMK AO2 SLP167 4/001 T00171044\ 10050 20017 50008= 201712120051 METAR KJFK 120051Z 25007KT 10SM FEW050 BKN110 BKN250 03/M05\ A3003 RMK AO2 SLP169 T00281050= 201712120151 METAR KJFK 120151Z 26004KT 10SM BKN110 OVC250 03/M04 A3001\ RMK AO2 SLP163 T00331039= 201712120251 METAR KJFK 120251Z 24005KT 10SM BKN085 OVC120 03/M04 A3000\ RMK AO2 SLP159 T00281039 58008= 201712120351 METAR KJFK 120351Z 10004KT 10SM BKN080 BKN120 OVC210 02/M03\ A2998 RMK AO2 SLP152 T00221028= 201712120451 METAR KJFK 120451Z 18007KT 10SM SCT080 OVC120 04/M03 A2996\ RMK AO2 SLP145 T00391028 400500006= 201712120651 METAR KJFK 120651Z 18013KT 10SM SCT033 BKN080 OVC200 06/00\ A2989 RMK AO2 SLP120 T00560000= 201712120751 METAR KJFK 120751Z 17013G17KT 10SM FEW032 OVC080 06/02 A2985\ RMK AO2 SLP108 T00610017= 201712120851 METAR KJFK 120851Z 17016KT 10SM FEW032 BKN080 OVC130 07/02\ A2981 RMK AO2 SLP096 T00720022 56038= 201712120951 METAR KJFK 120951Z 16017G23KT 10SM FEW032 BKN050 OVC080 08/03\ A2978 RMK AO2 SLP083 T00780028= 201712121051 METAR KJFK 121051Z 17018G24KT 10SM BKN033 OVC200 08/03 A2973\ RMK AO2 PK WND 17027/1030 SLP068\ T00830033= 201712121151 METAR KJFK 121151Z 17019G25KT 10SM -RA SCT027 BKN035 OVC170\ 08/04 A2969 RMK AO2 PK WND 16028/1114\ RAB35 SLP054 P0000 60000 T00830044\ 10083 20039 58042= 201712121251 METAR KJFK 121251Z 17019KT 10SM -RA SCT028 BKN050 OVC065\ 09/06 A2965 RMK AO2 PK WND 16026/1152\ RAE01B46 SLP042 P0000 T00940056= 201712121351 METAR KJFK 121351Z 18013KT 10SM FEW023 SCT045 OVC090 09/05\ A2964 RMK AO2 RAE1256 SLP035 P0000\ T00940050= 201712121451 METAR KJFK 121451Z 18016KT 10SM FEW031 FEW048 OVC065 10/05\ A2960 RMK AO2 RAB39E48 SLP021 P0000\ 60000 T01000050 58033= 201712121551 METAR KJFK 121551Z 18017KT 10SM SCT028 BKN060 BKN130 OVC250\ 11/06 A2955 RMK AO2 SLP007 T01060061= 201712121651 METAR KJFK 121651Z 20017G23KT 10SM SCT026 BKN060 OVC130 11/06\ A2950 RMK AO2 SLP990 VCSH N T01110061= 201712121751 METAR KJFK 121751Z 26014KT 10SM FEW026 BKN035 OVC090 09/03\ A2946 RMK AO2 SLP977 60000 T00890033\ 10117 20083 56045= 201712121851 METAR KJFK 121851Z 27014KT 10SM BKN039 BKN090 BKN250 09/02\ A2944 RMK AO2 SLP970 T00890017= 201712121951 METAR KJFK 121951Z 28014KT 10SM FEW025 SCT055 OVC090 08/02\ A2944 RMK AO2 SLP967 T00780017= 201712122051 METAR KJFK 122051Z 28013KT 10SM FEW030 BKN075 BKN090 OVC250\ 07/01 A2943 RMK AO2 SLP965 T00720011\ 56012= 201712122151 METAR KJFK 122151Z 30014KT 10SM SCT032 BKN040 BKN095 BKN130\ OVC250 07/01 A2943 RMK AO2 SLP967\ T00670006= 201712122251 METAR KJFK 122251Z 27019G25KT 10SM -RA SCT026 BKN036 OVC070\ 06/02 A2945 RMK AO2 RAB45 SLP972\ P0000 T00560017= 201712122351 METAR KJFK 122351Z 29017G24KT 10SM FEW032 BKN095 BKN250 05/M01\ A2945 RMK AO2 RAE2254 SLP973 P0000\ 60000 T00501011 10100 20050 51008= 201712130051 METAR KJFK 130051Z 29024G35KT 10SM -RA FEW026 BKN034 OVC042\ 03/M01 A2948 RMK AO2 PK WND 29035/0044\ RAB43 PRESRR SLP981 P0000 T00331006= 201712130151 METAR KJFK 130151Z 30021G29KT 10SM FEW034 BKN110 02/M04 A2945\ RMK AO2 PK WND 29033/0058 RAE15SNB0059E08\ SLP972 P0000 T00221044= 201712130251 METAR KJFK 130251Z 31020G29KT 10SM FEW048 FEW110 01/M08 A2943\ RMK AO2 PK WND 31032/0234 SLP966\ 60000 T00111078 58007= 201712130351 METAR KJFK 130351Z 30019G26KT 10SM BKN043 01/M08 A2946 RMK\ AO2 PK WND 30028/0254 SLP977 T00061078= 201712130451 METAR KJFK 130451Z 30021G28KT 10SM SCT047 BKN140 M01/M11\ A2947 RMK AO2 PK WND 29028/0451 SLP980\ T10061111 401171006= 201712130551 METAR KJFK 130551Z 29016G25KT 10SM SCT055 SCT140 M02/M14\ A2950 RMK AO2 PK WND 31030/0503 SLP988\ 931000 60000 T10221139 10056 21022\ 51022= 201712130651 METAR KJFK 130651Z 30020G27KT 10SM BKN055 M03/M14 A2952 RMK\ AO2 PK WND 29027/0644 SLP996 T10331144= 201712130751 METAR KJFK 130751Z 29021G29KT 10SM SCT055 M05/M17 A2953 RMK\ AO2 PK WND 28030/0728 SLP998 T10501167= 201712130851 METAR KJFK 130851Z 29027G34KT 10SM FEW055 M06/M16 A2951 RMK\ AO2 PK WND 28036/0759 SLP994 T10561161\ 50006= 201712130951 METAR KJFK 130951Z 29029G36KT 10SM FEW055 M06/M16 A2951 RMK\ AO2 PK WND 28037/0931 SLP993 T10611161= 201712131051 METAR KJFK 131051Z 28022G33KT 10SM CLR M06/M14 A2952 RMK\ AO2 PK WND 30038/1003 SLP997 T10611144= 201712131151 METAR KJFK 131151Z 29022G32KT 10SM FEW042 M07/M14 A2954 RMK\ AO2 PK WND 27033/1059 SLP003 T10671144\ 11022 21067 53009= 201712131251 METAR KJFK 131251Z 28022G31KT 10SM SCT046 M06/M15 A2956 RMK\ AO2 PK WND 29031/1248 SLP008 T10611150= 201712131351 METAR KJFK 131351Z 28023G37KT 10SM SCT046 M06/M15 A2957 RMK\ AO2 PK WND 28038/1339 SLP014 T10561150= 201712131451 METAR KJFK 131451Z 29025G35KT 10SM BKN048 BKN085 BKN250 M04/M14\ A2958 RMK AO2 PK WND 27035/1443 SLP016\ T10441144 51014= 201712131551 METAR KJFK 131551Z 28023G34KT 10SM BKN049 BKN250 M03/M14\ A2956 RMK AO2 PK WND 29036/1538 SLP011\ VIRGA ALQDS T10331139= 201712131651 METAR KJFK 131651Z 29023G32KT 10SM BKN050 BKN110 M02/M14\ A2956 RMK AO2 PK WND 29039/1608 SLP008\ VIRGA OHD AND NW-SE T10221139= 201712131751 METAR KJFK 131751Z 29022G30KT 10SM SCT055 M01/M14 A2955 RMK\ AO2 PK WND 30034/1716 SLP007 T10061144\ 11006 21067 56010= 201712131851 METAR KJFK 131851Z 29025G31KT 10SM FEW060 FEW250 00/M17 A2957\ RMK AO2 PK WND 29038/1818 SLP013\ T00001167= 201712131951 METAR KJFK 131951Z 29018G27KT 10SM FEW060 FEW250 00/M16 A2959\ RMK AO2 PK WND 27035/1923 SLP020\ T00001156= 201712132051 METAR KJFK 132051Z 27023G28KT 10SM FEW060 FEW250 M01/M14\ A2961 RMK AO2 PK WND 27033/2023 SLP028\ T10061144 53021= 201712132151 METAR KJFK 132151Z 27024G29KT 10SM FEW060 FEW250 M02/M13\ A2964 RMK AO2 PK WND 27029/2135 SLP036\ T10171128= 201712132251 METAR KJFK 132251Z 27020G28KT 10SM FEW060 FEW250 M02/M13\ A2967 RMK AO2 PK WND 27032/2240 SLP047\ T10171133= 201712132351 METAR KJFK 132351Z 26019G27KT 10SM FEW060 BKN250 M02/M13\ A2969 RMK AO2 PK WND 26029/2334 SLP055\ T10171128 10000 21022 51027= 201712140051 METAR KJFK 140051Z 26020KT 10SM FEW120 FEW210 BKN250 M02/M13\ A2970 RMK AO2 PK WND 26029/0035 SLP056\ T10221133= 201712140151 METAR KJFK 140151Z 26016G25KT 10SM BKN120 BKN220 M02/M13\ A2969 RMK AO2 SLP053 T10221133= 201712140251 METAR KJFK 140251Z 27011KT 10SM BKN100 BKN170 OVC210 M02/M13\ A2969 RMK AO2 SLP054 T10221133 57000= 201712140351 METAR KJFK 140351Z 27013KT 10SM OVC075 M02/M14 A2969 RMK\ AO2 SLP054 T10221139= 201712140451 METAR KJFK 140451Z 27015G21KT 10SM -SN OVC055 M03/M11 A2971\ RMK AO2 PK WND 25026/0433 SLP060\ SNB40 P0000 T10281106 400001067= 201712140551 METAR KJFK 140551Z 27006KT 2SM -SN BR OVC028 M04/M06 A2967\ RMK AO2 SFC VIS 2 1/2 SLP046 931001\ P0000 60000 T10441061 11017 21044\ 58008= 201712140651 METAR KJFK 140651Z 06003KT 2SM -SN BR OVC018 M04/M06 A2964\ RMK AO2 SLP036 P0001 T10441056= 201712140751 METAR KJFK 140751Z 05004KT 3SM -SN BR FEW007 OVC025 M04/M05\ A2961 RMK AO2 SLP027 SNINCR 1/1 P0002\ T10441050= 201712140851 METAR KJFK 140851Z 03006KT 10SM -SN FEW007 OVC018 M04/M05\ A2957 RMK AO2 SLP011 P0000 60003\ T10441050 58035= 201712140951 METAR KJFK 140951Z 04008KT 10SM BKN017 OVC070 M04/M05 A2954\ RMK AO2 SNE10 SLP002 P0000 T10441050= 201712141051 METAR KJFK 141051Z 03006KT 10SM -SN FEW015 OVC065 M04/M05\ A2956 RMK AO2 SNB50 SLP009 P0000\ T10391050= 201712141151 METAR KJFK 141151Z 03005KT 1/2SM R04R/P6000FT -SN BR OVC022\ M03/M04 A2958 RMK AO2 SFC VIS 1 1/2\ SLP015 931010 4/001 P0001 60004 70004\ T10331044 11033 21044 53004= 201712141251 METAR KJFK 141251Z 01006KT 1 1/4SM R04R/6000VP6000FT -SN\ BR BKN015 BKN037 OVC044 M03/M04 A2960\ RMK AO2 SLP022 P0001 T10281039= 201712141351 METAR KJFK 141351Z 36010KT 3SM -SN BR FEW009 BKN036 OVC050\ M02/M04 A2964 RMK AO2 SLP037 P0001\ T10221039= 201712141451 METAR KJFK 141451Z 36012KT 10SM SCT010 BKN018 BKN050 M03/M04\ A2970 RMK AO2 SNE04 SLP056 SCT V\ BKN P0000 60002 T10281044 53041= 201712141551 METAR KJFK 141551Z 34009KT 10SM SCT020 M02/M06 A2973 RMK\ AO2 SLP066 SCT V BKN T10221056= 201712141651 METAR KJFK 141651Z 35012KT 10SM SCT025 M02/M07 A2976 RMK\ AO2 SLP075 T10171072= 201712141751 METAR KJFK 141751Z 32015KT 10SM SCT033 M01/M07 A2978 RMK\ AO2 SLP083 931003 4/001 60002 T10111072\ 11011 21033 51027= 201712141851 METAR KJFK 141851Z 30014KT 10SM SCT036 M01/M09 A2981 RMK\ AO2 SLP094 T10061089= 201712141951 METAR KJFK 141951Z 28016G24KT 10SM SCT048 00/M09 A2986 RMK\ AO2 SLP111 T00001094= 201712142051 METAR KJFK 142051Z 32016KT 10SM FEW048 M02/M11 A2989 RMK\ AO2 PK WND 28027/2023 SLP120 T10171106\ 51037= 201712142151 METAR KJFK 142151Z 31016KT 10SM FEW048 FEW250 M02/M12 A2994\ RMK AO2 SLP138 T10221117= 201712142251 METAR KJFK 142251Z 31014G24KT 10SM FEW048 SCT250 M02/M13\ A2998 RMK AO2 SLP151 T10221128= 201712142351 METAR KJFK 142351Z 31015KT 10SM BKN250 M03/M13 A3002 RMK\ AO2 SLP166 T10281128 10000 21028\ 51046= 201712150051 METAR KJFK 150051Z 31012KT 10SM BKN220 M03/M13 A3005 RMK\ AO2 SLP176 T10331133= 201712150151 METAR KJFK 150151Z 32013KT 10SM SCT210 BKN250 M04/M14 A3008\ RMK AO2 SLP184 T10391139= 201712150251 METAR KJFK 150251Z 32010KT 10SM BKN230 M04/M14 A3010 RMK\ AO2 SLP191 T10441139 51025= 201712150351 METAR KJFK 150351Z 32011KT 10SM BKN230 M04/M14 A3010 RMK\ AO2 SLP194 T10441144= 201712150451 METAR KJFK 150451Z 32011KT 10SM BKN250 M05/M15 A3011 RMK\ AO2 SLP195 T10501150 400001050= 201712150551 METAR KJFK 150551Z 31009KT 10SM BKN250 M06/M14 A3011 RMK\ AO2 SLP196 T10561144 11028 21056\ 51005= 201712150651 METAR KJFK 150651Z 30008KT 10SM SCT250 M06/M14 A3012 RMK\ AO2 SLP200 T10611139= 201712150751 METAR KJFK 150751Z 33011KT 10SM SCT250 M06/M14 A3013 RMK\ AO2 SLP200 T10611139= 201712150851 METAR KJFK 150851Z 32007KT 10SM SCT250 M07/M13 A3011 RMK\ AO2 SLP197 T10671133 50000= 201712150951 METAR KJFK 150951Z 33006KT 10SM BKN250 M06/M13 A3012 RMK\ AO2 SLP197 T10611128= 201712151051 METAR KJFK 151051Z 33004KT 10SM SCT150 BKN250 M07/M13 A3012\ RMK AO2 SLP199 T10671133= 201712151151 METAR KJFK 151151Z 02003KT 10SM FEW050 BKN150 BKN200 M06/M12\ A3013 RMK AO2 SLP202 70002 T10611117\ 11056 21067 53006= 201712151251 METAR KJFK 151251Z 08003KT 10SM FEW050 BKN140 M06/M11 A3013\ RMK AO2 SLP201 T10561106= 201712151351 METAR KJFK 151351Z 08003KT 10SM FEW050 BKN150 BKN250 M04/M12\ A3013 RMK AO2 SLP203 T10441117= 201712151451 METAR KJFK 151451Z 00000KT 10SM FEW050 BKN150 BKN200 M04/M12\ A3013 RMK AO2 SLP201 T10391117 58001= 201712151551 METAR KJFK 151551Z 00000KT 10SM FEW050 FEW120 OVC140 M03/M11\ A3011 RMK AO2 SLP194 T10281106= 201712151651 METAR KJFK 151651Z 00000KT 10SM FEW050 SCT120 OVC250 M03/M09\ A3006 RMK AO2 SLP178 T10281094= 201712151751 METAR KJFK 151751Z 00000KT 10SM SCT050 OVC070 M03/M09 A3002\ RMK AO2 CIG 050 W SLP166 T10281089\ 11028 21061 58036= 201712151851 METAR KJFK 151851Z 00000KT 10SM BKN055 OVC070 M02/M08 A2998\ RMK AO2 SLP151 T10221083 $= 201712151951 METAR KJFK 151951Z 23004KT 6SM -SN BKN031 OVC042 M03/M08\ A2995 RMK AO2 SNB26 SLP142 P0000\ T10281078 $= 201712152051 METAR KJFK 152051Z 34004KT 2SM -SN BR BKN020 OVC031 M04/M06\ A2993 RMK AO2 SLP135 P0001 60001\ T10391056 56030 $= 201712152151 METAR KJFK 152151Z 26006KT 1SM R04R/5000VP6000FT -SN BR SCT007\ OVC011 M04/M05 A2995 RMK AO2 SFC\ VIS 1 1/4 SLP140 P0003 T10391050\ $= 201712152251 METAR KJFK 152251Z 27008KT 3/4SM R04R/P6000FT -SN BR SCT006\ OVC013 M04/M05 A2994 RMK AO2 SFC\ VIS 1 SLP137 P0005 T10391050 $= 201712152351 METAR KJFK 152351Z 29007KT 1 1/2SM -SN BR FEW009 BKN023 OVC034\ M04/M05 A2993 RMK AO2 SFC VIS 2 SLP134\ 931013 4/001 P0001 60010 T10391050\ 11022 21044 57006 $= 201712160051 METAR KJFK 160051Z 28006KT 2SM -SN BR SCT011 BKN037 OVC060\ M03/M05 A2993 RMK AO2 SFC VIS 5 SLP134\ P0000 T10331050 $= 201712160151 METAR KJFK 160151Z 29011KT 8SM -SN FEW011 FEW037 OVC070 M03/M06\ A2993 RMK AO2 SLP133 P0000 T10331061\ $= 201712160251 METAR KJFK 160251Z 27015KT 10SM FEW011 FEW037 SCT085 M04/M07\ A2994 RMK AO2 SNE01 SLP137 P0000\ 60000 T10391072 53003 $= 201712160351 METAR KJFK 160351Z 27012KT 10SM FEW012 SCT080 SCT110 BKN250\ M04/M07 A2993 RMK AO2 SLP135 T10391072\ $= 201712160451 METAR KJFK 160451Z 27011KT 10SM SCT080 SCT110 SCT250 M04/M07\ A2993 RMK AO2 SLP134 T10391067 410221067\ $= 201712160551 METAR KJFK 160551Z 27012KT 10SM SCT080 SCT250 M04/M07 A2993\ RMK AO2 SLP134 931000 4/001 60000\ T10441067 11033 21044 56003 $= 201712160651 METAR KJFK 160651Z 29010KT 10SM FEW080 FEW250 M04/M07 A2994\ RMK AO2 SLP137 T10391072 $= 201712160751 METAR KJFK 160751Z 28013KT 10SM FEW250 M04/M07 A2997 RMK\ AO2 SLP147 T10391072 $= 201712160851 METAR KJFK 160851Z 27015G22KT 10SM SCT250 M03/M08 A2998 RMK\ AO2 SLP152 T10331078 53018 $= 201712160951 METAR KJFK 160951Z 27014KT 10SM FEW250 M03/M07 A2999 RMK\ AO2 SLP156 T10331072 $= 201712161051 METAR KJFK 161051Z 26012KT 10SM FEW250 M03/M08 A3002 RMK\ AO2 SLP164 T10331078 $= 201712161151 METAR KJFK 161151Z 26016KT 10SM FEW040 BKN250 M03/M08 A3004\ RMK AO2 SLP171 4/001 70010 T10281078\ 11028 21044 53019 $= 201712161251 METAR KJFK 161251Z 25016KT 10SM FEW040 SCT250 M02/M07 A3006\ RMK AO2 SLP179 VIRGA E T10221072\ $= 201712161351 METAR KJFK 161351Z 25015KT 10SM FEW045 BKN100 BKN250 M01/M06\ A3008 RMK AO2 SLP187 T10061061 $= 201712161451 METAR KJFK 161451Z 25019KT 10SM SCT070 BKN100 BKN250 00/M06\ A3009 RMK AO2 SLP190 T00001056 51019\ $= 201712161551 METAR KJFK 161551Z 25017KT 10SM BKN048 BKN110 BKN250 00/M06\ A3007 RMK AO2 PK WND 25026/1539 SLP183\ T00001061 $= 201712161651 METAR KJFK 161651Z 25018KT 10SM FEW050 BKN130 BKN250 02/M06\ A3004 RMK AO2 SLP171 T00171056 $= 201712161751 METAR KJFK 161751Z 24017KT 10SM SCT050 SCT060 BKN250 02/M04\ A3001 RMK AO2 SLP162 T00171039 10022\ 21033 58027 $= 201712161851 METAR KJFK 161851Z 26012KT 10SM BKN048 BKN070 BKN250 03/M04\ A3000 RMK AO2 SLP159 T00281039 $= 201712161951 METAR KJFK 161951Z 26012KT 10SM BKN042 BKN065 BKN250 03/M03\ A3001 RMK AO2 SLP161 T00281033= 201712162051 METAR KJFK 162051Z 26013KT 10SM FEW035 OVC045 03/M03 A3002\ RMK AO2 SLP164 T00331033 53002= 201712162151 METAR KJFK 162151Z 26014KT 10SM BKN047 OVC055 03/M03 A3004\ RMK AO2 SLP172 T00331028= 201712162251 METAR KJFK 162251Z 26012KT 10SM SCT047 OVC055 03/M03 A3007\ RMK AO2 SLP182 T00331028= 201712162351 METAR KJFK 162351Z 26011KT 10SM SCT049 OVC060 04/M03 A3010\ RMK AO2 SLP192 T00391028 10039 20017\ 53027= 201712170051 METAR KJFK 170051Z 29009KT 10SM OVC040 04/M03 A3015 RMK AO2\ SLP207 T00391033= 201712170151 METAR KJFK 170151Z 34011KT 10SM BKN060 OVC080 03/M03 A3016\ RMK AO2 SLP213 T00281028= 201712170251 METAR KJFK 170251Z 34010KT 10SM BKN048 BKN060 BKN080 02/M03\ A3019 RMK AO2 SLP222 T00221033 51030= 201712170351 METAR KJFK 170351Z 35011KT 10SM FEW038 BKN048 OVC060 02/M04\ A3020 RMK AO2 SLP228 T00171044= 201712170451 METAR KJFK 170451Z 35010KT 10SM FEW037 BKN043 OVC060 01/M06\ A3022 RMK AO2 SLP232 T00111056 400391044= 201712170551 METAR KJFK 170551Z 34007KT 10SM FEW034 BKN045 OVC060 01/M06\ A3022 RMK AO2 SLP234 T00111056 10039\ 20011 51011= 201712170651 METAR KJFK 170651Z 36007KT 10SM OVC050 01/M06 A3024 RMK AO2\ SLP240 T00111061= 201712170751 METAR KJFK 170751Z 01005KT 10SM BKN036 OVC050 01/M06 A3026\ RMK AO2 SLP247 T00111056= 201712170851 METAR KJFK 170851Z 35005KT 10SM SCT033 OVC042 01/M06 A3027\ RMK AO2 SLP250 T00111056 51016= 201712170951 METAR KJFK 170951Z 36007KT 10SM SCT033 OVC042 01/M06 A3028\ RMK AO2 SLP253 T00061056= 201712171051 METAR KJFK 171051Z 36007KT 10SM SCT045 OVC070 01/M06 A3026\ RMK AO2 SLP247 T00061056= 201712171151 METAR KJFK 171151Z 02003KT 10SM BKN047 OVC065 00/M06 A3028\ RMK AO2 SLP254 T00001056 10011 20000\ 53004= 201712171251 METAR KJFK 171251Z 00000KT 10SM SCT047 OVC065 01/M06 A3029\ RMK AO2 CIG 046 W SLP257 T00061056= 201712171351 METAR KJFK 171351Z 11004KT 10SM SCT050 BKN070 BKN095 01/M04\ A3031 RMK AO2 SLP262 T00061044= 201712171451 METAR KJFK 171451Z 08003KT 10SM BKN044 OVC095 01/M05 A3032\ RMK AO2 SLP266 T00061050 53012= 201712171551 METAR KJFK 171551Z 05005KT 10SM OVC048 01/M05 A3030 RMK AO2\ SLP259 T00111050= 201712171651 METAR KJFK 171651Z 00000KT 10SM BKN048 OVC100 01/M05 A3030\ RMK AO2 SLP258 T00111050= 201712171751 METAR KJFK 171751Z 00000KT 10SM BKN048 BKN100 02/M04 A3027\ RMK AO2 SLP249 T00221044 10028 20000\ 58017= 201712171851 METAR KJFK 171851Z 00000KT 10SM FEW049 FEW100 BKN230 02/M04\ A3025 RMK AO2 SLP244 T00221044= 201712171951 METAR KJFK 171951Z 00000KT 10SM FEW100 BKN210 03/M04 A3025\ RMK AO2 SLP242 T00281039= 201712172051 METAR KJFK 172051Z 13005KT 10SM FEW045 SCT150 BKN250 02/M03\ A3026 RMK AO2 SLP245 T00221033 55004= 201712172151 METAR KJFK 172151Z 10006KT 10SM FEW150 BKN200 BKN250 01/M03\ A3026 RMK AO2 SLP245 T00111033= 201712172251 METAR KJFK 172251Z 10003KT 10SM BKN130 BKN250 01/M03 A3027\ RMK AO2 SLP248 T00111033= 201712172351 METAR KJFK 172351Z 07004KT 10SM BKN022 OVC130 01/M03 A3029\ RMK AO2 SLP255 T00111033 10028 20011\ 53010= 201712180051 METAR KJFK 180051Z 08005KT 10SM BKN021 01/M03 A3028 RMK AO2\ SLP253 T00111033= 201712180151 METAR KJFK 180151Z 06006KT 10SM BKN021 BKN140 01/M04 A3026\ RMK AO2 SLP247 T00061039= 201712180251 METAR KJFK 180251Z 07006KT 10SM BKN020 OVC130 01/M04 A3025\ RMK AO2 SLP244 T00061039 58010= 201712180351 METAR KJFK 180351Z 08005KT 10SM FEW020 SCT065 OVC120 01/M04\ A3023 RMK AO2 SLP236 T00061039= 201712180451 METAR KJFK 180451Z 05008KT 10SM SCT020 OVC120 01/M04 A3022\ RMK AO2 SLP232 T00061039 400280000= 201712180551 METAR KJFK 180551Z 05007KT 10SM BKN019 OVC120 01/M04 A3021\ RMK AO2 SLP228 T00061044 10011 20006\ 56016= 201712180651 METAR KJFK 180651Z 04007KT 10SM BKN019 OVC065 01/M04 A3020\ RMK AO2 SLP227 T00111044= 201712180751 METAR KJFK 180751Z 04006KT 9SM -RA BKN018 OVC040 01/M03 A3019\ RMK AO2 RAB16 SLP224 P0001 T00061028= 201712180851 METAR KJFK 180851Z 05007KT 9SM -RA SCT016 OVC035 01/M02 A3016\ RMK AO2 SLP212 P0001 60002 T00061017\ 58016= 201712180951 METAR KJFK 180951Z 08008KT 10SM FEW025 OVC055 01/M01 A3015\ RMK AO2 RAE24 SLP209 P0000 T00061011= 201712181051 METAR KJFK 181051Z 03005KT 10SM FEW020 OVC049 01/M01 A3015\ RMK AO2 SLP208 T00111006= 201712181151 METAR KJFK 181151Z 01004KT 10SM SCT011 BKN047 OVC070 02/00\ A3014 RMK AO2 SLP207 60002 70002\ T00170000 10017 20006 56005= 201712181251 METAR KJFK 181251Z 03007KT 8SM FEW011 SCT023 OVC035 02/01\ A3012 RMK AO2 SLP200 T00220011= 201712181351 METAR KJFK 181351Z 05005KT 10SM FEW012 BKN043 OVC070 03/02\ A3012 RMK AO2 SLP197 T00280017= 201712181451 METAR KJFK 181451Z 02005KT 10SM FEW010 SCT048 OVC060 04/02\ A3011 RMK AO2 SLP196 T00390022 56010= 201712181551 METAR KJFK 181551Z 35005KT 10SM BKN009 OVC045 04/02 A3009\ RMK AO2 SLP189 T00440022= 201712181651 METAR KJFK 181651Z 35003KT 10SM FEW009 SCT046 BKN250 06/03\ A3005 RMK AO2 SLP175 T00610028= 201712181751 METAR KJFK 181751Z 30005KT 9SM FEW012 BKN070 BKN250 08/04\ A3002 RMK AO2 SLP166 T00780039 10078\ 20017 58030= 201712181851 METAR KJFK 181851Z 34006KT 8SM SCT070 BKN250 08/03 A2998\ RMK AO2 SLP153 T00780028= 201712181951 METAR KJFK 181951Z 00000KT 9SM SCT070 BKN250 08/03 A2998\ RMK AO2 SLP153 T00830028= 201712182051 METAR KJFK 182051Z 27007KT 9SM BKN070 BKN250 08/02 A2998\ RMK AO2 SLP152 T00780022 56014= 201712182151 METAR KJFK 182151Z 23007KT 7SM FEW070 SCT090 BKN250 05/02\ A2998 RMK AO2 SLP152 T00500022= 201712182251 METAR KJFK 182251Z 23007KT 8SM OVC095 06/02 A2999 RMK AO2\ SLP154 T00610022= 201712182351 METAR KJFK 182351Z 24011KT 10SM FEW065 BKN095 BKN250 07/02\ A2998 RMK AO2 SLP153 T00720022 10089\ 20044 50001= 201712190051 METAR KJFK 190051Z 23010KT 10SM OVC060 07/03 A2998 RMK AO2\ SLP152 T00670028= 201712190151 METAR KJFK 190151Z 23010KT 10SM OVC049 07/03 A2998 RMK AO2\ SLP151 T00720028= 201712190251 METAR KJFK 190251Z 23007KT 9SM FEW032 OVC080 06/03 A2997\ RMK AO2 SLP148 T00560028 58005= 201712190351 METAR KJFK 190351Z 25010KT 9SM OVC070 07/03 A2997 RMK AO2\ SLP147 T00670028= 201712190451 METAR KJFK 190451Z 24008KT 10SM BKN070 07/03 A2994 RMK AO2\ SLP139 T00670028 400890006= 201712190551 METAR KJFK 190551Z 26007KT 10SM OVC065 06/03 A2994 RMK AO2\ SLP138 T00610033 10078 20050 56010= 201712190651 METAR KJFK 190651Z 25010KT 10SM OVC070 07/03 A2994 RMK AO2\ SLP139 T00670033= 201712190751 METAR KJFK 190751Z 25007KT 10SM OVC070 06/03 A2995 RMK AO2\ SLP140 T00560033= 201712190851 METAR KJFK 190851Z 22008KT 10SM BKN075 06/03 A2993 RMK AO2\ SLP136 T00560033 58002= 201712190951 METAR KJFK 190951Z 23008KT 9SM BKN075 05/03 A2992 RMK AO2\ SLP133 T00500033= 201712191051 METAR KJFK 191051Z 24009KT 9SM BKN075 06/03 A2994 RMK AO2\ SLP137 T00560033= 201712191151 METAR KJFK 191151Z 26009KT 10SM BKN070 06/03 A2993 RMK AO2\ SLP134 T00610033 10072 20050 57002= 201712191251 METAR KJFK 191251Z 25008KT 10SM BKN060 07/03 A2993 RMK AO2\ SLP133 T00670033= 201712191351 METAR KJFK 191351Z 25012KT 10SM BKN060 BKN220 08/04 A2994\ RMK AO2 SLP137 T00780039= 201712191451 METAR KJFK 191451Z 23015KT 10SM SCT060 BKN250 09/04 A2994\ RMK AO2 SLP137 T00890044 53003= 201712191551 METAR KJFK 191551Z 25013KT 10SM SCT060 BKN250 11/04 A2991\ RMK AO2 SLP128 T01110044= 201712191651 METAR KJFK 191651Z 24016KT 10SM SCT042 BKN055 BKN250 11/05\ A2986 RMK AO2 SLP112 T01060050= 201712191751 METAR KJFK 191751Z 26022G29KT 10SM BKN047 BKN250 13/03 A2983\ RMK AO2 PK WND 25029/1746 SLP101\ T01280028 10128 20061 58037= 201712191851 METAR KJFK 191851Z 25016G25KT 10SM FEW047 SCT065 BKN250 13/02\ A2980 RMK AO2 PK WND 26028/1827 SLP091\ T01280022= 201712191951 METAR KJFK 191951Z 24014KT 10SM FEW047 BKN250 12/03 A2980\ RMK AO2 PK WND 25026/1917 SLP089\ T01220028= 201712192051 METAR KJFK 192051Z 24011KT 10SM BKN250 12/03 A2978 RMK AO2\ PK WND 25027/2009 SLP084 T01170028\ 56016= 201712192151 METAR KJFK 192151Z 23013KT 10SM SCT210 BKN250 10/03 A2977\ RMK AO2 SLP082 T01000033= 201712192251 METAR KJFK 192251Z 22013KT 10SM FEW200 BKN250 10/03 A2978\ RMK AO2 SLP085 T01000033= 201712192351 METAR KJFK 192351Z 22014KT 10SM SCT250 10/03 A2979 RMK AO2\ SLP087 T01000033 10128 20089 53003= 201712200051 METAR KJFK 200051Z 23011KT 10SM FEW200 SCT250 09/03 A2977\ RMK AO2 SLP082 T00890033= 201712200151 METAR KJFK 200151Z 23016G22KT 10SM SCT250 09/03 A2976 RMK\ AO2 SLP078 T00890033= 201712200251 METAR KJFK 200251Z 24014KT 10SM SCT250 09/04 A2976 RMK AO2\ SLP076 T00890039 56012= 201712200351 METAR KJFK 200351Z 24017G25KT 10SM FEW250 09/04 A2974 RMK\ AO2 SLP071 T00890039= 201712200451 METAR KJFK 200451Z 24015KT 10SM FEW035 FEW250 09/03 A2973\ RMK AO2 SLP068 T00890033 401280050= 201712200551 METAR KJFK 200551Z 24015KT 10SM FEW040 FEW250 08/03 A2973\ RMK AO2 SLP068 T00830028 10100 20083\ 56008= 201712200651 METAR KJFK 200651Z 25013KT 10SM FEW250 08/03 A2974 RMK AO2\ SLP072 T00780028= 201712200751 METAR KJFK 200751Z 25014KT 10SM FEW250 09/02 A2976 RMK AO2\ SLP076 T00890022= 201712200851 METAR KJFK 200851Z 30011KT 10SM BKN047 09/02 A2978 RMK AO2\ SLP084 T00940017 53016= 201712200951 METAR KJFK 200951Z 28015G20KT 10SM SCT060 09/M01 A2980 RMK\ AO2 SLP092 T00941006= 201712201051 METAR KJFK 201051Z 31015G20KT 10SM SCT060 08/M03 A2982 RMK\ AO2 SLP099 T00831033= 201712201151 METAR KJFK 201151Z 33016G25KT 10SM FEW060 SCT300 07/M05 A2986\ RMK AO2 SLP110 T00671050 10106 20067\ 53026= 201712201251 METAR KJFK 201251Z 32016KT 10SM FEW055 BKN300 06/M06 A2990\ RMK AO2 PK WND 33028/1156 SLP123\ T00611056= 201712201351 METAR KJFK 201351Z 30016G23KT 10SM FEW047 FEW070 BKN280 07/M08\ A2992 RMK AO2 PK WND 32033/1301 SLP132\ T00671083= 201712201451 METAR KJFK 201451Z 29014G24KT 10SM FEW070 BKN280 07/M08 A2994\ RMK AO2 PK WND 30027/1441 SLP138\ T00671078 51028= 201712201551 METAR KJFK 201551Z 29010G19KT 10SM SCT060 SCT180 BKN260 07/M07\ A2994 RMK AO2 PK WND 28026/1511 SLP137\ T00671072= 201712201651 METAR KJFK 201651Z 29019G24KT 10SM FEW060 SCT180 BKN260 07/M07\ A2990 RMK AO2 SLP126 T00721067= 201712201751 METAR KJFK 201751Z 31014KT 10SM FEW060 BKN260 07/M07 A2990\ RMK AO2 SLP123 T00721067 10072 20061\ 58015= 201712201851 METAR KJFK 201851Z 32016KT 10SM FEW060 FEW180 BKN260 06/M07\ A2991 RMK AO2 SLP126 T00611067= 201712201951 METAR KJFK 201951Z 32017KT 10SM FEW060 SCT210 BKN250 07/M08\ A2992 RMK AO2 SLP130 T00671078= 201712202051 METAR KJFK 202051Z 30012KT 10SM FEW060 SCT210 BKN250 06/M08\ A2993 RMK AO2 SLP136 T00611083 53013= 201712202151 METAR KJFK 202151Z 31013G18KT 10SM FEW060 BKN240 05/M09 A2996\ RMK AO2 SLP143 T00501089= 201712202251 METAR KJFK 202251Z 31011KT 10SM FEW210 BKN250 04/M09 A2999\ RMK AO2 SLP155 T00441089= 201712202351 METAR KJFK 202351Z 33012KT 10SM BKN250 04/M09 A3001 RMK AO2\ SLP160 T00391089 10067 20033 51025= 201712210051 METAR KJFK 210051Z 33014KT 10SM SCT250 03/M08 A3002 RMK AO2\ SLP167 T00281083= 201712210151 METAR KJFK 210151Z 33014G24KT 10SM FEW250 03/M09 A3004 RMK\ AO2 SLP172 T00281089= 201712210251 METAR KJFK 210251Z 33015KT 10SM SCT250 02/M09 A3005 RMK AO2\ SLP174 T00221089 51014= 201712210351 METAR KJFK 210351Z 33012G30KT 10SM SCT250 02/M08 A3005 RMK\ AO2 PK WND 34030/0347 SLP177 T00171083= 201712210451 METAR KJFK 210451Z 33011KT 10SM FEW250 02/M08 A3005 RMK AO2\ SLP177 T00171083 401060011= 201712210551 METAR KJFK 210551Z 34009KT 10SM FEW250 01/M08 A3006 RMK AO2\ SLP179 T00111083 10039 20006 51004= 201712210651 METAR KJFK 210651Z 34009KT 10SM FEW250 01/M08 A3007 RMK AO2\ SLP183 T00061078= 201712210751 METAR KJFK 210751Z 32009KT 10SM FEW250 00/M08 A3009 RMK AO2\ SLP187 T00001083= 201712210851 METAR KJFK 210851Z 32008KT 10SM FEW250 M01/M08 A3009 RMK\ AO2 SLP189 T10061083 51010= 201712210951 METAR KJFK 210951Z 33009KT 10SM CLR M01/M08 A3010 RMK AO2\ SLP192 T10111083= 201712211051 METAR KJFK 211051Z 32008KT 10SM OVC180 01/M08 A3013 RMK AO2\ SLP203 T00061078= 201712211151 METAR KJFK 211151Z 35010KT 10SM BKN150 01/M08 A3014 RMK AO2\ SLP205 T00061078 10011 21011 51016= 201712211251 METAR KJFK 211251Z 35008KT 10SM FEW040 SCT150 SCT250 00/M07\ A3019 RMK AO2 SLP222 T00001072= 201712211351 METAR KJFK 211351Z 01007KT 10SM FEW040 SCT150 SCT250 01/M07\ A3019 RMK AO2 SLP223 T00111067= 201712211451 METAR KJFK 211451Z 36008KT 10SM FEW040 FEW150 FEW250 02/M08\ A3022 RMK AO2 SLP233 T00221078 51028= 201712211551 METAR KJFK 211551Z 00000KT 10SM FEW040 FEW250 03/M08 A3023\ RMK AO2 SLP235 T00281078= 201712211651 METAR KJFK 211651Z 33010KT 10SM FEW040 FEW250 03/M07 A3021\ RMK AO2 SLP230 T00331072= 201712211751 METAR KJFK 211751Z 34005KT 10SM FEW050 FEW150 04/M07 A3020\ RMK AO2 SLP225 T00391072 10044 20000\ 58008= 201712211851 METAR KJFK 211851Z 28005KT 10SM FEW200 FEW250 05/M08 A3019\ RMK AO2 SLP224 T00501078= 201712211951 METAR KJFK 211951Z 28007KT 10SM FEW050 FEW250 04/M08 A3020\ RMK AO2 SLP227 T00441083= 201712212051 METAR KJFK 212051Z 25009KT 10SM FEW050 FEW120 FEW250 04/M08\ A3022 RMK AO2 SLP234 T00391078 53009= 201712212151 METAR KJFK 212151Z 27006KT 10SM SCT120 SCT250 03/M08 A3024\ RMK AO2 SLP238 T00281078= 201712212251 METAR KJFK 212251Z 01006KT 10SM FEW100 BKN210 BKN250 03/M08\ A3025 RMK AO2 SLP244 T00331078= 201712212351 METAR KJFK 212351Z 06004KT 10SM BKN090 BKN210 03/M07 A3028\ RMK AO2 SLP251 T00281067 10050 20028\ 53018= 201712220051 METAR KJFK 220051Z 04006KT 10SM BKN170 BKN250 03/M07 A3028\ RMK AO2 SLP251 T00281072= 201712220151 METAR KJFK 220151Z 04005KT 10SM SCT150 BKN220 02/M07 A3029\ RMK AO2 SLP256 T00221072= 201712220251 METAR KJFK 220251Z 08004KT 9SM SCT180 BKN250 02/M07 A3029\ RMK AO2 SLP258 T00171072 53006= 201712220351 METAR KJFK 220351Z 04005KT 10SM BKN100 BKN210 02/M07 A3030\ RMK AO2 SLP260 T00171072= 201712220451 METAR KJFK 220451Z 06005KT 10SM BKN100 02/M07 A3030 RMK AO2\ SLP258 T00171067 400501011= 201712220551 METAR KJFK 220551Z 09005KT 10SM SCT100 BKN190 01/M06 A3029\ RMK AO2 SLP256 T00061061 10033 20006\ 58002= 201712220651 METAR KJFK 220651Z 07005KT 10SM BKN130 OVC190 01/M07 A3031\ RMK AO2 SLP262 T00111067= 201712220751 METAR KJFK 220751Z 06007KT 10SM OVC130 01/M07 A3031 RMK AO2\ SLP264 T00111072= 201712220851 METAR KJFK 220851Z 05006KT 10SM FEW045 OVC130 01/M07 A3031\ RMK AO2 SLP262 T00111072 50006= 201712220951 METAR KJFK 220951Z 06008KT 10SM FEW045 OVC085 02/M07 A3030\ RMK AO2 SLP259 T00171072= 201712221051 METAR KJFK 221051Z 08009KT 10SM BKN035 OVC070 02/M07 A3030\ RMK AO2 SLP258 T00171072= 201712221151 METAR KJFK 221151Z 08008KT 10SM FEW032 BKN065 BKN210 02/M07\ A3031 RMK AO2 SLP262 T00171067 10017\ 20006 55000= 201712221251 METAR KJFK 221251Z 07008KT 10SM FEW032 OVC060 02/M06 A3029\ RMK AO2 SLP256 T00221061= 201712221351 METAR KJFK 221351Z 06007KT 10SM SCT033 OVC060 03/M04 A3028\ RMK AO2 SLP253 T00281044= 201712221451 METAR KJFK 221451Z 05007KT 10SM BKN027 OVC060 03/M03 A3029\ RMK AO2 SLP255 T00331033 55007= 201712221551 METAR KJFK 221551Z 00000KT 10SM OVC026 05/M02 A3026 RMK AO2\ SLP247 T00501022= 201712221651 METAR KJFK 221651Z 15010KT 10SM BKN027 OVC036 08/04 A3023\ RMK AO2 SLP237 CIG 024V029 T00780039= 201712221751 METAR KJFK 221751Z 15010KT 10SM BKN022 BKN038 OVC070 09/05\ A3018 RMK AO2 SLP219 T00890050 10089\ 20017 58036= 201712221851 METAR KJFK 221851Z 16011KT 10SM FEW017 BKN022 OVC065 09/06\ A3016 RMK AO2 SLP213 T00940061= 201712221951 METAR KJFK 221951Z 16009KT 10SM FEW017 BKN023 OVC070 09/07\ A3016 RMK AO2 SLP213 T00940072= 201712222051 METAR KJFK 222051Z 14007KT 10SM FEW014 OVC055 09/08 A3014\ RMK AO2 SLP205 T00940078 55008= 201712222151 METAR KJFK 222151Z 19005KT 10SM FEW026 OVC034 09/08 A3015\ RMK AO2 SLP209 T00890083= 201712222251 METAR KJFK 222251Z 13003KT 10SM SCT020 BKN025 OVC055 09/08\ A3015 RMK AO2 RAB42E51 SLP209 P0000\ T00940083= 201712222351 METAR KJFK 222351Z 00000KT 10SM OVC018 09/09 A3016 RMK AO2\ RAB39E49 SLP212 P0000 60000 T00940089\ 10094 20083 51007= 201712230051 METAR KJFK 230051Z 09003KT 10SM SCT050 OVC075 09/08 A3015\ RMK AO2 SLP210 T00890083= 201712230151 METAR KJFK 230151Z 04004KT 10SM FEW075 BKN180 OVC250 08/07\ A3015 RMK AO2 SLP208 T00780072= 201712230251 METAR KJFK 230251Z 36005KT 10SM SCT005 OVC180 07/06 A3015\ RMK AO2 SLP209 T00720061 56000= 201712230351 METAR KJFK 230351Z 36008KT 1/2SM R04R/P6000FT BR OVC003 06/06\ A3017 RMK AO2 SFC VIS 3 SLP214 T00560056= 201712230451 METAR KJFK 230451Z 07004KT 1/2SM R04R/P6000FT BR OVC003 04/04\ A3015 RMK AO2 SFC VIS 3 SLP209 T00440044\ 400940006= 201712230551 METAR KJFK 230551Z 03010KT 1/2SM R04R/P6000FT BR OVC003 04/04\ A3012 RMK AO2 SFC VIS 3 RAB0459E19\ SLP198 P0000 60000 T00440039 10094\ 20044 58011= 201712230651 METAR KJFK 230651Z 00000KT 4SM BR OVC005 04/03 A3013 RMK\ AO2 SLP202 T00390033= 201712230751 METAR KJFK 230751Z 02005KT 4SM BR OVC005 04/03 A3012 RMK\ AO2 SLP198 T00440033= 201712230851 METAR KJFK 230851Z 07005KT 4SM BR OVC005 04/03 A3010 RMK\ AO2 SLP193 T00390033 58005= 201712230951 METAR KJFK 230951Z 06007KT 4SM -RA BR OVC005 04/04 A3008\ RMK AO2 RAB02 SLP184 P0001 T00390039= 201712231051 METAR KJFK 231051Z 08007KT 3SM -RA BR OVC004 04/04 A3007\ RMK AO2 SLP182 P0002 T00390039= 201712231151 METAR KJFK 231151Z 06006KT 1 1/2SM -RA BR OVC004 04/04 A3005\ RMK AO2 SFC VIS 3 SLP177 P0001 60004\ 70004 T00390039 10044 20039 56016= 201712231251 METAR KJFK 231251Z 05008KT 1 1/2SM -RA BR OVC003 04/04 A3002\ RMK AO2 SFC VIS 3 SLP164 P0002 T00440044= 201712231351 METAR KJFK 231351Z 05008KT 1 1/2SM -RA BR OVC004 06/06 A2997\ RMK AO2 SFC VIS 2 1/2 SLP149 P0004\ T00560056= 201712231451 METAR KJFK 231451Z 01003KT 1 1/2SM R04R/3500VP6000FT RA BR\ OVC004 07/06 A2996 RMK AO2 PRESFR\ SLP144 P0010 60016 T00670061 56033= 201712231551 METAR KJFK 231551Z 06007KT 1 1/2SM -RA BR BKN004 OVC008 07/07\ A2988 RMK AO2 SFC VIS 2 PRESFR SLP118\ P0003 T00670067= 201712231651 METAR KJFK 231651Z 09003KT 1SM R04R/P6000FT RA BR OVC003\ 07/07 A2982 RMK AO2 SFC VIS 3 SLP098\ P0008 T00720072= 201712231751 METAR KJFK 231751Z 16009KT 1/2SM R04R/P6000FT RA BR BKN004\ OVC011 09/09 A2975 RMK AO2 SFC VIS\ 2 PRESFR SLP074 P0015 60042 T00890089\ 10089 20039 56044= 201712231851 METAR KJFK 231851Z 19021G29KT 5SM BR BKN007 BKN029 OVC070\ 10/09 A2970 RMK AO2 PK WND 19029/1847\ RAE44 SLP056 P0004 T01000094= 201712231951 METAR KJFK 231951Z 19019KT 7SM FEW007 BKN019 OVC029 10/09\ A2967 RMK AO2 PK WND 19031/1903 RAB02E30\ SLP045 P0001 T01000094= 201712232051 METAR KJFK 232051Z 19011KT 7SM FEW007 SCT020 OVC027 11/10\ A2967 RMK AO2 SLP046 P0001 60006\ T01060100 55028= 201712232151 METAR KJFK 232151Z 19006KT 8SM FEW034 BKN100 OVC190 11/10\ A2967 RMK AO2 SLP045 T01060100= 201712232251 METAR KJFK 232251Z 18005KT 7SM FEW032 BKN080 OVC090 11/10\ A2969 RMK AO2 SLP053 T01060100= 201712232351 METAR KJFK 232351Z VRB04KT 5SM -RA BR FEW012 BKN018 OVC026\ 10/10 A2973 RMK AO2 RAB2257 SLP068\ P0006 60012 T01000100 10111 20089\ 53022= 201712240051 METAR KJFK 240051Z 34010KT 10SM FEW006 SCT019 OVC028 09/08\ A2975 RMK AO2 RAE50 SLP074 P0004\ T00890083= 201712240151 METAR KJFK 240151Z 32012KT 10SM FEW016 OVC036 09/07 A2980\ RMK AO2 RAB04E48 SLP091 P0000 T00890067= 201712240251 METAR KJFK 240251Z 31010KT 10SM OVC046 09/06 A2987 RMK AO2\ RAB02E26 SLP113 P0000 60004 T00890061\ 53045= 201712240351 METAR KJFK 240351Z 31014KT 10SM FEW025 FEW060 07/04 A2992\ RMK AO2 RAB0254E08 SLP131 P0000 T00720044= 201712240451 METAR KJFK 240451Z 32012G20KT 10SM FEW045 06/02 A2995 RMK\ AO2 SLP141 T00560022 401110039= 201712240551 METAR KJFK 240551Z 33015KT 10SM FEW045 04/01 A3000 RMK AO2\ SLP157 60004 T00440011 10111 20044\ 51044= 201712240651 METAR KJFK 240651Z 32015KT 10SM FEW040 FEW065 04/01 A3005\ RMK AO2 SLP176 T00440011= 201712240751 METAR KJFK 240751Z 33011KT 10SM FEW040 SCT250 03/00 A3008\ RMK AO2 SLP187 T00330000= 201712240851 METAR KJFK 240851Z 32013KT 10SM FEW040 SCT200 BKN250 04/M01\ A3012 RMK AO2 SLP200 T00391011 51043= 201712240951 METAR KJFK 240951Z 32012KT 10SM FEW040 SCT200 BKN250 03/M01\ A3014 RMK AO2 SLP204 T00331011= 201712241051 METAR KJFK 241051Z 35007KT 10SM SCT200 BKN250 03/M02 A3016\ RMK AO2 SLP211 T00281017= 201712241151 METAR KJFK 241151Z 34010KT 10SM FEW030 SCT210 BKN240 03/M02\ A3017 RMK AO2 SLP215 70058 T00281022\ 10050 20028 52015= 201712241251 METAR KJFK 241251Z 36004KT 10SM FEW025 SCT210 BKN240 03/M02\ A3019 RMK AO2 SLP221 T00281022= 201712241351 METAR KJFK 241351Z 36011KT 10SM FEW025 SCT200 BKN250 03/M02\ A3022 RMK AO2 SLP234 T00331017= 201712241451 METAR KJFK 241451Z 01014KT 10SM FEW030 BKN190 BKN250 04/M03\ A3024 RMK AO2 SLP238 T00391033 51023= 201712241551 METAR KJFK 241551Z 02018KT 10SM FEW030 BKN170 BKN250 04/M04\ A3023 RMK AO2 SLP235 T00391039= 201712241651 METAR KJFK 241651Z 04011KT 10SM FEW035 BKN160 BKN250 04/M03\ A3021 RMK AO2 SLP231 T00391033= 201712241751 METAR KJFK 241751Z 06011KT 10SM FEW035 BKN180 BKN250 04/M03\ A3019 RMK AO2 SLP222 T00391033 10044\ 20022 58017= 201712241851 METAR KJFK 241851Z 03009KT 10SM FEW035 SCT180 BKN240 04/M03\ A3018 RMK AO2 SLP219 T00441028= 201712241951 METAR KJFK 241951Z 05011KT 10SM FEW035 SCT170 BKN210 BKN250\ 04/M03 A3016 RMK AO2 SLP213 T00391033= 201712242051 METAR KJFK 242051Z 06010KT 10SM FEW036 BKN200 BKN250 04/M03\ A3014 RMK AO2 SLP206 T00391028 58016= 201712242151 METAR KJFK 242151Z 07009KT 10SM FEW030 BKN090 03/M03 A3014\ RMK AO2 SLP205 T00331033= 201712242251 METAR KJFK 242251Z 06009KT 10SM BKN029 BKN075 OVC090 03/M03\ A3011 RMK AO2 SLP196 T00331028= 201712242351 METAR KJFK 242351Z 05011KT 10SM BKN029 OVC065 03/M03 A3010\ RMK AO2 SLP191 T00331028 10044 20033\ 58015= 201712250051 METAR KJFK 250051Z 06012KT 10SM FEW024 BKN029 OVC060 03/M02\ A3007 RMK AO2 SLP181 T00331022= 201712250151 METAR KJFK 250151Z 05011KT 10SM BKN019 OVC027 03/M01 A3002\ RMK AO2 RAB17E35SNB22E32 SLP165 P0000\ T00331006= 201712250251 METAR KJFK 250251Z 06014KT 5SM -SNRA BR OVC017 03/01 A2998\ RMK AO2 RAB0158E19B43UPB39E43SNB43\ SLP151 P0000 60000 T00280006 58040= 201712250351 METAR KJFK 250351Z 05011KT 4SM -RASN BR OVC012 02/01 A2992\ RMK AO2 PRESFR SLP131 P0000 T00220011= 201712250451 METAR KJFK 250451Z 06011KT 4SM -RA BR OVC007 02/02 A2986\ RMK AO2 SNE45 SLP110 P0000 T00220017\ 400560022= 201712250551 METAR KJFK 250551Z 05011KT 6SM -RA BR OVC007 03/02 A2979\ RMK AO2 PRESFR SLP088 931000 P0001\ 60001 T00280022 10033 20022 58063= 201712250651 METAR KJFK 250651Z 03007KT 6SM -RA BR OVC006 03/03 A2975\ RMK AO2 SLP073 P0000 T00330033= 201712250751 METAR KJFK 250751Z 06010KT 4SM -RA BR OVC006 04/04 A2970\ RMK AO2 SLP058 P0002 T00440039= 201712250851 METAR KJFK 250851Z 32010KT 6SM -RA BR BKN007 OVC040 04/04\ A2967 RMK AO2 SLP047 P0002 60004\ T00440039 56040= 201712250951 METAR KJFK 250951Z 29006KT 3SM -RA BR BKN007 BKN018 OVC030\ 04/04 A2965 RMK AO2 SLP040 P0003\ T00390039= 201712251051 METAR KJFK 251051Z 27013KT 3SM RA BR BKN007 BKN012 OVC020\ 04/03 A2968 RMK AO2 SLP049 P0006\ T00390033= 201712251151 METAR KJFK 251151Z 29012KT 8SM -RASN BKN008 BKN015 OVC070\ 02/02 A2970 RMK AO2 SNB43 SLP058\ BKN008 V SCT 931000 P0003 60016 70017\ T00220017 10044 20022 53010= 201712251251 METAR KJFK 251251Z 26017G23KT 10SM BKN015 BKN023 BKN065 03/02\ A2973 RMK AO2 RAE29SNE29 SLP065 P0000\ T00280017= 201712251351 METAR KJFK 251351Z 27026G36KT 10SM SCT025 SCT100 03/M01 A2975\ RMK AO2 PK WND 27036/1348 SLP075\ T00331011= 201712251451 METAR KJFK 251451Z 27034G41KT 10SM FEW032 03/M06 A2981 RMK\ AO2 PK WND 27042/1418 SLP095 60000\ T00331061 53038= 201712251551 METAR KJFK 251551Z 27027G37KT 10SM BKN050 03/M07 A2985 RMK\ AO2 PK WND 26043/1500 SLP108 T00281072= 201712251651 METAR KJFK 251651Z 28027G39KT 10SM BKN050 02/M08 A2987 RMK\ AO2 PK WND 27040/1621 SLP115 T00221083= 201712251751 METAR KJFK 251751Z 28025G38KT 10SM BKN055 02/M09 A2990 RMK\ AO2 PK WND 28039/1706 SLP123 931000\ 60000 T00221094 10033 20017 51028= 201712251851 METAR KJFK 251851Z 28023G32KT 10SM BKN055 03/M10 A2992 RMK\ AO2 PK WND 29038/1819 SLP130 T00281100= 201712251951 METAR KJFK 251951Z 28022G28KT 10SM SCT055 SCT250 02/M11 A2995\ RMK AO2 PK WND 27035/1911 SLP143\ T00171106= 201712252051 METAR KJFK 252051Z 27021G31KT 10SM SCT060 SCT250 02/M11 A2999\ RMK AO2 PK WND 26031/2048 SLP155\ T00171111 53031= 201712252151 METAR KJFK 252151Z 26024G31KT 10SM SCT065 SCT250 01/M11 A3005\ RMK AO2 PK WND 27032/2127 SLP176\ T00061106= 201712252251 METAR KJFK 252251Z 26019G26KT 10SM FEW065 FEW250 00/M12 A3010\ RMK AO2 PK WND 26032/2234 SLP191\ T00001117= 201712252351 METAR KJFK 252351Z 26020G30KT 10SM SCT060 SCT250 00/M12 A3014\ RMK AO2 PK WND 27031/2331 SLP207\ T00001117 10028 20000 51052= 201712260051 METAR KJFK 260051Z 27024G33KT 10SM FEW060 FEW250 M01/M12\ A3018 RMK AO2 PK WND 26033/0051 SLP218\ T10111117= 201712260151 METAR KJFK 260151Z 27026G30KT 10SM FEW060 SCT250 M02/M12\ A3021 RMK AO2 PK WND 27032/0139 SLP230\ T10171122= 201712260251 METAR KJFK 260251Z 27021G29KT 10SM BKN250 M02/M12 A3023 RMK\ AO2 PK WND 27034/0234 SLP237 T10171122\ 51030= 201712260351 METAR KJFK 260351Z 28027G34KT 10SM BKN250 M02/M14 A3026 RMK\ AO2 PK WND 28034/0351 SLP247 T10171139= 201712260451 METAR KJFK 260451Z 28015G22KT 10SM FEW060 OVC230 M02/M13\ A3026 RMK AO2 PK WND 27030/0426 SLP246\ T10221133 400441022= 201712260551 METAR KJFK 260551Z 28019G28KT 10SM FEW060 OVC210 M02/M14\ A3027 RMK AO2 PK WND 27031/0538 SLP250\ T10221139 10000 21022 51013= 201712260651 METAR KJFK 260651Z 27022G31KT 10SM FEW060 OVC230 M03/M15\ A3027 RMK AO2 PK WND 26034/0615 SLP251\ T10281150= 201712260751 METAR KJFK 260751Z 29019G29KT 10SM OVC230 M03/M17 A3030 RMK\ AO2 PK WND 29033/0659 SLP260 T10281172= 201712260851 METAR KJFK 260851Z 28019G26KT 10SM BKN250 M03/M17 A3030 RMK\ AO2 PK WND 29029/0824 SLP261 T10331172\ 52011= 201712260951 METAR KJFK 260951Z 29020G26KT 10SM OVC230 M03/M17 A3031 RMK\ AO2 PK WND 27027/0852 SLP263 T10331172= 201712261051 METAR KJFK 261051Z 28019G25KT 10SM OVC210 M04/M17 A3034 RMK\ AO2 PK WND 29026/1030 SLP273 T10391172= 201712261151 METAR KJFK 261151Z 27018G24KT 10SM FEW050 FEW160 BKN190 M04/M17\ A3038 RMK AO2 SLP287 T10391167 11022\ 21039 53026= 201712261251 METAR KJFK 261251Z 27017G25KT 10SM FEW050 FEW160 SCT220 M04/M17\ A3041 RMK AO2 PK WND 27026/1207 SLP297\ T10391172= 201712261351 METAR KJFK 261351Z 27021G25KT 10SM FEW055 FEW160 BKN200 M04/M17\ A3043 RMK AO2 PK WND 27028/1315 SLP302\ T10391172= 201712261451 METAR KJFK 261451Z 28015G23KT 10SM FEW055 BKN160 BKN200 M04/M18\ A3043 RMK AO2 SLP305 T10391178 51018= 201712261551 METAR KJFK 261551Z 28015G24KT 10SM FEW060 SCT140 BKN190 M03/M17\ A3043 RMK AO2 SLP304 T10331172= 201712261651 METAR KJFK 261651Z 27015G23KT 10SM FEW060 SCT130 BKN190 M03/M17\ A3040 RMK AO2 SLP293 T10281172= 201712261751 METAR KJFK 261751Z 29013G21KT 10SM FEW060 SCT150 SCT190 M02/M17\ A3039 RMK AO2 PK WND 27026/1701 SLP290\ T10221167 11017 21039 58014= 201712261851 METAR KJFK 261851Z 26016KT 10SM FEW060 FEW150 FEW220 M02/M17\ A3039 RMK AO2 SLP289 T10221167= 201712261951 METAR KJFK 261951Z 26016KT 10SM FEW060 FEW250 M02/M17 A3039\ RMK AO2 SLP290 T10221167= 201712262051 METAR KJFK 262051Z 27013KT 10SM FEW060 FEW250 M02/M17 A3039\ RMK AO2 SLP291 T10221172 53001= 201712262151 METAR KJFK 262151Z 27016KT 10SM FEW060 FEW140 FEW250 M03/M17\ A3042 RMK AO2 SLP300 T10281167= 201712262251 METAR KJFK 262251Z 29015KT 10SM FEW060 M03/M17 A3045 RMK\ AO2 SLP309 T10281167= 201712262351 METAR KJFK 262351Z 28012KT 10SM FEW250 M03/M17 A3045 RMK\ AO2 SLP310 T10331167 11017 21033\ 51019= 201712270051 METAR KJFK 270051Z 28008KT 10SM FEW250 M03/M16 A3045 RMK\ AO2 SLP309 T10331161= 201712270151 METAR KJFK 270151Z 29009KT 10SM FEW150 FEW250 M04/M16 A3045\ RMK AO2 SLP311 T10391156= 201712270251 METAR KJFK 270251Z 30008KT 10SM SCT140 M04/M16 A3046 RMK\ AO2 SLP313 T10391156 53003= 201712270351 METAR KJFK 270351Z 30011KT 10SM FEW140 M04/M16 A3047 RMK\ AO2 SLP316 T10391156= 201712270451 METAR KJFK 270451Z 28010KT 10SM FEW140 SCT250 M04/M16 A3047\ RMK AO2 SLP318 T10441161 410171044= 201712270551 METAR KJFK 270551Z 31011KT 10SM SCT130 BKN250 M05/M16 A3047\ RMK AO2 SLP317 T10501156 11033 21050\ 50004= 201712270651 METAR KJFK 270651Z 33010KT 10SM BKN120 BKN250 M06/M15 A3048\ RMK AO2 SLP320 T10561150= 201712270751 METAR KJFK 270751Z 33011KT 10SM BKN110 OVC250 M06/M16 A3049\ RMK AO2 SLP324 T10561156= 201712270851 METAR KJFK 270851Z 32011KT 10SM OVC110 M06/M16 A3050 RMK\ AO2 SLP328 T10561161 53010= 201712270951 METAR KJFK 270951Z 32011KT 10SM OVC110 M06/M17 A3050 RMK\ AO2 SLP328 T10611167= 201712271051 METAR KJFK 271051Z 33011KT 10SM OVC100 M06/M17 A3051 RMK\ AO2 SLP330 T10611167= 201712271151 METAR KJFK 271151Z 32009KT 10SM FEW045 BKN100 BKN250 M07/M16\ A3051 RMK AO2 SLP332 T10671161 11050\ 21067 53004= 201712271251 METAR KJFK 271251Z 32011KT 10SM FEW045 BKN100 BKN250 M06/M16\ A3052 RMK AO2 SLP334 T10611161= 201712271351 METAR KJFK 271351Z 33010KT 10SM FEW045 BKN100 M06/M16 A3052\ RMK AO2 SLP334 T10611161= 201712271451 METAR KJFK 271451Z 30008KT 10SM FEW045 SCT090 BKN250 M06/M17\ A3054 RMK AO2 SLP340 T10561167 53009= 201712271551 METAR KJFK 271551Z 30007KT 10SM FEW050 FEW090 SCT250 M05/M17\ A3052 RMK AO2 SLP334 T10501167= 201712271651 METAR KJFK 271651Z 33011KT 10SM FEW055 SCT095 SCT250 M04/M17\ A3050 RMK AO2 SLP326 T10441172= 201712271751 METAR KJFK 271751Z 33012KT 10SM FEW060 FEW095 FEW250 M04/M17\ A3046 RMK AO2 SLP315 T10441172 11039\ 21067 58026= 201712271851 METAR KJFK 271851Z 29010G17KT 10SM FEW060 FEW095 FEW250 M04/M18\ A3044 RMK AO2 SLP307 T10441183= 201712271951 METAR KJFK 271951Z 30008KT 10SM FEW060 FEW100 FEW250 M04/M18\ A3044 RMK AO2 SLP307 T10391178= 201712272051 METAR KJFK 272051Z 27009KT 10SM FEW060 FEW100 FEW250 M05/M18\ A3045 RMK AO2 SLP309 T10501183 55006= 201712272151 METAR KJFK 272151Z 32011KT 10SM FEW060 M05/M18 A3046 RMK\ AO2 SLP313 T10501183= 201712272251 METAR KJFK 272251Z 31014KT 10SM FEW060 M06/M19 A3048 RMK\ AO2 SLP320 T10561189= 201712272351 METAR KJFK 272351Z 33016KT 10SM FEW060 M06/M19 A3051 RMK\ AO2 SLP329 T10611189 11039 21061\ 53020= 201712280051 METAR KJFK 280051Z 34016KT 10SM FEW060 M07/M19 A3050 RMK\ AO2 SLP328 T10671189= 201712280151 METAR KJFK 280151Z 31017G23KT 10SM FEW060 M07/M19 A3051 RMK\ AO2 SLP332 T10721189= 201712280251 METAR KJFK 280251Z 32011KT 10SM FEW060 M07/M20 A3051 RMK\ AO2 SLP331 T10721200 53002= 201712280351 METAR KJFK 280351Z 32015G22KT 10SM FEW060 M08/M19 A3052 RMK\ AO2 SLP334 T10781194= 201712280451 METAR KJFK 280451Z 31015G22KT 10SM FEW060 FEW250 M08/M18\ A3050 RMK AO2 SLP328 T10781183 410391078= 201712280551 METAR KJFK 280551Z 31015G21KT 10SM FEW055 FEW250 M08/M18\ A3050 RMK AO2 SLP326 T10831183 11061\ 21083 58005= 201712280651 METAR KJFK 280651Z 31014KT 10SM FEW050 FEW250 M09/M18 A3051\ RMK AO2 SLP330 T10891178= 201712280751 METAR KJFK 280751Z 31016KT 10SM FEW050 M09/M17 A3052 RMK\ AO2 SLP334 T10891172= 201712280851 METAR KJFK 280851Z 31014KT 10SM FEW050 M09/M17 A3052 RMK\ AO2 SLP334 T10941172 50007= 201712280951 METAR KJFK 280951Z 32015G23KT 10SM FEW050 M09/M18 A3052 RMK\ AO2 SLP335 T10941183= 201712281051 METAR KJFK 281051Z 31015G25KT 10SM FEW050 M10/M19 A3053 RMK\ AO2 PK WND 31026/1041 SLP337 T11001189= 201712281151 METAR KJFK 281151Z 31018G22KT 10SM FEW050 FEW250 M10/M19\ A3055 RMK AO2 SLP344 T11001189 11083\ 21100 53010= 201712281251 METAR KJFK 281251Z 32021G28KT 10SM FEW050 FEW250 M10/M20\ A3056 RMK AO2 PK WND 32028/1249 SLP349\ T11001200= 201712281351 METAR KJFK 281351Z 32020G28KT 10SM FEW055 FEW250 M10/M21\ A3057 RMK AO2 PK WND 32030/1326 SLP352\ T11001211= 201712281451 METAR KJFK 281451Z 31017G21KT 10SM FEW055 FEW250 M09/M21\ A3058 RMK AO2 PK WND 32026/1354 SLP356\ T10891211 51012= 201712281551 METAR KJFK 281551Z 29019KT 10SM FEW055 M09/M22 A3057 RMK\ AO2 PK WND 34026/1512 SLP351 T10891217= 201712281651 METAR KJFK 281651Z 33021G25KT 10SM FEW060 M08/M23 A3054 RMK\ AO2 SLP339 T10831228= 201712281751 METAR KJFK 281751Z 31017G22KT 10SM FEW060 M08/M22 A3050 RMK\ AO2 PK WND 33026/1656 SLP327 T10781217\ 11072 21106 58029= 201712281851 METAR KJFK 281851Z 30018KT 10SM FEW060 FEW250 M08/M22 A3048\ RMK AO2 PK WND 32027/1826 SLP320\ T10781222= 201712281951 METAR KJFK 281951Z 31018KT 10SM FEW060 FEW250 M07/M22 A3048\ RMK AO2 SLP321 T10721222= 201712282051 METAR KJFK 282051Z 29017G22KT 10SM FEW060 FEW250 M08/M22\ A3050 RMK AO2 PK WND 31026/2026 SLP327\ T10781217 53001= 201712282151 METAR KJFK 282151Z 30019KT 10SM FEW060 FEW250 M08/M22 A3051\ RMK AO2 SLP330 T10831217= 201712282251 METAR KJFK 282251Z 30020G25KT 10SM FEW060 FEW250 M08/M21\ A3051 RMK AO2 PK WND 30026/2152 SLP330\ T10831211= 201712282351 METAR KJFK 282351Z 30018G25KT 10SM FEW250 M09/M22 A3051 RMK\ AO2 PK WND 31027/2330 SLP330 T10891217\ 11072 21089 51003= 201712290051 METAR KJFK 290051Z 30019G28KT 10SM FEW250 M09/M22 A3051 RMK\ AO2 PK WND 33028/0044 SLP329 T10941217= 201712290151 METAR KJFK 290151Z 32017KT 10SM FEW250 M11/M21 A3048 RMK\ AO2 SLP322 T11061211= 201712290251 METAR KJFK 290251Z 33014KT 10SM FEW250 M11/M21 A3047 RMK\ AO2 PK WND 31026/0213 SLP317 T11061206\ 58014= 201712290351 METAR KJFK 290351Z 33014KT 10SM FEW250 M11/M20 A3045 RMK\ AO2 SLP309 T11111200= 201712290451 METAR KJFK 290451Z 31010KT 10SM FEW250 M11/M20 A3045 RMK\ AO2 SLP310 T11111200 410721111= 201712290551 METAR KJFK 290551Z 31009KT 10SM BKN190 M11/M19 A3042 RMK\ AO2 SLP300 T11111189 11089 21117\ 58016= 201712290651 METAR KJFK 290651Z 32011KT 10SM BKN150 BKN250 M11/M19 A3043\ RMK AO2 SLP302 T11111189= 201712290751 METAR KJFK 290751Z 32010KT 10SM BKN140 BKN250 M11/M19 A3041\ RMK AO2 SLP297 T11111189= 201712290851 METAR KJFK 290851Z 32009KT 10SM BKN130 OVC190 M11/M18 A3039\ RMK AO2 SLP290 T11111183 58010= 201712290951 METAR KJFK 290951Z 36010KT 10SM OVC120 M11/M18 A3035 RMK\ AO2 PRESFR SLP275 T11111183= 201712291051 METAR KJFK 291051Z 33009KT 10SM BKN100 OVC150 M11/M18 A3035\ RMK AO2 SLP276 T11111178= 201712291151 METAR KJFK 291151Z 32007KT 290V350 10SM FEW035 BKN085 M11/M18\ A3035 RMK AO2 SLP277 T11061178 11106\ 21111 55013= 201712291251 METAR KJFK 291251Z 32010KT 10SM FEW035 SCT085 BKN130 M11/M18\ A3034 RMK AO2 SLP273 T11061183= 201712291351 METAR KJFK 291351Z 34007KT 10SM FEW035 BKN110 M10/M18 A3033\ RMK AO2 SLP270 T11001178= 201712291451 METAR KJFK 291451Z 31008KT 10SM FEW040 SCT100 SCT250 M08/M17\ A3033 RMK AO2 SLP269 T10831172 56008= 201712291551 METAR KJFK 291551Z 26007KT 10SM FEW047 SCT100 M08/M17 A3031\ RMK AO2 SLP264 T10781167= 201712291651 METAR KJFK 291651Z 29006KT 10SM FEW050 FEW095 BKN130 M07/M17\ A3027 RMK AO2 SLP250 T10671167= 201712291751 METAR KJFK 291751Z 29012KT 10SM FEW050 BKN130 M06/M17 A3024\ RMK AO2 SLP239 T10611167 11061 21111\ 58030= 201712291851 METAR KJFK 291851Z 27010G17KT 10SM SCT044 SCT120 M05/M16\ A3022 RMK AO2 SLP231 T10501161= 201712291951 METAR KJFK 291951Z 30015G18KT 10SM SCT048 M05/M16 A3022 RMK\ AO2 SLP232 T10501156= 201712292051 METAR KJFK 292051Z 30016KT 10SM SCT043 M06/M16 A3024 RMK\ AO2 SLP239 T10611161 55000= 201712292151 METAR KJFK 292151Z 30013KT 10SM FEW043 FEW250 M07/M16 A3025\ RMK AO2 SLP243 T10671161= 201712292251 METAR KJFK 292251Z 31014KT 10SM FEW043 FEW250 M07/M17 A3026\ RMK AO2 SLP246 T10671167= 201712292351 METAR KJFK 292351Z 31015KT 10SM FEW043 M07/M17 A3028 RMK\ AO2 SLP253 T10721167 11050 21072\ 53014= 201712300051 METAR KJFK 300051Z 30015KT 10SM FEW250 M07/M17 A3029 RMK\ AO2 SLP257 T10721172= 201712300151 METAR KJFK 300151Z 31012KT 10SM FEW250 M08/M17 A3030 RMK\ AO2 SLP258 T10781172= 201712300251 METAR KJFK 300251Z 32013KT 10SM SCT250 M07/M17 A3028 RMK\ AO2 SLP252 T10721172 58001= 201712300351 METAR KJFK 300351Z 30009KT 10SM SCT250 M08/M16 A3028 RMK\ AO2 SLP254 T10781161= 201712300451 METAR KJFK 300451Z 30011KT 10SM SCT170 BKN240 M07/M17 A3027\ RMK AO2 SLP248 T10721167 410501111= 201712300551 METAR KJFK 300551Z 30006KT 10SM BKN170 BKN230 M07/M17 A3026\ RMK AO2 SLP246 T10721167 11072 21078\ 58006= 201712300651 METAR KJFK 300651Z 29006KT 10SM BKN180 BKN240 M08/M16 A3023\ RMK AO2 SLP235 T10781161= 201712300751 METAR KJFK 300751Z 31004KT 10SM SCT180 BKN220 M08/M16 A3022\ RMK AO2 SLP232 T10781161= 201712300851 METAR KJFK 300851Z 00000KT 10SM SCT120 SCT150 BKN210 M08/M16\ A3020 RMK AO2 SLP225 T10781161 56021= 201712300951 METAR KJFK 300951Z 28003KT 10SM BKN100 OVC150 M07/M14 A3017\ RMK AO2 SLP216 T10721144= 201712301051 METAR KJFK 301051Z 00000KT 10SM BKN070 OVC100 M07/M14 A3016\ RMK AO2 SLP213 T10721139= 201712301151 METAR KJFK 301151Z 00000KT 10SM OVC060 M07/M14 A3017 RMK\ AO2 SLP216 T10721139 11067 21083\ 55009= 201712301251 METAR KJFK 301251Z 25004KT 10SM BKN055 OVC070 M06/M13 A3016\ RMK AO2 SLP213 T10611128= 201712301351 METAR KJFK 301351Z 23014KT 7SM -SN BKN045 OVC065 M06/M13\ A3016 RMK AO2 SNB43 SLP213 P0000\ T10561133= 201712301451 METAR KJFK 301451Z 23012KT 3SM -SN BKN032 OVC040 M07/M11\ A3013 RMK AO2 SLP201 P0000 60000\ T10671106 58015= 201712301551 METAR KJFK 301551Z 25012KT 2 1/2SM -SN BR BKN033 OVC043 M07/M09\ A3010 RMK AO2 SLP190 P0000 T10671089= 201712301651 METAR KJFK 301651Z 26009KT 1 3/4SM -SN BR FEW009 BKN024 OVC036\ M06/M08 A3005 RMK AO2 SLP175 P0000\ T10611078= 201712301751 METAR KJFK 301751Z 24011KT 1SM R04R/5000VP6000FT -SN BR BKN018\ OVC029 M06/M07 A2999 RMK AO2 SLP154\ 931005 4/001 P0002 60002 T10561072\ 11056 21072 58046= 201712301851 METAR KJFK 301851Z 26006KT 2SM -SN BR FEW010 OVC040 M06/M07\ A2995 RMK AO2 SLP142 P0001 T10561067= 201712301951 METAR KJFK 301951Z 25007KT 3SM -SN BR BKN048 OVC060 M05/M07\ A2993 RMK AO2 SLP134 P0000 T10501067= 201712302051 METAR KJFK 302051Z 27012KT 10SM FEW017 BKN022 OVC100 M05/M08\ A2993 RMK AO2 SNE19 SLP135 P0000\ 60001 T10501083 55007= 201712302151 METAR KJFK 302151Z 28011KT 10SM SCT021 BKN120 M06/M09 A2995\ RMK AO2 SLP140 T10561094= 201712302251 METAR KJFK 302251Z 28010KT 10SM SCT026 SCT120 M06/M09 A2997\ RMK AO2 SLP148 T10561094= 201712302351 METAR KJFK 302351Z 28010KT 10SM FEW025 FEW120 M06/M10 A2999\ RMK AO2 SLP154 931001 4/001 60001\ T10561100 11050 21056 53019= 201712310051 METAR KJFK 310051Z 28009KT 10SM FEW025 FEW120 SCT250 M06/M09\ A3000 RMK AO2 SLP158 T10561094= 201712310151 METAR KJFK 310151Z 27011KT 9SM FEW025 FEW060 FEW250 M05/M09\ A3001 RMK AO2 SLP163 T10501094= 201712310251 METAR KJFK 310251Z 28010KT 9SM SCT060 SCT090 M06/M10 A3004\ RMK AO2 SLP170 T10561100 53017= 201712310351 METAR KJFK 310351Z 28011KT 10SM FEW028 SCT048 SCT060 SCT250\ M06/M11 A3004 RMK AO2 SLP172 T10561106= 201712310451 METAR KJFK 310451Z 30012KT 10SM FEW028 FEW050 M06/M11 A3005\ RMK AO2 SLP177 T10611111 410501083= 201712310551 METAR KJFK 310551Z 30014KT 10SM R04R/5500VP6000FT FEW030\ FEW055 M06/M12 A3007 RMK AO2 SLP183\ 4/001 T10611122 11050 21061 53013= 201712310651 METAR KJFK 310651Z 30016G24KT 10SM FEW030 M07/M14 A3008 RMK\ AO2 SLP186 T10671139= 201712310751 METAR KJFK 310751Z 30014G24KT 10SM FEW035 M07/M13 A3011 RMK\ AO2 SLP196 T10721133= 201712310851 METAR KJFK 310851Z 30013G23KT 10SM FEW035 M08/M14 A3013 RMK\ AO2 SLP201 T10781144 53018= 201712310951 METAR KJFK 310951Z 31014KT 10SM FEW035 M08/M14 A3016 RMK\ AO2 PK WND 30027/0933 SLP211 T10781144= 201712311051 METAR KJFK 311051Z 34016KT 10SM SCT037 M08/M15 A3020 RMK\ AO2 SLP225 T10831150= 201712311151 METAR KJFK 311151Z 32017G27KT 10SM SCT038 BKN250 M09/M17\ A3022 RMK AO2 PK WND 31034/1136 SLP232\ 4/001 70003 T10941167 11067 21094\ 51030= 201712311251 METAR KJFK 311251Z 32016KT 10SM SCT038 SCT200 BKN250 M10/M18\ A3024 RMK AO2 SLP238 T11001178= 201712311351 METAR KJFK 311351Z 32022G27KT 10SM FEW040 FEW200 SCT250 M10/M18\ A3026 RMK AO2 PK WND 33027/1351 PRESRR\ SLP245 T11001183= 201712311451 METAR KJFK 311451Z 31016G25KT 10SM FEW040 SCT160 BKN200 BKN250\ M09/M18 A3029 RMK AO2 PK WND 32026/1400\ SLP255 T10941178 53023= 201712311551 METAR KJFK 311551Z 30021G26KT 10SM FEW040 SCT160 BKN250 M09/M19\ A3028 RMK AO2 PK WND 31026/1517 SLP252\ T10941189= 201712311651 METAR KJFK 311651Z 30019KT 10SM FEW040 FEW150 BKN250 M09/M18\ A3025 RMK AO2 PK WND 29026/1558 SLP243\ T10891183= 201712311751 METAR KJFK 311751Z 34018KT 10SM FEW040 FEW150 BKN250 M09/M18\ A3023 RMK AO2 SLP236 T10941183 11083\ 21106 58019= 201712311851 METAR KJFK 311851Z 31013KT 10SM FEW040 SCT110 BKN250 M09/M19\ A3027 RMK AO2 SLP250 T10941189= 201712311951 METAR KJFK 311951Z 31016G22KT 10SM FEW040 OVC110 M09/M18\ A3028 RMK AO2 PK WND 30028/1930 SLP253\ T10941183= 201712312051 METAR KJFK 312051Z 30016KT 10SM SCT040 BKN090 OVC110 M10/M19\ A3028 RMK AO2 SLP254 T11001194 51019= 201712312151 METAR KJFK 312151Z 32014G22KT 10SM FEW040 SCT110 M11/M20\ A3030 RMK AO2 SLP259 T11061200= 201712312251 METAR KJFK 312251Z 32014KT 10SM FEW110 M11/M20 A3031 RMK\ AO2 SLP261 T11111200= 201712312351 METAR KJFK 312351Z 31018KT 10SM FEW040 M11/M20 A3033 RMK\ AO2 PK WND 31026/2312 SLP268 T11111200\ 11094 21111 53014=}
