 201704010051 METAR KJFK 010051Z 07023G29KT 5SM +RA BR BKN010 OVC024 05/04\ A2975 RMK AO2 PK WND 07033/0028 SLP075\ P0020 T00500039 $= 201704010151 METAR KJFK 010151Z 04015G21KT 3SM +RA BR BKN010 OVC025 05/04\ A2976 RMK AO2 PK WND 07032/0059 SFC\ VIS 4 SLP079 P0021 T00500044 $= 201704010251 METAR KJFK 010251Z 06014KT 3SM -RA BR BKN010 OVC015 05/04\ A2973 RMK AO2 SLP067 P0015 60056\ T00500044 58008 $= 201704010351 METAR KJFK 010351Z 05020G25KT 5SM -DZ BR BKN010 OVC015 05/04\ A2969 RMK AO2 PK WND 06026/0326 RAE43DZB50\ SLP054 P0002 T00500039 $= 201704010451 METAR KJFK 010451Z 05017G26KT 5SM BR BKN010 OVC015 04/04\ A2967 RMK AO2 PK WND 05027/0403 DZE37RAB37E46\ SLP047 P0000 T00440039 400560039\ $= 201704010551 METAR KJFK 010551Z 04019G26KT 5SM -DZ BR OVC010 04/03 A2965\ RMK AO2 PK WND 05026/0543 DZB0452\ SLP040 P0000 60058 T00440033 10056\ 20044 56027 $= 201704010651 METAR KJFK 010651Z 02018G23KT 9SM OVC010 04/03 A2964 RMK\ AO2 PK WND 03029/0612 DZE37 SLP038\ P0000 T00440028 $= 201704010751 METAR KJFK 010751Z 03020G26KT 3SM -RA BR OVC010 04/03 A2962\ RMK AO2 PK WND 02027/0729 DZB10E46RAB46\ SLP031 P0000 T00390028 $= 201704010851 METAR KJFK 010851Z 02018G24KT 3SM -RA BR OVC010 04/03 A2966\ RMK AO2 PK WND 03026/0752 SLP042\ P0000 60000 T00390028 53002 $= 201704010951 METAR KJFK 010951Z 36015KT 3SM -RA BR OVC010 03/03 A2967\ RMK AO2 PK WND 02027/0911 RAE09B30SNB09E30\ SLP047 P0001 T00330028 $= 201704011051 METAR KJFK 011051Z 35017G24KT 6SM BR OVC010 03/02 A2970 RMK\ AO2 PK WND 35026/1009 RAE30 CIG 007V014\ SLP057 P0000 T00330022 $= 201704011151 METAR KJFK 011151Z 35018KT 10SM OVC015 03/02 A2972 RMK AO2\ PK WND 36026/1124 SLP064 60001 70153\ T00330022 10044 20033 53023 $= 201704011251 METAR KJFK 011251Z 35019G25KT 10SM OVC016 04/02 A2975 RMK\ AO2 SLP074 T00390022 $= 201704011351 METAR KJFK 011351Z 35016KT 9SM OVC016 05/03 A2979 RMK AO2\ SLP086 T00500028 $= 201704011451 METAR KJFK 011451Z 35020G26KT 10SM BKN018 OVC025 06/02 A2980\ RMK AO2 PK WND 35027/1447 SLP091\ T00560022 51017= 201704011551 METAR KJFK 011551Z 35017G24KT 10SM OVC021 07/02 A2981 RMK\ AO2 PK WND 35027/1520 SLP095 T00670022= 201704011651 METAR KJFK 011651Z 35017G26KT 10SM OVC024 07/02 A2983 RMK\ AO2 PK WND 34028/1605 SLP100 T00720017= 201704011751 METAR KJFK 011751Z 35017G24KT 10SM BKN024 OVC130 07/02 A2983\ RMK AO2 PK WND 34026/1730 SLP102\ T00720022 10083 20033 51010= 201704011851 METAR KJFK 011851Z 34018KT 10SM OVC024 07/02 A2985 RMK AO2\ SLP109 T00720017= 201704011951 METAR KJFK 011951Z 35015G23KT 10SM BKN026 08/02 A2987 RMK\ AO2 SLP115 T00780017= 201704012051 METAR KJFK 012051Z 35017G22KT 7SM -RA SCT013 BKN037 BKN048\ 07/04 A2991 RMK AO2 PK WND 33027/2011\ RAB33 SLP128 P0000 60000 T00670044\ 53026= 201704012151 METAR KJFK 012151Z 01010KT 10SM FEW015 BKN042 07/04 A2994\ RMK AO2 RAE14 SLP136 P0000 T00670039= 201704012251 METAR KJFK 012251Z 02009KT 10SM BKN045 BKN050 BKN070 BKN250\ 07/03 A2996 RMK AO2 SLP144 T00720033= 201704012351 METAR KJFK 012351Z 36009KT 10SM FEW022 BKN050 BKN080 07/02\ A2999 RMK AO2 SLP156 60000 T00720022\ 10078 20067 53028= 201704020051 METAR KJFK 020051Z 01007KT 10SM SCT050 BKN080 07/02 A3001\ RMK AO2 SLP160 T00720017= 201704020151 METAR KJFK 020151Z 35005KT 10SM SCT050 BKN080 07/02 A3003\ RMK AO2 SLP168 T00720017= 201704020251 METAR KJFK 020251Z 35006KT 10SM BKN040 BKN090 07/02 A3004\ RMK AO2 SLP171 T00670017 51015= 201704020351 METAR KJFK 020351Z 35008KT 10SM SCT035 BKN043 OVC090 07/01\ A3005 RMK AO2 SLP175 T00670011= 201704020451 METAR KJFK 020451Z 35008KT 10SM BKN035 BKN090 07/01 A3005\ RMK AO2 SLP176 T00720011 400830033= 201704020551 METAR KJFK 020551Z 33009KT 10SM BKN032 07/02 A3005 RMK AO2\ SLP177 T00720017 10072 20061 51006= 201704020651 METAR KJFK 020651Z 31010KT 10SM FEW027 BKN032 07/02 A3006\ RMK AO2 SLP178 T00720017= 201704020751 METAR KJFK 020751Z 31012KT 10SM BKN032 06/01 A3006 RMK AO2\ SLP178 T00610006= 201704020851 METAR KJFK 020851Z 32016KT 10SM SCT036 06/00 A3007 RMK AO2\ SLP183 T00560000 53006= 201704020951 METAR KJFK 020951Z 32009KT 10SM FEW035 05/00 A3010 RMK AO2\ SLP192 T00500000= 201704021051 METAR KJFK 021051Z 33010KT 10SM FEW035 05/00 A3012 RMK AO2\ SLP200 T00500000= 201704021151 METAR KJFK 021151Z 33014KT 10SM FEW035 06/00 A3014 RMK AO2\ SLP205 T00610000 10072 20044 51022= 201704021251 METAR KJFK 021251Z 33015KT 10SM FEW035 08/01 A3015 RMK AO2\ SLP208 T00780006= 201704021351 METAR KJFK 021351Z 34013KT 10SM FEW035 09/01 A3015 RMK AO2\ SLP207 T00940006= 201704021451 METAR KJFK 021451Z 31009KT 10SM FEW035 11/01 A3015 RMK AO2\ SLP210 T01110006 51005= 201704021551 METAR KJFK 021551Z 33010KT 10SM CLR 13/M01 A3013 RMK AO2\ SLP203 T01331006= 201704021651 METAR KJFK 021651Z 33011G20KT 10SM FEW060 FEW250 14/M03 A3011\ RMK AO2 SLP195 T01441028= 201704021751 METAR KJFK 021751Z 31010G20KT 10SM FEW065 SCT250 16/M01 A3009\ RMK AO2 SLP188 T01611011 10161 20061\ 57022= 201704021851 METAR KJFK 021851Z 28007KT 240V320 10SM SCT090 SCT250 16/M02\ A3006 RMK AO2 SLP178 T01611017= 201704021951 METAR KJFK 021951Z 31017G23KT 270V340 10SM SCT085 SCT250\ 18/M02 A3004 RMK AO2 SLP172 T01831022= 201704022051 METAR KJFK 022051Z 31014KT 10SM SCT085 SCT250 17/M03 A3004\ RMK AO2 SLP174 T01721033 55014= 201704022151 METAR KJFK 022151Z 32019KT 10SM SCT085 SCT250 17/M03 A3004\ RMK AO2 SLP173 T01671028= 201704022251 METAR KJFK 022251Z 33014KT 10SM FEW085 SCT250 16/M02 A3004\ RMK AO2 PK WND 32028/2212 SLP173\ T01561022= 201704022351 METAR KJFK 022351Z 33007KT 10SM FEW085 SCT250 14/M02 A3005\ RMK AO2 SLP175 T01391017 10183 20139\ 53002= 201704030051 METAR KJFK 030051Z 34006KT 10SM FEW090 FEW250 13/M01 A3007\ RMK AO2 SLP182 T01331011= 201704030151 METAR KJFK 030151Z 31005KT 10SM FEW090 FEW250 13/00 A3010\ RMK AO2 SLP191 T01280000= 201704030251 METAR KJFK 030251Z 33010KT 10SM SCT250 13/M01 A3010 RMK AO2\ SLP191 T01331006 50015= 201704030351 METAR KJFK 030351Z 33009KT 10SM BKN250 12/00 A3010 RMK AO2\ SLP193 T01220000= 201704030451 METAR KJFK 030451Z 35007KT 10SM SCT250 11/M01 A3010 RMK AO2\ SLP192 T01111006 401830044= 201704030551 METAR KJFK 030551Z 01005KT 10SM SCT250 11/M01 A3009 RMK AO2\ SLP190 T01111006 10150 20106 58000= 201704030651 METAR KJFK 030651Z 31005KT 10SM BKN260 11/00 A3011 RMK AO2\ SLP194 T01060000= 201704030751 METAR KJFK 030751Z 00000KT 10SM BKN260 08/01 A3009 RMK AO2\ SLP189 T00830006= 201704030851 METAR KJFK 030851Z 22006KT 10SM BKN260 06/02 A3009 RMK AO2\ SLP189 T00610022 58001= 201704030951 METAR KJFK 030951Z 00000KT 10SM BKN260 08/02 A3010 RMK AO2\ SLP191 T00830017= 201704031051 METAR KJFK 031051Z 21003KT 10SM FEW150 BKN260 07/04 A3012\ RMK AO2 SLP199 T00670044= 201704031151 METAR KJFK 031151Z 00000KT 9SM FEW130 BKN260 08/05 A3014\ RMK AO2 SLP206 T00780050 10111 20056\ 53017= 201704031251 METAR KJFK 031251Z 00000KT 10SM SCT140 BKN260 12/02 A3014\ RMK AO2 SLP204 T01220022= 201704031351 METAR KJFK 031351Z 19004KT 10SM BKN120 BKN260 13/01 A3013\ RMK AO2 SLP203 T01280011= 201704031451 METAR KJFK 031451Z 17007KT 10SM FEW100 SCT130 BKN260 13/01\ A3013 RMK AO2 SLP203 T01330006 56003= 201704031551 METAR KJFK 031551Z 18010KT 10SM SCT130 BKN260 14/01 A3012\ RMK AO2 SLP198 T01440006= 201704031651 METAR KJFK 031651Z 16011KT 10SM FEW110 FEW170 BKN260 14/01\ A3010 RMK AO2 SLP192 T01440011= 201704031751 METAR KJFK 031751Z 17014KT 10SM FEW055 FEW170 BKN240 13/01\ A3009 RMK AO2 SLP187 T01330006 10150\ 20083 56016= 201704031851 METAR KJFK 031851Z 15014KT 10SM FEW055 SCT200 BKN250 14/01\ A3006 RMK AO2 SLP179 T01390011= 201704031951 METAR KJFK 031951Z 14014KT 10SM FEW055 SCT210 BKN250 12/02\ A3004 RMK AO2 SLP171 T01220022= 201704032051 METAR KJFK 032051Z 14008KT 10SM BKN210 BKN250 12/04 A3001\ RMK AO2 SLP162 T01170044 58025= 201704032151 METAR KJFK 032151Z 15010KT 10SM FEW100 SCT170 BKN240 11/04\ A3001 RMK AO2 SLP162 T01060039= 201704032251 METAR KJFK 032251Z 13008KT 10SM SCT070 BKN140 OVC240 09/04\ A3000 RMK AO2 SLP157 T00940044= 201704032351 METAR KJFK 032351Z 15011KT 10SM BKN060 OVC130 09/04 A2998\ RMK AO2 SLP153 T00940039 10144 20094\ 58008= 201704040051 METAR KJFK 040051Z 16011KT 10SM BKN060 OVC130 09/04 A2997\ RMK AO2 SLP149 T00890039= 201704040151 METAR KJFK 040151Z 16009KT 10SM OVC055 09/03 A2996 RMK AO2\ SLP146 T00940033= 201704040251 METAR KJFK 040251Z 10005KT 10SM FEW030 OVC055 09/03 A2994\ RMK AO2 SLP137 T00940033 58016= 201704040351 METAR KJFK 040351Z 12010G15KT 8SM -RA OVC045 10/05 A2990\ RMK AO2 RAB13 SLP123 P0001 T01000050= 201704040451 METAR KJFK 040451Z 12017G23KT 9SM -RA FEW018 BKN047 OVC090\ 09/07 A2983 RMK AO2 SLP102 P0001\ T00940067 401500056= 201704040551 METAR KJFK 040551Z 12015G26KT 5SM RA BR FEW015 OVC035 09/08\ A2978 RMK AO2 PK WND 11026/0542 SLP085\ P0010 60012 T00890078 10100 20089\ 58052= 201704040651 METAR KJFK 040651Z 13020G30KT 2 1/2SM +RA BR BKN012 OVC032\ 09/09 A2973 RMK AO2 PK WND 12034/0611\ PRESFR SLP067 P0022 T00890089= 201704040751 METAR KJFK 040751Z 12018G25KT 2SM RA BR OVC006 10/09 A2969\ RMK AO2 PK WND 13032/0729 SFC VIS\ 3 SLP052 P0029 T01000094= 201704040851 METAR KJFK 040851Z 16012KT 2SM -RA BR OVC005 09/09 A2968\ RMK AO2 PK WND 12028/0822 WSHFT 0822\ SFC VIS 4 SLP050 P0037 60088 T00940094\ 56017= 201704040951 METAR KJFK 040951Z 16013KT 1 1/2SM BR OVC004 10/10 A2964\ RMK AO2 WSHFT 0839 SFC VIS 5 RAE27\ SLP038 P0003 T01000100= 201704041051 METAR KJFK 041051Z 18014G23KT 1/8SM R04R/5500VP6000FT -DZ\ BR SCT000 OVC002 11/11 A2963 RMK\ AO2 SFC VIS 1 DZB17 SLP032 BR SCT000\ P0000 T01060106= 201704041151 METAR KJFK 041151Z 17013KT 1/8SM R04R/3500V4000FT -DZ FG\ VV002 10/10 A2962 RMK AO2 SFC VIS\ 1/2 DZE04B48 SLP030 P0000 60091 70103\ T01000100 10106 20089 56020= 201704041251 METAR KJFK 041251Z 17011KT 1/8SM R04R/3000V3500FT -DZ FG\ VV002 10/10 A2961 RMK AO2 SFC VIS\ 1/2 SLP028 P0000 T01000100= 201704041351 METAR KJFK 041351Z 00000KT 1/8SM R04R/2000V2400FT -DZ FG\ VV002 10/10 A2960 RMK AO2 SFC VIS\ 1/4 SLP022 P0000 T01000100= 201704041451 METAR KJFK 041451Z 00000KT 1/2SM R04R/2200V3500FT -RA BR\ FEW000 OVC003 11/11 A2959 RMK AO2\ SFC VIS 1 1/2 DZE21RAB21 SLP021 BR\ FEW000 P0001 60001 T01060106 56009= 201704041551 METAR KJFK 041551Z 36008KT 1/2SM R04R/P6000FT -DZ BR OVC003\ 11/11 A2957 RMK AO2 SFC VIS 2 1/2\ RAE45DZB45 SLP014 P0000 T01110111= 201704041651 METAR KJFK 041651Z 04008KT 2 1/2SM -DZ BR OVC004 12/12 A2956\ RMK AO2 SFC VIS 4 SLP011 P0000 T01170117= 201704041751 METAR KJFK 041751Z 01007KT 7SM OVC007 12/11 A2959 RMK AO2\ DZE05 SLP019 P0000 60001 T01170106\ 10122 20094 55002= 201704041851 METAR KJFK 041851Z 02010KT 10SM BKN010 OVC016 11/09 A2960\ RMK AO2 SLP021 T01060089= 201704041951 METAR KJFK 041951Z 03009KT 7SM -RA BKN012 BKN028 BKN050 09/08\ A2959 RMK AO2 RAB21 SLP021 P0003\ T00940083= 201704042051 METAR KJFK 042051Z 04009KT 10SM BKN008 OVC016 11/09 A2961\ RMK AO2 RAE04 SLP026 P0001 60004\ T01060094 53005= 201704042151 METAR KJFK 042151Z 06009KT 10SM SCT009 OVC015 11/09 A2963\ RMK AO2 SLP032 T01060094= 201704042251 METAR KJFK 042251Z 04008KT 10SM FEW009 OVC012 11/09 A2964\ RMK AO2 SLP038 T01060089= 201704042351 METAR KJFK 042351Z 06009KT 10SM OVC009 10/08 A2965 RMK AO2\ SLP039 60004 T01000083 10117 20094\ 53001= 201704050051 METAR KJFK 050051Z 03006KT 9SM OVC008 09/08 A2971 RMK AO2\ LTG DSNT NE SLP059 T00940083= 201704050151 METAR KJFK 050151Z 09005KT 5SM BR OVC006 09/08 A2973 RMK\ AO2 SLP066 T00890083= 201704050251 METAR KJFK 050251Z 04007KT 2SM -DZ BR OVC004 08/08 A2974\ RMK AO2 SFC VIS 2 1/2 DZB45 SLP071\ P0000 60000 T00830083 51032= 201704050351 METAR KJFK 050351Z 07003KT 1 1/2SM BR OVC005 08/08 A2975\ RMK AO2 SFC VIS 4 DZE26 SLP075 P0000\ T00830078= 201704050451 METAR KJFK 050451Z 10004KT 1 1/2SM BR OVC004 08/08 A2976\ RMK AO2 SFC VIS 2 SLP077 T00780078\ 401220078= 201704050551 METAR KJFK 050551Z 03005KT 1 1/2SM BR OVC003 08/08 A2976\ RMK AO2 SFC VIS 3 SLP077 60000 T00780078\ 10100 20078 51006= 201704050651 METAR KJFK 050651Z 05004KT 3/4SM R04R/P6000FT BR OVC003 08/08\ A2977 RMK AO2 SFC VIS 1 1/2 SLP080\ T00780078= 201704050751 METAR KJFK 050751Z 13004KT 1/2SM R04R/5500VP6000FT BR OVC002\ 08/08 A2979 RMK AO2 SFC VIS 3/4 SLP087\ T00780078= 201704050851 METAR KJFK 050851Z 14006KT 1/2SM R04R/5500FT FG OVC002 07/07\ A2981 RMK AO2 SLP092 T00720072 53015= 201704050951 METAR KJFK 050951Z 14005KT 1/2SM R04R/6000VP6000FT BR OVC002\ 07/07 A2983 RMK AO2 SFC VIS 1 SLP099\ T00670067= 201704051051 METAR KJFK 051051Z 00000KT 1/2SM R04R/4500V5500FT -DZ BR\ VV002 07/07 A2987 RMK AO2 SFC VIS\ 3/4 DZB48 SLP115 P0000 T00720072= 201704051151 METAR KJFK 051151Z 15004KT 1/2SM R04R/3500V4000FT -DZ FG\ VV002 07/07 A2990 RMK AO2 SLP124\ P0000 60000 70005 T00720072 10078\ 20067 53031= 201704051251 METAR KJFK 051251Z 19007KT 1/2SM R04R/P6000FT BR FEW000 OVC003\ 08/08 A2993 RMK AO2 SFC VIS 2 DZE02\ SLP135 BR FEW000 P0000 T00780078= 201704051351 METAR KJFK 051351Z 18006KT 1 1/2SM BR BKN005 BKN014 08/08\ A2994 RMK AO2 SFC VIS 3 SLP139 CIG\ 003V007 T00830083= 201704051451 METAR KJFK 051451Z 22005KT 3SM BR FEW004 BKN008 BKN038 11/09\ A2995 RMK AO2 SFC VIS 6 SLP143 BKN008\ V SCT 60000 T01060089 51019= 201704051551 METAR KJFK 051551Z 19007KT 3SM BR FEW008 BKN032 10/08 A2995\ RMK AO2 SFC VIS 6 SLP142 T01000083= 201704051651 METAR KJFK 051651Z 20008KT 6SM BR FEW011 BKN039 10/08 A2996\ RMK AO2 SLP144 T01000083= 201704051751 METAR KJFK 051751Z 20005KT 7SM FEW013 BKN039 BKN250 12/09\ A2996 RMK AO2 SLP143 60000 T01220089\ 10122 20072 54000= 201704051851 METAR KJFK 051851Z 00000KT 10SM BKN034 BKN250 15/08 A2994\ RMK AO2 SLP137 T01500078= 201704051951 METAR KJFK 051951Z 17007KT 9SM SCT042 SCT250 14/09 A2993\ RMK AO2 SLP134 T01390089= 201704052051 METAR KJFK 052051Z 16007KT 10SM FEW045 BKN250 13/08 A2993\ RMK AO2 SLP135 T01330083 55008= 201704052151 METAR KJFK 052151Z 14009KT 10SM FEW010 FEW045 BKN250 11/08\ A2997 RMK AO2 SLP148 T01060078= 201704052251 METAR KJFK 052251Z 15009KT 3SM BR BKN004 BKN250 07/07 A2999\ RMK AO2 SLP156 T00720067= 201704052351 METAR KJFK 052351Z 14006KT 1 1/2SM BR OVC002 07/07 A2998\ RMK AO2 SFC VIS 2 SLP152 T00670067\ 10156 20067 50017= 201704060051 METAR KJFK 060051Z 13008KT 5SM BR OVC004 07/07 A3000 RMK\ AO2 SLP157 T00720067= 201704060151 METAR KJFK 060151Z 10009KT 10SM SCT006 BKN250 08/07 A3000\ RMK AO2 SLP159 T00830072= 201704060251 METAR KJFK 060251Z 11014KT 10SM SCT006 OVC250 07/06 A2998\ RMK AO2 SLP150 SCT006 V BKN T00670061\ 58002= 201704060351 METAR KJFK 060351Z 12013KT 10SM OVC005 07/06 A3001 RMK AO2\ SLP162 T00670061= 201704060451 METAR KJFK 060451Z 10008KT 10SM OVC006 07/06 A3001 RMK AO2\ SLP160 T00720061 401560067= 201704060551 METAR KJFK 060551Z 10014G20KT 10SM OVC007 07/06 A2997 RMK\ AO2 SLP149 T00720061 10083 20067\ 58002= 201704060651 METAR KJFK 060651Z 10016G22KT 10SM SCT008 OVC090 07/05 A2997\ RMK AO2 SLP147 T00720050= 201704060751 METAR KJFK 060751Z 10018G25KT 10SM BKN012 OVC045 07/04 A2993\ RMK AO2 SLP136 T00670044= 201704060851 METAR KJFK 060851Z 10014G22KT 8SM -RA BKN012 OVC046 06/05\ A2993 RMK AO2 PK WND 10027/0752 RAB23\ SLP135 P0001 60001 T00610050 56014= 201704060951 METAR KJFK 060951Z 08015G21KT 6SM RA BR BKN009 OVC050 06/05\ A2986 RMK AO2 PRESFR SLP112 P0002\ T00560050= 201704061051 METAR KJFK 061051Z 06015KT 9SM -RA BKN009 BKN023 OVC048 06/04\ A2983 RMK AO2 PK WND 07026/1020 SLP102\ P0007 T00560044= 201704061151 METAR KJFK 061151Z 06014KT 4SM -RA BR OVC008 06/04 A2980\ RMK AO2 SLP091 P0003 60013 70013\ T00560044 10072 20056 56044= 201704061251 METAR KJFK 061251Z 08018G26KT 3SM -RA BR BKN008 OVC017 06/05\ A2976 RMK AO2 PK WND 09026/1244 SFC\ VIS 5 SLP078 P0003 T00560050= 201704061351 METAR KJFK 061351Z 09021G29KT 3SM -RA BR OVC008 06/05 A2972\ RMK AO2 PK WND 10034/1327 SFC VIS\ 4 SLP062 CIG 006V010 P0002 T00610050= 201704061451 METAR KJFK 061451Z 08017G28KT 2SM R04R/6000VP6000FT -RA BR\ OVC007 07/06 A2968 RMK AO2 PK WND\ 08030/1419 SLP051 P0001 60006 T00670056\ 56041= 201704061551 METAR KJFK 061551Z 08016G28KT 2SM R04R/6000VP6000FT -RA BR\ OVC006 07/06 A2963 RMK AO2 PK WND\ 09028/1544 PRESFR SLP034 P0003 T00670061= 201704061651 METAR KJFK 061651Z 07015G21KT 1 1/2SM R04R/6000VP6000FT -RA\ BR OVC004 07/07 A2956 RMK AO2 PK\ WND 08026/1612 SFC VIS 2 PRESFR SLP008\ P0001 T00720072= 201704061751 METAR KJFK 061751Z 07015G23KT 1/2SM R04R/4500VP6000FT BR\ OVC002 08/08 A2949 RMK AO2 PK WND\ 07026/1736 SFC VIS 1 1/2 RAE1656\ PRESFR SLP985 P0000 60010 T00830083\ 10083 20056 58066= 201704061851 METAR KJFK 061851Z 05013KT 1/4SM R04R/P6000FT -TSRA BR OVC002\ 10/09 A2939 RMK AO2 SFC VIS 1 LTG\ DSNT E AND W AND NW RAB39 TSB37 PRESFR\ SLP951 P0000 T01000094= 201704061951 METAR KJFK 061951Z 06014KT 1/2SM R04R/P6000FT TSRA BR BKN003\ OVC010CB 11/11 A2927 RMK AO2 SFC\ VIS 1 1/2 LTG DSNT SW-N RAE1856B32\ TSE1852B35 PRESFR SLP911 OCNL LTGICCG\ ALQDS TS N MOV N P0005 T01060106= 201704062051 METAR KJFK 062051Z VRB05G21KT 1/2SM R04R/2600V6000FT +TSRA\ FG BKN008 OVC012CB 11/11 A2922 RMK\ AO2 LTG DSNT ALQDS TSE20B22 SLP896\ FRQ LTGICCG OHD TS OHD MOV NE P0043\ 60048 T01110106 56089= 201704062151 METAR KJFK 062151Z 18005KT 7SM FEW009 FEW041 BKN060 BKN150\ 11/11 A2924 RMK AO2 RAE36 SLP901\ P0025 T01110111= 201704062251 METAR KJFK 062251Z 16007KT 7SM FEW009 FEW021 FEW075 11/10\ A2922 RMK AO2 RAB2152E02 SLP894 P0000\ T01110100= 201704062351 METAR KJFK 062351Z 18016KT 1/4SM R04R/5000VP6000FT FG BKN002\ 10/10 A2924 RMK AO2 SFC VIS 1/2 SLP900\ 60073 T01000100 10122 20083 52004= 201704070051 METAR KJFK 070051Z 23013KT 10SM FEW028 FEW044 10/09 A2927\ RMK AO2 SLP910 T01000089= 201704070151 METAR KJFK 070151Z 22014KT 10SM FEW030 FEW050 11/07 A2930\ RMK AO2 SLP922 T01060072= 201704070251 METAR KJFK 070251Z 22013KT 10SM FEW030 FEW050 10/07 A2930\ RMK AO2 SLP922 T01000072 51022= 201704070351 METAR KJFK 070351Z 24011KT 10SM FEW030 10/07 A2931 RMK AO2\ SLP923 T01000072= 201704070451 METAR KJFK 070451Z 23016KT 10SM FEW040 10/07 A2931 RMK AO2\ SLP926 T01000072 401220056= 201704070551 METAR KJFK 070551Z 22012KT 10SM FEW025 BKN075 10/08 A2932\ RMK AO2 SLP929 T01000078 10111 20094\ 53008= 201704070651 METAR KJFK 070651Z 24016KT 10SM FEW025 FEW085 09/03 A2933\ RMK AO2 SLP931 T00940033= 201704070751 METAR KJFK 070751Z 25013KT 10SM FEW025 BKN070 09/04 A2933\ RMK AO2 SLP931 T00890044= 201704070851 METAR KJFK 070851Z 24016KT 10SM SCT080 08/03 A2933 RMK AO2\ SLP930 T00830033 50001= 201704070951 METAR KJFK 070951Z 23014KT 10SM SCT080 08/02 A2933 RMK AO2\ SLP930 T00780022= 201704071051 METAR KJFK 071051Z 22014KT 10SM BKN055 07/03 A2934 RMK AO2\ SLP935 T00720028= 201704071151 METAR KJFK 071151Z 24019KT 10SM BKN055 09/03 A2935 RMK AO2\ SLP939 70083 T00890028 10106 20072\ 53009= 201704071251 METAR KJFK 071251Z 23020G25KT 10SM SCT048 BKN060 08/02 A2937\ RMK AO2 PK WND 25026/1200 SLP944\ T00830022= 201704071351 METAR KJFK 071351Z 24019KT 10SM BKN048 08/02 A2938 RMK AO2\ SLP947 T00830017= 201704071451 METAR KJFK 071451Z 25018KT 10SM SCT030 BKN049 OVC060 08/03\ A2939 RMK AO2 PK WND 23026/1402 SLP951\ T00830028 51012= 201704071551 METAR KJFK 071551Z 24015KT 10SM SCT027 BKN034 OVC060 08/03\ A2939 RMK AO2 SLP953 T00780028= 201704071651 METAR KJFK 071651Z 25019KT 10SM -RA SCT027 BKN030 OVC040\ 08/02 A2939 RMK AO2 RAB50 SLP953\ P0000 T00780022= 201704071751 METAR KJFK 071751Z 27016KT 10SM FEW027 BKN049 OVC060 08/01\ A2940 RMK AO2 PK WND 26026/1657 RAE40\ SLP956 P0000 60000 T00830011 10094\ 20072 53005= 201704071851 METAR KJFK 071851Z 25017KT 10SM FEW030 BKN037 BKN060 09/02\ A2940 RMK AO2 SLP957 T00890022= 201704071951 METAR KJFK 071951Z 27022G27KT 10SM FEW038 BKN055 09/01 A2941\ RMK AO2 PK WND 27027/1949 RAB08E34\ SLP958 P0000 T00940011= 201704072051 METAR KJFK 072051Z 27019G26KT 10SM FEW035 BKN060 OVC085 09/01\ A2943 RMK AO2 PK WND 27029/2011 SLP966\ VIRGA S 60000 T00940011 53010= 201704072151 METAR KJFK 072151Z 28019G27KT 10SM FEW032 SCT047 BKN070 09/01\ A2947 RMK AO2 PK WND 27029/2053 SLP980\ T00940011= 201704072251 METAR KJFK 072251Z 30022G31KT 10SM FEW038 BKN060 BKN085 09/M02\ A2951 RMK AO2 PK WND 30031/2251 SLP993\ VIRGA NW-N T00891017= 201704072351 METAR KJFK 072351Z 29016G30KT 10SM -RA FEW041 SCT049 BKN085\ 07/00 A2956 RMK AO2 PK WND 29030/2339\ RAB46 SLP008 P0000 60000 T00670000\ 10100 20067 53042= 201704080051 METAR KJFK 080051Z 30020G29KT 10SM BKN047 BKN100 07/M02 A2960\ RMK AO2 PK WND 30029/0045 RAE2358\ SLP024 P0000 T00671022= 201704080151 METAR KJFK 080151Z 29023G30KT 10SM BKN046 BKN095 06/M03 A2965\ RMK AO2 PK WND 29033/0058 SLP038\ T00611028= 201704080251 METAR KJFK 080251Z 29023G30KT 10SM BKN045 BKN080 06/M03 A2966\ RMK AO2 PK WND 29030/0250 SLP044\ 60000 T00561033 51036= 201704080351 METAR KJFK 080351Z 29015G26KT 10SM BKN044 BKN120 06/M03 A2968\ RMK AO2 PK WND 29034/0253 SLP048\ T00561033= 201704080451 METAR KJFK 080451Z 28019G24KT 10SM BKN043 BKN070 06/M03 A2970\ RMK AO2 PK WND 29031/0410 SLP055\ T00561028 401110050= 201704080551 METAR KJFK 080551Z 28017G33KT 10SM BKN034 BKN055 05/M03 A2970\ RMK AO2 PK WND 27033/0547 SLP056\ 60000 T00501028 10072 20050 51013= 201704080651 METAR KJFK 080651Z 29017G27KT 10SM BKN035 BKN055 05/M03 A2970\ RMK AO2 PK WND 30028/0638 SLP058\ T00501028= 201704080751 METAR KJFK 080751Z 28017G24KT 10SM SCT035 BKN045 05/M03 A2972\ RMK AO2 PK WND 27027/0718 SLP064\ T00501033= 201704080851 METAR KJFK 080851Z 29017G24KT 10SM BKN043 06/M04 A2973 RMK\ AO2 PK WND 30026/0825 SLP066 T00561039\ 53010= 201704080951 METAR KJFK 080951Z 30014G23KT 10SM BKN050 06/M05 A2974 RMK\ AO2 PK WND 32029/0937 SLP071 T00561050= 201704081051 METAR KJFK 081051Z 28012G26KT 10SM BKN050 BKN250 05/M06 A2977\ RMK AO2 PK WND 28026/1048 SLP082\ T00501061= 201704081151 METAR KJFK 081151Z 29014G25KT 10SM BKN050 BKN250 06/M05 A2980\ RMK AO2 SLP091 T00611050 10061 20050\ 53025= 201704081251 METAR KJFK 081251Z 30016G22KT 10SM SCT050 BKN250 06/M05 A2981\ RMK AO2 SLP093 T00611050= 201704081351 METAR KJFK 081351Z 30016G24KT 10SM R04R/4500VP6000FT SCT048\ BKN250 07/M05 A2982 RMK AO2 SLP099\ T00721050= 201704081451 METAR KJFK 081451Z 32021G32KT 10SM R04R/6000VP6000FT SCT048\ SCT250 09/M06 A2984 RMK AO2 PK WND\ 31032/1449 SLP103 T00891056 53012= 201704081551 METAR KJFK 081551Z 30018G23KT 10SM SCT060 11/M04 A2984 RMK\ AO2 PK WND 33027/1507 SLP103 T01061044= 201704081651 METAR KJFK 081651Z 31017G26KT 10SM R04R/6000VP6000FT SCT060\ 11/M05 A2983 RMK AO2 PK WND 31026/1650\ SLP100 T01111050= 201704081751 METAR KJFK 081751Z 30013G25KT 10SM FEW060 12/M04 A2983 RMK\ AO2 PK WND 31029/1655 SLP099 T01221044\ 10122 20056 58003= 201704081851 METAR KJFK 081851Z 29020G29KT 10SM FEW050 FEW250 13/M05 A2982\ RMK AO2 PK WND 29029/1850 SLP096\ T01331050= 201704081951 METAR KJFK 081951Z 32017G27KT 10SM FEW050 SCT250 14/M05 A2981\ RMK AO2 PK WND 32029/1935 SLP095\ T01441050= 201704082051 METAR KJFK 082051Z 30014G22KT 10SM FEW060 SCT250 14/M05 A2982\ RMK AO2 PK WND 28027/2016 SLP097\ T01441050 55002= 201704082151 METAR KJFK 082151Z 29015G27KT 10SM FEW060 SCT250 14/M06 A2983\ RMK AO2 PK WND 30027/2142 SLP102\ T01441056= 201704082251 METAR KJFK 082251Z 31015KT 10SM FEW250 13/M06 A2986 RMK AO2\ PK WND 31028/2227 SLP112 T01331061= 201704082351 METAR KJFK 082351Z 34012G22KT 10SM FEW250 12/M06 A2990 RMK\ AO2 SLP124 T01221061 10144 20122\ 53027= 201704090051 METAR KJFK 090051Z 32011KT 10SM FEW250 11/M07 A2995 RMK AO2\ SLP140 T01111067= 201704090151 METAR KJFK 090151Z 35008KT 10SM FEW250 11/M06 A2998 RMK AO2\ SLP150 T01061061= 201704090251 METAR KJFK 090251Z 32010KT 10SM FEW250 10/M06 A3000 RMK AO2\ SLP160 T01001061 51036= 201704090351 METAR KJFK 090351Z 33013KT 10SM CLR 09/M06 A3003 RMK AO2\ SLP168 T00891061= 201704090451 METAR KJFK 090451Z 34008KT 10SM CLR 08/M06 A3005 RMK AO2\ SLP175 T00831061 401440050= 201704090551 METAR KJFK 090551Z 32004KT 10SM CLR 08/M06 A3006 RMK AO2\ SLP180 T00781061 10122 20078 51020= 201704090651 METAR KJFK 090651Z 30009KT 10SM CLR 08/M06 A3007 RMK AO2\ SLP183 T00831061= 201704090751 METAR KJFK 090751Z 30005KT 10SM CLR 07/M06 A3008 RMK AO2\ SLP185 T00721061= 201704090851 METAR KJFK 090851Z 00000KT 10SM CLR 07/M06 A3010 RMK AO2\ SLP192 T00671061 53012= 201704090951 METAR KJFK 090951Z 00000KT 10SM FEW250 06/M03 A3011 RMK AO2\ SLP197 T00611028= 201704091051 METAR KJFK 091051Z 00000KT 10SM FEW250 05/M02 A3015 RMK AO2\ SLP207 T00501022= 201704091151 METAR KJFK 091151Z VRB03KT 10SM FEW250 09/M01 A3016 RMK AO2\ SLP213 T00941011 10094 20044 53022= 201704091251 METAR KJFK 091251Z 23006KT 10SM SCT250 10/M03 A3017 RMK AO2\ SLP214 T01001028= 201704091351 METAR KJFK 091351Z 20006KT 10SM FEW150 SCT250 11/02 A3018\ RMK AO2 SLP220 T01110017= 201704091451 METAR KJFK 091451Z 23011KT 10SM FEW150 SCT250 14/M02 A3019\ RMK AO2 SLP221 T01391017 53007= 201704091551 METAR KJFK 091551Z 23015KT 10SM FEW150 SCT250 14/M01 A3018\ RMK AO2 SLP221 T01441011= 201704091651 METAR KJFK 091651Z 21011KT 10SM FEW250 16/M02 A3018 RMK AO2\ SLP219 T01561017= 201704091751 METAR KJFK 091751Z 18011KT 10SM FEW250 15/M01 A3017 RMK AO2\ SLP217 T01501011 10161 20094 58004= 201704091851 METAR KJFK 091851Z 18014KT 10SM BKN250 14/01 A3016 RMK AO2\ SLP214 T01390011= 201704091951 METAR KJFK 091951Z 18016KT 10SM BKN250 14/01 A3016 RMK AO2\ SLP213 T01390011= 201704092051 METAR KJFK 092051Z 18017KT 10SM BKN250 13/01 A3014 RMK AO2\ SLP207 T01280006 58010= 201704092151 METAR KJFK 092151Z 17017KT 10SM BKN250 12/02 A3014 RMK AO2\ PK WND 17026/2132 SLP207 T01170017= 201704092251 METAR KJFK 092251Z 18018G26KT 10SM BKN250 10/02 A3014 RMK\ AO2 PK WND 18026/2248 SLP206 T01000022= 201704092351 METAR KJFK 092351Z 18018KT 10SM BKN250 09/03 A3014 RMK AO2\ PK WND 18027/2258 SLP206 T00940033\ 10150 20094 57001= 201704100051 METAR KJFK 100051Z 19014KT 10SM BKN250 09/04 A3017 RMK AO2\ SLP217 T00940044= 201704100151 METAR KJFK 100151Z 20006KT 10SM BKN250 09/05 A3018 RMK AO2\ SLP220 T00940050= 201704100251 METAR KJFK 100251Z 20005KT 10SM BKN250 11/02 A3019 RMK AO2\ SLP222 T01060022 51015= 201704100351 METAR KJFK 100351Z 18006KT 10SM BKN250 09/03 A3019 RMK AO2\ SLP221 T00890033= 201704100451 METAR KJFK 100451Z 15004KT 10SM FEW120 BKN250 08/04 A3020\ RMK AO2 SLP225 T00830039 401610044= 201704100551 METAR KJFK 100551Z 19007KT 10SM SCT250 08/04 A3020 RMK AO2\ SLP226 T00780044 10106 20072 53004= 201704100651 METAR KJFK 100651Z 19008KT 10SM SCT250 07/05 A3020 RMK AO2\ SLP225 T00720050= 201704100751 METAR KJFK 100751Z 18006KT 10SM SCT250 07/05 A3020 RMK AO2\ SLP227 T00670050= 201704100851 METAR KJFK 100851Z 17006KT 10SM BKN250 07/05 A3021 RMK AO2\ SLP230 T00670050 53004= 201704100951 METAR KJFK 100951Z 16004KT 10SM BKN250 07/05 A3022 RMK AO2\ SLP233 T00670050= 201704101051 METAR KJFK 101051Z 17005KT 10SM FEW170 BKN260 08/05 A3023\ RMK AO2 SLP237 T00780050= 201704101151 METAR KJFK 101151Z 17005KT 10SM BKN260 10/06 A3023 RMK AO2\ SLP237 T01000056 10100 20061 51008= 201704101251 METAR KJFK 101251Z 19006KT 10SM BKN260 11/06 A3023 RMK AO2\ SLP236 T01110056= 201704101351 METAR KJFK 101351Z 18006KT 10SM SCT250 12/04 A3023 RMK AO2\ SLP237 T01220044= 201704101451 METAR KJFK 101451Z 16006KT 10SM BKN250 14/05 A3022 RMK AO2\ SLP232 T01440050 58005= 201704101551 METAR KJFK 101551Z 14007KT 10SM BKN250 14/07 A3021 RMK AO2\ SLP231 T01440067= 201704101651 METAR KJFK 101651Z 18008KT 10SM FEW150 BKN250 16/08 A3020\ RMK AO2 SLP225 T01560078= 201704101751 METAR KJFK 101751Z 17008KT 10SM FEW150 BKN250 16/09 A3017\ RMK AO2 SLP216 T01610089 10161 20100\ 58017= 201704101851 METAR KJFK 101851Z 17009KT 10SM BKN250 16/08 A3015 RMK AO2\ SLP208 T01560083= 201704101951 METAR KJFK 101951Z 17017KT 10SM BKN250 16/09 A3013 RMK AO2\ SLP201 T01610089= 201704102051 METAR KJFK 102051Z 19020G28KT 10SM BKN250 16/08 A3011 RMK\ AO2 PK WND 18028/2051 SLP197 T01560083\ 56019= 201704102151 METAR KJFK 102151Z 19023G28KT 10SM BKN250 16/08 A3010 RMK\ AO2 PK WND 20028/2149 SLP192 T01560083= 201704102251 METAR KJFK 102251Z 19017KT 10SM BKN250 14/08 A3010 RMK AO2\ PK WND 19029/2156 SLP192 T01390083= 201704102351 METAR KJFK 102351Z 19018KT 10SM BKN250 13/08 A3011 RMK AO2\ SLP194 T01330083 10167 20133 55002= 201704110051 METAR KJFK 110051Z 19017KT 10SM BKN250 13/08 A3013 RMK AO2\ SLP203 T01280083= 201704110151 METAR KJFK 110151Z 19012KT 10SM SCT170 BKN250 12/08 A3016\ RMK AO2 SLP212 T01220083= 201704110251 METAR KJFK 110251Z 18009KT 10SM FEW180 BKN250 12/08 A3016\ RMK AO2 SLP212 T01170083 51018= 201704110351 METAR KJFK 110351Z 16005KT 10SM BKN250 11/08 A3016 RMK AO2\ SLP211 T01060083= 201704110451 METAR KJFK 110451Z 18006KT 10SM BKN250 11/08 A3015 RMK AO2\ SLP210 T01060083 401670061= 201704110551 METAR KJFK 110551Z 17007KT 10SM BKN250 10/08 A3014 RMK AO2\ SLP206 T01000083 10128 20100 58005= 201704110651 METAR KJFK 110651Z 17006KT 10SM SCT250 10/08 A3013 RMK AO2\ SLP202 T01000083= 201704110751 METAR KJFK 110751Z 19005KT 10SM SCT250 09/08 A3012 RMK AO2\ SLP200 T00890078= 201704110851 METAR KJFK 110851Z 16003KT 10SM BKN250 09/08 A3012 RMK AO2\ SLP200 T00890078 56006= 201704110951 METAR KJFK 110951Z 18003KT 10SM SCT250 09/08 A3014 RMK AO2\ SLP207 T00890078= 201704111051 METAR KJFK 111051Z 17005KT 10SM SCT250 09/08 A3015 RMK AO2\ SLP207 T00890083= 201704111151 METAR KJFK 111151Z 17006KT 8SM BKN250 12/09 A3017 RMK AO2\ SLP214 T01170094 10117 20083 51014= 201704111251 METAR KJFK 111251Z 17005KT 10SM BKN250 13/10 A3017 RMK AO2\ SLP215 T01330100= 201704111351 METAR KJFK 111351Z 17007KT 10SM BKN250 15/11 A3017 RMK AO2\ SLP216 T01500106= 201704111451 METAR KJFK 111451Z 16007KT 10SM BKN250 16/11 A3017 RMK AO2\ SLP215 T01610106 50001= 201704111551 METAR KJFK 111551Z 17007KT 10SM BKN250 17/11 A3016 RMK AO2\ SLP211 T01720111= 201704111651 METAR KJFK 111651Z 17008KT 10SM BKN250 18/12 A3015 RMK AO2\ SLP209 T01830117= 201704111751 METAR KJFK 111751Z 18010KT 10SM BKN250 18/12 A3013 RMK AO2\ SLP204 T01830117 10189 20117 58011= 201704111851 METAR KJFK 111851Z 17009KT 10SM BKN250 18/12 A3012 RMK AO2\ SLP198 T01780117= 201704111951 METAR KJFK 111951Z 19005KT 10SM BKN250 17/11 A3011 RMK AO2\ SLP197 T01670111= 201704112051 METAR KJFK 112051Z 16008KT 10SM BKN250 17/12 A3010 RMK AO2\ SLP191 T01720117 58013= 201704112151 METAR KJFK 112151Z 17011KT 10SM BKN250 17/11 A3009 RMK AO2\ SLP190 T01670111= 201704112251 METAR KJFK 112251Z VRB03KT 10SM FEW200 BKN250 14/11 A3009\ RMK AO2 SLP187 T01440111= 201704112351 METAR KJFK 112351Z 19004KT 10SM SCT220 BKN260 13/11 A3008\ RMK AO2 SLP187 T01330106 10183 20133\ 57004= 201704120051 METAR KJFK 120051Z 18005KT 10SM SCT220 BKN260 12/10 A3010\ RMK AO2 SLP193 T01220100= 201704120151 METAR KJFK 120151Z 18009KT 10SM FEW220 BKN260 12/10 A3011\ RMK AO2 SLP194 T01170100= 201704120251 METAR KJFK 120251Z 16004KT 10SM SCT250 11/10 A3011 RMK AO2\ SLP195 T01110100 51008= 201704120351 METAR KJFK 120351Z 00000KT 10SM FEW250 11/10 A3013 RMK AO2\ SLP201 T01110100= 201704120451 METAR KJFK 120451Z 12005KT 10SM SCT250 11/10 A3012 RMK AO2\ SLP199 T01110100 401890083= 201704120551 METAR KJFK 120551Z 00000KT 10SM SCT250 12/10 A3011 RMK AO2\ SLP195 T01170100 10133 20106 50000= 201704120651 METAR KJFK 120651Z 02004KT 10SM BKN250 12/10 A3010 RMK AO2\ SLP191 T01170100= 201704120751 METAR KJFK 120751Z 11004KT 10SM SCT240 11/10 A3009 RMK AO2\ SLP190 T01110100= 201704120851 METAR KJFK 120851Z 07003KT 10SM SCT240 11/10 A3009 RMK AO2\ SLP190 T01110100 56005= 201704120951 METAR KJFK 120951Z 00000KT 10SM BKN260 11/10 A3011 RMK AO2\ SLP197 T01110100= 201704121051 METAR KJFK 121051Z 06003KT 8SM FEW140 BKN260 12/10 A3012\ RMK AO2 SLP197 T01170100= 201704121151 METAR KJFK 121151Z 00000KT 9SM FEW095 FEW140 BKN260 13/11\ A3013 RMK AO2 SLP202 T01330111 10133\ 20111 51012= 201704121251 METAR KJFK 121251Z 21003KT 8SM FEW060 BKN260 15/11 A3014\ RMK AO2 SLP204 T01500111= 201704121351 METAR KJFK 121351Z 25005KT 9SM SCT060 SCT090 OVC260 18/12\ A3015 RMK AO2 SLP208 T01780117= 201704121451 METAR KJFK 121451Z 25005KT 9SM SCT060 BKN090 OVC260 19/12\ A3016 RMK AO2 SLP213 T01940122 53012= 201704121551 METAR KJFK 121551Z 32012G22KT 10SM FEW042 BKN060 BKN095 OVC260\ 22/12 A3018 RMK AO2 SLP218 APRNT\ FROPA VCSH W-NW T02220122= 201704121651 METAR KJFK 121651Z 34008KT 10SM FEW040 BKN060 OVC110 18/15\ A3019 RMK AO2 RAB14E42 SLP222 VCSH\ NE AND SW-NW P0005 T01830150= 201704121751 METAR KJFK 121751Z 36007KT 10SM FEW040 BKN070 BKN250 19/15\ A3015 RMK AO2 RAB21E43 SLP208 VCSH\ NE P0000 60005 T01890150 10228 20133\ 58005= 201704121851 METAR KJFK 121851Z 31007KT 10SM FEW040 SCT075 BKN250 22/13\ A3013 RMK AO2 SLP203 T02220133= 201704121951 METAR KJFK 121951Z 28012KT 10SM FEW040 FEW070 BKN250 22/12\ A3013 RMK AO2 SLP202 T02220117= 201704122051 METAR KJFK 122051Z 20009KT 10SM FEW045 FEW070 BKN250 22/13\ A3012 RMK AO2 SLP200 T02220128 56007= 201704122151 METAR KJFK 122151Z 20006KT 10SM FEW050 BKN250 22/12 A3013\ RMK AO2 SLP202 T02220117= 201704122251 METAR KJFK 122251Z 17009KT 10SM FEW050 BKN250 19/12 A3013\ RMK AO2 SLP204 T01940122= 201704122351 METAR KJFK 122351Z 19012KT 9SM FEW050 SCT250 13/12 A3016\ RMK AO2 SLP213 T01330117 10228 20133\ 53012= 201704130051 METAR KJFK 130051Z 21007KT 10SM FEW250 14/11 A3021 RMK AO2\ SLP229 T01390111= 201704130151 METAR KJFK 130151Z 00000KT 10SM CLR 13/11 A3022 RMK AO2 SLP231\ T01330106= 201704130251 METAR KJFK 130251Z 03005KT 10SM FEW050 FEW250 14/11 A3022\ RMK AO2 SLP234 T01390111 51021= 201704130351 METAR KJFK 130351Z 33009KT 10SM CLR 14/11 A3024 RMK AO2 SLP240\ T01390106= 201704130451 METAR KJFK 130451Z 34013KT 10SM CLR 15/09 A3027 RMK AO2 SLP249\ T01500089 402280111= 201704130551 METAR KJFK 130551Z 36012KT 10SM FEW250 13/06 A3028 RMK AO2\ SLP252 T01330061 10161 20128 51018= 201704130651 METAR KJFK 130651Z 35007KT 10SM FEW250 12/06 A3029 RMK AO2\ SLP257 T01170056= 201704130751 METAR KJFK 130751Z 33009KT 10SM FEW250 11/03 A3030 RMK AO2\ SLP260 T01110028= 201704130851 METAR KJFK 130851Z 32012KT 10SM FEW250 10/01 A3032 RMK AO2\ SLP266 T01000011 53014= 201704130951 METAR KJFK 130951Z 32016KT 10SM SCT250 09/01 A3032 RMK AO2\ SLP267 T00940006= 201704131051 METAR KJFK 131051Z 33013KT 10SM SCT250 10/01 A3034 RMK AO2\ SLP274 T01000011= 201704131151 METAR KJFK 131151Z 33019G24KT 10SM BKN250 11/01 A3035 RMK\ AO2 SLP278 70005 T01060011 10133\ 20094 53013= 201704131251 METAR KJFK 131251Z 34015KT 10SM BKN280 11/01 A3036 RMK AO2\ SLP279 T01060006= 201704131351 METAR KJFK 131351Z 33019KT 10SM SCT230 BKN280 12/01 A3037\ RMK AO2 SLP284 T01170006= 201704131451 METAR KJFK 131451Z 33013KT 10SM SCT180 BKN260 12/00 A3036\ RMK AO2 PK WND 32026/1409 SLP282\ T01220000 50003= 201704131551 METAR KJFK 131551Z 34012G21KT 10SM FEW180 BKN260 14/00 A3036\ RMK AO2 SLP279 T01390000= 201704131651 METAR KJFK 131651Z 33012G19KT 10SM SCT250 15/00 A3034 RMK\ AO2 SLP273 T01500000= 201704131751 METAR KJFK 131751Z 33013KT 10SM SCT250 17/00 A3033 RMK AO2\ SLP271 T01670000 10167 20100 56010= 201704131851 METAR KJFK 131851Z 34012G19KT 10SM SCT250 17/00 A3032 RMK\ AO2 SLP267 T01720000= 201704131951 METAR KJFK 131951Z 10SM BKN250 17/00 A3030 RMK AO2 SLP260\ T01720000= 201704132051 METAR KJFK 132051Z 34011KT 10SM BKN250 18/00 A3030 RMK AO2\ SLP259 T01830000 56012= 201704132151 METAR KJFK 132151Z 04010KT 10SM FEW014 SCT210 BKN250 17/M01\ A3030 RMK AO2 SLP260 T01721006= 201704132251 METAR KJFK 132251Z 20007KT 10SM FEW150 BKN210 BKN250 15/03\ A3031 RMK AO2 SLP263 T01500028= 201704132351 METAR KJFK 132351Z 16004KT 10SM BKN170 OVC250 13/04 A3033\ RMK AO2 SLP269 T01280044 10189 20128\ 53010= 201704140051 METAR KJFK 140051Z 33012KT 10SM SCT110 BKN150 OVC250 16/M02\ A3034 RMK AO2 SLP274 T01611017= 201704140151 METAR KJFK 140151Z 01007KT 10SM FEW110 SCT180 BKN250 14/M02\ A3035 RMK AO2 SLP275 T01441017= 201704140251 METAR KJFK 140251Z 01008KT 10SM FEW110 SCT170 BKN260 14/M02\ A3036 RMK AO2 SLP281 T01391022 53012= 201704140351 METAR KJFK 140351Z 01005KT 10SM SCT250 12/M01 A3037 RMK AO2\ SLP284 T01221006= 201704140451 METAR KJFK 140451Z 05003KT 10SM FEW250 11/00 A3036 RMK AO2\ SLP282 T01110000 401890094= 201704140551 METAR KJFK 140551Z 00000KT 10SM FEW250 10/01 A3036 RMK AO2\ SLP281 T01000011 10161 20100 50001= 201704140651 METAR KJFK 140651Z 35003KT 10SM FEW250 11/00 A3037 RMK AO2\ SLP283 T01060000= 201704140751 METAR KJFK 140751Z 36005KT 10SM FEW250 09/01 A3037 RMK AO2\ SLP284 T00890006= 201704140851 METAR KJFK 140851Z 36007KT 10SM FEW250 08/M01 A3038 RMK AO2\ SLP286 T00831011 53005= 201704140951 METAR KJFK 140951Z 36008KT 10SM BKN140 BKN250 09/M01 A3038\ RMK AO2 SLP289 T00941011= 201704141051 METAR KJFK 141051Z 36006KT 10SM FEW110 BKN140 BKN250 09/M01\ A3040 RMK AO2 SLP292 VIRGA N AND\ W-NW T00941011= 201704141151 METAR KJFK 141151Z 02008KT 10SM FEW110 BKN140 11/M02 A3041\ RMK AO2 SLP296 T01061017 10106 20083\ 53010= 201704141251 METAR KJFK 141251Z 04005KT 10SM BKN100 BKN140 BKN250 12/M01\ A3041 RMK AO2 SLP297 T01171011= 201704141351 METAR KJFK 141351Z 03003KT 10SM BKN090 BKN140 BKN250 13/M01\ A3042 RMK AO2 SLP302 T01281006= 201704141451 METAR KJFK 141451Z 00000KT 10SM BKN090 BKN140 14/M01 A3043\ RMK AO2 SLP302 T01441006 51007= 201704141551 METAR KJFK 141551Z 20005KT 10SM BKN090 BKN140 BKN250 14/01\ A3042 RMK AO2 SLP299 T01440006= 201704141651 METAR KJFK 141651Z 17007KT 150V210 10SM SCT095 SCT140 15/01\ A3041 RMK AO2 SLP295 T01500011= 201704141751 METAR KJFK 141751Z 17009KT 10SM FEW095 SCT110 SCT250 16/01\ A3040 RMK AO2 SLP292 T01560011 10156\ 20106 56010= 201704141851 METAR KJFK 141851Z 18010KT 10SM FEW050 FEW095 FEW110 BKN250\ 15/02 A3038 RMK AO2 SLP288 T01500017= 201704141951 METAR KJFK 141951Z 18009KT 10SM FEW050 FEW095 SCT250 14/02\ A3037 RMK AO2 SLP283 T01440017= 201704142051 METAR KJFK 142051Z 17010KT 10SM FEW050 FEW250 14/03 A3036\ RMK AO2 SLP280 T01390028 56012= 201704142151 METAR KJFK 142151Z 17010KT 10SM FEW050 FEW250 14/02 A3036\ RMK AO2 SLP280 T01390017= 201704142251 METAR KJFK 142251Z 18011KT 10SM FEW250 12/04 A3037 RMK AO2\ SLP282 T01170044= 201704142351 METAR KJFK 142351Z 18009KT 10SM FEW250 11/04 A3037 RMK AO2\ SLP283 T01060044 10156 20106 53003= 201704150051 METAR KJFK 150051Z 20010KT 10SM FEW250 10/04 A3039 RMK AO2\ SLP292 T01000044= 201704150151 METAR KJFK 150151Z 20008KT 10SM FEW250 10/06 A3041 RMK AO2\ SLP295 T01000061= 201704150251 METAR KJFK 150251Z 20007KT 10SM FEW250 09/06 A3041 RMK AO2\ SLP297 T00940061 51014= 201704150351 METAR KJFK 150351Z 18004KT 10SM SCT250 09/07 A3041 RMK AO2\ SLP298 T00890067= 201704150451 METAR KJFK 150451Z 17003KT 10SM SCT250 08/07 A3042 RMK AO2\ SLP299 T00830067 401560083= 201704150551 METAR KJFK 150551Z 21004KT 10SM FEW250 08/06 A3041 RMK AO2\ SLP297 T00780061 10106 20078 58000= 201704150651 METAR KJFK 150651Z 22005KT 10SM FEW250 08/06 A3041 RMK AO2\ SLP297 T00780056= 201704150751 METAR KJFK 150751Z 20003KT 10SM FEW250 08/06 A3041 RMK AO2\ SLP296 T00830056= 201704150851 METAR KJFK 150851Z 00000KT 10SM FEW250 07/04 A3040 RMK AO2\ SLP293 T00670044 58004= 201704150951 METAR KJFK 150951Z 14004KT 10SM FEW250 07/04 A3040 RMK AO2\ SLP292 T00670044= 201704151051 METAR KJFK 151051Z 18005KT 10SM FEW250 07/06 A3040 RMK AO2\ SLP293 T00720056= 201704151151 METAR KJFK 151151Z 18004KT 10SM FEW090 FEW250 10/06 A3041\ RMK AO2 SLP298 T01000061 10100 20067\ 53004= 201704151251 METAR KJFK 151251Z 15005KT 10SM SCT085 SCT250 11/07 A3041\ RMK AO2 SLP298 T01110067= 201704151351 METAR KJFK 151351Z 16006KT 10SM BKN080 BKN250 12/08 A3041\ RMK AO2 SLP296 T01220078= 201704151451 METAR KJFK 151451Z 18010KT 10SM BKN080 BKN250 13/06 A3039\ RMK AO2 SLP291 T01330061 58006= 201704151551 METAR KJFK 151551Z 16011G19KT 10SM BKN065 BKN085 OVC250 14/06\ A3037 RMK AO2 SLP282 T01390061= 201704151651 METAR KJFK 151651Z 17014KT 10SM OVC060 12/06 A3035 RMK AO2\ SLP276 T01220061= 201704151751 METAR KJFK 151751Z 17016KT 10SM OVC055 12/06 A3032 RMK AO2\ SLP265 T01220061 10139 20100 58026= 201704151851 METAR KJFK 151851Z 17016KT 10SM BKN055 BKN065 OVC080 14/07\ A3029 RMK AO2 SLP255 T01390067= 201704151951 METAR KJFK 151951Z AUTO 17017KT 10SM BKN048 OVC060 13/08\ A3025 RMK AO2 SLP242 T01280078= 201704152051 METAR KJFK 152051Z 17016G23KT 10SM BKN034 BKN042 OVC055 13/08\ A3023 RMK AO2 SLP235 T01280083 56030= 201704152151 METAR KJFK 152151Z 18014KT 10SM OVC023 13/09 A3021 RMK AO2\ SLP229 T01280094= 201704152251 METAR KJFK 152251Z 17012KT 10SM OVC022 12/10 A3020 RMK AO2\ SLP226 T01220100= 201704152351 METAR KJFK 152351Z 18015KT 10SM SCT022 OVC042 13/11 A3019\ RMK AO2 SLP221 T01280106 10144 20122\ 56014= 201704160051 METAR KJFK 160051Z 18014KT 10SM BKN038 BKN110 OVC170 13/11\ A3017 RMK AO2 SLP216 T01280111= 201704160151 METAR KJFK 160151Z 19014KT 10SM FEW038 SCT130 OVC170 12/11\ A3016 RMK AO2 SLP212 T01220111= 201704160251 METAR KJFK 160251Z 18011KT 10SM FEW033 BKN120 BKN200 12/11\ A3014 RMK AO2 SLP205 T01220111 58017= 201704160351 METAR KJFK 160351Z 19008KT 7SM -RA SCT033 SCT070 BKN110 BKN170\ 12/11 A3011 RMK AO2 RAB46 SLP195\ P0000 T01170111= 201704160451 METAR KJFK 160451Z 19007KT 8SM FEW033 FEW060 BKN120 BKN150\ 12/11 A3008 RMK AO2 RAE20 SLP186\ P0000 T01170111 401440067= 201704160551 METAR KJFK 160551Z 19008KT 7SM BKN140 11/11 A3006 RMK AO2\ SLP179 60000 T01110111 10128 20111\ 56026= 201704160651 METAR KJFK 160651Z 18004KT 6SM BR SCT140 BKN250 11/11 A3004\ RMK AO2 SLP171 T01110106= 201704160751 METAR KJFK 160751Z 16003KT 6SM BR SCT140 BKN250 11/11 A3002\ RMK AO2 SLP165 T01110111= 201704160851 METAR KJFK 160851Z 22009KT 8SM SCT130 SCT250 13/13 A3001\ RMK AO2 SLP162 T01330128 56017= 201704160951 METAR KJFK 160951Z 22006KT 7SM BKN095 BKN130 BKN250 14/13\ A3001 RMK AO2 SLP161 T01390133= 201704161051 METAR KJFK 161051Z 24007KT 5SM BR FEW100 BKN140 BKN250 13/13\ A3001 RMK AO2 SLP162 T01330133= 201704161151 METAR KJFK 161151Z 22009KT 6SM BR FEW100 BKN150 BKN250 16/14\ A3001 RMK AO2 SLP162 T01560144 10156\ 20106 56001= 201704161251 METAR KJFK 161251Z 23010KT 9SM FEW100 FEW140 SCT250 18/15\ A3000 RMK AO2 SLP158 T01780150= 201704161351 METAR KJFK 161351Z 23012KT 10SM FEW090 SCT140 BKN250 19/15\ A2999 RMK AO2 SLP155 T01940150= 201704161451 METAR KJFK 161451Z 24009KT 10SM SCT095 SCT140 BKN250 21/15\ A2997 RMK AO2 SLP148 T02060150 58014= 201704161551 METAR KJFK 161551Z 23012KT 10SM FEW095 SCT140 BKN250 26/15\ A2995 RMK AO2 SLP141 T02560150= 201704161651 METAR KJFK 161651Z 23015KT 10SM FEW060 FEW140 SCT250 28/14\ A2991 RMK AO2 SLP129 T02780144= 201704161751 METAR KJFK 161751Z 19013KT 10SM FEW070 SCT250 25/14 A2988\ RMK AO2 SLP117 T02500139 10283 20150\ 58031= 201704161851 METAR KJFK 161851Z 20013KT 10SM SCT050 SCT100 BKN250 24/13\ A2986 RMK AO2 SLP110 T02440128= 201704161951 METAR KJFK 161951Z 23016KT 10SM FEW040 SCT080 SCT120 BKN250\ 27/13 A2982 RMK AO2 SLP097 T02670128= 201704162051 METAR KJFK 162051Z 25016KT 10SM -RA FEW050 BKN090 BKN110\ BKN250 25/12 A2984 RMK AO2 RAB49\ PRESRR SLP103 P0000 60000 T02500122\ 55014= 201704162151 METAR KJFK 162151Z 24009KT 10SM SCT080 SCT130 26/16 A2979\ RMK AO2 PK WND 27041/2053 WSHFT 2046\ RAE08 SLP088 VCSH S P0001 T02610156= 201704162251 METAR KJFK 162251Z 23016KT 10SM FEW045 FEW080 SCT140 SCT250\ 24/14 A2978 RMK AO2 SLP085 T02390139= 201704162351 METAR KJFK 162351Z 22013KT 10SM SCT090 SCT250 24/13 A2979\ RMK AO2 SLP089 60001 T02390128 10283\ 20233 55014= 201704170051 METAR KJFK 170051Z 24015KT 10SM SCT120 SCT250 23/13 A2982\ RMK AO2 SLP098 T02330128= 201704170151 METAR KJFK 170151Z 32020G31KT 10SM FEW040 BKN080 BKN090 23/16\ A2987 RMK AO2 PK WND 33031/0133 WSHFT\ 0116 SLP116 T02330156= 201704170251 METAR KJFK 170251Z 28014G22KT 10SM FEW075 OVC110 23/14 A2987\ RMK AO2 PK WND 31030/0205 SLP113\ T02280139 50025= 201704170351 METAR KJFK 170351Z 27015KT 10SM BKN110 22/14 A2986 RMK AO2\ SLP110 T02170139= 201704170451 METAR KJFK 170451Z 27011KT 10SM FEW100 BKN140 21/15 A2987\ RMK AO2 SLP114 T02110150 402830106= 201704170551 METAR KJFK 170551Z 25007KT 10SM BKN120 18/14 A2987 RMK AO2\ SLP114 T01780144 10256 20178 53001= 201704170651 METAR KJFK 170651Z 26007KT 10SM SCT120 19/15 A2986 RMK AO2\ SLP111 T01940150= 201704170751 METAR KJFK 170751Z 27011KT 10SM FEW120 19/16 A2986 RMK AO2\ SLP110 T01940156= 201704170851 METAR KJFK 170851Z 28010KT 10SM CLR 19/16 A2987 RMK AO2 SLP114\ T01940156 55000= 201704170951 METAR KJFK 170951Z 27010KT 10SM FEW120 BKN220 18/16 A2989\ RMK AO2 SLP121 T01830156= 201704171051 METAR KJFK 171051Z 27008KT 10SM FEW120 BKN210 19/16 A2992\ RMK AO2 SLP131 T01890156= 201704171151 METAR KJFK 171151Z 31010KT 10SM FEW085 FEW120 BKN220 21/15\ A2993 RMK AO2 SLP133 70001 T02060150\ 10211 20183 51020= 201704171251 METAR KJFK 171251Z 31010KT 10SM FEW080 BKN130 BKN220 21/12\ A2994 RMK AO2 SLP137 T02060117= 201704171351 METAR KJFK 171351Z 30014KT 10SM FEW055 BKN090 OVC200 21/07\ A2995 RMK AO2 RAB37E46 SLP142 P0000\ T02060072= 201704171451 METAR KJFK 171451Z 33013KT 10SM FEW060 BKN110 OVC200 21/06\ A2997 RMK AO2 SLP149 VIRGA NW-NE\ VCSH S 60000 T02060056 53016= 201704171551 METAR KJFK 171551Z 31014KT 10SM BKN120 BKN200 21/06 A2998\ RMK AO2 RAB06E27 SLP150 VCSH E-S\ P0000 T02060056= 201704171651 METAR KJFK 171651Z 30014G21KT 10SM FEW110 BKN160 BKN250 23/04\ A2996 RMK AO2 SLP144 T02330044= 201704171751 METAR KJFK 171751Z 31014KT 10SM BKN130 BKN180 BKN250 22/04\ A2996 RMK AO2 SLP143 60000 T02170044\ 10233 20200 58005= 201704171851 METAR KJFK 171851Z 32011G20KT 10SM SCT140 BKN250 23/04 A2995\ RMK AO2 SLP143 T02280044= 201704171951 METAR KJFK 171951Z 32013G22KT 10SM SCT160 SCT190 BKN250 23/01\ A2996 RMK AO2 SLP144 T02330006= 201704172051 METAR KJFK 172051Z 33018G24KT 10SM SCT180 BKN250 23/00 A2997\ RMK AO2 SLP148 T02280000 53005= 201704172151 METAR KJFK 172151Z 32013G19KT 10SM SCT170 SCT250 22/M01 A2999\ RMK AO2 PK WND 34026/2114 SLP154\ T02221006= 201704172251 METAR KJFK 172251Z 33017G23KT 10SM FEW170 BKN250 21/M01 A3001\ RMK AO2 SLP162 T02111011= 201704172351 METAR KJFK 172351Z 34017G26KT 10SM FEW170 BKN240 19/M02 A3005\ RMK AO2 PK WND 36026/2349 SLP176\ T01941022 10244 20194 53027= 201704180051 METAR KJFK 180051Z 35014KT 10SM BKN230 19/M02 A3009 RMK AO2\ SLP188 T01891022= 201704180151 METAR KJFK 180151Z 34015G21KT 10SM SCT220 BKN250 18/M02 A3011\ RMK AO2 SLP196 T01781022= 201704180251 METAR KJFK 180251Z 35024G29KT 10SM BKN240 17/M03 A3012 RMK\ AO2 PK WND 34029/0251 SLP200 T01721033\ 51024= 201704180351 METAR KJFK 180351Z 35019KT 10SM BKN250 16/M03 A3015 RMK AO2\ PK WND 35029/0304 SLP210 T01611028= 201704180451 METAR KJFK 180451Z 36010KT 10SM BKN250 15/M02 A3016 RMK AO2\ SLP213 T01501022 402440150= 201704180551 METAR KJFK 180551Z 35013KT 10SM BKN260 14/M02 A3017 RMK AO2\ SLP216 T01441022 10194 20144 51015= 201704180651 METAR KJFK 180651Z 35014KT 10SM BKN260 13/M01 A3018 RMK AO2\ SLP221 T01331011= 201704180751 METAR KJFK 180751Z 36009KT 10SM BKN260 12/00 A3022 RMK AO2\ SLP232 T01220000= 201704180851 METAR KJFK 180851Z 36014KT 10SM SCT260 12/M01 A3024 RMK AO2\ SLP238 T01171006 53023= 201704180951 METAR KJFK 180951Z 01010KT 10SM FEW250 11/00 A3028 RMK AO2\ SLP252 T01110000= 201704181051 METAR KJFK 181051Z 36007KT 10SM FEW110 FEW250 10/02 A3032\ RMK AO2 SLP265 T01000022= 201704181151 METAR KJFK 181151Z 02010KT 10SM FEW060 FEW110 FEW250 12/02\ A3033 RMK AO2 SLP271 T01170022 10144\ 20100 51032= 201704181251 METAR KJFK 181251Z 02010KT 10SM FEW060 FEW250 13/02 A3035\ RMK AO2 SLP277 T01330017= 201704181351 METAR KJFK 181351Z 01009KT 10SM FEW060 FEW250 14/02 A3038\ RMK AO2 SLP285 T01440022= 201704181451 METAR KJFK 181451Z 04005G16KT 10SM FEW060 16/01 A3039 RMK\ AO2 SLP289 T01560011 51019= 201704181551 METAR KJFK 181551Z 02007KT 340V060 10SM FEW060 16/02 A3039\ RMK AO2 SLP290 T01610017= 201704181651 METAR KJFK 181651Z 18011KT 10SM FEW065 15/03 A3039 RMK AO2\ SLP290 T01500033= 201704181751 METAR KJFK 181751Z 17013KT 10SM FEW065 14/05 A3040 RMK AO2\ SLP293 T01440050 10167 20117 53004= 201704181851 METAR KJFK 181851Z 16016KT 10SM FEW065 SCT250 14/03 A3039\ RMK AO2 SLP291 T01390033= 201704181951 METAR KJFK 181951Z 14014KT 10SM FEW065 SCT250 13/03 A3039\ RMK AO2 SLP291 T01330033= 201704182051 METAR KJFK 182051Z 14014KT 10SM FEW065 SCT250 13/04 A3041\ RMK AO2 SLP297 T01280044 53004= 201704182151 METAR KJFK 182151Z 15016KT 10SM FEW065 SCT250 12/04 A3042\ RMK AO2 SLP300 T01170044= 201704182251 METAR KJFK 182251Z 15010KT 10SM SCT250 11/05 A3044 RMK AO2\ SLP307 T01060050= 201704182351 METAR KJFK 182351Z 15008KT 10SM FEW250 10/06 A3046 RMK AO2\ SLP315 T01000056 10144 20100 53018= 201704190051 METAR KJFK 190051Z 13009KT 10SM FEW250 09/06 A3049 RMK AO2\ SLP324 T00940056= 201704190151 METAR KJFK 190151Z 11011KT 10SM FEW250 09/05 A3051 RMK AO2\ SLP332 T00940050= 201704190251 METAR KJFK 190251Z 11011KT 10SM FEW015 FEW250 09/06 A3052\ RMK AO2 SLP334 T00890061 51020= 201704190351 METAR KJFK 190351Z 10015KT 10SM BKN017 BKN250 08/06 A3052\ RMK AO2 SLP333 T00830056= 201704190451 METAR KJFK 190451Z 10010KT 10SM SCT015 08/06 A3054 RMK AO2\ SLP339 T00830056 401670083= 201704190551 METAR KJFK 190551Z 11011KT 10SM FEW015 SCT250 08/05 A3053\ RMK AO2 SLP339 T00830050 10100 20078\ 53004= 201704190651 METAR KJFK 190651Z 11013KT 10SM BKN017 BKN250 08/05 A3053\ RMK AO2 SLP336 T00780050= 201704190751 METAR KJFK 190751Z 11010KT 10SM BKN017 BKN250 08/04 A3053\ RMK AO2 SLP338 T00780039= 201704190851 METAR KJFK 190851Z 11008KT 10SM SCT018 BKN250 07/04 A3054\ RMK AO2 SLP341 T00720039 53002= 201704190951 METAR KJFK 190951Z 10010KT 10SM SCT020 OVC260 07/03 A3054\ RMK AO2 SLP340 T00720033= 201704191051 METAR KJFK 191051Z 12010KT 10SM SCT021 BKN260 07/03 A3053\ RMK AO2 SLP339 T00720033= 201704191151 METAR KJFK 191151Z 13011KT 10SM BKN020 BKN260 08/04 A3055\ RMK AO2 SLP344 T00780039 10083 20072\ 53003= 201704191251 METAR KJFK 191251Z 11011KT 10SM BKN019 BKN260 08/04 A3054\ RMK AO2 SLP339 T00830039= 201704191351 METAR KJFK 191351Z 13014KT 10SM BKN019 08/04 A3053 RMK AO2\ SLP339 T00830039= 201704191451 METAR KJFK 191451Z 12012KT 10SM BKN018 BKN075 BKN280 08/04\ A3051 RMK AO2 SLP332 T00830039 58013= 201704191551 METAR KJFK 191551Z 13012KT 10SM FEW021 BKN070 10/04 A3051\ RMK AO2 SLP329 T01000039= 201704191651 METAR KJFK 191651Z 12016KT 10SM FEW021 SCT027 BKN070 BKN270\ 10/04 A3047 RMK AO2 SLP318 T01000044= 201704191751 METAR KJFK 191751Z 12017KT 10SM FEW020 SCT027 BKN070 BKN130\ 11/05 A3044 RMK AO2 SLP309 SCT V\ BKN T01060050 10106 20078 58023= 201704191851 METAR KJFK 191851Z 13015KT 9SM FEW018 SCT110 BKN130 BKN260\ 11/05 A3042 RMK AO2 SLP299 T01110050= 201704191951 METAR KJFK 191951Z 13014KT 10SM FEW018 BKN110 OVC130 10/05\ A3039 RMK AO2 SLP291 T01000050= 201704192051 METAR KJFK 192051Z 13013KT 10SM FEW017 BKN065 OVC095 09/06\ A3037 RMK AO2 RAB27E50 SLP284 P0000\ 60000 T00890061 56024= 201704192151 METAR KJFK 192151Z 12010KT 10SM FEW016 OVC060 09/06 A3037\ RMK AO2 SLP284 T00890061= 201704192251 METAR KJFK 192251Z 13012KT 10SM FEW016 OVC060 09/06 A3034\ RMK AO2 RAB00E15 SLP273 P0000 T00890061= 201704192351 METAR KJFK 192351Z 14010KT 10SM FEW016 FEW040 OVC048 09/07\ A3033 RMK AO2 SLP268 60000 T00940067\ 10111 20089 58016= 201704200051 METAR KJFK 200051Z 14008KT 10SM FEW013 OVC042 09/07 A3031\ RMK AO2 RAB13E32 SLP262 P0000 T00940072= 201704200151 METAR KJFK 200151Z 14009KT 10SM -RA FEW013 OVC029 09/08 A3029\ RMK AO2 RAB50 SLP258 P0000 T00940078= 201704200251 METAR KJFK 200251Z 16007KT 10SM FEW013 FEW025 OVC042 10/08\ A3026 RMK AO2 RAE36 SLP245 P0000\ 60000 T01000083 55016= 201704200351 METAR KJFK 200351Z 15005KT 10SM OVC039 10/08 A3024 RMK AO2\ SLP240 T01000083= 201704200451 METAR KJFK 200451Z 18004KT 10SM OVC034 10/08 A3022 RMK AO2\ SLP234 T01000083 401110072= 201704200551 METAR KJFK 200551Z 17004KT 10SM OVC033 11/08 A3020 RMK AO2\ SLP225 60000 T01060083 10106 20094\ 58021= 201704200651 METAR KJFK 200651Z 00000KT 10SM OVC030 11/08 A3017 RMK AO2\ SLP216 T01060083= 201704200751 METAR KJFK 200751Z 08003KT 10SM OVC027 11/08 A3015 RMK AO2\ SLP210 T01060083= 201704200851 METAR KJFK 200851Z 10004KT 10SM OVC023 11/08 A3013 RMK AO2\ RAB23E32 SLP202 P0000 60000 T01060083\ 57023= 201704200951 METAR KJFK 200951Z 12006KT 9SM -RA BKN020 OVC044 11/09 A3011\ RMK AO2 RAB06 SLP195 P0009 T01060094= 201704201051 METAR KJFK 201051Z 00000KT 10SM FEW007 BKN019 OVC044 11/09\ A3013 RMK AO2 RAE12 SLP202 P0000\ T01060094= 201704201151 METAR KJFK 201151Z 00000KT 7SM -RA BKN009 OVC018 11/09 A3015\ RMK AO2 RAB1057 SLP210 P0002 60011\ 70011 T01060094 10106 20100 53008= 201704201251 METAR KJFK 201251Z 11003KT 4SM RA BR BKN006 BKN022 OVC080\ 11/10 A3013 RMK AO2 SLP203 BKN006\ V SCT P0006 T01060100= 201704201351 METAR KJFK 201351Z 00000KT 6SM BR BKN007 BKN035 OVC080 12/11\ A3014 RMK AO2 RAE10 SLP205 P0000\ T01220106= 201704201451 METAR KJFK 201451Z 00000KT 6SM BR OVC009 13/11 A3013 RMK\ AO2 SLP203 CIG 007V011 60006 T01330111\ 56006= 201704201551 METAR KJFK 201551Z 01006KT 7SM BKN013 OVC030 14/11 A3012\ RMK AO2 SLP198 T01440111= 201704201651 METAR KJFK 201651Z 02007KT 340V070 10SM FEW018 BKN032 BKN080\ 16/11 A3010 RMK AO2 SLP191 T01610111= 201704201751 METAR KJFK 201751Z 03006KT 10SM SCT022 BKN031 BKN075 17/12\ A3008 RMK AO2 SLP187 SCT V BKN 60006\ T01720117 10172 20106 56016= 201704201851 METAR KJFK 201851Z 20009KT 10SM SCT025 BKN075 BKN250 17/12\ A3006 RMK AO2 SLP180 SCT V BKN T01670122= 201704201951 METAR KJFK 201951Z 18007KT 10SM SCT029 SCT060 BKN250 16/12\ A3006 RMK AO2 SLP178 T01610117= 201704202051 METAR KJFK 202051Z 15008KT 10SM SCT030 BKN250 16/12 A3005\ RMK AO2 SLP174 T01610117 56013= 201704202151 METAR KJFK 202151Z 15009KT 10SM SCT033 BKN250 15/12 A3004\ RMK AO2 SLP172 T01500117= 201704202251 METAR KJFK 202251Z 14005KT 10SM BKN032 OVC250 13/11 A3005\ RMK AO2 SLP177 T01330111= 201704202351 METAR KJFK 202351Z 10006KT 10SM FEW031 OVC250 13/11 A3006\ RMK AO2 SLP179 T01280106 10178 20128\ 53005= 201704210051 METAR KJFK 210051Z 12008KT 10SM FEW038 SCT050 BKN070 OVC240\ 12/10 A3007 RMK AO2 SLP183 T01220100= 201704210151 METAR KJFK 210151Z 11012KT 10SM BKN049 BKN065 BKN120 OVC230\ 12/10 A3008 RMK AO2 SLP185 T01170100= 201704210251 METAR KJFK 210251Z 10009KT 10SM FEW011 OVC047 12/10 A3006\ RMK AO2 SLP178 T01170100 58001= 201704210351 METAR KJFK 210351Z 10012KT 10SM SCT007 OVC045 11/10 A3006\ RMK AO2 SLP178 T01060100= 201704210451 METAR KJFK 210451Z 10012KT 10SM OVC008 11/09 A3005 RMK AO2\ SLP174 T01060094 401780100= 201704210551 METAR KJFK 210551Z 09011KT 10SM -RA OVC008 10/09 A3003 RMK\ AO2 RAB03 PRESFR SLP170 P0000 60000\ T01000089 10128 20100 58008= 201704210651 METAR KJFK 210651Z 09010KT 10SM -RA OVC006 10/09 A3000 RMK\ AO2 SLP160 P0001 T01000089= 201704210751 METAR KJFK 210751Z 10017G20KT 10SM -RA OVC006 09/09 A2999\ RMK AO2 RAE01B37 SLP155 P0000 T00940089= 201704210851 METAR KJFK 210851Z 09014G21KT 10SM OVC005 09/09 A2998 RMK\ AO2 RAE01 SLP151 P0000 60001 T00940089\ 56019= 201704210951 METAR KJFK 210951Z 09010KT 10SM OVC005 09/09 A2999 RMK AO2\ SLP155 T00940089= 201704211051 METAR KJFK 211051Z 04007KT 8SM BKN006 OVC022 10/09 A3002\ RMK AO2 SLP166 VCSH NW-N T01000089= 201704211151 METAR KJFK 211151Z 07005KT 4SM -RA BR BKN007 OVC018 10/09\ A3001 RMK AO2 RAB03 SLP162 P0000\ 60001 70007 T01000094 10100 20094\ 50011= 201704211251 METAR KJFK 211251Z 07004KT 5SM -RA BR BKN006 OVC014 11/10\ A2998 RMK AO2 RAE09B39DZB09E39 SLP152\ P0002 T01060100= 201704211351 METAR KJFK 211351Z 07008KT 6SM -DZ BR BKN008 OVC013 11/10\ A2997 RMK AO2 RAE23DZB49 SLP148 P0000\ T01110100= 201704211451 METAR KJFK 211451Z 06009KT 2 1/2SM -DZ BR OVC005 11/11 A2995\ RMK AO2 SFC VIS 3 SLP142 P0000 60002\ T01110106 56020= 201704211551 METAR KJFK 211551Z 06007KT 6SM BR OVC008 12/11 A2994 RMK\ AO2 DZE19 SLP138 P0000 T01170106= 201704211651 METAR KJFK 211651Z 03008KT 7SM OVC007 12/11 A2994 RMK AO2\ SLP137 T01220106= 201704211751 METAR KJFK 211751Z 04005KT 7SM OVC008 13/11 A2993 RMK AO2\ SLP136 60002 T01280106 10128 20100\ 56006= 201704211851 METAR KJFK 211851Z 08005KT 8SM OVC010 13/11 A2992 RMK AO2\ SLP130 T01330111= 201704211951 METAR KJFK 211951Z 14006KT 10SM OVC011 13/11 A2990 RMK AO2\ SLP125 T01330111= 201704212051 METAR KJFK 212051Z 09005KT 10SM OVC014 13/11 A2989 RMK AO2\ SLP122 T01330111 56014= 201704212151 METAR KJFK 212151Z 04006KT 10SM OVC013 14/11 A2989 RMK AO2\ SLP123 T01440111= 201704212251 METAR KJFK 212251Z 02009KT 10SM OVC013 13/11 A2989 RMK AO2\ SLP121 T01280106= 201704212351 METAR KJFK 212351Z 02009KT 10SM OVC009 12/10 A2991 RMK AO2\ SLP127 T01170100 10144 20117 53004= 201704220051 METAR KJFK 220051Z 36008KT 10SM BKN008 BKN015 OVC038 11/10\ A2992 RMK AO2 SLP132 T01110100= 201704220151 METAR KJFK 220151Z 02007KT 10SM OVC013 11/09 A2993 RMK AO2\ SLP135 T01110094= 201704220251 METAR KJFK 220251Z 02007KT 10SM OVC014 11/09 A2993 RMK AO2\ SLP133 T01060094 50006= 201704220351 METAR KJFK 220351Z 36009KT 6SM -DZ BR BKN007 OVC014 11/09\ A2994 RMK AO2 DZB47 SLP138 P0000\ T01060094= 201704220451 METAR KJFK 220451Z 03007KT 6SM -DZ BR BKN006 OVC013 10/09\ A2994 RMK AO2 SLP138 P0000 T01000094\ 401440094= 201704220551 METAR KJFK 220551Z 02006KT 9SM BKN007 BKN012 OVC022 11/09\ A2993 RMK AO2 DZE46 SLP134 P0000\ 60000 T01060089 10117 20100 50001= 201704220651 METAR KJFK 220651Z 35007KT 10SM BKN007 OVC014 10/09 A2994\ RMK AO2 SLP136 T01000089= 201704220751 METAR KJFK 220751Z 03011KT 10SM BKN007 OVC014 10/09 A2989\ RMK AO2 SLP123 T01000089= 201704220851 METAR KJFK 220851Z 01007KT 10SM BKN007 OVC013 10/09 A2990\ RMK AO2 SLP125 T01000094 57008= 201704220951 METAR KJFK 220951Z 02008KT 8SM OVC006 11/09 A2992 RMK AO2\ SLP131 T01060094= 201704221051 METAR KJFK 221051Z 02010KT 10SM BKN009 BKN130 11/09 A2991\ RMK AO2 SLP127 T01110094= 201704221151 METAR KJFK 221151Z 02009KT 10SM BKN011 BKN060 BKN090 12/09\ A2992 RMK AO2 SLP130 70002 T01170089\ 10117 20100 51004= 201704221251 METAR KJFK 221251Z 01007KT 10SM -RA BKN014 OVC085 12/09 A2994\ RMK AO2 RAB32 SLP140 P0000 T01170094= 201704221351 METAR KJFK 221351Z 04007KT 10SM SCT013 SCT036 OVC080 12/09\ A2995 RMK AO2 RAE49 SLP140 P0000\ T01170094= 201704221451 METAR KJFK 221451Z 03006KT 10SM BKN015 BKN038 OVC080 13/09\ A2995 RMK AO2 SLP141 BKN015 V SCT\ 60000 T01280094 51011= 201704221551 METAR KJFK 221551Z 01010KT 10SM SCT021 SCT038 OVC075 14/09\ A2994 RMK AO2 SLP138 T01390089= 201704221651 METAR KJFK 221651Z 34012KT 10SM SCT022 OVC070 14/09 A2994\ RMK AO2 SLP137 T01440094= 201704221751 METAR KJFK 221751Z 00000KT 10SM -RA FEW020 OVC065 13/10 A2993\ RMK AO2 RAB1658 SLP135 P0001 60001\ T01280100 10144 20117 56006= 201704221851 METAR KJFK 221851Z 34006KT 10SM -RA FEW017 SCT024 OVC070\ 13/10 A2994 RMK AO2 SLP136 P0004\ T01280100= 201704221951 METAR KJFK 221951Z 01003KT 10SM FEW036 FEW060 OVC080 13/10\ A2993 RMK AO2 RAE45 SLP135 P0002\ T01280100= 201704222051 METAR KJFK 222051Z 23007KT 7SM -RA FEW008 BKN014 OVC022 12/11\ A2995 RMK AO2 RAB1952 SLP141 P0000\ 60006 T01170106 53006= 201704222151 METAR KJFK 222151Z 14005KT 6SM -RA BR SCT010 OVC015 12/11\ A2995 RMK AO2 SLP143 P0003 T01170106= 201704222251 METAR KJFK 222251Z 00000KT 9SM -RA FEW016 BKN030 OVC036 12/11\ A2995 RMK AO2 SLP142 P0001 T01170106= 201704222351 METAR KJFK 222351Z VRB03KT 10SM BKN045 OVC100 12/11 A2997\ RMK AO2 RAE2252 SLP149 P0000 60010\ T01220106 10133 20111 53007= 201704230051 METAR KJFK 230051Z 00000KT 9SM FEW045 OVC110 12/11 A2998\ RMK AO2 SLP150 T01170106= 201704230151 METAR KJFK 230151Z 36006KT 10SM SCT038 BKN046 BKN120 OVC160\ 12/09 A2999 RMK AO2 CIG 034 W SLP154\ T01220094= 201704230251 METAR KJFK 230251Z 01010KT 10SM OVC039 12/05 A2999 RMK AO2\ SLP156 T01170050 53008= 201704230351 METAR KJFK 230351Z 34010KT 10SM OVC046 12/05 A3001 RMK AO2\ SLP163 T01170050= 201704230451 METAR KJFK 230451Z 35013KT 10SM BKN049 11/04 A3003 RMK AO2\ SLP168 T01110039 401440100= 201704230551 METAR KJFK 230551Z 36013KT 10SM SCT049 SCT150 BKN250 10/04\ A3003 RMK AO2 SLP167 T01000039 10122\ 20100 50011= 201704230651 METAR KJFK 230651Z 36009KT 10SM FEW049 FEW150 BKN250 09/03\ A3004 RMK AO2 SLP171 T00940033= 201704230751 METAR KJFK 230751Z 36009KT 10SM FEW049 FEW150 SCT250 09/03\ A3003 RMK AO2 SLP170 T00890033= 201704230851 METAR KJFK 230851Z 36012KT 10SM BKN220 09/03 A3005 RMK AO2\ SLP175 T00890028 53008= 201704230951 METAR KJFK 230951Z 36009KT 10SM BKN250 09/03 A3007 RMK AO2\ SLP183 T00890028= 201704231051 METAR KJFK 231051Z 36007KT 10SM FEW210 SCT260 08/03 A3010\ RMK AO2 SLP192 T00830028= 201704231151 METAR KJFK 231151Z 01008KT 10SM FEW210 SCT260 11/03 A3013\ RMK AO2 SLP201 70011 T01060033 10106\ 20083 53025= 201704231251 METAR KJFK 231251Z 01010KT 10SM FEW200 BKN250 12/03 A3014\ RMK AO2 SLP205 T01170033= 201704231351 METAR KJFK 231351Z 01010KT 10SM FEW200 BKN250 13/02 A3014\ RMK AO2 SLP204 T01280022= 201704231451 METAR KJFK 231451Z 02008KT 10SM FEW200 SCT250 14/02 A3014\ RMK AO2 SLP205 T01390022 51004= 201704231551 METAR KJFK 231551Z VRB04KT 10SM FEW200 SCT250 14/02 A3014\ RMK AO2 SLP205 T01440017= 201704231651 METAR KJFK 231651Z 18014KT 10SM FEW200 SCT250 15/06 A3014\ RMK AO2 SLP204 T01500056= 201704231751 METAR KJFK 231751Z 18012KT 10SM FEW200 BKN250 14/05 A3012\ RMK AO2 WSHFT 1643 SLP197 T01390050\ 10161 20100 58008= 201704231851 METAR KJFK 231851Z 17011KT 10SM SCT200 BKN250 14/06 A3011\ RMK AO2 SLP194 T01390056= 201704231951 METAR KJFK 231951Z 17009KT 10SM FEW200 BKN250 13/06 A3009\ RMK AO2 SLP189 T01280056= 201704232051 METAR KJFK 232051Z 17012KT 10SM SCT190 BKN250 12/06 A3010\ RMK AO2 SLP190 T01220056 55007= 201704232151 METAR KJFK 232151Z 17014KT 10SM SCT200 BKN250 12/06 A3011\ RMK AO2 SLP195 T01170061= 201704232251 METAR KJFK 232251Z 16010KT 10SM SCT200 BKN250 11/07 A3011\ RMK AO2 SLP195 T01060067= 201704232351 METAR KJFK 232351Z 17011KT 10SM SCT200 BKN250 10/06 A3012\ RMK AO2 SLP200 T01000061 10144 20100\ 53010= 201704240051 METAR KJFK 240051Z 17008KT 10SM BKN250 10/07 A3013 RMK AO2\ SLP204 T01000072= 201704240151 METAR KJFK 240151Z 18008KT 10SM BKN250 10/08 A3015 RMK AO2\ SLP209 T01000083= 201704240251 METAR KJFK 240251Z 19008KT 10SM BKN250 10/08 A3015 RMK AO2\ SLP210 T01000083 51009= 201704240351 METAR KJFK 240351Z 19009KT 10SM BKN250 09/08 A3015 RMK AO2\ SLP208 T00940083= 201704240451 METAR KJFK 240451Z 19006KT 10SM BKN250 09/08 A3015 RMK AO2\ SLP209 T00940083 401610083= 201704240551 METAR KJFK 240551Z 22003KT 10SM BKN250 09/08 A3014 RMK AO2\ SLP206 T00890078 10100 20083 58004= 201704240651 METAR KJFK 240651Z 14003KT 9SM BKN250 08/07 A3012 RMK AO2\ SLP199 T00780072= 201704240751 METAR KJFK 240751Z 08003KT 10SM SCT250 07/06 A3012 RMK AO2\ SLP200 T00670061= 201704240851 METAR KJFK 240851Z 00000KT 10SM SCT250 07/06 A3014 RMK AO2\ SLP205 T00670061 55001= 201704240951 METAR KJFK 240951Z 08004KT 10SM SCT180 08/07 A3014 RMK AO2\ SLP206 T00780072= 201704241051 METAR KJFK 241051Z 10003KT 9SM FEW012 FEW130 BKN190 BKN250\ 09/08 A3016 RMK AO2 SLP213 T00890083= 201704241151 METAR KJFK 241151Z 11006KT 10SM BKN150 BKN250 10/09 A3018\ RMK AO2 SLP220 T01000089 10100 20067\ 53015= 201704241251 METAR KJFK 241251Z 11006KT 10SM BKN150 BKN250 11/08 A3019\ RMK AO2 SLP222 T01060078= 201704241351 METAR KJFK 241351Z 08004KT 10SM BKN130 OVC250 12/07 A3019\ RMK AO2 SLP222 T01170067= 201704241451 METAR KJFK 241451Z 13006KT 10SM BKN130 OVC250 13/06 A3019\ RMK AO2 SLP223 T01280056 51003= 201704241551 METAR KJFK 241551Z 12007KT 10SM BKN120 OVC220 13/06 A3018\ RMK AO2 SLP220 T01330056= 201704241651 METAR KJFK 241651Z 12009KT 10SM BKN120 OVC200 13/07 A3017\ RMK AO2 SLP217 T01280067= 201704241751 METAR KJFK 241751Z 12007KT 10SM BKN110 OVC170 13/07 A3016\ RMK AO2 SLP212 T01330072 10139 20100\ 58010= 201704241851 METAR KJFK 241851Z 14010KT 10SM FEW085 BKN100 OVC120 13/06\ A3017 RMK AO2 SLP215 T01280061 $= 201704241951 METAR KJFK 241951Z 08008KT 10SM FEW050 OVC090 12/05 A3015\ RMK AO2 SLP208 T01220050 $= 201704242051 METAR KJFK 242051Z 11008KT 10SM OVC090 12/05 A3016 RMK AO2\ SLP212 T01220050 55000 $= 201704242151 METAR KJFK 242151Z 10008KT 10SM -RA SCT070 OVC090 13/06 A3015\ RMK AO2 RAB49 SLP210 P0000 T01280061\ $= 201704242251 METAR KJFK 242251Z 09008KT 10SM FEW070 BKN085 OVC110 12/08\ A3015 RMK AO2 RAE36 SLP209 P0001\ T01220078= 201704242351 METAR KJFK 242351Z 08009KT 10SM -RA FEW055 BKN080 BKN110\ OVC130 12/06 A3014 RMK AO2 RAB43\ SLP205 P0000 60001 T01220056 10133\ 20122 58007= 201704250051 METAR KJFK 250051Z 07007KT 10SM FEW065 BKN080 BKN100 OVC150\ 12/04 A3014 RMK AO2 RAE01 SLP204\ P0000 T01220044= 201704250151 METAR KJFK 250151Z 08007KT 10SM BKN070 OVC110 12/07 A3014\ RMK AO2 SLP206 T01220067= 201704250251 METAR KJFK 250251Z 08011KT 10SM -RA OVC070 12/08 A3014 RMK\ AO2 RAB50 SLP206 P0000 60000 T01220078\ 53001= 201704250351 METAR KJFK 250351Z 06007KT 10SM FEW012 OVC060 12/09 A3014\ RMK AO2 RAE39 SLP204 P0000 T01170094= 201704250451 METAR KJFK 250451Z 07011KT 10SM -RA SCT012 OVC060 12/10 A3013\ RMK AO2 RAB51 SLP201 P0000 T01170100\ 401390067= 201704250551 METAR KJFK 250551Z 07010KT 10SM BKN012 OVC055 12/10 A3010\ RMK AO2 RAE41 SLP193 P0000 60000\ T01170100 10128 20117 58013= 201704250651 METAR KJFK 250651Z 06011KT 10SM SCT012 OVC039 12/10 A3009\ RMK AO2 RAB29E43 SLP187 P0000 T01170100= 201704250751 METAR KJFK 250751Z 05010KT 10SM -RA FEW013 OVC027 12/10 A3008\ RMK AO2 RAB06 SLP184 P0000 T01170100= 201704250851 METAR KJFK 250851Z 05014G20KT 10SM -RA FEW015 OVC024 11/09\ A3008 RMK AO2 SLP184 P0000 60000\ T01110094 56009= 201704250951 METAR KJFK 250951Z 04014KT 5SM -RA BR OVC009 11/09 A3006\ RMK AO2 SLP180 P0008 T01060094= 201704251051 METAR KJFK 251051Z 05014KT 2 1/2SM RA BR OVC006 11/10 A3008\ RMK AO2 RAE01B27 SLP187 P0005 T01060100= 201704251151 METAR KJFK 251151Z 05018KT 10SM FEW007 OVC012 11/10 A3009\ RMK AO2 RAE38 SLP188 P0005 60018\ 70019 T01110100 10122 20106 53004= 201704251251 METAR KJFK 251251Z 05014KT 3SM -DZ BR OVC007 12/11 A3009\ RMK AO2 DZB23 SLP188 P0000 T01170106= 201704251351 METAR KJFK 251351Z 07013G20KT 8SM OVC009 12/11 A3009 RMK\ AO2 DZE42RAB42E43 SLP190 CIG 007V011\ P0000 T01220111= 201704251451 METAR KJFK 251451Z 05017KT 5SM -RA BR OVC008 13/12 A3009\ RMK AO2 RAB00E17B46 SLP188 P0000\ 60000 T01280117 50000= 201704251551 METAR KJFK 251551Z 07018KT 10SM OVC009 13/12 A3007 RMK AO2\ RAE05 SLP182 P0000 T01330117= 201704251651 METAR KJFK 251651Z 06014KT 8SM -RA OVC008 13/12 A3005 RMK\ AO2 RAB1556E08B41 SLP177 P0000 T01330122= 201704251751 METAR KJFK 251751Z 05014KT 10SM -RA OVC010 14/12 A3001 RMK\ AO2 RAE13B41 SLP163 CIG 008V012 P0000\ 60000 T01390122 10139 20111 58025= 201704251851 METAR KJFK 251851Z 05018KT 10SM -RA OVC009 14/12 A2999 RMK\ AO2 SLP156 P0000 T01390122= 201704251951 METAR KJFK 251951Z 05016G23KT 5SM -RA BR BKN008 OVC012 14/13\ A2996 RMK AO2 SLP146 P0002 T01390128= 201704252051 METAR KJFK 252051Z 06018KT 3SM R04R/5500VP6000FT RA BR BKN007\ BKN011 OVC017 13/12 A2994 RMK AO2\ SFC VIS 4 SLP140 P0007 60009 T01280122\ 57023= 201704252151 METAR KJFK 252151Z 05018KT 3SM R04R/5000VP6000FT RA BR BKN008\ OVC016 13/12 A2992 RMK AO2 SLP131\ P0008 T01280122= 201704252251 METAR KJFK 252251Z 05017KT 2 1/2SM R04R/5000V6000FT +RA BR\ BKN008 OVC014 12/12 A2990 RMK AO2\ TWR VIS 3 SLP125 P0018 T01220117= 201704252351 METAR KJFK 252351Z 06019G27KT 3SM -RA BR BKN008 OVC017 12/11\ A2989 RMK AO2 PK WND 05027/2342 SFC\ VIS 6 SLP120 P0012 60047 T01220111\ 10139 20122 55011= 201704260051 METAR KJFK 260051Z 04014KT 3SM RA BR BKN008 OVC016 12/12\ A2989 RMK AO2 SFC VIS 4 VIS 2 W SLP121\ P0009 T01220117= 201704260151 METAR KJFK 260151Z 04012KT 10SM -RA OVC009 13/13 A2987 RMK\ AO2 SLP116 P0017 T01330128= 201704260251 METAR KJFK 260251Z 08013KT 8SM -RA OVC007 14/13 A2988 RMK\ AO2 PK WND 06031/0212 SLP117 P0003\ 60029 T01440133 57003= 201704260351 METAR KJFK 260351Z 08015G23KT 10SM -RA OVC006 14/13 A2985\ RMK AO2 SLP106 P0004 T01390133= 201704260451 METAR KJFK 260451Z 03013KT 10SM OVC005 13/13 A2980 RMK AO2\ RAE0354 SLP091 P0000 T01330128 401500106= 201704260551 METAR KJFK 260551Z 02006KT 10SM OVC005 13/12 A2980 RMK AO2\ RAB14E44 SLP090 P0000 60033 T01280122\ 10150 20117 56027= 201704260651 METAR KJFK 260651Z 03010KT 2SM -DZ BR OVC004 13/12 A2978\ RMK AO2 SFC VIS 6 DZB43 SLP084 P0000\ T01280122= 201704260751 METAR KJFK 260751Z 02010KT 2SM -RA BR OVC004 13/12 A2976\ RMK AO2 SFC VIS 5 DZE46RAB46 SLP076\ P0002 T01280122= 201704260851 METAR KJFK 260851Z 03009KT 5SM +RA BR OVC005 13/12 A2975\ RMK AO2 SLP074 P0008 60010 T01280122\ 56016= 201704260951 METAR KJFK 260951Z 02011KT 10SM OVC006 13/12 A2974 RMK AO2\ RAE03 SLP071 P0000 T01280122= 201704261051 METAR KJFK 261051Z 02011KT 2SM R04R/6000VP6000FT +RA BR BKN005\ OVC023 12/12 A2975 RMK AO2 RAB14\ SLP074 VIS SE-SW 1 1/4 P0016 T01220117= 201704261151 METAR KJFK 261151Z 02013KT 10SM -RA OVC007 12/12 A2975 RMK\ AO2 SLP074 P0008 60034 70114 T01220117\ 10128 20122 53000= 201704261251 METAR KJFK 261251Z 04013KT 7SM -RA BKN008 OVC013 13/12 A2975\ RMK AO2 SLP075 P0007 T01280122= 201704261351 METAR KJFK 261351Z 04015KT 10SM BKN007 OVC027 14/13 A2975\ RMK AO2 RAE1252 SLP073 P0000 T01390128= 201704261451 METAR KJFK 261451Z 03012KT 4SM -RA BR OVC008 14/13 A2977\ RMK AO2 RAB07 SLP080 P0002 60009\ T01390128 53006= 201704261551 METAR KJFK 261551Z 04008KT 10SM OVC008 14/13 A2977 RMK AO2\ RAE21 SLP080 P0001 T01440133= 201704261651 METAR KJFK 261651Z 02008KT 6SM +RA BR OVC008 15/14 A2977\ RMK AO2 RAB43 SLP081 P0004 T01500139= 201704261751 METAR KJFK 261751Z 36005KT 10SM OVC008 16/14 A2978 RMK AO2\ RAE05 SLP083 P0000 60014 T01560139\ 10156 20122 53003= 201704261851 METAR KJFK 261851Z 36007KT 10SM OVC010 16/14 A2978 RMK AO2\ SLP084 T01610139= 201704261951 METAR KJFK 261951Z 01008KT 7SM -RA OVC010 16/14 A2977 RMK\ AO2 RAB31 SLP080 P0000 T01560139= 201704262051 METAR KJFK 262051Z 03008KT 10SM OVC009 16/14 A2977 RMK AO2\ RAE09 SLP079 P0000 60000 T01560139\ 56005= 201704262151 METAR KJFK 262151Z 04007KT 10SM BKN011 OVC019 16/14 A2978\ RMK AO2 SLP083 T01610139= 201704262251 METAR KJFK 262251Z 02006KT 10SM OVC015 17/14 A2980 RMK AO2\ SLP091 T01670139= 201704262351 METAR KJFK 262351Z 35006KT 10SM OVC013 16/14 A2981 RMK AO2\ SLP094 60000 T01610139 10167 20156\ 51015= 201704270051 METAR KJFK 270051Z 36004KT 10SM OVC013 16/14 A2982 RMK AO2\ SLP096 T01560144= 201704270151 METAR KJFK 270151Z 02003KT 10SM OVC014 16/14 A2984 RMK AO2\ SLP104 T01560139= 201704270251 METAR KJFK 270251Z 00000KT 10SM OVC013 16/14 A2985 RMK AO2\ SLP108 T01560144 53014= 201704270351 METAR KJFK 270351Z 16003KT 4SM -DZ BR OVC009 14/14 A2985\ RMK AO2 DZB42 SLP109 P0000 T01390139= 201704270451 METAR KJFK 270451Z 00000KT 2SM -DZ BR OVC004 14/14 A2986\ RMK AO2 TWR VIS 3 SLP110 P0000 T01440144\ 401670122= 201704270551 METAR KJFK 270551Z 25004KT 2SM R04R/3000V3500FT -DZ BR OVC003\ 14/14 A2986 RMK AO2 SLP110 P0000\ 60000 T01440144 10161 20139 50002= 201704270651 METAR KJFK 270651Z 24003KT 3/4SM R04R/5000V5500FT -DZ BR\ OVC003 14/14 A2986 RMK AO2 SFC VIS\ 1 SLP111 P0000 T01440144= 201704270751 METAR KJFK 270751Z 00000KT 3/4SM R04R/3500V4500FT -DZ BR\ OVC003 14/14 A2986 RMK AO2 SFC VIS\ 1 1/2 SLP112 P0001 T01390139= 201704270851 METAR KJFK 270851Z 22003KT 3/4SM R04R/5500VP6000FT -DZ BR\ OVC003 14/14 A2987 RMK AO2 SFC VIS\ 1 1/2 SLP114 P0000 60001 T01440144\ 53004= 201704270951 METAR KJFK 270951Z 20003KT 1SM R04R/2000V2400FT BR SCT004\ OVC022 14/14 A2988 RMK AO2 DZE42\ SLP118 P0000 T01440144= 201704271051 METAR KJFK 271051Z 17004KT 1 1/2SM BR SCT004 SCT014 OVC020\ 14/14 A2990 RMK AO2 SLP125 T01440144= 201704271151 METAR KJFK 271151Z 18006KT 1/2SM R04R/3000V5000FT FG BKN002\ OVC020 14/14 A2993 RMK AO2 SLP133\ 60001 70015 T01390139 10144 20139\ 53019= 201704271251 METAR KJFK 271251Z 20004KT 1/2SM R04R/5000VP6000FT -DZ BR\ BKN002 BKN011 OVC022 14/14 A2994\ RMK AO2 SFC VIS 1 1/2 DZB49 SLP137\ P0000 T01390139= 201704271351 METAR KJFK 271351Z 19006KT 2SM BR FEW002 OVC021 15/15 A2994\ RMK AO2 DZE32 SLP138 P0000 T01500150= 201704271451 METAR KJFK 271451Z 18005KT 4SM BR SCT010 BKN021 17/15 A2993\ RMK AO2 SLP135 60000 T01670150 50002= 201704271551 METAR KJFK 271551Z 19008KT 8SM SCT020 BKN250 18/15 A2993\ RMK AO2 SLP136 T01780150= 201704271651 METAR KJFK 271651Z 19008KT 8SM FEW010 FEW022 OVC039 17/14\ A2993 RMK AO2 SLP134 T01720144= 201704271751 METAR KJFK 271751Z 17009KT 10SM FEW010 OVC027 17/15 A2993\ RMK AO2 SLP133 60000 T01720150 10178\ 20133 58002= 201704271851 METAR KJFK 271851Z 15012KT 10SM FEW010 BKN026 OVC060 17/15\ A2992 RMK AO2 SLP130 BKN V SCT T01720150= 201704271951 METAR KJFK 271951Z 15012KT 10SM FEW013 FEW025 SCT055 BKN250\ 17/15 A2990 RMK AO2 SLP126 T01720150= 201704272051 METAR KJFK 272051Z 15012KT 7SM SCT004 BKN022 BKN055 OVC250\ 16/14 A2990 RMK AO2 SLP124 T01610144\ 56010= 201704272151 METAR KJFK 272151Z 13009KT 10SM SCT005 OVC015 15/14 A2990\ RMK AO2 SLP125 T01500139= 201704272251 METAR KJFK 272251Z 13010KT 10SM FEW006 OVC013 15/14 A2990\ RMK AO2 SLP125 T01500139= 201704272351 METAR KJFK 272351Z 11010KT 3/4SM R04R/P6000FT -DZ BR OVC003\ 15/15 A2990 RMK AO2 SFC VIS 2 DZB01\ SLP124 P0000 60000 T01500150 10183\ 20150 50000= 201704280051 METAR KJFK 280051Z 12008G16KT 3/4SM R04R/3500V4000FT BR OVC002\ 13/13 A2990 RMK AO2 DZE48 SLP125\ P0000 T01330133= 201704280151 METAR KJFK 280151Z 13006KT 3/4SM R04R/2400V3500FT BR OVC002\ 13/13 A2992 RMK AO2 SFC VIS 1 SLP130\ T01330133= 201704280251 METAR KJFK 280251Z 11006KT 3/4SM R04R/2600V3000FT BR OVC002\ 13/13 A2991 RMK AO2 SLP127 60000\ T01330133 50003= 201704280351 METAR KJFK 280351Z 11005KT 3/4SM R04R/P6000FT BR OVC003 13/13\ A2990 RMK AO2 SFC VIS 1 1/2 SLP125\ T01330133= 201704280451 METAR KJFK 280451Z 12007KT 1/4SM R04R/3500V4000FT FG VV002\ 13/13 A2988 RMK AO2 SFC VIS 1/2 SLP119\ T01330133 401830133= 201704280551 METAR KJFK 280551Z 13006KT 1/4SM R04R/1400V1600FT FG VV002\ 13/13 A2989 RMK AO2 SLP120 60000\ T01330133 10150 20133 55007= 201704280651 METAR KJFK 280651Z 14005KT 1/4SM R04R/2200V2400FT FG VV002\ 13/13 A2987 RMK AO2 SLP116 T01330133= 201704280751 METAR KJFK 280751Z 14004KT 1/4SM R04R/2600V3000FT FG VV002\ 13/13 A2988 RMK AO2 SFC VIS 1/2 LTG\ DSNT SE AND S SLP118 T01280128= 201704280851 METAR KJFK 280851Z 00000KT 2SM BR BKN003 OVC100 13/13 A2991\ RMK AO2 SFC VIS 4 RAB10E21 SLP127\ P0000 60000 T01330133 53012= 201704280951 METAR KJFK 280951Z 00000KT 3/4SM R04R/P6000FT BR SCT002 OVC100\ 13/13 A2992 RMK AO2 SFC VIS 3 SLP132\ T01330133= 201704281051 METAR KJFK 281051Z 01004KT 2SM BR FEW003 SCT065 BKN120 14/14\ A2992 RMK AO2 SFC VIS 3 RAB02E35\ SLP132 CB DSNT S P0000 T01390139= 201704281151 METAR KJFK 281151Z 00000KT 2SM BR FEW003 BKN065 BKN130 14/14\ A2997 RMK AO2 SFC VIS 3 SLP149 60000\ T01440144 10144 20128 53022= 201704281251 METAR KJFK 281251Z 00000KT 2 1/2SM BR FEW005 FEW060 SCT150\ SCT230 17/15 A2998 RMK AO2 SFC VIS\ 4 SLP151 T01720150= 201704281351 METAR KJFK 281351Z 00000KT 4SM HZ FEW010 BKN065 BKN150 19/16\ A2999 RMK AO2 SLP155 T01940156= 201704281451 METAR KJFK 281451Z 20006KT 4SM HZ FEW065 SCT170 SCT230 20/16\ A3000 RMK AO2 SLP160 T02000161 53011= 201704281551 METAR KJFK 281551Z 18007KT 6SM HZ FEW170 FEW250 21/17 A3001\ RMK AO2 SLP161 T02110167= 201704281651 METAR KJFK 281651Z 20007KT 7SM FEW250 22/17 A3001 RMK AO2\ SLP163 T02170167= 201704281751 METAR KJFK 281751Z 17007KT 8SM FEW045 FEW250 23/16 A3001\ RMK AO2 SLP160 T02280156 10233 20144\ 50001= 201704281851 METAR KJFK 281851Z 16010KT 9SM FEW050 SCT250 22/17 A3000\ RMK AO2 SLP158 T02220167= 201704281951 METAR KJFK 281951Z 18013KT 10SM FEW050 SCT250 21/16 A3001\ RMK AO2 SLP161 T02110161= 201704282051 METAR KJFK 282051Z 18014KT 10SM FEW050 SCT250 23/16 A2999\ RMK AO2 SLP155 T02330161 58006= 201704282151 METAR KJFK 282151Z 18017KT 10SM BKN250 22/14 A2999 RMK AO2\ SLP154 T02220144= 201704282251 METAR KJFK 282251Z 18015KT 10SM CLR 21/14 A2999 RMK AO2 SLP157\ T02060139= 201704282351 METAR KJFK 282351Z 19012KT 10SM BKN250 17/13 A3002 RMK AO2\ SLP164 T01720128 10233 20172 53009= 201704290051 METAR KJFK 290051Z 17003KT 10SM BKN250 16/12 A3004 RMK AO2\ SLP172 T01610122= 201704290151 METAR KJFK 290151Z 00000KT 10SM BKN250 16/12 A3005 RMK AO2\ SLP177 T01560122= 201704290251 METAR KJFK 290251Z 00000KT 10SM BKN250 16/13 A3005 RMK AO2\ SLP174 T01560128 50010= 201704290351 METAR KJFK 290351Z 23003KT 10SM BKN250 16/13 A3005 RMK AO2\ SLP176 T01610128= 201704290451 METAR KJFK 290451Z 21003KT 10SM FEW190 BKN250 17/13 A3007\ RMK AO2 SLP181 T01720128 402330128= 201704290551 METAR KJFK 290551Z 20005KT 10SM FEW150 BKN240 18/13 A3004\ RMK AO2 SLP171 T01780133 10183 20150\ 58003= 201704290651 METAR KJFK 290651Z 19003KT 10SM FEW100 SCT130 BKN160 OVC200\ 18/13 A3003 RMK AO2 SLP168 T01780133= 201704290751 METAR KJFK 290751Z 00000KT 10SM FEW055 SCT100 BKN130 OVC160\ 17/14 A3003 RMK AO2 SLP170 T01720139= 201704290851 METAR KJFK 290851Z 13005KT 10SM FEW055 FEW075 SCT120 BKN160\ OVC250 17/15 A3000 RMK AO2 LTG DSNT\ SE-W RAB14E26 SLP159 P0000 60000\ T01720150 58012= 201704290951 METAR KJFK 290951Z 23011G23KT 2SM +TSRA BR BKN060CB BKN085\ OVC110 16/15 A3001 RMK AO2 LTG DSNT\ ALQDS RAB0855 TSB23 SLP162 FRQ LTGICCCCG\ OHD TS OHD MOV E P0011 T01560150= 201704291051 METAR KJFK 291051Z 00000KT 4SM BR FEW003 FEW020 SCT050 BKN160\ BKN250 16/16 A2998 RMK AO2 VIS 2\ 1/2 W LTG DSNT E AND SE RAE18 TSE19\ SLP153 VIRGA N P0005 T01610161 $= 201704291151 METAR KJFK 291151Z 00000KT 2SM BR BKN002 BKN006 BKN250 17/17\ A2999 RMK AO2 SFC VIS 3 SLP154 60016\ 70016 T01720167 10183 20156 58005\ $= 201704291251 METAR KJFK 291251Z 20008KT 3SM BR BKN002 BKN250 16/16 A3003\ RMK AO2 SFC VIS 6 SLP170 T01610156\ $= 201704291351 METAR KJFK 291351Z 22010KT 10SM SCT002 SCT200 BKN250 20/17\ A3005 RMK AO2 SLP174 T02000172 $= 201704291451 METAR KJFK 291451Z 23009KT 10SM FEW010 SCT080 SCT150 BKN250\ 23/20 A3001 RMK AO2 SLP162 T02280200\ 50008 $= 201704291551 METAR KJFK 291551Z 21013KT 10SM FEW025 SCT050 BKN200 BKN250\ 23/19 A3000 RMK AO2 SLP157 T02280189\ $= 201704291651 METAR KJFK 291651Z 24016KT 10SM FEW050 FEW080 SCT200 BKN250\ 25/19 A2997 RMK AO2 SLP148 T02500189\ $= 201704291751 METAR KJFK 291751Z 23019G23KT 10SM FEW050 FEW080 BKN200 BKN250\ 26/18 A2996 RMK AO2 SLP144 T02610183\ 10272 20156 56018 $= 201704291851 METAR KJFK 291851Z 23017KT 10SM FEW050 SCT200 BKN250 27/18\ A2997 RMK AO2 SLP148 T02670183 $= 201704291951 METAR KJFK 291951Z 27019G23KT 10SM FEW050 SCT200 BKN250 28/17\ A2997 RMK AO2 SLP148 T02830172 $= 201704292051 METAR KJFK 292051Z 28021G27KT 10SM FEW050 SCT200 BKN250 29/16\ A2999 RMK AO2 PK WND 27027/2040 SLP154\ T02940156 53010 $= 201704292151 METAR KJFK 292151Z 29020G31KT 10SM FEW055 SCT200 BKN250 28/15\ A2999 RMK AO2 PK WND 29034/2136 SLP154\ T02830150 $= 201704292251 METAR KJFK 292251Z 27014G20KT 10SM FEW055 BKN200 BKN250 28/15\ A2998 RMK AO2 PK WND 29028/2212 SLP152\ T02830150 $= 201704292351 METAR KJFK 292351Z 26013KT 10SM FEW055 BKN200 BKN250 27/15\ A3001 RMK AO2 SLP163 T02670150 10294\ 20261 53009 $= 201704300051 METAR KJFK 300051Z 27017G21KT 10SM SCT200 BKN250 27/14 A3005\ RMK AO2 SLP174 T02670144 $= 201704300151 METAR KJFK 300151Z 34013KT 10SM SCT045 SCT200 SCT250 26/14\ A3008 RMK AO2 SLP184 T02560144 $= 201704300251 METAR KJFK 300251Z 34009KT 10SM FEW060 BKN070 BKN250 24/14\ A3009 RMK AO2 SLP188 T02390139 51025\ $= 201704300351 METAR KJFK 300351Z 34013KT 10SM BKN065 BKN250 22/13 A3011\ RMK AO2 SLP196 T02220133 $= 201704300451 METAR KJFK 300451Z 34013KT 10SM BKN060 BKN250 21/12 A3012\ RMK AO2 SLP200 T02110122 402940156\ $= 201704300551 METAR KJFK 300551Z 33010KT 10SM FEW060 SCT250 20/11 A3012\ RMK AO2 SLP200 T02000106 10267 20200\ 51012 $= 201704300651 METAR KJFK 300651Z 34009KT 10SM SCT065 BKN250 19/09 A3014\ RMK AO2 SLP206 T01890089 $= 201704300751 METAR KJFK 300751Z 02005KT 10SM SCT060 BKN250 18/08 A3015\ RMK AO2 SLP208 T01830083 $= 201704300851 METAR KJFK 300851Z 01006KT 10SM SCT060 BKN250 18/09 A3016\ RMK AO2 SLP212 T01780089 51012 $= 201704300951 METAR KJFK 300951Z 04014KT 10SM BKN060 BKN250 16/06 A3018\ RMK AO2 SLP220 T01610061 $= 201704301051 METAR KJFK 301051Z 04011KT 10SM BKN050 BKN250 16/04 A3021\ RMK AO2 SLP229 T01560039 $= 201704301151 METAR KJFK 301151Z 03012KT 10SM BKN050 16/04 A3023 RMK AO2\ SLP237 T01560039 10200 20156 52024\ $= 201704301251 METAR KJFK 301251Z 07009KT 10SM FEW048 BKN060 BKN250 17/04\ A3025 RMK AO2 SLP243 T01670044 $= 201704301351 METAR KJFK 301351Z 07010KT 10SM BKN044 OVC065 17/04 A3025\ RMK AO2 SLP243 T01720044 $= 201704301451 METAR KJFK 301451Z 10010KT 10SM OVC045 17/06 A3024 RMK AO2\ SLP241 T01720056 50004 $= 201704301551 METAR KJFK 301551Z 10021G29KT 10SM BKN045 BKN055 BKN250 17/06\ A3024 RMK AO2 PK WND 10029/1551 SLP241\ T01720056 $= 201704301651 METAR KJFK 301651Z 11018G24KT 10SM OVC045 13/06 A3027 RMK\ AO2 PK WND 11028/1559 SLP250 T01330061\ $= 201704301751 METAR KJFK 301751Z 10015KT 10SM OVC043 13/06 A3026 RMK AO2\ SLP246 T01330056 10178 20128 50005\ $= 201704301851 METAR KJFK 301851Z 10016KT 10SM OVC041 13/05 A3025 RMK AO2\ SLP243 T01280050 $= 201704301951 METAR KJFK 301951Z 11017G21KT 10SM OVC041 12/05 A3023 RMK\ AO2 SLP237 T01220050 $= 201704302051 METAR KJFK 302051Z 10018KT 10SM OVC039 12/05 A3023 RMK AO2\ SLP236 T01220050 56010 $= 201704302151 METAR KJFK 302151Z 08012G18KT 10SM OVC034 12/06 A3024 RMK\ AO2 SLP240 T01170056 $= 201704302251 METAR KJFK 302251Z 10015KT 10SM OVC027 12/05 A3024 RMK AO2\ SLP238 T01170050 $= 201704302351 METAR KJFK 302351Z 10015KT 10SM OVC024 11/05 A3020 RMK AO2\ PRESFR SLP227 T01060050 10133 20106\ 58009 $=}
