 201710010051 METAR KJFK 010051Z 36013KT 10SM FEW029 SCT055 13/09 A3031\ RMK AO2 SLP262 T01280094 $= 201710010151 METAR KJFK 010151Z 01011KT 10SM FEW020 SCT033 BKN055 13/09\ A3033 RMK AO2 SLP269 T01280089 $= 201710010251 METAR KJFK 010251Z 02013KT 10SM BKN026 13/09 A3034 RMK AO2\ SLP274 T01330089 51020 $= 201710010351 METAR KJFK 010351Z 01011KT 10SM BKN026 12/09 A3035 RMK AO2\ SLP276 T01220089 $= 201710010451 METAR KJFK 010451Z 01011KT 10SM BKN025 12/09 A3035 RMK AO2\ SLP278 T01220089 401940122 $= 201710010551 METAR KJFK 010551Z 01008KT 10SM BKN023 12/08 A3036 RMK AO2\ SLP279 T01170083 10133 20117 53005\ $= 201710010651 METAR KJFK 010651Z 36007KT 10SM SCT023 11/08 A3035 RMK AO2\ SLP278 T01110083 $= 201710010751 METAR KJFK 010751Z 36007KT 10SM SCT023 SCT050 12/08 A3036\ RMK AO2 SLP279 T01170083 $= 201710010851 METAR KJFK 010851Z 36009KT 10SM FEW023 FEW050 11/09 A3037\ RMK AO2 SLP282 T01110089 53003 $= 201710010951 METAR KJFK 010951Z 36007KT 10SM FEW023 FEW050 11/08 A3037\ RMK AO2 SLP285 T01060083 $= 201710011051 METAR KJFK 011051Z 01006KT 10SM FEW025 FEW150 11/08 A3038\ RMK AO2 SLP287 T01060083 $= 201710011151 METAR KJFK 011151Z 36006KT 10SM FEW030 FEW150 12/09 A3039\ RMK AO2 SLP291 70004 T01170089 10117\ 20100 53009 $= 201710011251 METAR KJFK 011251Z 36007KT 10SM FEW030 FEW150 14/09 A3040\ RMK AO2 SLP295 T01390089 $= 201710011351 METAR KJFK 011351Z 04007KT 10SM FEW035 16/07 A3041 RMK AO2\ SLP298 T01560072 $= 201710011451 METAR KJFK 011451Z 36010KT 10SM FEW045 17/07 A3041 RMK AO2\ SLP297 T01670067 50006 $= 201710011551 METAR KJFK 011551Z 35003KT 10SM FEW040 17/06 A3040 RMK AO2\ SLP292 T01720061 $= 201710011651 METAR KJFK 011651Z VRB05KT 10SM FEW050 19/06 A3037 RMK AO2\ SLP285 T01890061 $= 201710011751 METAR KJFK 011751Z 34005KT 10SM FEW060 20/06 A3034 RMK AO2\ SLP275 T02000061 10200 20117 58022\ $= 201710011851 METAR KJFK 011851Z VRB04KT 10SM FEW060 20/06 A3032 RMK AO2\ SLP268 T02000056 $= 201710011951 METAR KJFK 011951Z 24006KT 10SM FEW055 19/07 A3031 RMK AO2\ SLP262 T01940067 $= 201710012051 METAR KJFK 012051Z 23007KT 10SM CLR 18/08 A3029 RMK AO2 SLP258\ T01830083 56017 $= 201710012151 METAR KJFK 012151Z 22007KT 10SM CLR 18/08 A3029 RMK AO2 SLP257\ T01780083 $= 201710012251 METAR KJFK 012251Z 23008KT 10SM CLR 17/08 A3029 RMK AO2 SLP256\ T01670078 $= 201710012351 METAR KJFK 012351Z 22008KT 10SM CLR 17/11 A3030 RMK AO2 SLP259\ T01670106 10206 20167 53001 $= 201710020051 METAR KJFK 020051Z 22008KT 10SM CLR 16/11 A3031 RMK AO2 SLP264\ T01560106 $= 201710020151 METAR KJFK 020151Z 31005KT 10SM CLR 16/09 A3032 RMK AO2 SLP266\ T01610089 $= 201710020251 METAR KJFK 020251Z 35004KT 10SM CLR 16/09 A3032 RMK AO2 SLP266\ T01560094 51007 $= 201710020351 METAR KJFK 020351Z 00000KT 10SM CLR 16/08 A3032 RMK AO2 SLP266\ T01560078 $= 201710020451 METAR KJFK 020451Z 30003KT 10SM CLR 14/07 A3032 RMK AO2 SLP266\ T01390067 402060100 $= 201710020551 METAR KJFK 020551Z 27006KT 10SM CLR 14/07 A3031 RMK AO2 SLP265\ T01440067 10172 20133 57001 $= 201710020651 METAR KJFK 020651Z 31006KT 10SM CLR 13/06 A3032 RMK AO2 SLP268\ T01330061 $= 201710020751 METAR KJFK 020751Z 34003KT 10SM CLR 12/07 A3032 RMK AO2 SLP266\ T01220072 $= 201710020851 METAR KJFK 020851Z 34005KT 10SM CLR 12/07 A3033 RMK AO2 SLP271\ T01170067 53006 $= 201710020951 METAR KJFK 020951Z 36006KT 10SM CLR 11/08 A3035 RMK AO2 SLP276\ T01110083 $= 201710021051 METAR KJFK 021051Z 35008KT 10SM FEW250 11/08 A3037 RMK AO2\ SLP283 T01110083 $= 201710021151 METAR KJFK 021151Z 36007KT 10SM FEW250 13/08 A3039 RMK AO2\ SLP290 T01280083 10144 20111 53019\ $= 201710021251 METAR KJFK 021251Z 01009KT 10SM CLR 16/08 A3040 RMK AO2 SLP294\ T01560083 $= 201710021351 METAR KJFK 021351Z 02009KT 10SM CLR 18/07 A3042 RMK AO2 SLP300\ T01780072 $= 201710021451 METAR KJFK 021451Z 03007KT 10SM CLR 19/07 A3043 RMK AO2 SLP303\ T01940072 51013= 201710021551 METAR KJFK 021551Z 36007KT 10SM CLR 21/06 A3043 RMK AO2 SLP302\ T02060061= 201710021651 METAR KJFK 021651Z VRB04KT 10SM CLR 21/05 A3041 RMK AO2 SLP299\ T02110050= 201710021751 METAR KJFK 021751Z 05005KT 10SM CLR 22/06 A3039 RMK AO2 SLP291\ T02220061 10228 20128 58013= 201710021851 METAR KJFK 021851Z 20009KT 10SM FEW250 21/09 A3039 RMK AO2\ SLP291 T02060094= 201710021951 METAR KJFK 021951Z 20009KT 10SM FEW250 21/09 A3039 RMK AO2\ SLP291 T02060089= 201710022051 METAR KJFK 022051Z 19008KT 10SM FEW250 20/08 A3041 RMK AO2\ SLP297 T02000083 53006= 201710022151 METAR KJFK 022151Z 17006KT 10SM FEW250 19/09 A3042 RMK AO2\ SLP301 T01890089= 201710022251 METAR KJFK 022251Z 14005KT 10SM FEW250 17/09 A3044 RMK AO2\ SLP307 T01670094= 201710022351 METAR KJFK 022351Z 13005KT 10SM FEW250 16/09 A3046 RMK AO2\ SLP313 T01610094 10222 20161 53016= 201710030051 METAR KJFK 030051Z 13004KT 10SM FEW250 16/10 A3049 RMK AO2\ SLP323 T01560100= 201710030151 METAR KJFK 030151Z 13004KT 10SM FEW250 15/11 A3050 RMK AO2\ SLP328 T01500111= 201710030251 METAR KJFK 030251Z 08004KT 10SM CLR 15/11 A3052 RMK AO2 SLP333\ T01500106 51020= 201710030351 METAR KJFK 030351Z 07004KT 10SM CLR 14/11 A3052 RMK AO2 SLP336\ T01390106= 201710030451 METAR KJFK 030451Z 04005KT 10SM CLR 12/11 A3053 RMK AO2 SLP338\ T01220106 402280111= 201710030551 METAR KJFK 030551Z 06004KT 10SM CLR 12/10 A3053 RMK AO2 SLP339\ T01220100 10161 20117 51006= 201710030651 METAR KJFK 030651Z 04005KT 10SM CLR 12/10 A3054 RMK AO2 SLP341\ T01170100= 201710030751 METAR KJFK 030751Z 05004KT 10SM CLR 11/10 A3055 RMK AO2 SLP343\ T01110100= 201710030851 METAR KJFK 030851Z 05004KT 10SM CLR 11/09 A3055 RMK AO2 SLP346\ T01060094 53007= 201710030951 METAR KJFK 030951Z 07006KT 10SM CLR 11/10 A3057 RMK AO2 SLP350\ T01110100= 201710031051 METAR KJFK 031051Z 06006KT 10SM FEW030 SCT160 12/10 A3059\ RMK AO2 SLP358 T01170100= 201710031151 METAR KJFK 031151Z 06005KT 10SM FEW030 FEW250 13/11 A3061\ RMK AO2 SLP365 T01280111 10128 20106\ 53019= 201710031251 METAR KJFK 031251Z 07005KT 10SM FEW032 FEW250 17/13 A3063\ RMK AO2 SLP370 T01670128= 201710031351 METAR KJFK 031351Z 12008KT 10SM SCT033 SCT250 18/11 A3064\ RMK AO2 SLP375 T01780111= 201710031451 METAR KJFK 031451Z 11010KT 10SM SCT035 19/11 A3065 RMK AO2\ SLP379 SCT V BKN T01940111 51014= 201710031551 METAR KJFK 031551Z 14010KT 10SM SCT035 SCT250 20/09 A3065\ RMK AO2 SLP377 T02000094= 201710031651 METAR KJFK 031651Z 14011KT 10SM SCT036 20/09 A3064 RMK AO2\ SLP374 T02000094= 201710031751 METAR KJFK 031751Z 12009KT 10SM FEW038 FEW250 20/08 A3062\ RMK AO2 SLP369 T02000083 10211 20133\ 58009= 201710031851 METAR KJFK 031851Z 14010KT 10SM FEW035 FEW250 20/09 A3061\ RMK AO2 SLP365 T02000089= 201710031951 METAR KJFK 031951Z 15011KT 10SM FEW035 FEW250 19/10 A3060\ RMK AO2 SLP360 T01940100= 201710032051 METAR KJFK 032051Z 15010KT 10SM FEW035 FEW250 18/09 A3059\ RMK AO2 SLP358 T01830089 56011= 201710032151 METAR KJFK 032151Z 13008KT 10SM FEW035 SCT250 17/09 A3059\ RMK AO2 SLP357 T01720089= 201710032251 METAR KJFK 032251Z 11005KT 10SM BKN250 15/09 A3059 RMK AO2\ SLP359 T01500094= 201710032351 METAR KJFK 032351Z 11005KT 10SM SCT250 14/10 A3059 RMK AO2\ SLP358 T01440100 10206 20144 53000= 201710040051 METAR KJFK 040051Z 13005KT 10SM SCT250 14/09 A3058 RMK AO2\ SLP354 T01390089= 201710040151 METAR KJFK 040151Z 14004KT 10SM SCT250 14/09 A3058 RMK AO2\ SLP353 T01390094= 201710040251 METAR KJFK 040251Z 17004KT 10SM SCT250 14/11 A3056 RMK AO2\ SLP349 T01390111 57009= 201710040351 METAR KJFK 040351Z 19006KT 10SM SCT250 14/11 A3055 RMK AO2\ SLP346 T01390111= 201710040451 METAR KJFK 040451Z 21007KT 10SM SCT250 14/12 A3054 RMK AO2\ SLP341 T01440117 402110106= 201710040551 METAR KJFK 040551Z 24007KT 10SM SCT250 14/11 A3053 RMK AO2\ SLP339 T01440111 10144 20133 56010= 201710040651 METAR KJFK 040651Z 26007KT 10SM FEW250 14/11 A3051 RMK AO2\ SLP331 T01390111= 201710040751 METAR KJFK 040751Z 26005KT 10SM FEW250 14/12 A3049 RMK AO2\ SLP326 T01390117= 201710040851 METAR KJFK 040851Z 26006KT 10SM FEW250 14/12 A3048 RMK AO2\ SLP322 T01390122 56017= 201710040951 METAR KJFK 040951Z 26006KT 10SM FEW250 13/12 A3048 RMK AO2\ SLP319 T01330117= 201710041051 METAR KJFK 041051Z 25007KT 10SM FEW030 SCT250 13/12 A3047\ RMK AO2 SLP318 T01330117= 201710041151 METAR KJFK 041151Z 25007KT 10SM FEW030 SCT250 14/12 A3047\ RMK AO2 SLP318 T01440117 10144 20128\ 56004= 201710041251 METAR KJFK 041251Z 24008KT 10SM FEW033 SCT250 16/12 A3047\ RMK AO2 SLP316 T01610122= 201710041351 METAR KJFK 041351Z 25008KT 10SM FEW035 FEW250 18/13 A3045\ RMK AO2 SLP312 T01780133= 201710041451 METAR KJFK 041451Z 23010KT 10SM FEW035 FEW250 19/13 A3043\ RMK AO2 SLP305 T01890133 58012= 201710041551 METAR KJFK 041551Z 23013KT 10SM FEW250 20/14 A3041 RMK AO2\ SLP296 T02000139= 201710041651 METAR KJFK 041651Z 24011KT 10SM FEW250 22/14 A3038 RMK AO2\ SLP288 T02170139= 201710041751 METAR KJFK 041751Z 18011KT 10SM FEW045 FEW250 22/14 A3034\ RMK AO2 SLP274 T02170144 10222 20144\ 58031= 201710041851 METAR KJFK 041851Z 18014KT 10SM FEW250 21/14 A3031 RMK AO2\ SLP265 T02110144= 201710041951 METAR KJFK 041951Z 18016KT 10SM FEW250 21/15 A3029 RMK AO2\ SLP256 T02110150= 201710042051 METAR KJFK 042051Z 19015KT 10SM FEW250 21/16 A3026 RMK AO2\ SLP246 T02060161 58028= 201710042151 METAR KJFK 042151Z 19015KT 10SM FEW250 20/16 A3024 RMK AO2\ SLP241 T02000161= 201710042251 METAR KJFK 042251Z 19013KT 10SM FEW250 19/17 A3024 RMK AO2\ SLP238 T01940167= 201710042351 METAR KJFK 042351Z 20010KT 10SM FEW250 19/17 A3024 RMK AO2\ SLP239 T01940167 10217 20189 55007= 201710050051 METAR KJFK 050051Z 22011KT 10SM FEW250 19/16 A3023 RMK AO2\ SLP237 T01940156= 201710050151 METAR KJFK 050151Z 23014KT 10SM FEW250 19/16 A3023 RMK AO2\ SLP236 T01890156= 201710050251 METAR KJFK 050251Z 21012KT 10SM FEW250 18/15 A3022 RMK AO2\ SLP233 T01830150 58006= 201710050351 METAR KJFK 050351Z 23012KT 10SM FEW250 18/14 A3021 RMK AO2\ SLP230 T01780144= 201710050451 METAR KJFK 050451Z 24011KT 10SM FEW060 FEW250 18/15 A3020\ RMK AO2 SLP227 T01830150 402220128= 201710050551 METAR KJFK 050551Z 24012KT 10SM SCT100 18/14 A3019 RMK AO2\ SLP224 T01830144 10200 20178 56008= 201710050651 METAR KJFK 050651Z 23013KT 10SM BKN100 18/15 A3018 RMK AO2\ SLP218 T01830150= 201710050751 METAR KJFK 050751Z 23013KT 10SM OVC100 18/15 A3016 RMK AO2\ SLP213 T01780150= 201710050851 METAR KJFK 050851Z 24012KT 10SM BKN100 18/15 A3015 RMK AO2\ SLP210 T01780150 56014= 201710050951 METAR KJFK 050951Z 24012KT 10SM BKN100 BKN220 17/16 A3015\ RMK AO2 SLP208 T01720156= 201710051051 METAR KJFK 051051Z 23011KT 10SM SCT100 BKN240 17/15 A3016\ RMK AO2 SLP213 T01720150= 201710051151 METAR KJFK 051151Z 24015KT 10SM FEW090 BKN110 BKN240 18/16\ A3017 RMK AO2 SLP215 T01830156 10183\ 20172 53005= 201710051251 METAR KJFK 051251Z 23009KT 10SM BKN100 BKN240 18/16 A3017\ RMK AO2 SLP215 T01830156= 201710051351 METAR KJFK 051351Z 23009KT 10SM SCT110 SCT250 21/16 A3016\ RMK AO2 SLP212 T02060161= 201710051451 METAR KJFK 051451Z 21009KT 10SM FEW110 SCT250 22/16 A3015\ RMK AO2 SLP208 T02170156 58007= 201710051551 METAR KJFK 051551Z 23010KT 10SM FEW075 FEW110 SCT250 24/15\ A3012 RMK AO2 SLP200 T02440150= 201710051651 METAR KJFK 051651Z 18010KT 10SM FEW080 BKN270 25/16 A3011\ RMK AO2 SLP195 T02500161= 201710051751 METAR KJFK 051751Z 19009KT 10SM FEW080 BKN270 26/17 A3008\ RMK AO2 SLP186 T02560167 10256 20178\ 58022= 201710051851 METAR KJFK 051851Z 19006KT 10SM FEW050 FEW080 BKN250 26/17\ A3007 RMK AO2 SLP181 T02560172= 201710051951 METAR KJFK 051951Z 20011KT 10SM FEW050 FEW080 FEW150 BKN250\ 27/18 A3005 RMK AO2 SLP175 T02720178= 201710052051 METAR KJFK 052051Z 21008KT 10SM SCT070 SCT150 BKN250 24/18\ A3004 RMK AO2 SLP173 T02440183 56013= 201710052151 METAR KJFK 052151Z 22013KT 10SM FEW070 SCT190 BKN250 26/17\ A3004 RMK AO2 SLP172 T02560172= 201710052251 METAR KJFK 052251Z 23011KT 10SM FEW070 SCT220 BKN250 24/17\ A3004 RMK AO2 SLP174 T02440172= 201710052351 METAR KJFK 052351Z 23012KT 10SM FEW070 BKN200 BKN250 24/17\ A3006 RMK AO2 SLP178 T02390172 10283\ 20239 53005= 201710060051 METAR KJFK 060051Z 23011KT 10SM FEW070 SCT140 SCT190 OVC250\ 23/17 A3007 RMK AO2 SLP182 T02330172= 201710060151 METAR KJFK 060151Z 24011KT 10SM -RA BKN070 BKN110 OVC130\ 23/17 A3008 RMK AO2 RAB46 SLP184\ P0000 T02280172= 201710060251 METAR KJFK 060251Z 24010KT 10SM FEW085 FEW100 BKN120 OVC140\ 22/18 A3007 RMK AO2 RAE50 SLP183\ P0000 60000 T02220183 50005= 201710060351 METAR KJFK 060351Z 24008KT 10SM -RA OVC110 21/19 A3008 RMK\ AO2 RAB0257E24B50 SLP186 P0000 T02110189= 201710060451 METAR KJFK 060451Z 25006KT 10SM FEW060 FEW090 OVC130 21/19\ A3008 RMK AO2 RAE32 SLP184 OCNL LTGCG\ DSNT SE CB DSNT SE MOV E P0000 T02110189\ 402830172= 201710060551 METAR KJFK 060551Z 24010KT 10SM FEW060 BKN120 BKN170 OVC220\ 21/19 A3009 RMK AO2 RAB08E43 SLP191\ P0000 60000 T02060189 10239 20206\ 53008= 201710060651 METAR KJFK 060651Z 27007KT 10SM BKN170 BKN220 21/19 A3007\ RMK AO2 SLP184 T02060189= 201710060751 METAR KJFK 060751Z 25006KT 10SM BKN140 BKN210 19/19 A3008\ RMK AO2 SLP185 T01940189= 201710060851 METAR KJFK 060851Z 23005KT 9SM BKN130 BKN210 20/19 A3009\ RMK AO2 SLP187 T02000194 55003= 201710060951 METAR KJFK 060951Z 25006KT 9SM OVC160 19/19 A3010 RMK AO2\ SLP193 T01940189= 201710061051 METAR KJFK 061051Z 24006KT 9SM BKN120 BKN180 19/19 A3011\ RMK AO2 SLP197 T01940189= 201710061151 METAR KJFK 061151Z 26007KT 9SM BKN130 BKN170 20/19 A3012\ RMK AO2 SLP199 T02000189 10206 20189\ 51011= 201710061251 METAR KJFK 061251Z 27006KT 10SM FEW120 BKN150 22/19 A3012\ RMK AO2 SLP199 T02170189= 201710061351 METAR KJFK 061351Z 25006KT 10SM BKN150 BKN250 23/18 A3012\ RMK AO2 SLP198 T02280178= 201710061451 METAR KJFK 061451Z 23007KT 10SM SCT140 SCT250 24/17 A3011\ RMK AO2 SLP194 T02390167 58004= 201710061551 METAR KJFK 061551Z 23006KT 10SM FEW140 SCT250 25/16 A3010\ RMK AO2 SLP193 T02500156= 201710061651 METAR KJFK 061651Z 23009KT 10SM FEW140 FEW250 27/16 A3008\ RMK AO2 SLP186 T02670161= 201710061751 METAR KJFK 061751Z 20010KT 10SM FEW047 FEW140 SCT250 27/17\ A3007 RMK AO2 SLP181 T02670167 10272\ 20200 58013= 201710061851 METAR KJFK 061851Z 17010KT 10SM SCT048 SCT140 SCT250 25/17\ A3006 RMK AO2 SLP179 T02500172= 201710061951 METAR KJFK 061951Z 17010KT 10SM FEW055 SCT140 BKN250 24/18\ A3005 RMK AO2 SLP177 T02390178= 201710062051 METAR KJFK 062051Z 17009KT 10SM FEW055 FEW140 BKN250 22/19\ A3006 RMK AO2 SLP178 T02220189 55003= 201710062151 METAR KJFK 062151Z 17010KT 10SM FEW048 FEW150 BKN250 22/19\ A3005 RMK AO2 SLP176 T02170189= 201710062251 METAR KJFK 062251Z 17009KT 10SM FEW048 BKN230 21/19 A3005\ RMK AO2 SLP177 T02060194= 201710062351 METAR KJFK 062351Z 00000KT 10SM BKN220 21/19 A3008 RMK AO2\ SLP184 T02060194 10267 20206 53006= 201710070051 METAR KJFK 070051Z 00000KT 10SM SCT200 BKN250 19/19 A3007\ RMK AO2 SLP183 T01940194= 201710070151 METAR KJFK 070151Z 09004KT 10SM SCT180 BKN210 BKN250 20/19\ A3009 RMK AO2 SLP188 T02000194= 201710070251 METAR KJFK 070251Z 12003KT 10SM BKN045 BKN060 BKN180 BKN250\ 21/20 A3010 RMK AO2 SLP192 T02060200\ 53008= 201710070351 METAR KJFK 070351Z 13004KT 10SM FEW045 SCT060 BKN150 BKN200\ 20/19 A3009 RMK AO2 SLP190 T02000194= 201710070451 METAR KJFK 070451Z 14003KT 10SM FEW060 BKN150 20/20 A3010\ RMK AO2 SLP191 T02000200 402720189= 201710070551 METAR KJFK 070551Z 00000KT 9SM BKN140 20/19 A3010 RMK AO2\ SLP192 T02000194 10211 20194 55000= 201710070651 METAR KJFK 070651Z 11004KT 7SM SCT150 SCT250 18/18 A3010\ RMK AO2 SLP192 T01830183= 201710070751 METAR KJFK 070751Z 04003KT 8SM SCT140 SCT250 18/18 A3010\ RMK AO2 SLP194 T01830183= 201710070851 METAR KJFK 070851Z 10003KT 9SM FEW140 FEW250 18/18 A3010\ RMK AO2 SLP194 T01780178 50001= 201710070951 METAR KJFK 070951Z 00000KT 8SM FEW250 18/18 A3011 RMK AO2\ SLP196 T01780178= 201710071051 METAR KJFK 071051Z 00000KT 9SM FEW150 FEW250 18/18 A3012\ RMK AO2 SLP199 T01830183= 201710071151 METAR KJFK 071151Z 16004KT 9SM FEW010 SCT100 SCT250 19/19\ A3012 RMK AO2 SLP200 T01940189 10200\ 20172 51006= 201710071251 METAR KJFK 071251Z 18005KT 10SM FEW010 SCT100 SCT250 21/19\ A3014 RMK AO2 SLP206 T02110189= 201710071351 METAR KJFK 071351Z 19007KT 10SM FEW015 SCT100 BKN250 22/18\ A3015 RMK AO2 SLP210 T02220183= 201710071451 METAR KJFK 071451Z 17007KT 10SM FEW015 SCT100 BKN250 23/19\ A3014 RMK AO2 SLP207 T02330189 50008= 201710071551 METAR KJFK 071551Z 15007KT 10SM FEW015 SCT100 BKN250 24/20\ A3014 RMK AO2 SLP204 T02390200= 201710071651 METAR KJFK 071651Z 16007KT 10SM FEW020 SCT100 BKN250 25/20\ A3012 RMK AO2 SLP199 T02500200= 201710071751 METAR KJFK 071751Z 14011KT 10SM FEW025 BKN150 BKN250 24/21\ A3010 RMK AO2 SLP191 T02390206 10261\ 20194 58017= 201710071851 METAR KJFK 071851Z 16012KT 10SM FEW010 BKN170 BKN210 23/21\ A3009 RMK AO2 SLP188 T02330206= 201710071951 METAR KJFK 071951Z 17015G23KT 10SM FEW035 BKN200 BKN250 23/21\ A3007 RMK AO2 SLP183 T02280206= 201710072051 METAR KJFK 072051Z 17016G24KT 10SM FEW040 SCT200 BKN250 23/19\ A3006 RMK AO2 SLP177 VIRGA ALQDS\ T02330194 58013= 201710072151 METAR KJFK 072151Z 17018G23KT 10SM FEW045 SCT200 BKN250 22/20\ A3006 RMK AO2 PK WND 19026/2100 SLP179\ T02170200= 201710072251 METAR KJFK 072251Z 18019G24KT 10SM SCT007 BKN200 BKN250 21/21\ A3006 RMK AO2 SLP179 T02110206= 201710072351 METAR KJFK 072351Z 18015G23KT 10SM SCT200 SCT250 21/21 A3006\ RMK AO2 SLP180 T02110206 10244 20211\ 52003= 201710080051 METAR KJFK 080051Z 18016KT 10SM FEW010 BKN220 21/21 A3007\ RMK AO2 SLP181 T02110206= 201710080151 METAR KJFK 080151Z 18013KT 10SM BKN050 BKN250 21/21 A3008\ RMK AO2 SLP185 T02110206= 201710080251 METAR KJFK 080251Z 18013KT 10SM FEW009 BKN050 21/21 A3007\ RMK AO2 SLP182 T02110206 50001= 201710080351 METAR KJFK 080351Z 18014KT 10SM FEW009 BKN049 21/21 A3005\ RMK AO2 SLP176 T02110206= 201710080451 METAR KJFK 080451Z 18015KT 10SM FEW009 BKN048 22/20 A3004\ RMK AO2 SLP171 T02170200 402610172= 201710080551 METAR KJFK 080551Z 19016G23KT 10SM BKN042 OVC060 22/21 A3003\ RMK AO2 SLP169 T02170206 10217 20211\ 56012= 201710080651 METAR KJFK 080651Z 18016KT 10SM FEW009 SCT035 OVC050 22/21\ A3001 RMK AO2 SLP163 T02170206= 201710080751 METAR KJFK 080751Z 18016KT 10SM FEW009 SCT032 OVC055 22/21\ A3000 RMK AO2 SLP158 T02170206= 201710080851 METAR KJFK 080851Z 19018G25KT 10SM FEW030 BKN055 OVC120 22/21\ A2998 RMK AO2 SLP150 T02170206 58019= 201710080951 METAR KJFK 080951Z 18019G25KT 10SM SCT016 OVC050 22/21 A2997\ RMK AO2 SLP148 T02170206= 201710081051 METAR KJFK 081051Z 19016KT 10SM SCT016 BKN060 BKN120 22/21\ A2996 RMK AO2 SLP146 T02170206= 201710081151 METAR KJFK 081151Z 18017G23KT 10SM SCT018 BKN055 OVC075 22/21\ A2996 RMK AO2 SLP146 T02170206 10217\ 20217 56004= 201710081251 METAR KJFK 081251Z 18019KT 10SM BKN018 BKN045 OVC060 22/21\ A2996 RMK AO2 LTG DSNT W SLP145 T02170206= 201710081351 METAR KJFK 081351Z 18018KT 6SM -RA BR FEW005 SCT016 OVC028\ 21/21 A2995 RMK AO2 RAB1256 SLP143\ P0002 T02110211= 201710081451 METAR KJFK 081451Z 19017KT 7SM -RA FEW005 OVC014 22/21 A2995\ RMK AO2 PK WND 18026/1425 RAE04B48\ SLP142 P0000 60002 T02170211 58003= 201710081551 METAR KJFK 081551Z 19016KT 5SM -RA BR FEW009 BKN016 OVC022\ 22/22 A2996 RMK AO2 SLP145 P0001\ T02170217= 201710081651 METAR KJFK 081651Z 19013KT 7SM FEW010 BKN041 OVC100 22/22\ A2996 RMK AO2 RAE51 SLP144 P0001\ T02220222= 201710081751 METAR KJFK 081751Z 19012KT 7SM SCT013 BKN018 BKN037 OVC130\ 22/22 A2994 RMK AO2 SLP137 60004\ T02170217 10228 20211 58008= 201710081851 METAR KJFK 081851Z 19011KT 9SM BKN020 BKN042 OVC140 23/22\ A2994 RMK AO2 RAB09E22 SLP138 P0000\ T02280222= 201710081951 METAR KJFK 081951Z 19011KT 8SM BKN014 BKN025 OVC200 22/22\ A2993 RMK AO2 SLP136 T02220217= 201710082051 METAR KJFK 082051Z 19014KT 8SM FEW018 FEW045 BKN180 22/22\ A2994 RMK AO2 SLP138 60000 T02220217\ 53001= 201710082151 METAR KJFK 082151Z 20007KT 8SM FEW020 FEW045 BKN180 BKN250\ 22/22 A2996 RMK AO2 SLP143 T02220217= 201710082251 METAR KJFK 082251Z 20010KT 10SM FEW025 BKN130 BKN200 22/22\ A2997 RMK AO2 SLP148 T02220217= 201710082351 METAR KJFK 082351Z 20006KT 9SM FEW011 BKN200 22/22 A2998\ RMK AO2 SLP151 60000 T02220222 10228\ 20217 51013= 201710090051 METAR KJFK 090051Z 18004KT 9SM SCT023 BKN033 BKN200 22/22\ A2999 RMK AO2 SLP156 T02220217= 201710090151 METAR KJFK 090151Z 15003KT 8SM FEW025 BKN200 22/22 A3000\ RMK AO2 SLP157 T02170217= 201710090251 METAR KJFK 090251Z 19005KT 9SM FEW015 SCT160 OVC230 21/21\ A3002 RMK AO2 SLP165 T02110211 53014= 201710090351 METAR KJFK 090351Z 19008KT 10SM FEW015 OVC190 21/21 A3002\ RMK AO2 SLP165 T02110211= 201710090451 METAR KJFK 090451Z 17006KT 9SM FEW021 OVC100 22/22 A3001\ RMK AO2 SLP163 T02170217 402280211= 201710090551 METAR KJFK 090551Z 18007KT 9SM FEW020 BKN100 OVC210 22/22\ A3001 RMK AO2 SLP161 T02170217 10228\ 20211 58004= 201710090651 METAR KJFK 090651Z 18011KT 10SM FEW005 OVC044 22/21 A3000\ RMK AO2 SLP158 T02170211= 201710090751 METAR KJFK 090751Z 19013KT 10SM SCT005 OVC038 22/21 A3000\ RMK AO2 SLP157 T02170211= 201710090851 METAR KJFK 090851Z 18009KT 6SM -RA BR SCT005 OVC038 21/21\ A2999 RMK AO2 RAB0758 SLP156 P0001\ 60001 T02110211 56005= 201710090951 METAR KJFK 090951Z 19013KT 9SM SCT004 BKN031 BKN095 OVC180\ 21/21 A3000 RMK AO2 RAE01 SLP157\ SCT004 V BKN P0000 T02110211= 201710091051 METAR KJFK 091051Z 18018G23KT 6SM BR BKN004 OVC140 22/22\ A2999 RMK AO2 SLP156 CIG 003V006\ T02170217= 201710091151 METAR KJFK 091151Z 18018KT 1/2SM R04R/5000VP6000FT BR OVC002\ 21/21 A3000 RMK AO2 SFC VIS 1 1/4\ RAB1058E14 SLP159 P0000 60001 70005\ T02110211 10217 20211 53003= 201710091251 METAR KJFK 091251Z 17017KT 1/2SM R04R/P6000FT BR OVC004 22/22\ A3001 RMK AO2 SFC VIS 4 RAB1155E24\ SLP161 CIG 003V005 P0000 T02170217= 201710091351 METAR KJFK 091351Z 16016KT 3SM BR BKN006 BKN013 OVC200 22/22\ A2999 RMK AO2 SFC VIS 6 SLP155 T02220217= 201710091451 METAR KJFK 091451Z 17018KT 3SM -RA BR BKN005 OVC038 22/22\ A2997 RMK AO2 SFC VIS 6 RAB26 SLP147\ P0001 60001 T02170217 58012= 201710091551 METAR KJFK 091551Z 18019KT 3SM -RA BR BKN006 OVC012 22/22\ A2996 RMK AO2 PK WND 17026/1454 SFC\ VIS 5 SLP143 P0000 T02220222= 201710091651 METAR KJFK 091651Z 18017KT 2SM -RA BR OVC005 22/22 A2993\ RMK AO2 SFC VIS 4 SLP133 P0006 T02170217= 201710091751 METAR KJFK 091751Z 18023G30KT 2SM R04R/4500VP6000FT +RA BR\ BKN006 OVC019 22/22 A2989 RMK AO2\ PK WND 18030/1751 SLP120 CIG 004V007\ P0024 60031 T02170217 10222 20211\ 58026= 201710091851 METAR KJFK 091851Z 18026G33KT 3SM BR BKN008 BKN013 OVC034\ 22/22 A2986 RMK AO2 PK WND 17036/1836\ SFC VIS 6 RAE13 SLP112 P0000 T02220217= 201710091951 METAR KJFK 091951Z 19023G34KT 3SM BR BKN006 OVC017 22/22\ A2985 RMK AO2 PK WND 18035/1938 SFC\ VIS 5 SLP109 T02220217= 201710092051 METAR KJFK 092051Z 19019G28KT 3SM BR SCT005 BKN022 OVC047\ 22/22 A2985 RMK AO2 PK WND 18032/2008\ SFC VIS 6 SLP107 60000 T02220217\ 56013= 201710092151 METAR KJFK 092151Z 19019KT 3SM BR FEW005 BKN019 BKN060 22/22\ A2986 RMK AO2 PK WND 19028/2121 SFC\ VIS 6 SLP110 T02170217= 201710092251 METAR KJFK 092251Z 19015KT 3SM FEW012 BKN018 OVC044 22/22\ A2987 RMK AO2 SFC VIS 7 SLP116 T02170217= 201710092351 METAR KJFK 092351Z 19010KT 6SM BR FEW005 BKN015 BKN060 22/22\ A2988 RMK AO2 RAB26E37 SLP119 BKN015\ V SCT P0000 60000 T02170217 10222\ 20217 51009= 201710100051 METAR KJFK 100051Z 19010KT 6SM -RA BR FEW019 SCT040 OVC055\ 22/22 A2990 RMK AO2 RAB19E35B44 SLP124\ P0000 T02170217= 201710100151 METAR KJFK 100151Z 19005KT 6SM BR FEW013 FEW031 OVC075 22/22\ A2991 RMK AO2 RAE0056 SLP127 P0000\ T02170217= 201710100251 METAR KJFK 100251Z 21005KT 9SM FEW013 OVC080 22/22 A2992\ RMK AO2 RAB13E35 SLP130 P0002 60002\ T02220222 51012= 201710100351 METAR KJFK 100351Z 23006KT 10SM FEW017 OVC085 22/22 A2992\ RMK AO2 SLP131 T02220222= 201710100451 METAR KJFK 100451Z 30011G18KT 10SM FEW016 OVC080 24/24 A2993\ RMK AO2 SLP135 T02390239 402390211= 201710100551 METAR KJFK 100551Z 31011KT 10SM BKN080 22/19 A2996 RMK AO2\ WSHFT 0445 SLP144 60002 T02220189\ 10244 20217 53014= 201710100651 METAR KJFK 100651Z 31013KT 10SM BKN080 22/18 A2997 RMK AO2\ SLP150 T02170178= 201710100751 METAR KJFK 100751Z 32010KT 10SM FEW040 FEW080 21/18 A2998\ RMK AO2 SLP151 T02060178= 201710100851 METAR KJFK 100851Z 31008KT 10SM FEW040 20/17 A2999 RMK AO2\ SLP156 T02000172 53012= 201710100951 METAR KJFK 100951Z 31007KT 10SM FEW085 19/17 A3001 RMK AO2\ SLP163 T01940172= 201710101051 METAR KJFK 101051Z 35006KT 10SM FEW085 SCT270 19/17 A3003\ RMK AO2 SLP167 T01940172= 201710101151 METAR KJFK 101151Z 36004KT 10SM FEW085 FEW130 SCT270 21/17\ A3005 RMK AO2 SLP176 70033 T02060167\ 10222 20189 53020= 201710101251 METAR KJFK 101251Z 33006KT 10SM FEW032 FEW080 SCT270 22/17\ A3008 RMK AO2 SLP184 T02170167= 201710101351 METAR KJFK 101351Z 35007KT 10SM FEW035 FEW080 SCT250 23/17\ A3008 RMK AO2 SLP187 T02280167= 201710101451 METAR KJFK 101451Z 30006KT 10SM FEW038 FEW080 BKN260 24/17\ A3008 RMK AO2 SLP184 T02440167 50008= 201710101551 METAR KJFK 101551Z VRB05KT 10SM FEW038 FEW085 BKN260 25/17\ A3007 RMK AO2 SLP182 T02500172= 201710101651 METAR KJFK 101651Z 32008KT 10SM FEW040 FEW085 BKN250 27/17\ A3006 RMK AO2 SLP178 T02670167= 201710101751 METAR KJFK 101751Z 28009KT 10SM FEW045 BKN250 28/16 A3004\ RMK AO2 SLP174 T02780161 10283 20200\ 58011= 201710101851 METAR KJFK 101851Z 34011KT 10SM FEW045 BKN240 27/16 A3004\ RMK AO2 SLP172 T02720161= 201710101951 METAR KJFK 101951Z 34010KT 9SM FEW045 SCT240 27/16 A3004\ RMK AO2 SLP172 T02720161= 201710102051 METAR KJFK 102051Z 30005KT 10SM FEW045 FEW210 SCT250 28/16\ A3004 RMK AO2 SLP171 T02780161 56003= 201710102151 METAR KJFK 102151Z 30006KT 10SM FEW045 FEW210 SCT250 26/16\ A3005 RMK AO2 SLP176 T02610161= 201710102251 METAR KJFK 102251Z 23007KT 10SM FEW045 FEW210 FEW250 24/17\ A3007 RMK AO2 SLP181 T02440172= 201710102351 METAR KJFK 102351Z 17004KT 10SM FEW180 FEW250 21/19 A3009\ RMK AO2 SLP189 T02060189 10289 20206\ 53018= 201710110051 METAR KJFK 110051Z 00000KT 10SM FEW250 20/19 A3009 RMK AO2\ SLP190 T02000189= 201710110151 METAR KJFK 110151Z 00000KT 10SM FEW250 20/19 A3010 RMK AO2\ SLP193 T02000189= 201710110251 METAR KJFK 110251Z 00000KT 10SM FEW150 19/18 A3010 RMK AO2\ SLP194 T01940183 51005= 201710110351 METAR KJFK 110351Z 36005KT 10SM FEW150 20/17 A3010 RMK AO2\ SLP193 T02000172= 201710110451 METAR KJFK 110451Z 04005KT 10SM FEW150 19/17 A3010 RMK AO2\ SLP193 T01940172 402890189= 201710110551 METAR KJFK 110551Z 05003KT 10SM SCT150 18/17 A3011 RMK AO2\ SLP196 T01830167 10217 20183 53002= 201710110651 METAR KJFK 110651Z 01005KT 10SM SCT150 SCT250 18/16 A3010\ RMK AO2 SLP192 T01780161= 201710110751 METAR KJFK 110751Z 04003KT 10SM SCT150 SCT250 17/16 A3010\ RMK AO2 SLP191 T01670156= 201710110851 METAR KJFK 110851Z 03004KT 10SM BKN190 18/16 A3010 RMK AO2\ SLP192 T01780156 55004= 201710110951 METAR KJFK 110951Z 33003KT 10SM BKN210 18/16 A3012 RMK AO2\ SLP198 T01780156= 201710111051 METAR KJFK 111051Z 06004KT 10SM BKN170 BKN210 18/16 A3011\ RMK AO2 SLP196 T01830156= 201710111151 METAR KJFK 111151Z 01004KT 10SM BKN150 BKN210 18/16 A3013\ RMK AO2 SLP203 T01830156 10183 20167\ 53012= 201710111251 METAR KJFK 111251Z 03005KT 10SM -RA FEW070 BKN130 OVC200\ 19/16 A3014 RMK AO2 RAB48 SLP205\ P0000 T01890156= 201710111351 METAR KJFK 111351Z 03007KT 10SM FEW055 BKN130 BKN200 20/15\ A3015 RMK AO2 RAE1258 SLP210 P0000\ T02000150= 201710111451 METAR KJFK 111451Z 05008KT 10SM BKN130 BKN200 21/16 A3014\ RMK AO2 SLP205 60000 T02110156 50002= 201710111551 METAR KJFK 111551Z 08005KT 10SM SCT130 BKN180 22/16 A3015\ RMK AO2 SLP208 T02220156= 201710111651 METAR KJFK 111651Z 06009KT 10SM BKN150 BKN180 BKN250 23/16\ A3012 RMK AO2 SLP199 T02330156= 201710111751 METAR KJFK 111751Z 11013KT 10SM FEW037 BKN160 23/16 A3010\ RMK AO2 SLP194 60000 T02330156 10250\ 20183 58012= 201710111851 METAR KJFK 111851Z 11012KT 10SM FEW040 BKN140 BKN250 23/14\ A3009 RMK AO2 SLP190 T02280144= 201710111951 METAR KJFK 111951Z 11012KT 10SM FEW040 BKN110 BKN130 BKN250\ 22/16 A3009 RMK AO2 SLP190 T02220156= 201710112051 METAR KJFK 112051Z 11013KT 10SM FEW040 BKN110 BKN140 21/17\ A3009 RMK AO2 SLP190 T02060172 55003= 201710112151 METAR KJFK 112151Z 11007KT 10SM FEW040 BKN100 BKN120 BKN250\ 20/17 A3014 RMK AO2 SLP206 T02000167= 201710112251 METAR KJFK 112251Z 10011KT 10SM -RA FEW043 SCT080 OVC100\ 19/18 A3014 RMK AO2 RAB02 SLP207\ P0000 T01890178= 201710112351 METAR KJFK 112351Z 09010KT 10SM FEW035 BKN100 OVC140 19/17\ A3015 RMK AO2 RAE2255 SLP209 P0000\ 60000 T01890172 10239 20189 51018= 201710120051 METAR KJFK 120051Z 09009KT 10SM -RA FEW065 BKN110 OVC140\ 18/15 A3016 RMK AO2 RAB37 SLP212\ P0000 T01830150= 201710120151 METAR KJFK 120151Z 08010KT 10SM FEW065 BKN090 OVC120 18/16\ A3016 RMK AO2 RAE36 SLP213 P0002\ T01780156= 201710120251 METAR KJFK 120251Z 08013KT 10SM FEW012 FEW060 BKN120 OVC180\ 17/15 A3017 RMK AO2 SLP215 60002\ T01720150 51006= 201710120351 METAR KJFK 120351Z 08012G22KT 10SM SCT085 OVC180 18/14 A3017\ RMK AO2 SLP216 T01780139= 201710120451 METAR KJFK 120451Z 06012KT 10SM OVC080 17/14 A3019 RMK AO2\ SLP222 T01720139 402500167= 201710120551 METAR KJFK 120551Z 06012KT 10SM FEW024 OVC080 17/13 A3021\ RMK AO2 RAB20E38 SLP231 P0000 60002\ T01670133 10189 20167 53016= 201710120651 METAR KJFK 120651Z 06013KT 10SM -RA FEW024 OVC090 16/13 A3021\ RMK AO2 RAB0556 SLP230 P0000 T01560133\ $= 201710120751 METAR KJFK 120751Z 06013KT 10SM FEW025 BKN060 OVC100 16/13\ A3022 RMK AO2 RAE34 SLP234 P0000\ T01560133 $= 201710120851 METAR KJFK 120851Z 06014KT 8SM RA SCT027 OVC044 14/13 A3025\ RMK AO2 RAB0752 SLP243 P0003 60003\ T01440128 53012 $= 201710120951 METAR KJFK 120951Z 06017KT 10SM -RA BKN028 OVC046 14/13 A3026\ RMK AO2 SLP247 P0004 T01440128 $= 201710121051 METAR KJFK 121051Z 06016KT 10SM FEW025 BKN055 OVC110 14/12\ A3028 RMK AO2 RAE47 SLP255 P0001\ T01440122 $= 201710121151 METAR KJFK 121151Z 05016KT 10SM -RA SCT022 BKN060 BKN110\ BKN180 14/M01 A3031 RMK AO2 RAB02\ SLP262 P0000 60008 70010 T01391011\ 10167 20139 53019 $= 201710121251 METAR KJFK 121251Z 06014G21KT 10SM -RA FEW024 BKN060 BKN120\ BKN150 14/11 A3034 RMK AO2 RAE04B44\ SLP274 P0000 T01440106 $= 201710121351 METAR KJFK 121351Z 05016KT 10SM -RA SCT026 BKN060 BKN100\ BKN150 15/10 A3034 RMK AO2 RAE1255B43\ SLP275 SCT V BKN P0000 T01500100\ $= 201710121451 METAR KJFK 121451Z 05019G22KT 10SM BKN026 BKN065 BKN140 16/09\ A3036 RMK AO2 RAE00 SLP281 P0000\ 60000 T01560094 51019 $= 201710121551 METAR KJFK 121551Z 05018KT 10SM BKN028 BKN065 BKN120 16/09\ A3037 RMK AO2 SLP282 T01560089 $= 201710121651 METAR KJFK 121651Z 06017KT 10SM BKN032 BKN130 17/09 A3035\ RMK AO2 SLP278 T01670089 $= 201710121751 METAR KJFK 121751Z 06013KT 10SM BKN032 BKN130 17/09 A3035\ RMK AO2 SLP277 60000 T01720089 10178\ 20139 58004 $= 201710121851 METAR KJFK 121851Z 06012KT 10SM FEW037 BKN130 18/07 A3034\ RMK AO2 SLP273 T01830072 $= 201710121951 METAR KJFK 121951Z 06013KT 10SM FEW037 SCT130 18/09 A3034\ RMK AO2 SLP273 T01780089= 201710122051 METAR KJFK 122051Z 06014KT 10SM FEW039 SCT120 17/08 A3034\ RMK AO2 SLP275 T01720078 55002= 201710122151 METAR KJFK 122151Z 05009KT 10SM FEW039 SCT120 17/07 A3035\ RMK AO2 SLP278 T01670067= 201710122251 METAR KJFK 122251Z 07007KT 10SM FEW039 SCT120 15/07 A3037\ RMK AO2 SLP282 T01500072= 201710122351 METAR KJFK 122351Z 07011KT 10SM SCT120 14/07 A3039 RMK AO2\ SLP289 T01440072 10189 20144 53014= 201710130051 METAR KJFK 130051Z 07009KT 10SM BKN130 14/07 A3040 RMK AO2\ SLP294 T01390072= 201710130151 METAR KJFK 130151Z 07012KT 10SM SCT130 13/08 A3041 RMK AO2\ SLP297 T01330078= 201710130251 METAR KJFK 130251Z 07012KT 10SM BKN120 13/08 A3041 RMK AO2\ SLP297 T01330078 51008= 201710130351 METAR KJFK 130351Z 06011KT 10SM SCT130 12/08 A3041 RMK AO2\ SLP299 T01220078= 201710130451 METAR KJFK 130451Z 05010KT 10SM FEW035 FEW130 12/08 A3042\ RMK AO2 SLP300 T01220078 402890122= 201710130551 METAR KJFK 130551Z 05011KT 10SM FEW035 FEW130 12/08 A3042\ RMK AO2 SLP300 T01170083 10144 20117\ 51003= 201710130651 METAR KJFK 130651Z 04011KT 10SM FEW035 BKN120 12/08 A3041\ RMK AO2 SLP298 T01220083= 201710130751 METAR KJFK 130751Z 03009KT 10SM SCT029 BKN110 12/09 A3042\ RMK AO2 SLP302 T01220089= 201710130851 METAR KJFK 130851Z 04010KT 10SM FEW030 SCT110 12/09 A3042\ RMK AO2 SLP301 T01220089 53001= 201710130951 METAR KJFK 130951Z 04009KT 10SM SCT033 BKN110 12/09 A3042\ RMK AO2 SLP301 T01170094= 201710131051 METAR KJFK 131051Z 04010KT 10SM FEW033 BKN110 12/09 A3043\ RMK AO2 SLP305 T01220094= 201710131151 METAR KJFK 131151Z 04011KT 10SM FEW022 FEW030 BKN110 13/09\ A3044 RMK AO2 SLP307 T01280094 10128\ 20117 53007= 201710131251 METAR KJFK 131251Z 04011KT 10SM FEW022 BKN044 BKN100 14/10\ A3045 RMK AO2 SLP310 T01390100= 201710131351 METAR KJFK 131351Z 08011KT 10SM FEW019 BKN042 BKN100 16/11\ A3045 RMK AO2 SLP310 T01610106= 201710131451 METAR KJFK 131451Z 08011KT 10SM FEW027 BKN049 17/11 A3045\ RMK AO2 SLP311 T01720106 51003= 201710131551 METAR KJFK 131551Z 09013KT 10SM SCT031 BKN050 BKN095 19/11\ A3044 RMK AO2 SLP306 SCT V BKN T01940111= 201710131651 METAR KJFK 131651Z 09012G18KT 10SM FEW028 BKN045 19/11 A3041\ RMK AO2 SLP299 T01890111= 201710131751 METAR KJFK 131751Z 10010KT 10SM FEW026 BKN045 BKN080 18/12\ A3039 RMK AO2 SLP291 T01830122 10194\ 20128 58020= 201710131851 METAR KJFK 131851Z 10013KT 10SM FEW022 BKN044 BKN070 BKN250\ 18/13 A3038 RMK AO2 SLP286 T01830133= 201710131951 METAR KJFK 131951Z 09013KT 10SM FEW020 SCT044 BKN065 18/13\ A3037 RMK AO2 SLP285 T01830133= 201710132051 METAR KJFK 132051Z 08013KT 10SM SCT018 BKN065 BKN080 18/14\ A3036 RMK AO2 SLP279 T01780139 58012= 201710132151 METAR KJFK 132151Z 09011KT 10SM BKN017 OVC075 17/14 A3036\ RMK AO2 SLP279 T01670139= 201710132251 METAR KJFK 132251Z 09010KT 10SM BKN016 OVC070 17/14 A3035\ RMK AO2 SLP278 BKN V SCT T01670144= 201710132351 METAR KJFK 132351Z 08009KT 10SM BKN018 OVC060 17/14 A3035\ RMK AO2 SLP276 T01670144 10183 20167\ 58003= 201710140051 METAR KJFK 140051Z 07008KT 10SM BKN017 OVC060 17/14 A3035\ RMK AO2 SLP277 BKN V SCT T01670144= 201710140151 METAR KJFK 140151Z 07008KT 10SM BKN016 BKN036 OVC060 17/15\ A3034 RMK AO2 SLP275 T01670150= 201710140251 METAR KJFK 140251Z 06005KT 10SM BKN012 BKN040 OVC050 17/14\ A3033 RMK AO2 SLP271 T01670144 58004= 201710140351 METAR KJFK 140351Z 04007KT 10SM -DZ FEW012 BKN036 OVC049\ 17/15 A3032 RMK AO2 DZB46 SLP268\ P0000 T01670150= 201710140451 METAR KJFK 140451Z 02007KT 10SM -DZ BKN045 OVC055 17/15 A3031\ RMK AO2 SLP264 P0000 T01670150 401940117= 201710140551 METAR KJFK 140551Z 03006KT 3SM -RA BR BKN021 OVC036 16/16\ A3030 RMK AO2 DZE40RAB40 SLP261 P0001\ 60001 T01610156 10167 20161 57010= 201710140651 METAR KJFK 140651Z 04007KT 10SM FEW021 BKN029 OVC036 16/16\ A3028 RMK AO2 RAE0556 SLP254 P0000\ T01610156= 201710140751 METAR KJFK 140751Z 03007KT 10SM FEW010 OVC024 16/16 A3027\ RMK AO2 SLP249 T01610161= 201710140851 METAR KJFK 140851Z 04007KT 10SM SCT018 OVC028 17/16 A3026\ RMK AO2 SLP247 60000 T01670161 56014= 201710140951 METAR KJFK 140951Z 03007KT 9SM FEW015 BKN026 OVC035 17/17\ A3026 RMK AO2 SLP247 T01670167= 201710141051 METAR KJFK 141051Z 01006KT 10SM BKN010 OVC027 17/17 A3026\ RMK AO2 SLP245 T01670167= 201710141151 METAR KJFK 141151Z 03008KT 10SM BKN009 BKN035 BKN042 17/17\ A3025 RMK AO2 SLP244 60000 70001\ T01720172 10172 20156 58003= 201710141251 METAR KJFK 141251Z 04007KT 10SM BKN008 OVC023 18/17 A3026\ RMK AO2 SLP246 T01780172= 201710141351 METAR KJFK 141351Z 02007KT 10SM OVC008 19/18 A3026 RMK AO2\ SLP246 T01890178= 201710141451 METAR KJFK 141451Z 36008KT 10SM BKN008 OVC017 19/18 A3025\ RMK AO2 SLP242 T01940178 58002= 201710141551 METAR KJFK 141551Z 04007KT 10SM SCT009 BKN023 OVC040 21/18\ A3024 RMK AO2 SLP239 T02110178= 201710141651 METAR KJFK 141651Z 05009KT 10SM BKN020 OVC035 23/18 A3022\ RMK AO2 SLP233 T02280178= 201710141751 METAR KJFK 141751Z 36005KT 10SM BKN020 BKN035 23/18 A3019\ RMK AO2 SLP223 T02280178 10228 20172\ 58018= 201710141851 METAR KJFK 141851Z 00000KT 10SM BKN021 22/18 A3018 RMK AO2\ SLP219 T02220178= 201710141951 METAR KJFK 141951Z VRB03KT 10SM BKN022 22/18 A3017 RMK AO2\ SLP216 T02220178= 201710142051 METAR KJFK 142051Z 35006KT 10SM BKN022 BKN036 22/18 A3016\ RMK AO2 SLP214 T02220178 56010= 201710142151 METAR KJFK 142151Z 00000KT 10SM BKN023 BKN037 BKN250 22/18\ A3017 RMK AO2 SLP216 T02220178= 201710142251 METAR KJFK 142251Z 21006KT 10SM FEW023 SCT038 BKN250 19/18\ A3018 RMK AO2 SLP219 T01940183= 201710142351 METAR KJFK 142351Z 23008KT 10SM OVC023 20/18 A3019 RMK AO2\ SLP222 T02000178 10233 20194 53008= 201710150051 METAR KJFK 150051Z 24006KT 10SM OVC025 20/18 A3019 RMK AO2\ SLP223 T02000183= 201710150151 METAR KJFK 150151Z 24007KT 10SM OVC026 20/18 A3019 RMK AO2\ SLP221 T02000183= 201710150251 METAR KJFK 150251Z 18007KT 10SM FEW011 BKN018 OVC029 19/18\ A3018 RMK AO2 SLP220 T01940183 58002= 201710150351 METAR KJFK 150351Z 19005KT 8SM FEW006 BKN016 OVC028 19/19\ A3018 RMK AO2 SLP218 T01890189= 201710150451 METAR KJFK 150451Z 19006KT 5SM BR FEW008 BKN021 OVC034 19/19\ A3016 RMK AO2 SLP213 T01890189 402330156= 201710150551 METAR KJFK 150551Z 20005KT 3SM -DZ BR BKN003 BKN007 OVC018\ 19/19 A3015 RMK AO2 SFC VIS 4 DZB07E28B47\ SLP210 P0000 60000 T01890189 10206\ 20183 58011= 201710150651 METAR KJFK 150651Z 23004KT 3SM -DZ BR BKN004 OVC014 19/19\ A3014 RMK AO2 SFC VIS 5 SLP206 P0000\ T01890189= 201710150751 METAR KJFK 150751Z 21004KT 1SM R04R/P6000FT -DZ BR BKN003\ OVC008 18/18 A3012 RMK AO2 SFC VIS\ 3 SLP198 P0000 T01830183= 201710150851 METAR KJFK 150851Z 23005KT 1 1/2SM -DZ BR BKN004 OVC011 18/18\ A3011 RMK AO2 SFC VIS 3 SLP196 P0000\ 60000 T01830183 56014= 201710150951 METAR KJFK 150951Z 25005KT 1 1/2SM BR BKN004 OVC009 18/18\ A3011 RMK AO2 SFC VIS 4 DZE49 SLP194\ P0000 T01830183 $= 201710151051 METAR KJFK 151051Z 21005KT 1SM R04R/P6000FT BR BKN003 OVC011\ 18/18 A3009 RMK AO2 SFC VIS 2 SLP189\ T01830183 $= 201710151151 METAR KJFK 151151Z 22006KT 1/2SM R04R/6000VP6000FT -DZ BR\ OVC003 18/18 A3009 RMK AO2 SFC VIS\ 1 DZB24 SLP188 P0000 60000 T01830183\ 10189 20183 56008 $= 201710151251 METAR KJFK 151251Z 20006KT 1/2SM R04R/5500VP6000FT -DZ BR\ OVC003 19/19 A3009 RMK AO2 SFC VIS\ 3/4 SLP188 P0001 T01890189 $= 201710151351 METAR KJFK 151351Z 18011KT 1 1/2SM -DZ BR OVC005 19/19 A3008\ RMK AO2 SFC VIS 3 SLP184 P0000 T01940194\ $= 201710151451 METAR KJFK 151451Z 20011KT 3SM -DZ BR BKN005 OVC010 19/19\ A3005 RMK AO2 SLP176 P0000 60001\ T01940194 58012 $= 201710151551 METAR KJFK 151551Z 19010KT 7SM BKN005 OVC013 19/19 A3003\ RMK AO2 DZE49 SLP169 P0000 T01940194\ $= 201710151651 METAR KJFK 151651Z 19007KT 10SM SCT006 BKN018 OVC026 21/19\ A2999 RMK AO2 SLP157 T02060194 $= 201710151751 METAR KJFK 151751Z 19009KT 10SM FEW012 FEW017 BKN030 BKN250\ 22/19 A2995 RMK AO2 SLP143 60001\ T02170194 10222 20183 58033 $= 201710151851 METAR KJFK 151851Z 20007KT 10SM FEW011 OVC026 21/19 A2993\ RMK AO2 SLP136 T02110194 $= 201710151951 METAR KJFK 151951Z 22014KT 10SM BKN028 23/18 A2991 RMK AO2\ SLP127 T02280178 $= 201710152051 METAR KJFK 152051Z 21011KT 10SM BKN027 22/18 A2989 RMK AO2\ SLP122 T02220183 56021 $= 201710152151 METAR KJFK 152151Z 23015KT 10SM OVC026 22/18 A2988 RMK AO2\ SLP119 T02170178 $= 201710152251 METAR KJFK 152251Z 22012KT 10SM OVC024 21/18 A2987 RMK AO2\ SLP115 T02110178 $= 201710152351 METAR KJFK 152351Z 21013KT 10SM OVC021 21/18 A2986 RMK AO2\ SLP111 T02110183 10233 20206 58011\ $= 201710160051 METAR KJFK 160051Z 20011KT 10SM SCT021 20/18 A2984 RMK AO2\ SLP104 T02000178 $= 201710160151 METAR KJFK 160151Z 20011KT 10SM SCT025 19/18 A2985 RMK AO2\ SLP106 T01940183 $= 201710160251 METAR KJFK 160251Z 20010KT 10SM SCT017 19/18 A2983 RMK AO2\ SLP100 T01940183 58011 $= 201710160351 METAR KJFK 160351Z 22011KT 10SM FEW015 SCT060 19/19 A2982\ RMK AO2 SLP096 T01940189 $= 201710160451 METAR KJFK 160451Z 25008KT 10SM SCT016 OVC070 20/19 A2983\ RMK AO2 SLP100 T02000189 402330183\ $= 201710160551 METAR KJFK 160551Z 26012G19KT 10SM SCT015 OVC080 21/19 A2982\ RMK AO2 RAB26E47 SLP096 P0000 60000\ T02060194 10211 20194 57003 $= 201710160651 METAR KJFK 160651Z 28012KT 10SM BKN018 OVC100 21/19 A2983\ RMK AO2 SLP102 T02060189 $= 201710160751 METAR KJFK 160751Z 32019G23KT 10SM FEW020 BKN043 OVC090 19/15\ A2983 RMK AO2 SLP102 T01940150 $= 201710160851 METAR KJFK 160851Z 31017KT 10SM -RA FEW020 SCT043 OVC100\ 17/13 A2986 RMK AO2 PK WND 32028/0802\ RAB47 SLP113 P0000 60000 T01670133\ 53017 $= 201710160951 METAR KJFK 160951Z 33017KT 10SM FEW022 OVC085 17/12 A2988\ RMK AO2 RAE47 SLP119 P0000 T01670117\ $= 201710161051 METAR KJFK 161051Z 33017G25KT 10SM FEW025 BKN100 16/09 A2990\ RMK AO2 RAB34E45 SLP126 P0000 T01610089\ $= 201710161151 METAR KJFK 161151Z 33012G19KT 10SM FEW025 SCT095 BKN130 16/08\ A2994 RMK AO2 PK WND 30026/1058 RAB1053E03\ SLP138 P0000 60000 70001 T01560083\ 10206 20156 53025 $= 201710161251 METAR KJFK 161251Z 32019G25KT 10SM FEW033 SCT095 BKN140 14/06\ A2996 RMK AO2 PK WND 33026/1216 SLP146\ T01440056 $= 201710161351 METAR KJFK 161351Z 31011KT 10SM FEW060 BKN110 BKN140 14/06\ A2999 RMK AO2 PK WND 33027/1300 RAB23E35\ SLP155 P0000 T01390056 $= 201710161451 METAR KJFK 161451Z 33017KT 10SM FEW060 SCT100 BKN160 14/06\ A3000 RMK AO2 SLP160 60000 T01440056\ 51022 $= 201710161551 METAR KJFK 161551Z 32014G20KT 10SM FEW042 SCT100 BKN170 14/06\ A3002 RMK AO2 SLP166 T01440056 $= 201710161651 METAR KJFK 161651Z 35014KT 10SM FEW042 BKN180 15/06 A3000\ RMK AO2 SLP157 T01500061 $= 201710161751 METAR KJFK 161751Z 32013KT 10SM SCT039 BKN180 14/06 A3000\ RMK AO2 SLP160 60000 T01440056 10156\ 20139 58000= 201710161851 METAR KJFK 161851Z 33014G21KT 10SM SCT041 SCT210 BKN240 15/05\ A3002 RMK AO2 SLP166 T01500050= 201710161951 METAR KJFK 161951Z 32014KT 10SM FEW042 SCT210 BKN250 15/05\ A3004 RMK AO2 SLP170 T01500050= 201710162051 METAR KJFK 162051Z 31016KT 10SM FEW042 SCT200 BKN250 14/04\ A3006 RMK AO2 SLP178 T01390044 53018= 201710162151 METAR KJFK 162151Z 33012KT 10SM FEW043 BKN250 13/04 A3008\ RMK AO2 SLP184 T01330039= 201710162251 METAR KJFK 162251Z 34014KT 10SM SCT043 BKN250 13/03 A3011\ RMK AO2 SLP194 T01280028= 201710162351 METAR KJFK 162351Z 31016G25KT 10SM SCT050 BKN250 13/02 A3014\ RMK AO2 SLP204 T01280017 10161 20128\ 53026= 201710170051 METAR KJFK 170051Z 34013G20KT 10SM FEW050 SCT250 12/02 A3016\ RMK AO2 SLP212 T01170017= 201710170151 METAR KJFK 170151Z 34013KT 10SM FEW050 FEW250 11/01 A3019\ RMK AO2 SLP222 T01060006= 201710170251 METAR KJFK 170251Z 33015G20KT 10SM FEW050 09/M01 A3020 RMK\ AO2 SLP227 T00941006 51022= 201710170351 METAR KJFK 170351Z 35013KT 10SM CLR 09/M01 A3021 RMK AO2\ SLP231 T00891006= 201710170451 METAR KJFK 170451Z 34011KT 10SM CLR 08/M01 A3022 RMK AO2\ SLP234 T00831006 402060078= 201710170551 METAR KJFK 170551Z 33010KT 10SM CLR 08/00 A3024 RMK AO2 SLP240\ T00780000 10128 20072 53014= 201710170651 METAR KJFK 170651Z 33009KT 10SM CLR 07/00 A3025 RMK AO2 SLP243\ T00720000= 201710170751 METAR KJFK 170751Z 36006KT 10SM CLR 07/01 A3025 RMK AO2 SLP244\ T00670006= 201710170851 METAR KJFK 170851Z 01010KT 10SM CLR 07/01 A3027 RMK AO2 SLP250\ T00720006 53010= 201710170951 METAR KJFK 170951Z 36008KT 10SM CLR 06/01 A3030 RMK AO2 SLP258\ T00610011= 201710171051 METAR KJFK 171051Z 36009KT 10SM FEW030 FEW250 06/02 A3032\ RMK AO2 SLP266 T00610017= 201710171151 METAR KJFK 171151Z 01010KT 10SM FEW033 07/02 A3033 RMK AO2\ SLP270 T00720017 10078 20056 51020= 201710171251 METAR KJFK 171251Z 36012KT 10SM FEW035 08/01 A3036 RMK AO2\ SLP278 T00830006= 201710171351 METAR KJFK 171351Z 35016G20KT 10SM FEW042 09/M01 A3036 RMK\ AO2 SLP279 T00941011= 201710171451 METAR KJFK 171451Z 01009KT 10SM FEW045 FEW250 11/M01 A3034\ RMK AO2 SLP275 T01111006 50005= 201710171551 METAR KJFK 171551Z 36004KT 10SM FEW250 12/M01 A3034 RMK AO2\ SLP272 T01171006= 201710171651 METAR KJFK 171651Z VRB04KT 10SM FEW250 13/M01 A3032 RMK AO2\ SLP268 T01281006= 201710171751 METAR KJFK 171751Z 28005KT 10SM FEW250 14/M02 A3030 RMK AO2\ SLP261 T01441017 10144 20072 58014= 201710171851 METAR KJFK 171851Z VRB03KT 10SM FEW250 15/M02 A3029 RMK AO2\ SLP256 T01501017= 201710171951 METAR KJFK 171951Z 21008KT 10SM FEW250 14/02 A3028 RMK AO2\ SLP255 T01440017= 201710172051 METAR KJFK 172051Z 19008KT 10SM FEW250 13/02 A3027 RMK AO2\ SLP250 T01330022 57010= 201710172151 METAR KJFK 172151Z 18008KT 10SM FEW250 12/02 A3027 RMK AO2\ SLP250 T01220022= 201710172251 METAR KJFK 172251Z 19009KT 10SM FEW250 12/04 A3028 RMK AO2\ SLP252 T01170039= 201710172351 METAR KJFK 172351Z 19012KT 10SM CLR 12/06 A3029 RMK AO2 SLP257\ T01220056 10156 20111 53006= 201710180051 METAR KJFK 180051Z 21009KT 10SM CLR 12/06 A3029 RMK AO2 SLP258\ T01220061= 201710180151 METAR KJFK 180151Z 22011KT 10SM CLR 12/07 A3030 RMK AO2 SLP261\ T01220067= 201710180251 METAR KJFK 180251Z 23014KT 10SM CLR 13/05 A3031 RMK AO2 SLP264\ T01280050 53007= 201710180351 METAR KJFK 180351Z 24014KT 10SM CLR 13/05 A3030 RMK AO2 SLP261\ T01280050= 201710180451 METAR KJFK 180451Z 25012KT 10SM CLR 12/06 A3030 RMK AO2 SLP261\ T01220056 401560056= 201710180551 METAR KJFK 180551Z 26014KT 10SM CLR 12/04 A3030 RMK AO2 SLP261\ T01170044 10128 20117 56003= 201710180651 METAR KJFK 180651Z 26012KT 10SM CLR 11/04 A3030 RMK AO2 SLP260\ T01110044= 201710180751 METAR KJFK 180751Z 24010KT 10SM CLR 11/05 A3028 RMK AO2 SLP255\ T01110050= 201710180851 METAR KJFK 180851Z 23009KT 10SM CLR 11/05 A3029 RMK AO2 SLP257\ T01060050 55003= 201710180951 METAR KJFK 180951Z 26011KT 10SM CLR 11/05 A3031 RMK AO2 SLP262\ T01060050= 201710181051 METAR KJFK 181051Z 25009KT 10SM CLR 10/05 A3032 RMK AO2 SLP267\ T01000050= 201710181151 METAR KJFK 181151Z 25009KT 10SM FEW250 11/05 A3033 RMK AO2\ SLP270 T01060050 10117 20100 51013= 201710181251 METAR KJFK 181251Z 25008KT 10SM FEW250 12/05 A3034 RMK AO2\ SLP274 T01220050= 201710181351 METAR KJFK 181351Z 29007KT 10SM FEW250 15/05 A3033 RMK AO2\ SLP271 T01500050= 201710181451 METAR KJFK 181451Z VRB04KT 10SM FEW250 17/05 A3033 RMK AO2\ SLP270 T01720050 50000= 201710181551 METAR KJFK 181551Z 32006KT 10SM FEW250 19/06 A3033 RMK AO2\ SLP270 T01940056= 201710181651 METAR KJFK 181651Z 24008KT 10SM FEW250 20/07 A3031 RMK AO2\ SLP265 T02000067= 201710181751 METAR KJFK 181751Z 23008KT 10SM CLR 21/08 A3029 RMK AO2 SLP256\ T02060078 10211 20106 58014= 201710181851 METAR KJFK 181851Z 23008KT 10SM CLR 21/09 A3028 RMK AO2 SLP253\ T02110089= 201710181951 METAR KJFK 181951Z 21011KT 10SM CLR 21/09 A3027 RMK AO2 SLP251\ T02060094= 201710182051 METAR KJFK 182051Z 18011KT 10SM CLR 18/12 A3027 RMK AO2 SLP250\ T01830117 56006= 201710182151 METAR KJFK 182151Z 19012KT 10SM CLR 18/12 A3027 RMK AO2 SLP250\ T01780122= 201710182251 METAR KJFK 182251Z 19011KT 10SM CLR 17/13 A3028 RMK AO2 SLP253\ T01720128= 201710182351 METAR KJFK 182351Z 19010KT 10SM CLR 17/14 A3029 RMK AO2 SLP256\ T01670139 10217 20167 53005= 201710190051 METAR KJFK 190051Z 19008KT 10SM CLR 16/14 A3030 RMK AO2 SLP259\ T01610139= 201710190151 METAR KJFK 190151Z 22010KT 10SM CLR 17/12 A3030 RMK AO2 SLP262\ T01670117= 201710190251 METAR KJFK 190251Z 23007KT 10SM CLR 16/11 A3030 RMK AO2 SLP260\ T01560111 50004= 201710190351 METAR KJFK 190351Z 22006KT 10SM CLR 14/11 A3029 RMK AO2 SLP258\ T01440111= 201710190451 METAR KJFK 190451Z 24006KT 10SM CLR 13/11 A3029 RMK AO2 SLP257\ T01330106 402170100= 201710190551 METAR KJFK 190551Z 24005KT 10SM CLR 13/11 A3028 RMK AO2 SLP254\ T01280106 10172 20128 58006= 201710190651 METAR KJFK 190651Z 23006KT 10SM CLR 12/11 A3028 RMK AO2 SLP252\ T01220111= 201710190751 METAR KJFK 190751Z 24004KT 10SM CLR 12/11 A3027 RMK AO2 SLP249\ T01220106= 201710190851 METAR KJFK 190851Z 24008KT 10SM CLR 12/09 A3027 RMK AO2 SLP249\ T01220094 56005= 201710190951 METAR KJFK 190951Z 24007KT 10SM FEW250 12/10 A3027 RMK AO2\ SLP251 T01220100= 201710191051 METAR KJFK 191051Z 24005KT 10SM SCT250 11/09 A3027 RMK AO2\ SLP248 T01110089= 201710191151 METAR KJFK 191151Z 19004KT 10SM SCT250 13/11 A3027 RMK AO2\ SLP248 T01280111 10133 20106 58001= 201710191251 METAR KJFK 191251Z 24010KT 10SM SCT250 16/12 A3028 RMK AO2\ SLP252 T01560117= 201710191351 METAR KJFK 191351Z 22011KT 10SM SCT250 17/11 A3027 RMK AO2\ SLP248 T01670111= 201710191451 METAR KJFK 191451Z 24009KT 10SM SCT250 18/10 A3026 RMK AO2\ SLP246 T01780100 58002= 201710191551 METAR KJFK 191551Z 23009KT 10SM FEW250 20/09 A3025 RMK AO2\ SLP242 T02000094= 201710191651 METAR KJFK 191651Z 21011KT 10SM FEW250 19/08 A3021 RMK AO2\ SLP231 T01940078= 201710191751 METAR KJFK 191751Z 20010KT 10SM FEW250 21/08 A3018 RMK AO2\ SLP220 T02060078 10206 20133 58026= 201710191851 METAR KJFK 191851Z 18010KT 10SM FEW250 20/11 A3015 RMK AO2\ SLP209 T02000111= 201710191951 METAR KJFK 191951Z 19013KT 10SM FEW250 19/13 A3014 RMK AO2\ SLP204 T01940128= 201710192051 METAR KJFK 192051Z 19014KT 10SM FEW200 SCT250 19/13 A3010\ RMK AO2 SLP193 T01890133 56027= 201710192151 METAR KJFK 192151Z 19013KT 10SM FEW250 18/14 A3010 RMK AO2\ SLP192 T01780144= 201710192251 METAR KJFK 192251Z 21009KT 10SM FEW250 17/13 A3010 RMK AO2\ SLP191 T01670133= 201710192351 METAR KJFK 192351Z 21011KT 10SM FEW250 18/09 A3010 RMK AO2\ SLP193 T01780094 10211 20167 55000= 201710200051 METAR KJFK 200051Z 22013KT 10SM FEW250 17/11 A3010 RMK AO2\ SLP191 T01720106= 201710200151 METAR KJFK 200151Z 23012KT 10SM FEW250 17/10 A3011 RMK AO2\ SLP195 T01670100= 201710200251 METAR KJFK 200251Z 23011KT 10SM FEW250 17/11 A3010 RMK AO2\ SLP193 T01670106 50000= 201710200351 METAR KJFK 200351Z 23011KT 10SM FEW250 16/11 A3010 RMK AO2\ SLP192 T01560106= 201710200451 METAR KJFK 200451Z 23009KT 10SM SCT250 14/12 A3009 RMK AO2\ SLP189 T01440117 402110106= 201710200551 METAR KJFK 200551Z 23007KT 10SM FEW250 14/11 A3009 RMK AO2\ SLP189 T01390106 10178 20139 56004= 201710200651 METAR KJFK 200651Z 26005KT 10SM FEW250 14/10 A3008 RMK AO2\ SLP185 T01440100= 201710200751 METAR KJFK 200751Z 28005KT 10SM FEW250 15/09 A3008 RMK AO2\ SLP186 T01500089= 201710200851 METAR KJFK 200851Z 29005KT 10SM FEW250 14/09 A3010 RMK AO2\ SLP191 T01440089 53002= 201710200951 METAR KJFK 200951Z 27009KT 10SM FEW250 15/09 A3011 RMK AO2\ SLP195 T01500089= 201710201051 METAR KJFK 201051Z 27011KT 10SM FEW120 FEW250 14/09 A3013\ RMK AO2 SLP202 T01440089= 201710201151 METAR KJFK 201151Z 28009KT 10SM FEW120 SCT250 15/10 A3015\ RMK AO2 SLP210 T01500100 10156 20133\ 53019= 201710201251 METAR KJFK 201251Z 32008KT 10SM SCT250 18/06 A3016 RMK AO2\ SLP213 T01780061= 201710201351 METAR KJFK 201351Z 31013KT 10SM SCT250 18/03 A3018 RMK AO2\ SLP220 T01830033= 201710201451 METAR KJFK 201451Z 32011KT 10SM FEW250 20/02 A3017 RMK AO2\ SLP216 T02000022 50006= 201710201551 METAR KJFK 201551Z 34014G20KT 10SM FEW250 21/M03 A3016 RMK\ AO2 SLP213 T02111028= 201710201651 METAR KJFK 201651Z 31011G23KT 10SM FEW250 23/M04 A3013 RMK\ AO2 SLP203 T02281044= 201710201751 METAR KJFK 201751Z 31013G19KT 10SM FEW250 23/M03 A3011 RMK\ AO2 SLP196 T02331028 10233 20150\ 58020= 201710201851 METAR KJFK 201851Z 31013G17KT 10SM FEW250 24/M02 A3011 RMK\ AO2 SLP194 T02391017= 201710201951 METAR KJFK 201951Z 32012G18KT 10SM FEW250 24/M01 A3010 RMK\ AO2 SLP192 T02391011= 201710202051 METAR KJFK 202051Z 32014KT 10SM FEW250 23/M01 A3010 RMK AO2\ SLP193 T02331011 55003= 201710202151 METAR KJFK 202151Z 31011KT 10SM FEW250 22/01 A3012 RMK AO2\ SLP198 T02170006= 201710202251 METAR KJFK 202251Z 30008KT 10SM FEW250 21/02 A3014 RMK AO2\ SLP206 T02110022= 201710202351 METAR KJFK 202351Z 30008KT 10SM FEW250 21/03 A3016 RMK AO2\ SLP212 T02060028 10239 20206 53019= 201710210051 METAR KJFK 210051Z 33009KT 10SM FEW250 20/02 A3016 RMK AO2\ SLP213 T02000022= 201710210151 METAR KJFK 210151Z 31009KT 10SM FEW250 19/03 A3019 RMK AO2\ SLP224 T01890028= 201710210251 METAR KJFK 210251Z 32007KT 10SM FEW250 17/03 A3021 RMK AO2\ SLP230 T01670028 53018= 201710210351 METAR KJFK 210351Z AUTO 31004KT 10SM CLR 17/02 A3022 RMK\ AO2 SLP233 T01720022= 201710210451 METAR KJFK 210451Z AUTO 32005KT 10SM CLR 17/02 A3023 RMK\ AO2 SLP236 T01670022 402390133= 201710210551 METAR KJFK 210551Z AUTO 00000KT 10SM CLR 13/06 A3025 RMK\ AO2 SLP242 T01330061 10206 20117\ 53012= 201710210651 METAR KJFK 210651Z AUTO 33004KT 10SM CLR 13/06 A3025 RMK\ AO2 SLP244 T01280056= 201710210751 METAR KJFK 210751Z 33006KT 10SM FEW250 13/04 A3026 RMK AO2\ SLP246 T01280039= 201710210851 METAR KJFK 210851Z 01003KT 10SM FEW250 12/04 A3026 RMK AO2\ SLP247 T01170044 51005= 201710210951 METAR KJFK 210951Z 34003KT 10SM FEW250 11/05 A3028 RMK AO2\ SLP252 T01060050= 201710211051 METAR KJFK 211051Z 00000KT 10SM FEW250 11/07 A3029 RMK AO2\ SLP256 T01060072= 201710211151 METAR KJFK 211151Z 00000KT 10SM BKN250 12/07 A3031 RMK AO2\ SLP264 T01170067 10150 20089 53017= 201710211251 METAR KJFK 211251Z 34003KT 10SM BKN250 17/06 A3034 RMK AO2\ SLP273 T01670061= 201710211351 METAR KJFK 211351Z 00000KT 10SM SCT250 20/06 A3034 RMK AO2\ SLP275 T02000056= 201710211451 METAR KJFK 211451Z 23004KT 10SM FEW250 21/06 A3035 RMK AO2\ SLP275 T02110061 51011= 201710211551 METAR KJFK 211551Z 25005KT 10SM SCT250 23/06 A3035 RMK AO2\ SLP275 T02330061= 201710211651 METAR KJFK 211651Z 20007KT 10SM BKN250 23/08 A3033 RMK AO2\ SLP270 T02330078= 201710211751 METAR KJFK 211751Z 20008KT 10SM BKN250 24/06 A3032 RMK AO2\ SLP266 T02390061 10239 20111 58010= 201710211851 METAR KJFK 211851Z 17011KT 10SM BKN250 23/08 A3031 RMK AO2\ SLP264 T02280083= 201710211951 METAR KJFK 211951Z 19012KT 10SM BKN250 21/09 A3032 RMK AO2\ SLP266 T02060094= 201710212051 METAR KJFK 212051Z 19009KT 10SM BKN250 19/09 A3032 RMK AO2\ SLP268 T01940089 53003= 201710212151 METAR KJFK 212151Z 19009KT 10SM BKN250 18/09 A3033 RMK AO2\ SLP271 T01830094= 201710212251 METAR KJFK 212251Z 19008KT 10SM BKN250 17/12 A3035 RMK AO2\ SLP275 T01720117= 201710212351 METAR KJFK 212351Z 19008KT 10SM BKN250 17/14 A3035 RMK AO2\ SLP278 T01720139 10244 20172 51009= 201710220051 METAR KJFK 220051Z 21007KT 10SM SCT250 17/14 A3036 RMK AO2\ SLP279 T01670144= 201710220151 METAR KJFK 220151Z 23006KT 10SM SCT250 16/12 A3036 RMK AO2\ SLP282 T01560122= 201710220251 METAR KJFK 220251Z 24005KT 10SM SCT250 15/12 A3037 RMK AO2\ SLP283 T01500122 51005= 201710220351 METAR KJFK 220351Z 22006KT 10SM SCT250 14/11 A3037 RMK AO2\ SLP282 T01390106= 201710220451 METAR KJFK 220451Z 25003KT 10SM SCT250 15/12 A3037 RMK AO2\ SLP283 T01500122 402440089= 201710220551 METAR KJFK 220551Z 24005KT 10SM FEW250 14/10 A3037 RMK AO2\ SLP283 T01390100 10172 20133 53000= 201710220651 METAR KJFK 220651Z 23005KT 10SM FEW250 13/10 A3036 RMK AO2\ SLP280 T01280100= 201710220751 METAR KJFK 220751Z 00000KT 10SM FEW250 13/09 A3036 RMK AO2\ SLP282 T01280094= 201710220851 METAR KJFK 220851Z 00000KT 10SM SCT250 11/09 A3037 RMK AO2\ SLP284 T01060094 53001= 201710220951 METAR KJFK 220951Z 00000KT 10SM FEW250 11/09 A3038 RMK AO2\ SLP286 T01060094= 201710221051 METAR KJFK 221051Z 00000KT 10SM FEW250 11/09 A3039 RMK AO2\ SLP292 T01060094= 201710221151 METAR KJFK 221151Z 00000KT 10SM FEW200 BKN250 12/10 A3041\ RMK AO2 SLP296 T01170100 10144 20094\ 53012= 201710221251 METAR KJFK 221251Z 00000KT 10SM FEW200 BKN250 16/13 A3042\ RMK AO2 SLP302 T01560128= 201710221351 METAR KJFK 221351Z 19003KT 10SM FEW200 BKN250 18/14 A3043\ RMK AO2 SLP303 T01830139= 201710221451 METAR KJFK 221451Z 17003KT 10SM FEW200 BKN250 21/12 A3042\ RMK AO2 SLP301 T02060117 50005= 201710221551 METAR KJFK 221551Z 16006KT 10SM FEW200 BKN250 22/11 A3042\ RMK AO2 SLP301 T02170106= 201710221651 METAR KJFK 221651Z 16007KT 10SM FEW200 BKN250 22/12 A3042\ RMK AO2 SLP299 T02170117= 201710221751 METAR KJFK 221751Z 17008KT 10SM FEW200 BKN250 22/12 A3040\ RMK AO2 SLP292 T02170117 10222 20117\ 58008= 201710221851 METAR KJFK 221851Z 17008KT 10SM FEW200 BKN250 22/11 A3039\ RMK AO2 SLP290 T02170111= 201710221951 METAR KJFK 221951Z 17009KT 10SM SCT200 BKN250 20/12 A3038\ RMK AO2 SLP286 T02000122= 201710222051 METAR KJFK 222051Z 17010KT 10SM FEW180 BKN250 19/13 A3038\ RMK AO2 SLP286 T01940128 56006= 201710222151 METAR KJFK 222151Z 15007KT 10SM SCT180 BKN250 18/14 A3037\ RMK AO2 SLP283 VIRGA OHD T01780144= 201710222251 METAR KJFK 222251Z 14005KT 10SM BKN250 16/15 A3037 RMK AO2\ SLP283 T01610150= 201710222351 METAR KJFK 222351Z 14004KT 10SM BKN250 16/15 A3038 RMK AO2\ SLP286 T01610150 10217 20156 55000= 201710230051 METAR KJFK 230051Z 14003KT 10SM BKN250 16/14 A3039 RMK AO2\ SLP289 T01560144= 201710230151 METAR KJFK 230151Z 11003KT 10SM BKN250 15/14 A3039 RMK AO2\ SLP290 T01500144= 201710230251 METAR KJFK 230251Z 00000KT 10SM BKN250 16/15 A3039 RMK AO2\ SLP291 T01560150 51004= 201710230351 METAR KJFK 230351Z 12005KT 10SM SCT180 BKN260 14/14 A3039\ RMK AO2 SLP289 T01440144= 201710230451 METAR KJFK 230451Z 12005KT 10SM FEW180 SCT250 13/13 A3037\ RMK AO2 SLP284 T01330133 402220094= 201710230551 METAR KJFK 230551Z 13004KT 10SM BKN260 14/14 A3036 RMK AO2\ SLP280 T01440144 10161 20133 58011= 201710230651 METAR KJFK 230651Z 10003KT 10SM FEW011 BKN250 13/13 A3034\ RMK AO2 SLP273 T01330133= 201710230751 METAR KJFK 230751Z 05003KT 10SM FEW006 OVC026 14/14 A3033\ RMK AO2 SLP270 T01440144= 201710230851 METAR KJFK 230851Z 04003KT 10SM FEW007 OVC025 15/15 A3033\ RMK AO2 SLP271 T01500150 55008= 201710230951 METAR KJFK 230951Z 04005KT 10SM FEW007 OVC024 16/16 A3033\ RMK AO2 SLP270 T01560156= 201710231051 METAR KJFK 231051Z 08006KT 9SM FEW007 SCT028 BKN042 BKN230\ 15/15 A3031 RMK AO2 SLP265 T01500150= 201710231151 METAR KJFK 231151Z 09005KT 9SM FEW007 FEW025 SCT042 SCT250\ 16/16 A3031 RMK AO2 SLP262 T01560156\ 10161 20128 58009= 201710231251 METAR KJFK 231251Z 13007KT 10SM FEW007 FEW021 BKN250 19/18\ A3031 RMK AO2 SLP265 T01890183= 201710231351 METAR KJFK 231351Z 15010KT 10SM SCT008 BKN250 21/18 A3030= 201710231451 METAR KJFK 231451Z 14010KT 10SM FEW012 FEW050 BKN250 22/18\ A3028= 201710231551 METAR KJFK 231551Z 15013KT 10SM FEW018 FEW050 BKN250 22/18\ A3027= 201710231651 METAR KJFK 231651Z 15013KT 10SM FEW024 SCT060 BKN250 22/18\ A3024= 201710231751 METAR KJFK 231751Z 14013KT 10SM FEW025 BKN060 BKN250 21/18\ A3022 RMK SLP232 T02110178 10228\ 20156 58020= 201710231851 METAR KJFK 231851Z 15016KT 10SM FEW033 BKN060 BKN240 21/18\ A3019= 201710231951 METAR KJFK 231951Z 13015KT 10SM FEW025 BKN055 OVC200 21/18\ A3016= 201710232051 METAR KJFK 232051Z 13014G21KT 10SM FEW028 BKN060 BKN200 OVC250\ 20/18 A3015= 201710232151 METAR KJFK 232151Z 14012KT 10SM FEW050 BKN065 BKN200 OVC250\ 19/18 A3013= 201710232251 METAR KJFK 232251Z 14014KT 10SM FEW043 BKN070 OVC200 19/18\ A3012= 201710232351 METAR KJFK 232351Z 14016KT 10SM SCT055 BKN200 BKN250 19/18\ A3009 RMK SLP187 T01940178 10211\ 20194= 201710240051 METAR KJFK 240051Z 14016KT 10SM FEW025 SCT070 BKN200 BKN250\ 20/18 A3007 RMK AO2 SLP182 T02000183= 201710240151 METAR KJFK 240151Z 14016G24KT 10SM SCT025 BKN065 BKN200 BKN250\ 20/19 A3006 RMK AO2 SLP178 T02000189= 201710240251 METAR KJFK 240251Z 14016KT 10SM FEW035 SCT070 OVC240 20/19\ A3004 RMK AO2 SLP171 T02000189 58016= 201710240351 METAR KJFK 240351Z 14018KT 10SM FEW016 SCT032 SCT070 OVC250\ 19/19 A2999 RMK AO2 SLP156 T01940189= 201710240451 METAR KJFK 240451Z 13016G23KT 10SM FEW013 SCT035 OVC240 19/19\ A2998 RMK AO2 SLP153 T01940189 402280128= 201710240551 METAR KJFK 240551Z 14014KT 10SM SCT012 OVC031 19/19 A3000\ RMK AO2 SLP159 T01940189 10200 20194\ 55013= 201710240651 METAR KJFK 240651Z 14017G23KT 10SM SCT010 BKN031 OVC080 19/19\ A2996 RMK AO2 SLP145 T01940189= 201710240751 METAR KJFK 240751Z 14017G25KT 9SM BKN007 OVC060 19/19 A2990\ RMK AO2 SLP126 T01940194= 201710240851 METAR KJFK 240851Z 14019G27KT 10SM FEW007 SCT060 OVC220 20/19\ A2986 RMK AO2 PK WND 13029/0752 SLP113\ T02000194 56046= 201710240951 METAR KJFK 240951Z 15020G29KT 10SM FEW007 BKN050 OVC190 21/19\ A2987 RMK AO2 PK WND 15032/0937 SLP116\ T02060194= 201710241051 METAR KJFK 241051Z 15027G35KT 9SM FEW007 BKN060 OVC160 21/19\ A2982 RMK AO2 PK WND 14035/1044 SLP098\ T02060194= 201710241151 METAR KJFK 241151Z 16024G39KT 8SM -RA FEW009 SCT022 BKN043\ OVC140 21/20 A2986 RMK AO2 PK WND\ 16039/1145 RAB20 SLP111 P0000 60000\ T02060200 10211 20194 55001= 201710241251 METAR KJFK 241251Z 15021G30KT 8SM FEW011 SCT028 BKN060 OVC140\ 21/20 A2987 RMK AO2 PK WND 16033/1156\ RAE1152B27E48 SLP114 P0001 T02060200= 201710241351 METAR KJFK 241351Z 15022G31KT 9SM SCT035 BKN085 BKN180 BKN290\ 21/19 A2986 RMK AO2 PK WND 15034/1338\ SLP110 T02110194= 201710241451 METAR KJFK 241451Z 15025G31KT 10SM SCT034 BKN047 BKN120 BKN290\ 22/19 A2985 RMK AO2 PK WND 14036/1436\ SLP107 60001 T02220194 58005= 201710241551 METAR KJFK 241551Z 16023G31KT 10SM FEW012 SCT032 BKN085 BKN170\ 22/19 A2984 RMK AO2 PK WND 15034/1518\ SLP104 T02220194= 201710241651 METAR KJFK 241651Z 16024G31KT 9SM FEW010 SCT037 BKN075 BKN170\ 22/19 A2981 RMK AO2 PK WND 16038/1600\ RAB40E50 SLP093 TCU DSNT SE P0000\ T02170194= 201710241751 METAR KJFK 241751Z 16023G36KT 8SM FEW013 BKN034 BKN070 OVC140\ 21/19 A2980 RMK AO2 PK WND 15037/1710\ SLP090 VCSH SW AND W-NW 60001 T02110194\ 10233 20200 56016= 201710241851 METAR KJFK 241851Z 17025G32KT 8SM FEW010 BKN021 OVC032 22/20\ A2979 RMK AO2 PK WND 17034/1822 SLP087\ T02170200= 201710241951 METAR KJFK 241951Z 17025G32KT 7SM SCT008 BKN015 OVC022 20/20\ A2980 RMK AO2 PK WND 16036/1855 RAB1855E20\ SLP091 P0005 T02000200= 201710242051 METAR KJFK 242051Z 17022G34KT 5SM R04R/4000VP6000FT RA BR\ SCT008 BKN023 OVC037 19/19 A2979\ RMK AO2 PK WND 16036/2015 RAB02 SLP089\ P0002 60007 T01940194 50002= 201710242151 METAR KJFK 242151Z 17017G25KT 7SM FEW013 BKN022 OVC065 19/19\ A2979 RMK AO2 PK WND 17027/2105 RAE04\ SLP087 P0002 T01940194= 201710242251 METAR KJFK 242251Z 16019KT 4SM RA BR BKN007 BKN029 OVC055\ 19/19 A2980 RMK AO2 PK WND 17026/2156\ RAB07 SLP092 P0002 T01940194= 201710242351 METAR KJFK 242351Z 18018KT 3SM R04R/5500VP6000FT +RA BR BKN005\ BKN038 OVC048 19/19 A2979 RMK AO2\ PK WND 17027/2259 SLP087 BKN005 V\ SCT P0031 60042 T01890189 10211 20189\ 58000= 201710250051 METAR KJFK 250051Z 18014KT 10SM -RA FEW005 FEW029 OVC050\ 19/19 A2979 RMK AO2 LTG DSNT E AND\ SE RAE10B34 SLP087 P0006 T01890189= 201710250151 METAR KJFK 250151Z 17013KT 7SM BKN005 OVC055 19/19 A2979\ RMK AO2 RAE15 SLP087 BKN005 V SCT\ P0002 T01940194= 201710250251 METAR KJFK 250251Z 18010KT 8SM FEW005 BKN050 19/19 A2976\ RMK AO2 RAB06E16 SLP077 P0000 60008\ T01890189 58009= 201710250351 METAR KJFK 250351Z 19008KT 9SM -RA FEW004 BKN055 OVC120 19/19\ A2976 RMK AO2 LTG DSNT NE-SE RAB13\ SLP076 OCNL LTGICCG DSNT SE CB DSNT\ SE MOV NE P0000 T01890189= 201710250451 METAR KJFK 250451Z 19005KT 7SM SCT007 OVC060 18/18 A2973\ RMK AO2 RAE0359 SLP068 SCT007 V BKN\ P0000 T01830183 402330183= 201710250551 METAR KJFK 250551Z 20006KT 8SM SCT006 BKN020 OVC070 19/19\ A2976 RMK AO2 SLP077 60008 T01890189\ 10194 20183 55001= 201710250651 METAR KJFK 250651Z 23005KT 10SM SCT007 BKN021 BKN065 17/17\ A2975 RMK AO2 SLP072 T01720172= 201710250751 METAR KJFK 250751Z 21005KT 10SM FEW008 SCT250 16/16 A2972\ RMK AO2 SLP065 T01610161= 201710250851 METAR KJFK 250851Z 24006KT 8SM FEW008 SCT250 16/16 A2973\ RMK AO2 SLP068 T01610161 55008= 201710250951 METAR KJFK 250951Z 28006KT 8SM FEW008 SCT250 17/17 A2973\ RMK AO2 SLP068 T01670167= 201710251051 METAR KJFK 251051Z 34006KT 10SM FEW080 FEW150 FEW250 16/14\ A2973 RMK AO2 SLP068 T01560144= 201710251151 METAR KJFK 251151Z 30005KT 10SM FEW060 FEW120 FEW250 14/13\ A2974 RMK AO2 SLP070 70051 T01440128\ 10189 20144 53002= 201710251251 METAR KJFK 251251Z 03003KT 10SM FEW060 FEW120 SCT250 15/12\ A2974 RMK AO2 SLP072 T01500122= 201710251351 METAR KJFK 251351Z 30006KT 10SM FEW045 SCT120 BKN250 16/12\ A2974 RMK AO2 SLP071 T01610122= 201710251451 METAR KJFK 251451Z 31005KT 10SM SCT060 SCT120 BKN200 17/11\ A2974 RMK AO2 SLP071 T01670111 50000= 201710251551 METAR KJFK 251551Z 30009KT 10SM BKN032 BKN055 OVC160 17/09\ A2973 RMK AO2 SLP067 T01720089= 201710251651 METAR KJFK 251651Z 32006KT 10SM BKN030 OVC160 17/09 A2971\ RMK AO2 SLP061 T01670089= 201710251751 METAR KJFK 251751Z 01006KT 10SM BKN032 BKN065 BKN150 18/09\ A2969 RMK AO2 SLP054 T01830094 10183\ 20144 58016= 201710251851 METAR KJFK 251851Z 02006KT 10SM BKN043 BKN055 BKN075 BKN180\ 18/08 A2968 RMK AO2 SLP051 T01780083= 201710251951 METAR KJFK 251951Z 34005KT 10SM BKN049 BKN065 BKN080 BKN250\ 18/09 A2968 RMK AO2 SLP050 T01780089= 201710252051 METAR KJFK 252051Z 08003KT 10SM SCT049 SCT060 BKN075 BKN140\ BKN170 17/10 A2969 RMK AO2 SLP052\ T01720100 55002= 201710252151 METAR KJFK 252151Z 00000KT 10SM FEW049 BKN075 BKN140 BKN180\ 17/11 A2968 RMK AO2 SLP051 T01670106= 201710252251 METAR KJFK 252251Z 22006KT 10SM FEW060 BKN080 BKN140 BKN180\ 16/11 A2971 RMK AO2 SLP060 T01610106= 201710252351 METAR KJFK 252351Z 10003KT 10SM FEW060 SCT090 BKN180 16/12\ A2970 RMK AO2 SLP056 T01560117 10189\ 20156 50004= 201710260051 METAR KJFK 260051Z 02003KT 10SM FEW090 BKN170 BKN200 16/11\ A2970 RMK AO2 SLP056 T01610106= 201710260151 METAR KJFK 260151Z 00000KT 10SM SCT065 BKN100 BKN140 BKN190\ 16/09 A2970 RMK AO2 SLP058 T01610094= 201710260251 METAR KJFK 260251Z 29010KT 10SM FEW060 OVC100 17/05 A2969\ RMK AO2 SLP054 T01670050 58002= 201710260351 METAR KJFK 260351Z 33014KT 10SM SCT060 BKN095 OVC200 16/04\ A2968 RMK AO2 SLP051 T01560044= 201710260451 METAR KJFK 260451Z 32012KT 10SM OVC065 15/04 A2968 RMK AO2\ SLP049 T01500039 401890144= 201710260551 METAR KJFK 260551Z 34012KT 10SM OVC065 14/04 A2967 RMK AO2\ SLP048 T01440039 10167 20144 56006= 201710260651 METAR KJFK 260651Z 33012KT 10SM OVC065 14/04 A2965 RMK AO2\ SLP039 T01390044= 201710260751 METAR KJFK 260751Z 34011KT 10SM SCT110 13/04 A2964 RMK AO2\ SLP036 T01330044= 201710260851 METAR KJFK 260851Z 30008KT 10SM SCT065 BKN110 OVC230 13/05\ A2966 RMK AO2 SLP042 T01280050 55006= 201710260951 METAR KJFK 260951Z 31010KT 10SM SCT038 BKN070 BKN250 13/04\ A2966 RMK AO2 SLP044 T01280044= 201710261051 METAR KJFK 261051Z 33009KT 10SM FEW035 SCT070 BKN290 12/05\ A2965 RMK AO2 SLP038 T01220050= 201710261151 METAR KJFK 261151Z 31012KT 10SM FEW055 BKN070 BKN290 13/06\ A2966 RMK AO2 SLP043 T01280056 10144\ 20122 53001= 201710261251 METAR KJFK 261251Z 33011KT 10SM BKN060 BKN110 BKN290 13/06\ A2966 RMK AO2 SLP044 T01280056= 201710261351 METAR KJFK 261351Z 33013KT 10SM FEW048 BKN070 BKN095 13/06\ A2967 RMK AO2 SLP047 T01330061= 201710261451 METAR KJFK 261451Z 34016KT 10SM -RA SCT039 BKN060 14/06 A2968\ RMK AO2 RAB49 SLP050 P0000 60000\ T01390061 53007= 201710261551 METAR KJFK 261551Z 31012G19KT 10SM -RA SCT042 BKN085 BKN110\ 13/07 A2969 RMK AO2 RAE24B47 SLP055\ P0000 T01330067= 201710261651 METAR KJFK 261651Z 33012KT 10SM FEW021 BKN050 BKN095 13/07\ A2968 RMK AO2 LTG DSNT E RAE17 SLP050\ VCSH N-NE AND S-SW P0000 T01280067= 201710261751 METAR KJFK 261751Z 30012KT 10SM FEW025 BKN060 OVC100 13/06\ A2967 RMK AO2 SLP046 VCSH S-SW 60000\ T01280061 10139 20122 58004= 201710261851 METAR KJFK 261851Z 29015KT 10SM -RA FEW025 OVC070 13/06 A2969\ RMK AO2 RAB28 SLP052 P0000 T01280061= 201710261951 METAR KJFK 261951Z 23014KT 10SM -RA FEW025 FEW038 OVC055\ 13/09 A2971 RMK AO2 LTG DSNT S SLP061\ P0000 T01280089= 201710262051 METAR KJFK 262051Z 26016KT 10SM FEW025 SCT055 BKN100 12/07\ A2973 RMK AO2 RAE09 SLP066 P0000\ 60000 T01220072 51020= 201710262151 METAR KJFK 262151Z 28012G21KT 10SM FEW055 SCT070 BKN100 13/07\ A2975 RMK AO2 SLP074 T01330067= 201710262251 METAR KJFK 262251Z 31014KT 10SM FEW070 SCT100 BKN180 13/04\ A2979 RMK AO2 SLP087 T01330039= 201710262351 METAR KJFK 262351Z 30014G21KT 10SM FEW100 FEW180 13/03 A2984\ RMK AO2 SLP103 60000 T01330033 10139\ 20122 53037= 201710270051 METAR KJFK 270051Z 30014KT 10SM FEW100 13/02 A2986 RMK AO2\ SLP110 T01280022= 201710270151 METAR KJFK 270151Z 29013G25KT 10SM FEW100 12/02 A2990 RMK\ AO2 SLP123 T01170017= 201710270251 METAR KJFK 270251Z 27013KT 10SM FEW100 11/02 A2991 RMK AO2\ SLP128 T01110017 51025= 201710270351 METAR KJFK 270351Z 28012KT 10SM FEW100 11/02 A2992 RMK AO2\ SLP133 T01060022= 201710270451 METAR KJFK 270451Z 28009KT 10SM CLR 10/03 A2994 RMK AO2 SLP138\ T01000033 401500100= 201710270551 METAR KJFK 270551Z 28009KT 10SM CLR 09/04 A2997 RMK AO2 SLP148\ T00940039 10133 20094 53019= 201710270651 METAR KJFK 270651Z 29005KT 10SM CLR 09/03 A2999 RMK AO2 SLP154\ T00890033= 201710270751 METAR KJFK 270751Z 28007KT 10SM CLR 09/04 A3000 RMK AO2 SLP160\ T00890044= 201710270851 METAR KJFK 270851Z 29007KT 10SM CLR 09/04 A3002 RMK AO2 SLP166\ T00890039 52019= 201710270951 METAR KJFK 270951Z 29005KT 10SM CLR 08/02 A3005 RMK AO2 SLP175\ T00830022= 201710271051 METAR KJFK 271051Z 27007KT 10SM CLR 08/02 A3006 RMK AO2 SLP180\ T00830022= 201710271151 METAR KJFK 271151Z 26008KT 10SM FEW250 09/03 A3009 RMK AO2\ SLP188 T00940033 10100 20078 52022= 201710271251 METAR KJFK 271251Z 23010KT 10SM FEW250 11/04 A3010 RMK AO2\ SLP194 T01060044= 201710271351 METAR KJFK 271351Z 25006KT 10SM FEW250 12/04 A3012 RMK AO2\ SLP199 T01220044= 201710271451 METAR KJFK 271451Z 25005KT 10SM FEW250 14/04 A3012 RMK AO2\ SLP197 T01390044 50009= 201710271551 METAR KJFK 271551Z 22006KT 10SM SCT250 15/04 A3011 RMK AO2\ SLP197 T01500039= 201710271651 METAR KJFK 271651Z 20010KT 10SM SCT250 16/04 A3011 RMK AO2\ SLP195 T01560044= 201710271751 METAR KJFK 271751Z 21007KT 10SM SCT250 15/05 A3010 RMK AO2\ SLP193 T01500050 10161 20094 58005= 201710271851 METAR KJFK 271851Z 20009KT 10SM BKN250 16/04 A3010 RMK AO2\ SLP191 T01560044= 201710271951 METAR KJFK 271951Z 19008KT 10SM SCT250 16/04 A3009 RMK AO2\ SLP189 T01560044= 201710272051 METAR KJFK 272051Z 18008KT 10SM FEW250 15/06 A3009 RMK AO2\ SLP188 T01500061 56005= 201710272151 METAR KJFK 272151Z 18010KT 10SM FEW250 14/07 A3009 RMK AO2\ SLP189 T01440067= 201710272251 METAR KJFK 272251Z 19011KT 10SM FEW250 14/08 A3010 RMK AO2\ SLP193 T01390083= 201710272351 METAR KJFK 272351Z 20011KT 10SM FEW250 14/08 A3011 RMK AO2\ SLP194 T01390083 10161 20139 53006= 201710280051 METAR KJFK 280051Z 21009KT 10SM FEW250 14/09 A3010 RMK AO2\ SLP194 T01390089= 201710280151 METAR KJFK 280151Z 21010KT 10SM FEW250 14/09 A3011 RMK AO2\ SLP195 T01440094= 201710280251 METAR KJFK 280251Z 21010KT 10SM FEW250 14/11 A3010 RMK AO2\ SLP193 T01440106 58001= 201710280351 METAR KJFK 280351Z 22009KT 10SM CLR 14/11 A3010 RMK AO2 SLP192\ T01440106= 201710280451 METAR KJFK 280451Z 22011KT 10SM CLR 14/09 A3009 RMK AO2 SLP189\ T01390094 401610078= 201710280551 METAR KJFK 280551Z 23008KT 10SM CLR 13/09 A3008 RMK AO2 SLP186\ T01280094 10150 20128 58007= 201710280651 METAR KJFK 280651Z 23009KT 10SM CLR 12/09 A3009 RMK AO2 SLP187\ T01220094= 201710280751 METAR KJFK 280751Z 22005KT 10SM CLR 12/10 A3007 RMK AO2 SLP183\ T01170100= 201710280851 METAR KJFK 280851Z 00000KT 10SM CLR 11/10 A3007 RMK AO2 SLP180\ T01110100 58006= 201710280951 METAR KJFK 280951Z 20007KT 10SM CLR 12/11 A3007 RMK AO2 SLP181\ T01220106= 201710281051 METAR KJFK 281051Z 19009KT 10SM CLR 13/11 A3006 RMK AO2 SLP179\ T01330106= 201710281151 METAR KJFK 281151Z 19008KT 10SM FEW050 SCT250 13/11 A3007\ RMK AO2 SLP180 T01330106 10139 20100\ 55000= 201710281251 METAR KJFK 281251Z 20009KT 10SM FEW050 BKN250 16/11 A3008\ RMK AO2 SLP185 T01610111= 201710281351 METAR KJFK 281351Z 20013KT 10SM FEW050 BKN250 17/10 A3007\ RMK AO2 SLP183 T01670100= 201710281451 METAR KJFK 281451Z 20010KT 10SM FEW050 BKN250 18/11 A3006\ RMK AO2 SLP178 T01780111 58002= 201710281551 METAR KJFK 281551Z 19012KT 10SM FEW050 BKN250 19/11 A3004\ RMK AO2 SLP173 T01890111= 201710281651 METAR KJFK 281651Z 18010KT 10SM FEW050 BKN250 19/12 A3001\ RMK AO2 SLP163 T01890122= 201710281751 METAR KJFK 281751Z 18014KT 10SM FEW050 BKN250 19/12 A3000\ RMK AO2 SLP157 T01890117 10200 20133\ 58021= 201710281851 METAR KJFK 281851Z 17015KT 10SM FEW026 BKN250 19/14 A2997\ RMK AO2 SLP150 T01940144= 201710281951 METAR KJFK 281951Z 17016KT 10SM FEW022 SCT200 BKN250 18/15\ A2995 RMK AO2 SLP143 T01830150= 201710282051 METAR KJFK 282051Z 17017G23KT 10SM SCT023 BKN200 BKN250 18/16\ A2994 RMK AO2 SLP138 T01780156 56019= 201710282151 METAR KJFK 282151Z 17014KT 10SM SCT018 SCT200 BKN250 18/16\ A2994 RMK AO2 SLP139 T01780161= 201710282251 METAR KJFK 282251Z 18011KT 10SM FEW018 BKN050 BKN250 17/16\ A2994 RMK AO2 SLP137 T01720161= 201710282351 METAR KJFK 282351Z 17011KT 10SM FEW017 BKN055 BKN250 17/16\ A2994 RMK AO2 SLP138 T01720161 10200\ 20172 58001= 201710290051 METAR KJFK 290051Z 17009KT 10SM FEW020 BKN060 BKN250 17/17\ A2994 RMK AO2 SLP137 T01720167= 201710290151 METAR KJFK 290151Z 17013KT 10SM FEW020 SCT055 BKN085 BKN250\ 17/17 A2994 RMK AO2 SLP136 T01720167= 201710290251 METAR KJFK 290251Z 16009KT 10SM FEW014 BKN050 BKN085 BKN250\ 18/17 A2993 RMK AO2 SLP135 T01780167\ 58002= 201710290351 METAR KJFK 290351Z 14007KT 10SM FEW014 SCT055 BKN085 BKN220\ 18/17 A2991 RMK AO2 SLP129 T01780167= 201710290451 METAR KJFK 290451Z 14007KT 10SM FEW055 OVC085 18/17 A2991\ RMK AO2 SLP127 T01780167 402000100= 201710290551 METAR KJFK 290551Z 16011KT 10SM FEW018 SCT065 OVC080 18/17\ A2988 RMK AO2 SLP119 T01780167 10183\ 20172 58017= 201710290651 METAR KJFK 290651Z 16019G24KT 10SM FEW018 SCT055 OVC075 18/16\ A2988 RMK AO2 SLP117 T01780156= 201710290751 METAR KJFK 290751Z 15015G22KT 3SM -RA BR BKN044 OVC060 17/16\ A2987 RMK AO2 PK WND 16026/0708 RAB0657E07B29\ SLP114 P0000 T01670156= 201710290851 METAR KJFK 290851Z 10011KT 6SM -RA BR FEW010 SCT032 OVC050\ 16/16 A2984 RMK AO2 SLP105 P0002\ 60002 T01560156 58014= 201710290951 METAR KJFK 290951Z 11012KT 8SM -RA BKN006 OVC026 16/16 A2979\ RMK AO2 SLP088 P0004 T01610161= 201710291051 METAR KJFK 291051Z 15012KT 10SM BKN009 BKN013 OVC020 17/17\ A2980 RMK AO2 RAE47 SLP090 P0000\ T01720172= 201710291151 METAR KJFK 291151Z 13013KT 10SM BKN007 BKN012 OVC085 17/17\ A2979 RMK AO2 RAB13E50 TSB08E23 SLP088\ P0000 60006 70006 T01670167 10183\ 20156 56017= 201710291251 METAR KJFK 291251Z 12012KT 4SM RA BR BKN007 BKN049 OVC075\ 16/16 A2979 RMK AO2 RAB21 SLP087\ P0003 T01610161= 201710291351 METAR KJFK 291351Z 12007KT 5SM -RA BR BKN008 BKN044 OVC070\ 16/16 A2976 RMK AO2 SLP078 P0007\ T01610161= 201710291451 METAR KJFK 291451Z 10007KT 6SM -RA BR BKN005 BKN055 OVC100\ 17/17 A2973 RMK AO2 RAE01B29 SLP069\ P0001 60011 T01670167 58019= 201710291551 METAR KJFK 291551Z 09007KT 6SM -RA BR BKN005 BKN034 OVC070\ 17/17 A2970 RMK AO2 SLP058 P0006\ T01670167= 201710291651 METAR KJFK 291651Z 09010KT 1 1/2SM R04R/4000VP6000FT +RA\ BR BKN006 OVC017 17/17 A2964 RMK\ AO2 SLP036 P0017 T01670167= 201710291751 METAR KJFK 291751Z 12018G26KT 4SM -RA BR BKN007 OVC026 18/18\ A2958 RMK AO2 PK WND 11026/1750 PRESFR\ SLP017 P0047 60081 T01780178 10178\ 20161 58051= 201710291851 METAR KJFK 291851Z 12020G30KT 2SM R04R/4000VP6000FT +RA BR\ BKN009 BKN015 OVC033 18/18 A2954\ RMK AO2 PK WND 14031/1819 SFC VIS\ 2 1/2 SLP004 P0012 T01780178= 201710291951 METAR KJFK 291951Z 13019G24KT 3SM -RA BR BKN008 OVC015 18/18\ A2951 RMK AO2 PK WND 12030/1853 SLP994\ P0029 T01780178= 201710292051 METAR KJFK 292051Z 14017KT 1 1/4SM R04R/4500VP6000FT +RA\ BR BKN009 OVC018 18/18 A2949 RMK\ AO2 PK WND 15027/1953 TWR VIS 1 1/2\ SLP984 P0017 60058 T01780178 56020= 201710292151 METAR KJFK 292151Z 12017G23KT 3SM RA BR BKN007 BKN011 OVC030\ 18/18 A2944 RMK AO2 SLP971 P0028\ T01780178= 201710292251 METAR KJFK 292251Z 11016G26KT 3SM RA BR BKN006 OVC010 18/18\ A2939 RMK AO2 PK WND 10026/2245 SLP950\ P0013 T01780178= 201710292351 METAR KJFK 292351Z 11021G28KT 3SM RA BR BKN006 OVC014 18/18\ A2930 RMK AO2 PK WND 09028/2342 PRESFR\ SLP921 P0016 60115 T01830183 10183\ 20178 58063= 201710300051 METAR KJFK 300051Z 07019G32KT 2SM +RA BR BKN009 OVC015 18/18\ A2915 RMK AO2 PK WND 12034/0002 PRESFR\ SLP870 P0051 T01780178= 201710300151 METAR KJFK 300151Z 11018G28KT 2SM +RA BR BKN006 OVC012 18/18\ A2903 RMK AO2 PK WND 09037/0126 PRESFR\ SLP829 P0027 T01830183= 201710300251 METAR KJFK 300251Z 14024G38KT 2SM R04R/6000VP6000FT -RA BR\ OVC008 19/19 A2892 RMK AO2 PK WND\ 14040/0240 SFC VIS 3 SLP792 P0003\ 60081 T01890189 56129= 201710300351 METAR KJFK 300351Z 25029G38KT 10SM -RA OVC008 17/17 A2897\ RMK AO2 PK WND 23040/0335 WSHFT 0302\ SLP810 P0001 T01670167= 201710300451 METAR KJFK 300451Z 26008KT 10SM FEW012 FEW100 17/14 A2900\ RMK AO2 PK WND 26035/0354 RAE0359\ SLP820 P0000 T01670144 401940156= 201710300551 METAR KJFK 300551Z 20008KT 10SM FEW015 BKN055 16/15 A2904\ RMK AO2 SLP832 60082 T01610150 10194\ 20156 51040= 201710300651 METAR KJFK 300651Z 19005KT 10SM FEW015 BKN095 16/16 A2904\ RMK AO2 SLP835 T01560156= 201710300751 METAR KJFK 300751Z 25006KT 6SM -RA BR BKN017 OVC050 16/15\ A2902 RMK AO2 RAB38 SLP828 P0000\ T01560150= 201710300851 METAR KJFK 300851Z 33016KT 10SM -RA OVC011 13/13 A2902 RMK\ AO2 SLP825 P0033 60033 T01330133\ 58007= 201710300951 METAR KJFK 300951Z 27018G23KT 6SM -RA BR BKN012 OVC035 11/11\ A2909 RMK AO2 SLP851 P0001 T01110106= 201710301051 METAR KJFK 301051Z 26024G29KT 4SM -RA BR FEW008 BKN014 OVC029\ 10/09 A2918 RMK AO2 PK WND 26030/1022\ PRESRR SLP879 P0001 T01000094= 201710301151 METAR KJFK 301151Z 28020G35KT 5SM -RA BR FEW007 BKN012 OVC035\ 09/07 A2926 RMK AO2 PK WND 27037/1105\ PRESRR SLP908 P0000 60035 70313 T00890072\ 10167 20089 53082= 201710301251 METAR KJFK 301251Z 27023G31KT 10SM -RA SCT023 BKN034 BKN060\ BKN180 09/06 A2935 RMK AO2 PK WND\ 30037/1216 PRESRR SLP938 SCT V BKN\ P0001 T00890056= 201710301351 METAR KJFK 301351Z 27020G32KT 10SM FEW025 SCT035 BKN095 BKN200\ 09/06 A2942 RMK AO2 PK WND 26034/1341\ RAE04 PRESRR SLP961 P0000 T00940056= 201710301451 METAR KJFK 301451Z 28019G29KT 10SM SCT041 BKN075 11/06 A2946\ RMK AO2 PK WND 27031/1405 PRESRR\ SLP977 60001 T01110056 51069= 201710301551 METAR KJFK 301551Z 28021G31KT 10SM BKN047 BKN095 BKN220 13/04\ A2953 RMK AO2 PK WND 29038/1524 SLP999\ T01280039= 201710301651 METAR KJFK 301651Z 28020G29KT 10SM SCT049 SCT250 14/03 A2957\ RMK AO2 PK WND 26037/1604 SLP011\ T01390028= 201710301751 METAR KJFK 301751Z 27020G30KT 10SM SCT049 SCT250 14/03 A2961\ RMK AO2 PK WND 26033/1718 PRESRR\ SLP028 60001 T01390028 10144 20083\ 51050= 201710301851 METAR KJFK 301851Z 28020G27KT 10SM SCT050 14/02 A2965 RMK\ AO2 PK WND 27031/1817 SLP039 VIRGA\ NW T01440017= 201710301951 METAR KJFK 301951Z 28017G24KT 10SM FEW050 13/01 A2968 RMK\ AO2 PK WND 29029/1910 SLP051 T01330011= 201710302051 METAR KJFK 302051Z 26016KT 10SM FEW050 13/02 A2972 RMK AO2\ PK WND 26027/1956 SLP062 T01280022\ 51035= 201710302151 METAR KJFK 302151Z 26015KT 10SM FEW050 12/02 A2975 RMK AO2\ PK WND 25026/2113 SLP074 T01220017= 201710302251 METAR KJFK 302251Z 25015G21KT 10SM FEW050 12/02 A2977 RMK\ AO2 SLP081 T01220022= 201710302351 METAR KJFK 302351Z 23020G25KT 10SM FEW050 12/03 A2981 RMK\ AO2 SLP093 T01220028 10144 20117\ 52031= 201710310051 METAR KJFK 310051Z 22018G22KT 10SM FEW050 12/04 A2983 RMK\ AO2 PK WND 23026/2352 SLP101 T01170039= 201710310151 METAR KJFK 310151Z 22019KT 10SM FEW050 12/03 A2985 RMK AO2\ SLP108 T01170033= 201710310251 METAR KJFK 310251Z 23017KT 10SM CLR 12/03 A2986 RMK AO2 SLP109\ T01170033 51016= 201710310351 METAR KJFK 310351Z 23019KT 10SM CLR 11/04 A2988 RMK AO2 PK\ WND 23026/0327 SLP119 T01110039= 201710310451 METAR KJFK 310451Z 22017KT 10SM CLR 11/04 A2990 RMK AO2 SLP124\ T01060039 401670083= 201710310551 METAR KJFK 310551Z 22017KT 10SM CLR 11/06 A2991 RMK AO2 SLP128\ T01060056 10128 20100 51018= 201710310651 METAR KJFK 310651Z 23015KT 10SM CLR 10/06 A2993 RMK AO2 SLP136\ T01000056= 201710310751 METAR KJFK 310751Z 25011KT 10SM SCT095 11/07 A2994 RMK AO2\ SLP139 T01060067= 201710310851 METAR KJFK 310851Z 25011KT 10SM SCT090 11/06 A2995 RMK AO2\ SLP143 T01060061 51015= 201710310951 METAR KJFK 310951Z 26013KT 10SM FEW085 11/06 A2997 RMK AO2\ SLP149 T01060056= 201710311051 METAR KJFK 311051Z 27010KT 10SM FEW085 FEW250 09/05 A2999\ RMK AO2 SLP155 T00940050= 201710311151 METAR KJFK 311151Z 25010KT 10SM FEW090 09/04 A3001 RMK AO2\ SLP163 70001 T00940039 10106 20089\ 53020= 201710311251 METAR KJFK 311251Z 26012KT 10SM FEW090 FEW250 11/03 A3004\ RMK AO2 SLP173 T01060033 $= 201710311351 METAR KJFK 311351Z 27013G20KT 10SM FEW090 BKN140 BKN250 11/02\ A3006 RMK AO2 SLP177 T01110017 $= 201710311451 METAR KJFK 311451Z 28014G22KT 10SM FEW095 BKN160 12/01 A3006\ RMK AO2 SLP178 T01220006 51016 $= 201710311551 METAR KJFK 311551Z 28017G24KT 10SM FEW050 BKN150 13/M01 A3006\ RMK AO2 SLP177 T01281006 $= 201710311651 METAR KJFK 311651Z 25019G28KT 10SM FEW055 SCT150 14/01 A3004\ RMK AO2 SLP173 T01440006 $= 201710311751 METAR KJFK 311751Z 27015G24KT 10SM FEW055 15/00 A3005 RMK\ AO2 SLP175 T01500000 10150 20094\ 55004 $= 201710311851 METAR KJFK 311851Z 26019G25KT 10SM FEW055 14/00 A3006 RMK\ AO2 SLP179 T01440000 $= 201710311951 METAR KJFK 311951Z 27017KT 10SM FEW055 14/M01 A3007 RMK AO2\ PK WND 27027/1854 SLP183 T01441011\ $= 201710312051 METAR KJFK 312051Z 26017KT 10SM FEW055 13/M01 A3009 RMK AO2\ SLP189 T01331011 53014 $= 201710312151 METAR KJFK 312151Z 28012G18KT 10SM FEW055 FEW250 12/M02 A3012\ RMK AO2 SLP198 T01221017 $= 201710312251 METAR KJFK 312251Z 28011KT 10SM FEW250 12/M02 A3015 RMK AO2\ SLP209 T01171017 $= 201710312351 METAR KJFK 312351Z 28011KT 10SM FEW250 11/M02 A3017 RMK AO2\ SLP215 T01111022 10150 20111 51026\ $=}
