 201707010051 METAR KJFK 010051Z 19018KT 10SM FEW050 BKN160 BKN200 BKN250\ 23/19 A2996 RMK AO2 SLP144 T02280194= 201707010151 METAR KJFK 010151Z 19017KT 10SM FEW050 SCT110 BKN150 OVC250\ 22/19 A2999 RMK AO2 SLP155 T02220194= 201707010251 METAR KJFK 010251Z 19015KT 10SM FEW030 SCT070 BKN140 22/20\ A2998 RMK AO2 SLP153 T02220200 50012= 201707010351 METAR KJFK 010351Z 18012KT 10SM FEW050 SCT100 BKN150 BKN250\ 22/20 A2998 RMK AO2 SLP152 T02220200= 201707010451 METAR KJFK 010451Z 17010KT 10SM FEW100 SCT150 SCT250 21/19\ A2998 RMK AO2 SLP153 T02060189 402670200= 201707010551 METAR KJFK 010551Z 18009KT 10SM FEW100 SCT130 SCT250 21/19\ A2998 RMK AO2 SLP150 T02060194 10228\ 20200 58003= 201707010651 METAR KJFK 010651Z 16006KT 10SM FEW100 SCT130 SCT250 20/19\ A2996 RMK AO2 SLP146 T02000194= 201707010751 METAR KJFK 010751Z 19006KT 10SM FEW100 FEW130 SCT250 20/19\ A2996 RMK AO2 SLP144 T02000194= 201707010851 METAR KJFK 010851Z 17006KT 10SM BKN170 20/19 A2996 RMK AO2\ SLP144 T02000194 55006= 201707010951 METAR KJFK 010951Z 16004KT 9SM SCT100 BKN150 BKN200 20/20\ A2997 RMK AO2 SLP150 T02000200= 201707011051 METAR KJFK 011051Z 15004KT 10SM SCT100 BKN150 BKN200 21/20\ A2998 RMK AO2 RAB07E31 SLP153 P0000\ T02060200= 201707011151 METAR KJFK 011151Z 17007KT 10SM FEW040 SCT120 BKN150 BKN250\ 22/20 A2999 RMK AO2 SLP155 60000\ T02170200 10222 20194 51010= 201707011251 METAR KJFK 011251Z 19010KT 10SM SCT005 SCT029 BKN150 BKN250\ 22/21 A3000 RMK AO2 SLP157 T02170206= 201707011351 METAR KJFK 011351Z 17012KT 1 1/2SM BKN004 BKN019 BKN120 22/21\ A2997 RMK AO2 SFC VIS 10 SLP148 T02220206= 201707011451 METAR KJFK 011451Z 18012KT 10SM SCT004 BKN130 24/22 A2996\ RMK AO2 SLP146 T02390217 58009= 201707011551 METAR KJFK 011551Z 17012KT 10SM FEW004 BKN130 25/22 A2996\ RMK AO2 SLP144 T02500217= 201707011651 METAR KJFK 011651Z 17013KT 10SM FEW004 BKN050 BKN060 23/21\ A2994 RMK AO2 SLP137 T02330211= 201707011751 METAR KJFK 011751Z 18018KT 10SM FEW004 BKN065 BKN130 24/22\ A2992 RMK AO2 SLP132 T02440217 10256\ 20217 58013= 201707011851 METAR KJFK 011851Z 18021KT 10SM FEW009 SCT060 BKN090 BKN140\ 23/21 A2991 RMK AO2 PK WND 18027/1821\ LTG DSNT SW SLP127 T02330211= 201707011951 METAR KJFK 011951Z 17013KT 3/4SM +TSRA BR FEW005 BKN022CB\ OVC049 22/22 A2990 RMK AO2 RAB1859\ TSB10E25B32 SLP124 OCNL LTGIC OHD\ TS OHD MOV W P0045 T02170217 RVRNO= 201707012051 METAR KJFK 012051Z 18018G23KT 10SM FEW005 SCT070 BKN110 BKN180\ 23/22 A2988 RMK AO2 RAE03 TSE1954E1956\ SLP118 P0005 60050 T02280217 58009= 201707012151 METAR KJFK 012151Z 18017KT 10SM FEW036 FEW065 SCT110 BKN180\ 23/21 A2986 RMK AO2 PK WND 18026/2107\ SLP113 T02330211= 201707012251 METAR KJFK 012251Z 19021G27KT 10SM FEW005 SCT060 BKN100 BKN170\ BKN250 22/21 A2989 RMK AO2 PK WND\ 18027/2225 LTG DSNT W AND NW SLP120\ T02170211= 201707012351 METAR KJFK 012351Z 21009KT 7SM -RA FEW050 FEW090 BKN110 BKN140\ 21/21 A2990 RMK AO2 PK WND 19027/2303\ LTG DSNT N AND NW RAB13 TSE16 SLP124\ P0001 60051 T02060206 10256 20206\ 53006= 201707020051 METAR KJFK 020051Z 26004KT 10SM FEW027 SCT110 BKN190 21/21\ A2989 RMK AO2 RAE23 SLP122 P0002\ T02110206= 201707020151 METAR KJFK 020151Z 18009KT 10SM FEW110 SCT180 BKN250 21/20\ A2991 RMK AO2 SLP128 T02060200= 201707020251 METAR KJFK 020251Z 23007KT 8SM FEW010 FEW250 22/22 A2993\ RMK AO2 SLP134 60002 T02220217 53010= 201707020351 METAR KJFK 020351Z 23010KT 10SM SCT010 22/22 A2993 RMK AO2\ SLP134 T02220217= 201707020451 METAR KJFK 020451Z 24011KT 9SM BKN009 22/22 A2993 RMK AO2\ SLP134 T02220222 402560194= 201707020551 METAR KJFK 020551Z 23009KT 7SM OVC007 22/22 A2992 RMK AO2\ SLP132 60002 T02220222 10222 20200\ 58002= 201707020651 METAR KJFK 020651Z 22007KT 4SM BR BKN007 22/22 A2992 RMK\ AO2 SLP130 T02170217= 201707020751 METAR KJFK 020751Z 24007KT 4SM BR BKN007 22/22 A2992 RMK\ AO2 SLP131 T02170217= 201707020851 METAR KJFK 020851Z 27007KT 9SM FEW010 BKN150 BKN250 23/22\ A2993 RMK AO2 SLP135 T02280222 53003= 201707020951 METAR KJFK 020951Z 26006KT 7SM FEW010 SCT150 SCT250 23/22\ A2995 RMK AO2 SLP142 T02280222= 201707021051 METAR KJFK 021051Z 27006KT 8SM FEW010 FEW130 SCT250 23/23\ A2997 RMK AO2 SLP148 T02330228= 201707021151 METAR KJFK 021151Z 31008KT 10SM FEW010 FEW130 SCT250 26/21\ A2998 RMK AO2 SLP153 70053 T02610211\ 10261 20217 51018= 201707021251 METAR KJFK 021251Z 30009KT 10SM FEW150 SCT250 26/18 A2999\ RMK AO2 SLP155 T02610183= 201707021351 METAR KJFK 021351Z 30006KT 10SM FEW150 SCT250 28/18 A2999\ RMK AO2 SLP154 T02830183= 201707021451 METAR KJFK 021451Z 28007KT 10SM FEW150 SCT250 30/18 A2999\ RMK AO2 SLP156 T03000178 52003= 201707021551 METAR KJFK 021551Z 23009KT 10SM FEW050 SCT250 29/19 A2999\ RMK AO2 SLP155 T02940194= 201707021651 METAR KJFK 021651Z 24014KT 10SM FEW050 SCT250 29/20 A2999\ RMK AO2 SLP154 T02940200= 201707021751 METAR KJFK 021751Z 22012KT 10SM SCT050 SCT250 30/19 A2998\ RMK AO2 SLP152 T03000194 10306 20261\ 58004= 201707021851 METAR KJFK 021851Z 23013G21KT 10SM SCT060 SCT250 31/18 A2997\ RMK AO2 SLP149 T03110183= 201707021951 METAR KJFK 021951Z 21014KT 10SM SCT060 29/19 A2996 RMK AO2\ SLP146 T02940189= 201707022051 METAR KJFK 022051Z 17016KT 10SM SCT060 29/18 A2995 RMK AO2\ SLP141 T02890183 58010= 201707022151 METAR KJFK 022151Z 18013KT 10SM SCT065 SCT250 27/21 A2995\ RMK AO2 SLP140 T02720211= 201707022251 METAR KJFK 022251Z 19014KT 10SM SCT065 SCT250 25/20 A2995\ RMK AO2 SLP143 T02500200= 201707022351 METAR KJFK 022351Z 20005KT 10SM FEW065 SCT100 SCT250 23/20\ A2996 RMK AO2 SLP146 T02330200 10317\ 20233 53005= 201707030051 METAR KJFK 030051Z 19004KT 10SM FEW065 FEW100 SCT130 BKN250\ 22/19 A2996 RMK AO2 SLP145 T02220194= 201707030151 METAR KJFK 030151Z 18004KT 10SM FEW060 FEW130 BKN250 22/20\ A2997 RMK AO2 SLP149 T02220200= 201707030251 METAR KJFK 030251Z 22005KT 10SM FEW060 BKN250 23/20 A2996\ RMK AO2 SLP146 T02330200 50000= 201707030351 METAR KJFK 030351Z 24007KT 10SM FEW060 BKN250 24/22 A2996\ RMK AO2 SLP145 T02440217= 201707030451 METAR KJFK 030451Z 23009KT 10SM FEW130 BKN250 24/22 A2996\ RMK AO2 SLP145 T02440217 403170217= 201707030551 METAR KJFK 030551Z 25006KT 10SM FEW070 SCT250 24/22 A2996\ RMK AO2 SLP144 T02440217 10250 20217\ 56002= 201707030651 METAR KJFK 030651Z 24006KT 10SM SCT250 23/22 A2995 RMK AO2\ SLP143 T02330217= 201707030751 METAR KJFK 030751Z 21006KT 10SM FEW250 22/21 A2995 RMK AO2\ SLP142 T02220211= 201707030851 METAR KJFK 030851Z 25006KT 10SM FEW250 23/21 A2996 RMK AO2\ SLP145 T02330211 53001= 201707030951 METAR KJFK 030951Z 22006KT 10SM FEW070 FEW250 22/21 A2997\ RMK AO2 SLP148 T02220211= 201707031051 METAR KJFK 031051Z 24006KT 9SM FEW070 SCT320 24/22 A2998\ RMK AO2 SLP152 T02390217= 201707031151 METAR KJFK 031151Z 27006KT 10SM FEW070 SCT320 27/19 A2999\ RMK AO2 SLP154 T02670189 10267 20217\ 51008= 201707031251 METAR KJFK 031251Z 30006KT 10SM FEW075 SCT320 29/18 A2999\ RMK AO2 SLP154 T02890178= 201707031351 METAR KJFK 031351Z VRB06KT 10SM BKN320 30/17 A2999 RMK AO2\ SLP156 T03000172= 201707031451 METAR KJFK 031451Z 31007G14KT 10SM BKN320 31/15 A2999 RMK\ AO2 SLP154 T03060150 50000= 201707031551 METAR KJFK 031551Z 26008KT 10SM FEW065 FEW130 BKN290 31/14\ A2998 RMK AO2 SLP152 T03110144= 201707031651 METAR KJFK 031651Z 19011KT 10SM FEW065 FEW130 BKN270 31/17\ A2997 RMK AO2 SLP148 T03110172= 201707031751 METAR KJFK 031751Z 21013KT 10SM SCT065 SCT270 31/17 A2996\ RMK AO2 SLP146 T03110167 10317 20267\ 57008= 201707031851 METAR KJFK 031851Z 23014KT 10SM SCT070 BKN250 31/17 A2995\ RMK AO2 SLP143 T03060172= 201707031951 METAR KJFK 031951Z 23012G19KT 10SM SCT070 SCT085 BKN250 31/18\ A2996 RMK AO2 SLP144 T03060183= 201707032051 METAR KJFK 032051Z 19013KT 10SM BKN065CB BKN085 BKN120 BKN250\ 26/19 A2996 RMK AO2 SLP145 CB NW\ MOV SE VCSH NW T02610189 55001= 201707032151 METAR KJFK 032151Z 13007KT 10SM FEW050 BKN075 BKN090 BKN130\ 26/20 A2997 RMK AO2 SLP148 VCSH E\ T02560200= 201707032251 METAR KJFK 032251Z 12005KT 10SM FEW050 BKN070 BKN100 BKN250\ 28/20 A2996 RMK AO2 RAB09E18 SLP146\ CB DSNT E P0000 T02780200= 201707032351 METAR KJFK 032351Z 14005KT 10SM FEW050 FEW065 FEW100 BKN250\ 26/19 A2998 RMK AO2 SLP151 60000\ T02610189 10317 20256 53006= 201707040051 METAR KJFK 040051Z 14004KT 10SM FEW065 BKN250 23/18 A2999\ RMK AO2 SLP154 T02280183= 201707040151 METAR KJFK 040151Z 00000KT 10SM FEW065 FEW100 SCT250 23/19\ A3000 RMK AO2 SLP160 T02280189= 201707040251 METAR KJFK 040251Z 00000KT 10SM FEW060 SCT250 23/19 A3000\ RMK AO2 SLP159 T02280194 50007= 201707040351 METAR KJFK 040351Z 36009KT 10SM FEW060 BKN140 BKN250 24/19\ A3001 RMK AO2 SLP161 CB DSNT NW-N\ MOV E T02390194= 201707040451 METAR KJFK 040451Z 05003KT 10SM FEW070 SCT140 BKN250 23/19\ A3001 RMK AO2 SLP163 T02280194 403170217= 201707040551 METAR KJFK 040551Z 05004KT 10SM SCT070 23/19 A3000 RMK AO2\ SLP160 T02280194 10261 20222 50001= 201707040651 METAR KJFK 040651Z 04003KT 10SM SCT070 23/19 A3000 RMK AO2\ SLP160 T02280194= 201707040751 METAR KJFK 040751Z 02005KT 10SM FEW070 22/20 A3001 RMK AO2\ SLP163 T02170200= 201707040851 METAR KJFK 040851Z 03007KT 10SM FEW065 BKN110 22/17 A3003\ RMK AO2 SLP168 VCSH SW T02220172\ 53008= 201707040951 METAR KJFK 040951Z 03007KT 10SM SCT070 BKN120 BKN250 22/16\ A3004 RMK AO2 SLP171 VCSH SE T02220156= 201707041051 METAR KJFK 041051Z 04008KT 10SM SCT085 BKN110 BKN250 23/13\ A3006 RMK AO2 SLP178 ACC S AND SW\ T02280133= 201707041151 METAR KJFK 041151Z 03008KT 10SM SCT085 BKN250 24/13 A3008\ RMK AO2 SLP186 T02440133 10244 20217\ 53019= 201707041251 METAR KJFK 041251Z 03009KT 10SM FEW080 SCT120 BKN250 25/12\ A3009 RMK AO2 SLP190 T02500122= 201707041351 METAR KJFK 041351Z 02009KT 10SM BKN065 BKN130 26/12 A3010\ RMK AO2 SLP192 VCSH SW T02560122= 201707041451 METAR KJFK 041451Z 36004KT 10SM FEW075 BKN130 27/13 A3009\ RMK AO2 RAB04E20 SLP189 P0000 60000\ T02670128 50003= 201707041551 METAR KJFK 041551Z 36006KT 10SM BKN085 27/12 A3009 RMK AO2\ SLP188 T02720117= 201707041651 METAR KJFK 041651Z VRB03KT 10SM FEW060 SCT075 SCT250 29/13\ A3007 RMK AO2 SLP183 T02890128= 201707041751 METAR KJFK 041751Z 03005KT 10SM FEW060 FEW090 FEW130 29/13\ A3005 RMK AO2 SLP177 60000 T02940133\ 10294 20239 58013= 201707041851 METAR KJFK 041851Z 20011KT 10SM FEW060 SCT130 SCT250 28/16\ A3005 RMK AO2 SLP177 T02830156= 201707041951 METAR KJFK 041951Z 19009KT 10SM FEW060 FEW085 SCT110 SCT250\ 28/16 A3005 RMK AO2 SLP176 T02830156= 201707042051 METAR KJFK 042051Z 19008KT 10SM FEW060 SCT075 SCT090 SCT250\ 28/15 A3005 RMK AO2 SLP177 T02780150\ 53000= 201707042151 METAR KJFK 042151Z 16004KT 10SM FEW060 BKN090 27/14 A3005\ RMK AO2 SLP174 T02670144= 201707042251 METAR KJFK 042251Z 17005KT 10SM SCT065 SCT090 27/16 A3006\ RMK AO2 SLP177 ACSL N T02720156= 201707042351 METAR KJFK 042351Z 14006KT 10SM FEW065 BKN080 25/17 A3007\ RMK AO2 SLP184 T02500167 10294 20250\ 53006= 201707050051 METAR KJFK 050051Z 00000KT 10SM SCT070 SCT090 BKN250 24/16\ A3009 RMK AO2 SLP188 T02440156= 201707050151 METAR KJFK 050151Z 21005KT 10SM FEW070 SCT090 SCT250 22/16\ A3011 RMK AO2 SLP196 T02220156= 201707050251 METAR KJFK 050251Z 22003KT 10SM FEW070 SCT250 22/15 A3012\ RMK AO2 SLP199 T02220150 51015= 201707050351 METAR KJFK 050351Z 24003KT 10SM SCT250 23/15 A3012 RMK AO2\ SLP200 T02280150= 201707050451 METAR KJFK 050451Z 32003KT 10SM BKN250 23/14 A3012 RMK AO2\ SLP198 T02280139 402940211= 201707050551 METAR KJFK 050551Z 03004KT 10SM SCT250 23/14 A3012 RMK AO2\ SLP197 T02280139 10250 20211 58001= 201707050651 METAR KJFK 050651Z 00000KT 10SM BKN070 BKN250 21/16 A3011\ RMK AO2 SLP197 T02110156= 201707050751 METAR KJFK 050751Z 03004KT 10SM BKN075 BKN250 23/16 A3012\ RMK AO2 SLP200 T02280156= 201707050851 METAR KJFK 050851Z 04008KT 10SM BKN080 BKN250 22/14 A3013\ RMK AO2 SLP201 T02220144 53004= 201707050951 METAR KJFK 050951Z 04007KT 10SM FEW080 SCT250 21/15 A3015\ RMK AO2 SLP209 T02110150= 201707051051 METAR KJFK 051051Z 10003KT 10SM FEW075 SCT330 22/16 A3017\ RMK AO2 SLP215 T02220156= 201707051151 METAR KJFK 051151Z 07009KT 10SM FEW080 BKN290 24/16 A3019\ RMK AO2 SLP223 T02440156 10244 20206\ 53022= 201707051251 METAR KJFK 051251Z 07007KT 10SM SCT080 BKN290 26/16 A3020\ RMK AO2 SLP226 T02560161= 201707051351 METAR KJFK 051351Z 06008KT 10SM SCT100 BKN310 27/16 A3020\ RMK AO2 SLP225 T02720156= 201707051451 METAR KJFK 051451Z 11009KT 10SM FEW100 BKN310 28/18 A3020\ RMK AO2 SLP227 T02780178 51004= 201707051551 METAR KJFK 051551Z 11011KT 10SM FEW047 FEW100 BKN310 28/18\ A3021 RMK AO2 SLP228 T02780183= 201707051651 METAR KJFK 051651Z 13011KT 10SM FEW050 SCT100 BKN330 28/18\ A3021 RMK AO2 SLP228 T02780183= 201707051751 METAR KJFK 051751Z 13012KT 10SM FEW050 SCT100 SCT330 28/16\ A3020 RMK AO2 SLP227 T02780161 10278\ 20244 50000= 201707051851 METAR KJFK 051851Z 11011KT 7SM FEW060 FEW100 SCT270 27/14\ A3020 RMK AO2 SLP228 T02720144= 201707051951 METAR KJFK 051951Z 11012KT 10SM FEW060 FEW100 FEW260 27/14\ A3020 RMK AO2 SLP227 T02670144= 201707052051 METAR KJFK 052051Z 13012KT 10SM FEW060 FEW100 FEW260 27/14\ A3019 RMK AO2 SLP224 T02670144 58003= 201707052151 METAR KJFK 052151Z 12012KT 10SM FEW065 FEW250 26/15 A3019\ RMK AO2 SLP223 T02560150= 201707052251 METAR KJFK 052251Z 11009KT 10SM FEW065 FEW250 24/16 A3019\ RMK AO2 SLP224 T02440156= 201707052351 METAR KJFK 052351Z 13008KT 10SM FEW060 FEW250 23/16 A3019\ RMK AO2 SLP224 T02330161 10283 20233\ 53000= 201707060051 METAR KJFK 060051Z 12006KT 10SM FEW075 FEW250 22/18 A3020\ RMK AO2 SLP225 T02220178= 201707060151 METAR KJFK 060151Z 10006KT 10SM FEW075 SCT250 22/18 A3021\ RMK AO2 SLP231 T02170183= 201707060251 METAR KJFK 060251Z 13006KT 10SM SCT080 SCT250 22/18 A3022\ RMK AO2 SLP232 T02170183 52008= 201707060351 METAR KJFK 060351Z 13007KT 10SM OVC080 22/18 A3020 RMK AO2\ SLP225 T02220183= 201707060451 METAR KJFK 060451Z 13006KT 10SM BKN080 OVC250 22/18 A3019\ RMK AO2 SLP221 T02170183 402830206= 201707060551 METAR KJFK 060551Z 13004KT 10SM SCT085 BKN250 21/19 A3017\ RMK AO2 SLP217 T02110189 10233 20211\ 56015= 201707060651 METAR KJFK 060651Z 08004KT 10SM SCT100 OVC250 21/19 A3016\ RMK AO2 SLP214 T02110189= 201707060751 METAR KJFK 060751Z 06005KT 10SM FEW100 OVC250 21/19 A3015\ RMK AO2 SLP209 T02110194= 201707060851 METAR KJFK 060851Z 07003KT 10SM FEW100 OVC220 21/19 A3015\ RMK AO2 SLP208 T02110189 56009= 201707060951 METAR KJFK 060951Z 09003KT 10SM FEW090 OVC190 21/19 A3015\ RMK AO2 SLP210 T02110189= 201707061051 METAR KJFK 061051Z 10007KT 10SM FEW090 SCT140 BKN200 OVC260\ 22/19 A3015 RMK AO2 SLP209 T02170189= 201707061151 METAR KJFK 061151Z 11007KT 10SM SCT120 BKN200 OVC260 22/19\ A3015 RMK AO2 SLP208 T02220189 10222\ 20206 50000= 201707061251 METAR KJFK 061251Z 11006KT 10SM BKN120 BKN180 OVC260 23/19\ A3016 RMK AO2 SLP212 T02280189= 201707061351 METAR KJFK 061351Z 12008KT 8SM FEW095 BKN120 OVC200 23/18\ A3016 RMK AO2 SLP211 T02280183= 201707061451 METAR KJFK 061451Z 12007KT 9SM FEW065 BKN110 OVC200 23/18\ A3017 RMK AO2 RAB27E45 SLP215 P0000\ 60000 T02330183 52006= 201707061551 METAR KJFK 061551Z 13009KT 10SM FEW044 SCT100 OVC120 24/18\ A3015 RMK AO2 RAB33E47 SLP209 P0000\ T02390183= 201707061651 METAR KJFK 061651Z 12008KT 10SM FEW045 BKN110 BKN200 23/18\ A3013 RMK AO2 SLP203 T02330183= 201707061751 METAR KJFK 061751Z 12009KT 10SM FEW045 SCT110 BKN140 BKN200\ 24/18 A3013 RMK AO2 SLP201 60000\ T02440178 10244 20222 56014= 201707061851 METAR KJFK 061851Z 12010KT 9SM FEW045 FEW110 BKN140 BKN230\ 24/18 A3011 RMK AO2 SLP195 T02390183= 201707061951 METAR KJFK 061951Z 12010KT 10SM FEW045 BKN140 BKN170 BKN250\ 24/17 A3008 RMK AO2 SLP186 T02440167= 201707062051 METAR KJFK 062051Z 13009KT 10SM FEW045 SCT140 BKN180 BKN250\ 24/16 A3006 RMK AO2 SLP179 T02440161\ 58022= 201707062151 METAR KJFK 062151Z 11010KT 10SM FEW045 SCT160 BKN190 BKN250\ 23/18 A3004 RMK AO2 SLP173 T02330183= 201707062251 METAR KJFK 062251Z 12011KT 10SM FEW045 BKN080 BKN150 BKN250\ 23/18 A3004 RMK AO2 SLP171 T02280183= 201707062351 METAR KJFK 062351Z 11010KT 10SM FEW040 SCT080 SCT150 BKN190\ BKN250 22/19 A3002 RMK AO2 SLP166\ T02220189 10250 20222 56014= 201707070051 METAR KJFK 070051Z 11007KT 10SM FEW040 BKN075 BKN160 OVC250\ 22/19 A3002 RMK AO2 SLP165 T02220194= 201707070151 METAR KJFK 070151Z 12008KT 10SM SCT029 BKN080 OVC160 22/19\ A3001 RMK AO2 SLP163 T02170194= 201707070251 METAR KJFK 070251Z 11008KT 10SM FEW009 SCT029 OVC080 22/20\ A3000 RMK AO2 SLP158 T02170200 58008= 201707070351 METAR KJFK 070351Z 08005KT 10SM FEW009 BKN050 OVC090 22/21\ A2997 RMK AO2 SLP150 T02170206= 201707070451 METAR KJFK 070451Z 09006KT 10SM SCT009 BKN043 OVC180 22/21\ A2996 RMK AO2 SLP144 T02170211 402500206= 201707070551 METAR KJFK 070551Z 09007KT 10SM OVC009 22/21 A2993 RMK AO2\ SLP135 T02220211 10222 20217 58023= 201707070651 METAR KJFK 070651Z 09008KT 10SM OVC007 22/22 A2991 RMK AO2\ RAB33E51 SLP127 P0000 T02220217= 201707070751 METAR KJFK 070751Z 07005KT 10SM OVC007 22/22 A2988 RMK AO2\ RAB0659E27 SLP118 P0002 T02220222= 201707070851 METAR KJFK 070851Z 07007KT 5SM -DZ BR OVC004 22/22 A2986\ RMK AO2 DZB51 SLP110 P0000 60002\ T02220222 57025= 201707070951 METAR KJFK 070951Z 07006KT 4SM -DZ BR OVC003 22/22 A2984\ RMK AO2 SLP105 P0000 T02220222= 201707071051 METAR KJFK 071051Z 05007KT 3SM BR OVC004 22/22 A2983 RMK\ AO2 SFC VIS 6 DZE37 SLP100 P0001\ T02220222= 201707071151 METAR KJFK 071151Z 05005KT 3SM OVC005 22/22 A2981 RMK AO2\ SFC VIS 8 SLP094 60003 70003 T02220222\ 10222 20222 58016= 201707071251 METAR KJFK 071251Z 05007KT 7SM OVC005 23/23 A2979 RMK AO2\ RAB1159E08 SLP086 P0000 T02280228= 201707071351 METAR KJFK 071351Z 06007KT 8SM BKN007 OVC023 23/23 A2977\ RMK AO2 SLP081 T02330228= 201707071451 METAR KJFK 071451Z 06010KT 5SM -RA BR BKN006 OVC017 23/22\ A2975 RMK AO2 RAB46 SLP073 VIS LWR\ SW-NW P0000 60000 T02280222 58021= 201707071551 METAR KJFK 071551Z 36016G21KT 1SM +RA BR SCT008 BKN022 OVC035\ 21/21 A2977 RMK AO2 PK WND 30026/1514\ WSHFT 1513 SFC VIS 3 SLP082 SCT V\ BKN P0134 T02060206= 201707071651 METAR KJFK 071651Z 03013KT 4SM -RA BR SCT007 BKN017 OVC046\ 22/21 A2976 RMK AO2 SLP078 SCT V\ BKN P0013 T02170211= 201707071751 METAR KJFK 071751Z 03012KT 10SM FEW008 BKN015 BKN055 BKN220\ 23/22 A2976 RMK AO2 RAE30 SLP079\ CIG 013V017 P0004 60151 T02280217\ 10233 20206 51006= 201707071851 METAR KJFK 071851Z 01010KT 10SM BKN015 BKN022 BKN100 BKN250\ 24/21 A2976 RMK AO2 SLP079 T02390211= 201707071951 METAR KJFK 071951Z 34011KT 10SM SCT022 BKN035 BKN095 BKN250\ 26/21 A2974 RMK AO2 SLP072 T02610211= 201707072051 METAR KJFK 072051Z 34008KT 10SM SCT028 SCT095 SCT250 27/21\ A2973 RMK AO2 SLP068 T02670206 56010= 201707072151 METAR KJFK 072151Z VRB05KT 10SM SCT034 SCT250 28/20 A2973\ RMK AO2 SLP067 T02780200= 201707072251 METAR KJFK 072251Z 21007KT 10SM FEW035 FEW080 SCT250 25/21\ A2974 RMK AO2 SLP069 T02500211= 201707072351 METAR KJFK 072351Z 20005KT 10SM FEW020 FEW035 SCT250 24/21\ A2974 RMK AO2 SLP072 CB DSNT NW T02440206\ 10283 20228 53004= 201707080051 METAR KJFK 080051Z 18006KT 10SM SCT047CB SCT250 23/21 A2975\ RMK AO2 SLP074 CB NW MOV SE TCU DSNT\ W VCSH NW T02330211= 201707080151 METAR KJFK 080151Z 13004KT 4SM +RA BR FEW018 BKN032CB OVC065\ 23/22 A2977 RMK AO2 RAB39 SLP080\ CB OHD-E MOV SE P0016 T02280217= 201707080251 METAR KJFK 080251Z 14007KT 10SM SCT043 BKN080 BKN170 22/22\ A2975 RMK AO2 RAE38 SLP075 P0022\ 60038 T02220222 50004= 201707080351 METAR KJFK 080351Z 35007KT 10SM FEW043 FEW080 BKN130 22/22\ A2977 RMK AO2 RAB05E18 SLP079 P0000\ T02220217= 201707080451 METAR KJFK 080451Z 01005KT 10SM SCT016 SCT032 OVC090 23/22\ A2977 RMK AO2 SLP080 T02280217 402830206= 201707080551 METAR KJFK 080551Z 13003KT 8SM FEW060 FEW100 SCT250 22/22\ A2975 RMK AO2 RAB0459E08 SLP074 P0000\ 60038 T02220217 10244 20222 58001= 201707080651 METAR KJFK 080651Z 20005KT 8SM SCT100 SCT250 21/21 A2975\ RMK AO2 SLP075 T02110211= 201707080751 METAR KJFK 080751Z 22006KT 10SM FEW100 SCT250 21/21 A2975\ RMK AO2 SLP073 T02110211= 201707080851 METAR KJFK 080851Z 25007KT 10SM FEW100 SCT250 22/21 A2975\ RMK AO2 SLP073 T02170211 58001= 201707080951 METAR KJFK 080951Z 25007KT 10SM FEW060 FEW110 FEW250 21/21\ A2976 RMK AO2 SLP076 T02110211= 201707081051 METAR KJFK 081051Z 23004KT 10SM FEW120 FEW250 22/21 A2975\ RMK AO2 SLP074 T02220211= 201707081151 METAR KJFK 081151Z 23010KT 10SM SCT120 SCT250 23/21 A2977\ RMK AO2 SLP080 70189 T02330211 10233\ 20211 53007= 201707081251 METAR KJFK 081251Z 24007KT 10SM BKN130 BKN250 24/21 A2978\ RMK AO2 SLP083 T02440211= 201707081351 METAR KJFK 081351Z 20008KT 10SM BKN110 BKN250 24/22 A2978\ RMK AO2 SLP083 T02440217= 201707081451 METAR KJFK 081451Z 23009KT 10SM BKN100 BKN250 26/21 A2978\ RMK AO2 SLP085 T02610211 51005= 201707081551 METAR KJFK 081551Z 23011KT 10SM FEW060 SCT100 BKN250 28/22\ A2977 RMK AO2 SLP081 T02780222= 201707081651 METAR KJFK 081651Z 20011KT 10SM FEW040 FEW100 BKN250 28/22\ A2976 RMK AO2 SLP076 VIRGA ALQDS\ T02830217= 201707081751 METAR KJFK 081751Z 21011KT 10SM FEW045 BKN250 29/21 A2974\ RMK AO2 SLP072 VIRGA ALQDS T02940211\ 10294 20228 58013= 201707081851 METAR KJFK 081851Z 26015KT 10SM SCT050 SCT150 BKN250 30/21\ A2974 RMK AO2 SLP071 T03000211= 201707081951 METAR KJFK 081951Z 25014KT 10SM SCT049 BKN250 30/20 A2974\ RMK AO2 SLP072 T03000200= 201707082051 METAR KJFK 082051Z 24015KT 10SM FEW049 BKN250 29/19 A2974\ RMK AO2 SLP069 T02940194 58003= 201707082151 METAR KJFK 082151Z 26016G22KT 10SM FEW050 BKN250 29/18 A2974\ RMK AO2 SLP072 T02940183= 201707082251 METAR KJFK 082251Z 27014KT 10SM FEW050 SCT140 BKN250 29/18\ A2976 RMK AO2 SLP078 T02890178= 201707082351 METAR KJFK 082351Z 28012KT 10SM FEW050 BKN120 BKN250 28/19\ A2979 RMK AO2 SLP087 T02830189 10306\ 20283 53018= 201707090051 METAR KJFK 090051Z 34012KT 10SM FEW046 BKN110 BKN250 27/17\ A2981 RMK AO2 WSHFT 2356 SLP093 T02670167= 201707090151 METAR KJFK 090151Z 33008KT 10SM BKN120 BKN250 26/15 A2984\ RMK AO2 SLP104 T02610150= 201707090251 METAR KJFK 090251Z 34009KT 10SM BKN110 BKN250 26/16 A2987\ RMK AO2 SLP113 T02560161 53026= 201707090351 METAR KJFK 090351Z 33006KT 10SM FEW060 SCT110 SCT250 25/17\ A2987 RMK AO2 SLP114 T02500167= 201707090451 METAR KJFK 090451Z 34007KT 10SM FEW060 SCT110 BKN160 BKN250\ 24/17 A2988 RMK AO2 SLP118 T02440167\ 403060211= 201707090551 METAR KJFK 090551Z 33008KT 10SM SCT060 SCT110 SCT160 BKN250\ 23/16 A2990 RMK AO2 SLP123 T02330161\ 10283 20233 53010= 201707090651 METAR KJFK 090651Z 33011KT 10SM SCT060 SCT110 SCT250 23/15\ A2990 RMK AO2 SLP125 T02280150= 201707090751 METAR KJFK 090751Z 33010KT 10SM FEW060 FEW110 SCT250 23/13\ A2990 RMK AO2 SLP125 T02280128= 201707090851 METAR KJFK 090851Z 34010KT 10SM SCT045 SCT060 SCT250 22/12\ A2992 RMK AO2 SLP131 T02170117 53007= 201707090951 METAR KJFK 090951Z 33009KT 10SM SCT055 SCT120 SCT250 21/12\ A2994 RMK AO2 SLP139 T02110117= 201707091051 METAR KJFK 091051Z 34006KT 10SM FEW050 FEW150 FEW250 22/12\ A2997 RMK AO2 SLP149 T02220122= 201707091151 METAR KJFK 091151Z 33009KT 10SM FEW050 FEW250 23/11 A2999\ RMK AO2 SLP156 T02330111 10239 20211\ 51026= 201707091251 METAR KJFK 091251Z 34011KT 10SM FEW050 24/11 A3001 RMK AO2\ SLP162 T02440106= 201707091351 METAR KJFK 091351Z 32008KT 10SM FEW050 26/11 A3002 RMK AO2\ SLP164 T02560111= 201707091451 METAR KJFK 091451Z VRB04KT 10SM FEW050 26/11 A3003 RMK AO2\ SLP167 T02610111 51011= 201707091551 METAR KJFK 091551Z 30009G16KT 10SM FEW055 27/11 A3004 RMK\ AO2 SLP171 T02670111= 201707091651 METAR KJFK 091651Z 20013G16KT 10SM SCT070 27/13 A3003 RMK\ AO2 SLP169 T02720133= 201707091751 METAR KJFK 091751Z 23012KT 10SM SCT070 27/13 A3003 RMK AO2\ SLP168 T02720128 10278 20233 50001= 201707091851 METAR KJFK 091851Z 22013KT 10SM SCT065 27/13 A3002 RMK AO2\ SLP165 T02720133 $= 201707091951 METAR KJFK 091951Z 19015KT 10SM SCT070 26/16 A3003 RMK AO2\ SLP168 T02610161 $= 201707092051 METAR KJFK 092051Z 20013KT 10SM FEW065 27/15 A3002 RMK AO2\ SLP166 T02670150 56001 $= 201707092151 METAR KJFK 092151Z 19015KT 10SM FEW065 25/16 A3002 RMK AO2\ SLP165 T02500161 $= 201707092251 METAR KJFK 092251Z 19015KT 10SM FEW070 24/17 A3002 RMK AO2\ SLP166 T02440167 $= 201707092351 METAR KJFK 092351Z 18014KT 10SM FEW070 23/18 A3003 RMK AO2\ SLP169 T02330178 10283 20233 53003\ $= 201707100051 METAR KJFK 100051Z 18010KT 10SM CLR 23/19 A3003 RMK AO2 SLP170\ T02280189 $= 201707100151 METAR KJFK 100151Z 17008KT 10SM CLR 22/19 A3005 RMK AO2 SLP174\ T02220194 $= 201707100251 METAR KJFK 100251Z 19007KT 10SM CLR 22/20 A3005 RMK AO2 SLP176\ T02220200 53007 $= 201707100351 METAR KJFK 100351Z 18006KT 10SM CLR 22/21 A3006 RMK AO2 SLP180\ T02170206 $= 201707100451 METAR KJFK 100451Z 22005KT 10SM CLR 21/19 A3007 RMK AO2 SLP182\ T02110194 402830211 $= 201707100551 METAR KJFK 100551Z 23006KT 10SM CLR 21/17 A3007 RMK AO2 SLP182\ T02060172 10233 20206 51005 $= 201707100651 METAR KJFK 100651Z 24006KT 10SM CLR 21/17 A3007 RMK AO2 SLP182\ T02060167 $= 201707100751 METAR KJFK 100751Z 23005KT 10SM CLR 20/16 A3007 RMK AO2 SLP183\ T02000161 $= 201707100851 METAR KJFK 100851Z 24006KT 10SM FEW250 19/16 A3007 RMK AO2\ SLP181 T01940156 58001 $= 201707100951 METAR KJFK 100951Z 20005KT 10SM FEW060 FEW250 19/16 A3006\ RMK AO2 SLP179 T01890156 $= 201707101051 METAR KJFK 101051Z 22005KT 10SM FEW065 FEW320 22/17 A3007\ RMK AO2 SLP182 T02170172 $= 201707101151 METAR KJFK 101151Z 23005KT 10SM FEW065 FEW320 23/15 A3008\ RMK AO2 SLP184 T02330150 10233 20189\ 53004 $= 201707101251 METAR KJFK 101251Z 22004KT 10SM FEW065 SCT090 SCT320 24/16\ A3009 RMK AO2 SLP188 T02440161 $= 201707101351 METAR KJFK 101351Z 20006KT 10SM FEW085 FEW320 26/16 A3008\ RMK AO2 SLP186 T02610156 $= 201707101451 METAR KJFK 101451Z 20008KT 10SM FEW055 BKN085 26/16 A3009\ RMK AO2 SLP189 T02610156 51005= 201707101551 METAR KJFK 101551Z 18010KT 10SM FEW055 SCT085 BKN350 27/15\ A3008 RMK AO2 SLP187 T02720150= 201707101651 METAR KJFK 101651Z 19009KT 10SM FEW055 BKN070 BKN350 26/18\ A3008 RMK AO2 SLP184 T02610183 $= 201707101751 METAR KJFK 101751Z 18010KT 10SM FEW055 SCT070 BKN330 28/22\ A3007 RMK AO2 SLP183 T02780217 10278\ 20233 56006 $= 201707101851 METAR KJFK 101851Z 18015KT 10SM FEW055 FEW070 BKN270 28/21\ A3005 RMK AO2 SLP174 T02830211 $= 201707101951 METAR KJFK 101951Z 18017KT 10SM SCT048 SCT060 SCT100 BKN260\ 27/21 A3002 RMK AO2 SLP166 T02670206\ $= 201707102051 METAR KJFK 102051Z 17020G25KT 10SM SCT049 SCT065 SCT100 BKN260\ 27/21 A2999 RMK AO2 PK WND 18029/2000\ SLP157 T02720206 58027 $= 201707102151 METAR KJFK 102151Z 18021G27KT 10SM FEW055 FEW100 BKN250 26/21\ A2998 RMK AO2 PK WND 18029/2102 SLP151\ T02610206 $= 201707102251 METAR KJFK 102251Z 18021G26KT 10SM SCT055TCU SCT080 SCT110\ BKN250 26/20 A2997 RMK AO2 PK WND\ 17029/2205 SLP149 TCU NW T02560200\ $= 201707102351 METAR KJFK 102351Z 18017G23KT 10SM SCT055 SCT080 BKN250 24/22\ A2998 RMK AO2 PK WND 17026/2336 SLP152\ T02440217 10283 20244 55005 $= 201707110051 METAR KJFK 110051Z 18017G23KT 10SM SCT055 SCT080 BKN250 24/22\ A2998 RMK AO2 SLP152 VCSH NW T02390222\ $= 201707110151 METAR KJFK 110151Z 18015G21KT 10SM BKN060 BKN080 BKN250 24/23\ A3000 RMK AO2 SLP157 T02390233 $= 201707110251 METAR KJFK 110251Z 19015G20KT 3SM BKN004 OVC090 24/24 A3000\ RMK AO2 SFC VIS 9 SLP158 T02390239\ 53006 $= 201707110351 METAR KJFK 110351Z 19011KT 10SM SCT005 SCT090 BKN250 24/24\ A2999 RMK AO2 SLP156 T02390239 $= 201707110451 METAR KJFK 110451Z 20010KT 10SM SCT004 BKN110 BKN250 23/23\ A2998 RMK AO2 SLP152 T02330233 402830189\ $= 201707110551 METAR KJFK 110551Z 20008KT 10SM FEW005 OVC120 23/23 A2997\ RMK AO2 SLP149 T02330233 10244 20233\ 58009 $= 201707110651 METAR KJFK 110651Z 19009KT 8SM BKN004 BKN050 OVC120 23/23\ A2995 RMK AO2 SLP142 T02330233 $= 201707110751 METAR KJFK 110751Z 19013KT 1/2SM BR OVC003 23/23 A2993 RMK\ AO2 SFC VIS 5 LTG DSNT N AND NW SLP136\ T02330233 $= 201707110851 METAR KJFK 110851Z 20011KT 1SM BKN004 OVC090 23/23 A2993\ RMK AO2 SFC VIS 10 SLP133 T02330228\ 56016 $= 201707110951 METAR KJFK 110951Z 22008KT 10SM FEW021 SCT090 BKN150 OVC260\ 23/22 A2993 RMK AO2 SLP135 T02330222\ $= 201707111051 METAR KJFK 111051Z 24005KT 10SM FEW015 FEW080 BKN250 24/23\ A2994 RMK AO2 SLP138 T02390228 $= 201707111151 METAR KJFK 111151Z 23007KT 10SM FEW018 FEW080 BKN250 26/23\ A2995 RMK AO2 SLP141 T02560228 10256\ 20228 53007 $= 201707111251 METAR KJFK 111251Z 23011KT 10SM FEW023 SCT100 SCT150 SCT250\ 27/23 A2996 RMK AO2 SLP144 T02670233\ $= 201707111351 METAR KJFK 111351Z 27011KT 10SM FEW025 FEW100 BKN130 BKN250\ 27/21 A2996 RMK AO2 SLP145 T02720206= 201707111451 METAR KJFK 111451Z 23010KT 10SM FEW035 FEW100 BKN150 BKN250\ 28/21 A2996 RMK AO2 RAB07E17 SLP145\ P0000 60000 T02780211 51004= 201707111551 METAR KJFK 111551Z 23015KT 10SM SCT035 SCT100 SCT150 BKN250\ 29/22 A2996 RMK AO2 SLP144 T02890217= 201707111651 METAR KJFK 111651Z 23012G19KT 10SM SCT040 SCT110 SCT150 BKN250\ 30/21 A2994 RMK AO2 SLP139 T03000211= 201707111751 METAR KJFK 111751Z 21010KT 170V240 10SM BKN047 BKN140 BKN250\ 31/21 A2994 RMK AO2 SLP139 60000\ T03110211 10311 20256 56006= 201707111851 METAR KJFK 111851Z 18011KT 10SM SCT050 SCT140 BKN250 28/22\ A2994 RMK AO2 SLP139 T02830222= 201707111951 METAR KJFK 111951Z 18011KT 10SM SCT055 BKN120 BKN250 28/24\ A2994 RMK AO2 SLP138 T02830239= 201707112051 METAR KJFK 112051Z 18007KT 10SM SCT050 SCT070 BKN160 BKN230\ 27/24 A2993 RMK AO2 LTG DSNT W SLP135\ TCU DSNT SE VCSH W T02720239 58004= 201707112151 METAR KJFK 112151Z 20008KT 10SM -RA SCT050CB BKN065 BKN090\ BKN250 28/24 A2993 RMK AO2 LTG DSNT\ N AND NE RAB18 TSB10E41 SLP136 CB\ NE MOV E P0000 T02780239= 201707112251 METAR KJFK 112251Z 19010KT 10SM SCT042 BKN049TCU BKN060 BKN130\ BKN250 27/22 A2995 RMK AO2 LTG DSNT\ NE RAE2153 SLP140 TCU OHD-S CB DSNT\ N VCSH S P0000 T02720222= 201707112351 METAR KJFK 112351Z 21006KT 10SM SCT049 SCT100 SCT130 SCT250\ 26/23 A2995 RMK AO2 PK WND 24030/2254\ RAB2254E08 SLP142 P0016 60016 T02560233\ 10311 20250 52007= 201707120051 METAR KJFK 120051Z 19004KT 10SM FEW049 FEW100 SCT250 26/24\ A2994 RMK AO2 SLP137 T02560239= 201707120151 METAR KJFK 120151Z 16005KT 10SM FEW250 25/24 A2996 RMK AO2\ SLP145 T02500239= 201707120251 METAR KJFK 120251Z 17004KT 10SM FEW250 24/23 A2996 RMK AO2\ SLP144 T02440233 53003= 201707120351 METAR KJFK 120351Z 17005KT 10SM SCT250 25/24 A2996 RMK AO2\ SLP145 T02500239= 201707120451 METAR KJFK 120451Z 17004KT 10SM BKN250 24/24 A2995 RMK AO2\ SLP142 T02440244 403110228= 201707120551 METAR KJFK 120551Z 19006KT 10SM BKN250 24/24 A2997 RMK AO2\ SLP148 T02440239 10278 20244 53003= 201707120651 METAR KJFK 120651Z 25003KT 10SM BKN250 24/24 A2997 RMK AO2\ SLP148 T02440239= 201707120751 METAR KJFK 120751Z 19004KT 10SM FEW060 BKN170 OVC250 24/24\ A2996 RMK AO2 SLP145 T02440239= 201707120851 METAR KJFK 120851Z 19007KT 10SM SCT060 BKN110 OVC170 24/23\ A2997 RMK AO2 SLP149 T02440233 53001= 201707120951 METAR KJFK 120951Z 22008KT 10SM SCT110 OVC170 24/23 A2997\ RMK AO2 SLP147 T02440228= 201707121051 METAR KJFK 121051Z 23008KT 10SM FEW110 SCT160 BKN240 25/23\ A2997 RMK AO2 SLP148 T02500228= 201707121151 METAR KJFK 121151Z 24006KT 10SM FEW110 BKN200 27/22 A2999\ RMK AO2 SLP155 70016 T02670222 10267\ 20239 53006= 201707121251 METAR KJFK 121251Z 24011KT 10SM BKN200 BKN320 26/23 A3000\ RMK AO2 SLP159 T02610228= 201707121351 METAR KJFK 121351Z 26014KT 10SM FEW100 BKN200 BKN320 29/22\ A3000 RMK AO2 SLP158 T02890222= 201707121451 METAR KJFK 121451Z 26014G18KT 10SM FEW042 SCT210 SCT320 30/22\ A3000 RMK AO2 SLP159 T03000222 51005= 201707121551 METAR KJFK 121551Z 23013KT 10SM FEW046 FEW210 SCT260 31/22\ A3000 RMK AO2 SLP158 T03060222= 201707121651 METAR KJFK 121651Z 23018KT 10SM FEW048 FEW140 BKN230 32/22\ A2998 RMK AO2 SLP152 T03170217= 201707121751 METAR KJFK 121751Z 23016KT 10SM SCT049 SCT080 BKN230 32/22\ A2997 RMK AO2 SLP147 T03220217 10328\ 20256 58013= 201707121851 METAR KJFK 121851Z 23013KT 10SM SCT050 SCT080 SCT220 BKN250\ 32/22 A2995 RMK AO2 SLP141 T03220222= 201707121951 METAR KJFK 121951Z 23015KT 10SM SCT050 BKN070 BKN210 BKN250\ 31/22 A2995 RMK AO2 SLP142 T03110217= 201707122051 METAR KJFK 122051Z 23021KT 10SM SCT050 SCT070 SCT150 BKN250\ 31/22 A2993 RMK AO2 SLP135 T03110222\ 58012= 201707122151 METAR KJFK 122151Z 25018KT 10SM SCT050 SCT070 BKN140 BKN250\ 32/22 A2994 RMK AO2 SLP139 CB DSNT\ NW T03170217= 201707122251 METAR KJFK 122251Z 26018G23KT 10SM FEW050 BKN110 BKN250 31/22\ A2995 RMK AO2 PK WND 24027/2213 SLP141\ T03060217= 201707122351 METAR KJFK 122351Z 25011KT 10SM SCT050 SCT080 BKN100 BKN250\ 30/22 A2996 RMK AO2 SLP145 VCSH NW\ T03000222 10328 20300 53010= 201707130051 METAR KJFK 130051Z 25015KT 9SM FEW044 SCT060 BKN100 BKN240\ 30/23 A2998 RMK AO2 SLP150 T03000228= 201707130151 METAR KJFK 130151Z 27012KT 10SM SCT050 SCT080 SCT100 BKN210\ 29/23 A3000 RMK AO2 LTG DSNT NE AND\ E RAB0052E26 SLP159 OCNL LTGIC DSNT\ NE CB DSNT NE P0001 T02890228= 201707130251 METAR KJFK 130251Z 29011KT 10SM FEW047 BKN220 29/23 A3001\ RMK AO2 SLP162 60001 T02890228 51016= 201707130351 METAR KJFK 130351Z 25008KT 10SM FEW130 BKN210 28/23 A3001\ RMK AO2 SLP162 T02830228= 201707130451 METAR KJFK 130451Z 22006KT 10SM SCT160 BKN220 27/23 A3000\ RMK AO2 SLP159 T02720228 403280239= 201707130551 METAR KJFK 130551Z 21007KT 10SM BKN200 27/23 A3000 RMK AO2\ SLP160 60001 T02670233 10306 20267\ 55002= 201707130651 METAR KJFK 130651Z 21007KT 10SM FEW150 OVC220 26/23 A3000\ RMK AO2 SLP157 T02610233= 201707130751 METAR KJFK 130751Z 22006KT 10SM FEW012 BKN220 26/23 A2999\ RMK AO2 SLP156 FU FEW012 FU PLUME\ SW DRFTG E T02560233= 201707130851 METAR KJFK 130851Z 23006KT 10SM SCT220 24/23 A3000 RMK AO2\ SLP158 T02440233 55002= 201707130951 METAR KJFK 130951Z 23008KT 9SM SCT150 SCT220 25/24 A3000\ RMK AO2 SLP160 T02500239= 201707131051 METAR KJFK 131051Z 23009KT 9SM BKN080 BKN150 BKN280 26/24\ A3001 RMK AO2 SLP163 T02610239= 201707131151 METAR KJFK 131151Z 23009KT 9SM FEW070 FEW150 BKN290 27/24\ A3001 RMK AO2 SLP161 70001 T02720239\ 10272 20244 50003= 201707131251 METAR KJFK 131251Z 23010KT 10SM FEW150 BKN270 28/24 A3000\ RMK AO2 SLP160 T02830239= 201707131351 METAR KJFK 131351Z 23008KT 10SM BKN250 31/24 A2999 RMK AO2\ SLP156 T03110239= 201707131451 METAR KJFK 131451Z 19011KT 10SM FEW150 BKN260 32/24 A2998\ RMK AO2 SLP152 T03220239 58009= 201707131551 METAR KJFK 131551Z 20011KT 10SM FEW043 FEW170 BKN260 32/24\ A2997 RMK AO2 SLP149 T03220239= 201707131651 METAR KJFK 131651Z 21012KT 10SM FEW045 SCT060 BKN190 BKN250\ 32/23 A2997 RMK AO2 SLP148 T03170233= 201707131751 METAR KJFK 131751Z 26011KT 10SM FEW060 BKN210 33/22 A2996\ RMK AO2 SLP145 T03330217 10339 20272\ 57007= 201707131851 METAR KJFK 131851Z 23012KT 10SM SCT060 BKN210 BKN250 33/23\ A2996 RMK AO2 SLP144 T03330228= 201707131951 METAR KJFK 131951Z 27010KT 10SM FEW050 BKN190 BKN250 33/23\ A2994 RMK AO2 SLP139 T03280233= 201707132051 METAR KJFK 132051Z 26014KT 10SM FEW050 BKN170 OVC250 32/23\ A2994 RMK AO2 LTG DSNT N SLP140 TCU\ DSNT W T03220233 55005= 201707132151 METAR KJFK 132151Z 33021G26KT 10SM FEW033 BKN050 BKN070 BKN130\ OVC250 30/22 A2997 RMK AO2 PK WND\ 32026/2150 LTG DSNT S AND SW RAB36E47\ SLP147 CB DSNT N P0000 T03000222= 201707132251 METAR KJFK 132251Z 33006KT 10SM FEW037 BKN110 OVC180 27/22\ A3000 RMK AO2 PK WND 34026/2155 WSHFT\ 2139 LTG DSNT S RAB03E32 SLP158 CB\ DSNT S P0001 T02670217= 201707132351 METAR KJFK 132351Z 21008KT 10SM SCT033 BKN080 BKN100 OVC150\ 26/23 A3001 RMK AO2 LTG DSNT SE RAB2256E34\ SLP160 P0000 60001 T02560233 10339\ 20256 51021= 201707140051 METAR KJFK 140051Z 15007KT 10SM -RA FEW017 BKN055 BKN070\ BKN250 24/24 A3000 RMK AO2 RAB32\ SLP159 P0002 T02440239= 201707140151 METAR KJFK 140151Z 11008KT 10SM FEW015 SCT046 OVC060 24/23\ A3002 RMK AO2 RAE32 SLP164 P0000\ T02390233= 201707140251 METAR KJFK 140251Z 09008KT 10SM FEW006 OVC036 23/22 A3003\ RMK AO2 SLP168 60002 T02280222 53008= 201707140351 METAR KJFK 140351Z 08008KT 10SM OVC007 22/22 A3004 RMK AO2\ SLP173 T02220222= 201707140451 METAR KJFK 140451Z 11013KT 10SM OVC007 22/21 A3004 RMK AO2\ SLP170 T02170211 403390217= 201707140551 METAR KJFK 140551Z 10012KT 10SM OVC006 21/21 A3004 RMK AO2\ SLP171 60002 T02110206 10256 20211\ 51003= 201707140651 METAR KJFK 140651Z 08008KT 10SM -RA OVC007 21/20 A3005 RMK\ AO2 RAB38 SLP176 P0000 T02060200= 201707140751 METAR KJFK 140751Z 08006KT 10SM OVC008 20/19 A3005 RMK AO2\ RAE0655 SLP177 P0000 T02000194= 201707140851 METAR KJFK 140851Z 05009KT 10SM OVC008 19/19 A3006 RMK AO2\ SLP178 60000 T01940194 51006= 201707140951 METAR KJFK 140951Z 07009KT 10SM OVC006 19/18 A3008 RMK AO2\ SLP185 T01890183= 201707141051 METAR KJFK 141051Z 07006KT 5SM -DZ BR OVC006 18/18 A3009\ RMK AO2 DZB48 SLP191 P0000 T01830183= 201707141151 METAR KJFK 141151Z 07008KT 10SM TS BKN006 OVC022CB 18/18\ A3010 RMK AO2 LTG DSNT W DZE12RAB12E46\ TSB50 SLP191 OCNL LTGIC W TS W MOV\ E P0001 60001 70004 T01830183 10211\ 20183 51014= 201707141251 METAR KJFK 141251Z 07009KT 8SM -RA BKN008 OVC017 19/18 A3009\ RMK AO2 RAB02 TSE18 SLP188 P0006\ T01890183= 201707141351 METAR KJFK 141351Z 05006KT 7SM -RA OVC008 19/19 A3010 RMK\ AO2 SLP192 P0001 T01940189= 201707141451 METAR KJFK 141451Z 07006KT 9SM -RA OVC009 19/19 A3010 RMK\ AO2 SLP192 CIG 007V011 P0002 60009\ T01940189 53001= 201707141551 METAR KJFK 141551Z 11007KT 10SM -RA OVC008 21/19 A3008 RMK\ AO2 SLP187 P0001 T02060194= 201707141651 METAR KJFK 141651Z 11007KT 10SM OVC009 21/19 A3008 RMK AO2\ RAE1555 SLP185 P0000 T02060194= 201707141751 METAR KJFK 141751Z 08007KT 10SM -RA OVC008 21/19 A3007 RMK\ AO2 RAB41 SLP182 P0000 60010 T02060194\ 10206 20183 56009= 201707141851 METAR KJFK 141851Z 06006KT 9SM -RA OVC007 21/20 A3006 RMK\ AO2 RAE1754B44 SLP179 P0000 T02060200= 201707141951 METAR KJFK 141951Z 12006KT 6SM -RA BR BKN006 OVC016 21/21\ A3003 RMK AO2 SLP170 P0004 T02110211= 201707142051 METAR KJFK 142051Z 11010KT 5SM RA BR OVC004 21/21 A3000 RMK\ AO2 SLP158 P0003 60007 T02110211\ 58024= 201707142151 METAR KJFK 142151Z 05007KT 10SM OVC006 21/21 A3002 RMK AO2\ RAE41 SLP164 P0003 T02110211= 201707142251 METAR KJFK 142251Z 10008KT 8SM OVC005 21/21 A3001 RMK AO2\ SLP163 T02110211= 201707142351 METAR KJFK 142351Z 10010KT 10SM OVC006 21/21 A3001 RMK AO2\ SLP161 60010 T02110211 10211 20206\ 50003= 201707150051 METAR KJFK 150051Z 10011KT 6SM -DZ BR OVC006 21/21 A2999\ RMK AO2 DZB47 SLP154 P0000 T02060206= 201707150151 METAR KJFK 150151Z 10010KT 7SM -DZ OVC006 21/21 A3001 RMK\ AO2 DZE29B48 SLP161 P0000 T02060206= 201707150251 METAR KJFK 150251Z 10008KT 9SM -DZ OVC006 21/21 A2999 RMK\ AO2 SLP156 P0000 60000 T02110206\ 56005= 201707150351 METAR KJFK 150351Z 07009KT 1SM BR OVC003 21/21 A2997 RMK\ AO2 SFC VIS 3 DZE45 SLP147 P0000\ T02060206= 201707150451 METAR KJFK 150451Z 09006KT 1SM -DZ BR OVC003 21/21 A2996\ RMK AO2 SFC VIS 2 RAB22E43DZB47 SLP146\ P0000 T02060206 402110183= 201707150551 METAR KJFK 150551Z 04004KT 1SM -DZ BR OVC003 21/21 A2997\ RMK AO2 SFC VIS 3 SLP147 P0000 60000\ T02110211 10211 20206 55009= 201707150651 METAR KJFK 150651Z 08004KT 1SM BR OVC003 21/21 A2995 RMK\ AO2 SFC VIS 4 DZE47 SLP141 P0001\ T02110211= 201707150751 METAR KJFK 150751Z 03006KT 1SM -DZ BR OVC004 21/21 A2993\ RMK AO2 SFC VIS 2 DZB42 SLP136 P0000\ T02060206= 201707150851 METAR KJFK 150851Z 02004KT 1/2SM -DZ BR OVC003 21/21 A2994\ RMK AO2 SFC VIS 1 SLP138 P0000 60001\ T02060206 55009= 201707150951 METAR KJFK 150951Z 02005KT 1 1/4SM -DZ BR OVC003 21/21 A2994\ RMK AO2 SFC VIS 3 SLP137 P0000 T02060206= 201707151051 METAR KJFK 151051Z 00000KT 1 1/2SM BR BKN004 BKN150 BKN250\ 21/21 A2995 RMK AO2 SFC VIS 4 DZE16\ SLP141 P0000 T02060206= 201707151151 METAR KJFK 151151Z 35004KT 3SM BR BKN006 OVC100 21/21 A2996\ RMK AO2 SFC VIS 5 SLP144 60001 70021\ T02110206 10211 20200 53006= 201707151251 METAR KJFK 151251Z 36005KT 6SM BR BKN008 OVC100 22/21 A2996\ RMK AO2 SLP144 T02170211= 201707151351 METAR KJFK 151351Z 33007KT 10SM FEW008 FEW012 BKN020 BKN250\ 23/22 A2995 RMK AO2 SLP141 T02330217= 201707151451 METAR KJFK 151451Z 31003KT 10SM SCT017 BKN110 BKN250 26/21\ A2994 RMK AO2 SLP139 T02560211 55005= 201707151551 METAR KJFK 151551Z 32007KT 10SM SCT030 BKN130 BKN250 27/21\ A2994 RMK AO2 SLP139 T02720206= 201707151651 METAR KJFK 151651Z VRB06KT 10SM BKN037 BKN090 BKN250 27/22\ A2993 RMK AO2 SLP134 T02670217= 201707151751 METAR KJFK 151751Z 18009KT 10SM BKN043 BKN055 BKN250 28/22\ A2991 RMK AO2 SLP129 T02780222 10289\ 20211 58010= 201707151851 METAR KJFK 151851Z 16008KT 8SM BKN048 BKN060 BKN075 BKN250\ 26/22 A2991 RMK AO2 SLP127 T02560222= 201707151951 METAR KJFK 151951Z 14009KT 9SM BKN055 BKN070 BKN250 26/22\ A2990 RMK AO2 SLP123 T02560222= 201707152051 METAR KJFK 152051Z 14008KT 8SM BKN065 BKN080 BKN250 26/22\ A2989 RMK AO2 SLP122 T02560222 56006= 201707152151 METAR KJFK 152151Z 16005KT 10SM BKN065 BKN085 25/22 A2989\ RMK AO2 SLP121 T02500222= 201707152251 METAR KJFK 152251Z 16007KT 10SM SCT060 BKN080 25/22 A2989\ RMK AO2 SLP120 T02500222= 201707152351 METAR KJFK 152351Z 18006KT 8SM BKN060 BKN080 24/22 A2990\ RMK AO2 SLP124 T02440222 10278 20244\ 53002= 201707160051 METAR KJFK 160051Z 17005KT 9SM BKN080 24/23 A2991 RMK AO2\ SLP126 T02390228= 201707160151 METAR KJFK 160151Z 00000KT 9SM BKN080 24/23 A2993 RMK AO2\ SLP134 T02390228= 201707160251 METAR KJFK 160251Z 00000KT 10SM BKN080 23/23 A2993 RMK AO2\ SLP135 T02330228 51010= 201707160351 METAR KJFK 160351Z 33008KT 10SM FEW080 FEW250 24/17 A2994\ RMK AO2 SLP137 T02390172= 201707160451 METAR KJFK 160451Z 34004KT 10SM FEW080 FEW250 23/17 A2993\ RMK AO2 SLP135 T02330172 402890200= 201707160551 METAR KJFK 160551Z 34006KT 10SM FEW080 FEW250 22/17 A2993\ RMK AO2 SLP135 T02220172 10244 20222\ 50000= 201707160651 METAR KJFK 160651Z 33004KT 10SM CLR 22/18 A2993 RMK AO2 SLP135\ T02220178= 201707160751 METAR KJFK 160751Z 34005KT 10SM CLR 22/18 A2993 RMK AO2 SLP135\ T02170178= 201707160851 METAR KJFK 160851Z 00000KT 10SM CLR 20/18 A2994 RMK AO2 SLP137\ T02000178 53003= 201707160951 METAR KJFK 160951Z 30003KT 10SM FEW250 22/18 A2995 RMK AO2\ SLP143 T02170178= 201707161051 METAR KJFK 161051Z 35003KT 10SM FEW250 23/18 A2996 RMK AO2\ SLP146 T02330183= 201707161151 METAR KJFK 161151Z 32004KT 10SM FEW250 24/18 A2997 RMK AO2\ SLP149 T02440178 10244 20200 51012= 201707161251 METAR KJFK 161251Z 30004KT 10SM FEW250 26/18 A2998 RMK AO2\ SLP150 T02610183= 201707161351 METAR KJFK 161351Z 00000KT 10SM FEW040 FEW250 27/17 A2997\ RMK AO2 SLP149 T02670172= 201707161451 METAR KJFK 161451Z 24006KT 10SM FEW040 SCT250 27/17 A2998\ RMK AO2 SLP150 T02720172 53001= 201707161551 METAR KJFK 161551Z 21009KT 10SM FEW040 SCT250 28/18 A2997\ RMK AO2 SLP148 T02780178= 201707161651 METAR KJFK 161651Z 19009KT 10SM FEW040 SCT250 28/18 A2996\ RMK AO2 SLP147 T02780178= 201707161751 METAR KJFK 161751Z 20010KT 10SM FEW050 SCT250 28/18 A2997\ RMK AO2 SLP148 T02780178 10283 20244\ 55003= 201707161851 METAR KJFK 161851Z 18011KT 10SM SCT050 SCT250 28/18 A2996\ RMK AO2 SLP145 T02830183= 201707161951 METAR KJFK 161951Z 18013KT 10SM FEW055 SCT250 28/19 A2996\ RMK AO2 SLP146 T02780194= 201707162051 METAR KJFK 162051Z 18009KT 10SM FEW055 SCT250 28/19 A2996\ RMK AO2 SLP145 T02780194 56003= 201707162151 METAR KJFK 162151Z 18013KT 10SM FEW055 FEW250 27/20 A2996\ RMK AO2 SLP144 T02670200= 201707162251 METAR KJFK 162251Z 18010KT 10SM FEW060 FEW250 26/21 A2997\ RMK AO2 SLP147 T02560206= 201707162351 METAR KJFK 162351Z 17012KT 10SM FEW060 FEW250 25/21 A2997\ RMK AO2 SLP148 T02500211 10283 20250\ 53003= 201707170051 METAR KJFK 170051Z 18010KT 10SM FEW060 FEW250 24/21 A2999\ RMK AO2 SLP153 T02440211= 201707170151 METAR KJFK 170151Z 18010KT 10SM FEW065 FEW250 24/21 A3000\ RMK AO2 SLP160 T02440206= 201707170251 METAR KJFK 170251Z 17009KT 10SM FEW065 24/20 A3001 RMK AO2\ SLP162 T02440200 51014= 201707170351 METAR KJFK 170351Z 17009KT 10SM FEW070 24/21 A3002 RMK AO2\ SLP164 T02390211= 201707170451 METAR KJFK 170451Z 19006KT 10SM FEW070 FEW120 23/22 A3001\ RMK AO2 SLP163 T02330217 402830200= 201707170551 METAR KJFK 170551Z 17004KT 10SM FEW070 23/22 A3001 RMK AO2\ SLP163 T02280222 10250 20228 50001= 201707170651 METAR KJFK 170651Z 22006KT 10SM FEW070 FEW160 23/20 A3001\ RMK AO2 SLP161 T02280200= 201707170751 METAR KJFK 170751Z 21005KT 10SM FEW070 FEW170 22/19 A3001\ RMK AO2 SLP162 T02220194= 201707170851 METAR KJFK 170851Z 20004KT 10SM CLR 22/20 A3001 RMK AO2 SLP163\ T02170200 55000= 201707170951 METAR KJFK 170951Z 19005KT 10SM SCT060 SCT170 BKN260 22/21\ A3003 RMK AO2 SLP169 T02170206= 201707171051 METAR KJFK 171051Z 18004KT 10SM FEW055 FEW170 SCT260 23/21\ A3004 RMK AO2 SLP173 T02280211= 201707171151 METAR KJFK 171151Z 00000KT 10SM FEW037 FEW170 SCT290 25/21\ A3005 RMK AO2 SLP176 T02500211 10250\ 20217 51013= 201707171251 METAR KJFK 171251Z 17003KT 10SM FEW040 FEW160 BKN320 26/22\ A3006 RMK AO2 SLP178 T02560217= 201707171351 METAR KJFK 171351Z VRB04KT 10SM FEW040 BKN320 27/21 A3007\ RMK AO2 SLP181 T02670211= 201707171451 METAR KJFK 171451Z 16008KT 10SM FEW043 BKN300 27/21 A3007\ RMK AO2 SLP182 T02720211 51006= 201707171551 METAR KJFK 171551Z 16009KT 10SM FEW045 FEW130 BKN300 27/22\ A3008 RMK AO2 SLP185 T02670217= 201707171651 METAR KJFK 171651Z 16009KT 10SM FEW020 FEW045 FEW130 BKN280\ 27/23 A3007 RMK AO2 SLP182 T02720228= 201707171751 METAR KJFK 171751Z 15013KT 10SM FEW016 FEW045 FEW130 BKN280\ 27/23 A3006 RMK AO2 SLP178 T02670228\ 10278 20250 58004= 201707171851 METAR KJFK 171851Z 17015KT 10SM FEW016 FEW045 BKN260 28/23\ A3005 RMK AO2 SLP176 T02780228= 201707171951 METAR KJFK 171951Z 15014KT 10SM SCT015 SCT045 BKN260 28/24\ A3005 RMK AO2 SLP177 T02780239= 201707172051 METAR KJFK 172051Z 16013KT 10SM SCT015 BKN250 27/23 A3005\ RMK AO2 SLP175 T02720233 56003= 201707172151 METAR KJFK 172151Z 15012KT 10SM FEW013 FEW080 BKN250 27/24\ A3005 RMK AO2 SLP174 T02720239= 201707172251 METAR KJFK 172251Z 15010KT 10SM FEW011 FEW100 BKN250 26/23\ A3006 RMK AO2 LTG DSNT NW SLP178\ T02610233= 201707172351 METAR KJFK 172351Z 15006KT 10SM FEW011 FEW040 SCT085 BKN240\ 26/23 A3008 RMK AO2 LTG DSNT NW SLP185\ CB DSNT NW T02560233 10289 20256\ 53010= 201707180051 METAR KJFK 180051Z 16006KT 10SM FEW010 BKN070 BKN250 25/24\ A3007 RMK AO2 SLP184 T02500239= 201707180151 METAR KJFK 180151Z 16011KT 10SM FEW010 FEW070 BKN250 25/24\ A3006 RMK AO2 SLP179 T02500239= 201707180251 METAR KJFK 180251Z 18013KT 10SM FEW008 BKN230 24/24 A3008\ RMK AO2 SLP186 T02440239 53001= 201707180351 METAR KJFK 180351Z 18011KT 10SM FEW007 SCT230 24/24 A3009\ RMK AO2 SLP188 T02440239= 201707180451 METAR KJFK 180451Z 20007KT 10SM FEW007 SCT060 SCT230 24/24\ A3009 RMK AO2 SLP189 T02390239 402890217= 201707180551 METAR KJFK 180551Z 17007KT 10SM FEW007 FEW060 SCT250 24/24\ A3008 RMK AO2 SLP185 T02390239 10256\ 20233 58001= 201707180651 METAR KJFK 180651Z 19006KT 10SM FEW007 SCT036 SCT250 23/23\ A3008 RMK AO2 SLP186 T02330233= 201707180751 METAR KJFK 180751Z 22004KT 10SM FEW036 SCT250 23/22 A3009\ RMK AO2 SLP187 T02280222= 201707180851 METAR KJFK 180851Z 20004KT 10SM FEW036 SCT250 23/22 A3008\ RMK AO2 SLP187 T02280222 50002= 201707180951 METAR KJFK 180951Z 00000KT 10SM FEW250 23/22 A3009= 201707181051 METAR KJFK 181051Z 14003KT 10SM FEW008 FEW070 FEW290 24/23\ A3010 RMK AO2 SLP191 T02390233= 201707181151 METAR KJFK 181151Z 24003KT 10SM SCT009 SCT290 25/23 A3012\ RMK AO2 SLP198 T02500233 10250 20222\ 53012= 201707181251 METAR KJFK 181251Z 25005KT 10SM SCT013 SCT080 SCT290 26/23\ A3013 RMK AO2 SLP201 T02610228= 201707181351 METAR KJFK 181351Z 21006KT 10SM SCT014 SCT290 27/23 A3012\ RMK AO2 SLP200 T02670233= 201707181451 METAR KJFK 181451Z 20007KT 10SM FEW015 FEW270 27/23 A3013\ RMK AO2 SLP201 T02670228 51003= 201707181551 METAR KJFK 181551Z 19009KT 10SM FEW023 FEW270 27/22 A3013\ RMK AO2 SLP201 T02720222= 201707181651 METAR KJFK 181651Z 18008KT 10SM FEW027 FEW270 28/23 A3011\ RMK AO2 SLP195 T02780228= 201707181751 METAR KJFK 181751Z 18009KT 10SM FEW030 FEW270 28/23 A3009\ RMK AO2 SLP190 T02830228 10283 20250\ 58012= 201707181851 METAR KJFK 181851Z 17008KT 10SM FEW015 FEW030 SCT250 29/23\ A3008 RMK AO2 SLP186 T02890228= 201707181951 METAR KJFK 181951Z 15011KT 10SM FEW035 SCT250 29/22 A3007\ RMK AO2 SLP183 CB DSNT W T02940222= 201707182051 METAR KJFK 182051Z 18012KT 10SM FEW011 FEW035 FEW080 SCT250\ 28/23 A3007 RMK AO2 SLP182 CB DSNT\ NW T02780233 56008= 201707182151 METAR KJFK 182151Z 18015KT 10SM FEW011 FEW035 SCT250 27/24\ A3006 RMK AO2 SLP180 T02720239= 201707182251 METAR KJFK 182251Z 18014KT 10SM FEW035 SCT250 27/24 A3007\ RMK AO2 SLP182 T02670239= 201707182351 METAR KJFK 182351Z 18013KT 10SM FEW035 FEW100 SCT250 26/24\ A3006 RMK AO2 SLP179 T02610239 10294\ 20261 58002= 201707190051 METAR KJFK 190051Z 19013KT 10SM FEW035 FEW100 FEW250 26/24\ A3007 RMK AO2 SLP182 T02560239= 201707190151 METAR KJFK 190151Z 20013KT 10SM FEW100 FEW250 25/24 A3008\ RMK AO2 SLP185 T02500239= 201707190251 METAR KJFK 190251Z 20007KT 10SM FEW250 25/24 A3008 RMK AO2\ SLP185 T02500239 50005= 201707190351 METAR KJFK 190351Z 21006KT 10SM FEW250 25/23 A3008 RMK AO2\ SLP186 T02500228= 201707190451 METAR KJFK 190451Z 22011KT 10SM FEW250 25/23 A3008 RMK AO2\ SLP185 T02500228 402940222= 201707190551 METAR KJFK 190551Z 24009KT 10SM FEW250 25/23 A3007 RMK AO2\ SLP182 T02500233 10256 20244 58003= 201707190651 METAR KJFK 190651Z 23008KT 10SM FEW250 24/23 A3006 RMK AO2\ SLP179 T02440233= 201707190751 METAR KJFK 190751Z 22007KT 10SM FEW250 24/23 A3006 RMK AO2\ SLP177 T02390233= 201707190851 METAR KJFK 190851Z 24006KT 10SM SCT250 24/24 A3005 RMK AO2\ SLP176 T02390239 56006= 201707190951 METAR KJFK 190951Z 23007KT 10SM SCT250 24/24 A3005 RMK AO2\ SLP176 T02390239= 201707191051 METAR KJFK 191051Z 21007KT 10SM FEW140 FEW250 24/24 A3005\ RMK AO2 SLP177 T02440239= 201707191151 METAR KJFK 191151Z 23007KT 10SM FEW008 FEW140 FEW250 26/24\ A3007 RMK AO2 SLP181 T02560244 10256\ 20239 53005= 201707191251 METAR KJFK 191251Z 20007KT 10SM FEW010 FEW140 FEW250 26/24\ A3007 RMK AO2 SLP181 T02610244= 201707191351 METAR KJFK 191351Z 20008KT 10SM FEW013 FEW250 27/24 A3005\ RMK AO2 SLP176 T02720244= 201707191451 METAR KJFK 191451Z 20011KT 10SM FEW018 FEW250 29/24 A3005\ RMK AO2 SLP176 T02940244 58006= 201707191551 METAR KJFK 191551Z 22011KT 10SM FEW026 FEW250 31/23 A3004\ RMK AO2 SLP172 T03110233= 201707191651 METAR KJFK 191651Z 21013KT 10SM FEW038 FEW250 32/22 A3003\ RMK AO2 SLP167 T03170217= 201707191751 METAR KJFK 191751Z 20013KT 10SM FEW040 FEW250 32/23 A3001\ RMK AO2 SLP162 T03170228 10328 20256\ 58014= 201707191851 METAR KJFK 191851Z 18014KT 10SM FEW040 FEW180 SCT250 31/23\ A3000 RMK AO2 SLP158 T03110233= 201707191951 METAR KJFK 191951Z 19015KT 10SM FEW050 SCT250 30/24 A2998\ RMK AO2 SLP153 T03000244= 201707192051 METAR KJFK 192051Z 19016KT 10SM SCT060 SCT250 30/24 A2997\ RMK AO2 SLP148 T03000239 58014= 201707192151 METAR KJFK 192151Z 19014KT 10SM SCT065 SCT090 SCT250 28/23\ A2997 RMK AO2 SLP147 T02830233= 201707192251 METAR KJFK 192251Z 19014KT 10SM SCT065 SCT090 SCT250 28/23\ A2996 RMK AO2 SLP146 T02780233= 201707192351 METAR KJFK 192351Z 19014KT 10SM FEW065 FEW090 SCT250 27/24\ A2996 RMK AO2 SLP147 T02670239 10322\ 20267 55001= 201707200051 METAR KJFK 200051Z 19011KT 10SM SCT060 SCT090 SCT250 26/24\ A2999 RMK AO2 SLP155 T02610239= 201707200151 METAR KJFK 200151Z 03008KT 10SM SCT060 SCT080 SCT250 27/24\ A2999 RMK AO2 SLP155 T02670244= 201707200251 METAR KJFK 200251Z 22005KT 10SM SCT060 SCT250 27/24 A2999\ RMK AO2 SLP155 T02720244 50009= 201707200351 METAR KJFK 200351Z 23008KT 10SM SCT060 BKN250 27/25 A2999\ RMK AO2 SLP156 T02720250= 201707200451 METAR KJFK 200451Z 24008KT 10SM FEW070 SCT160 BKN250 27/24\ A2999 RMK AO2 SLP155 T02720244 403280239= 201707200551 METAR KJFK 200551Z 27009KT 10SM SCT160 SCT250 28/24 A2999\ RMK AO2 SLP154 T02780239 10278 20261\ 58002= 201707200651 METAR KJFK 200651Z 31003KT 10SM SCT055 SCT150 BKN250 28/23\ A2998 RMK AO2 SLP151 T02780233= 201707200751 METAR KJFK 200751Z 20004KT 10SM SCT060 BKN100 BKN250 26/24\ A2997 RMK AO2 SLP147 T02610244= 201707200851 METAR KJFK 200851Z 22005KT 10SM SCT065 BKN110 BKN250 25/24\ A2996 RMK AO2 SLP146 T02500244 56007= 201707200951 METAR KJFK 200951Z 22005KT 9SM FEW100 SCT250 25/24 A2996\ RMK AO2 SLP147 T02500244= 201707201051 METAR KJFK 201051Z 20004KT 8SM FEW100 BKN270 26/25 A2997\ RMK AO2 SLP149 T02560250= 201707201151 METAR KJFK 201151Z 22005KT 8SM FEW100 BKN270 27/25 A2999\ RMK AO2 SLP154 T02720250 10283 20250\ 53008= 201707201251 METAR KJFK 201251Z 23006KT 8SM FEW100 BKN290 28/24 A2999\ RMK AO2 SLP155 T02830244= 201707201351 METAR KJFK 201351Z 23004KT 9SM BKN310 31/23 A2998 RMK AO2\ SLP153 T03060233= 201707201451 METAR KJFK 201451Z 20005KT 10SM FEW042 BKN290 32/22 A2998\ RMK AO2 SLP153 T03170222 58002= 201707201551 METAR KJFK 201551Z 20007KT 10SM FEW045 FEW070 BKN290 33/23\ A2997 RMK AO2 SLP148 TCU DSNT NE\ T03280233= 201707201651 METAR KJFK 201651Z 19011KT 10SM FEW050 SCT080 BKN270 34/23\ A2994 RMK AO2 SLP139 T03390233= 201707201751 METAR KJFK 201751Z 20012KT 10SM SCT055 BKN270 34/21 A2992\ RMK AO2 SLP132 T03440211 10344 20272\ 58021= 201707201851 METAR KJFK 201851Z 18013KT 10SM SCT055 BKN260 32/24 A2991\ RMK AO2 SLP127 TCU DSNT SW T03220244= 201707201951 METAR KJFK 201951Z 19016KT 10SM SCT055 BKN260 31/24 A2990\ RMK AO2 SLP124 TCU DSNT N T03110244= 201707202051 METAR KJFK 202051Z 18015KT 10SM SCT060 BKN250 31/25 A2988\ RMK AO2 SLP118 T03060250 58014= 201707202151 METAR KJFK 202151Z 18011KT 10SM FEW060 FEW100 BKN250 29/25\ A2987 RMK AO2 SLP115 T02940250= 201707202251 METAR KJFK 202251Z 19006KT 10SM FEW060 SCT170 BKN250 29/25\ A2987 RMK AO2 SLP115 T02890250= 201707202351 METAR KJFK 202351Z 25006KT 10SM FEW060 BKN170 BKN250 29/24\ A2988 RMK AO2 SLP119 CB DSNT NW T02940239\ 10344 20283 53001= 201707210051 METAR KJFK 210051Z 26010KT 10SM FEW060 BKN160 BKN250 32/21\ A2988 RMK AO2 LTG DSNT SW SLP117\ OCNL LTGIC DSNT SW-W CB DSNT SW-W\ T03220206= 201707210151 METAR KJFK 210151Z 29013KT 10SM FEW060 FEW150 BKN190 BKN250\ 28/22 A2989 RMK AO2 RAB0053E29 SLP120\ P0000 T02830222= 201707210251 METAR KJFK 210251Z 26010KT 10SM SCT090 SCT250 28/21 A2988\ RMK AO2 SLP119 60000 T02780211 53000= 201707210351 METAR KJFK 210351Z 26009KT 10SM FEW090 27/21 A2988 RMK AO2\ SLP117 T02720211= 201707210451 METAR KJFK 210451Z 26008KT 10SM FEW090 SCT250 27/22 A2988\ RMK AO2 SLP120 T02670217 403440250= 201707210551 METAR KJFK 210551Z 26009KT 10SM BKN060 BKN250 27/22 A2989\ RMK AO2 SLP122 60000 T02670217 10322\ 20267 53003= 201707210651 METAR KJFK 210651Z 27006KT 10SM FEW065 BKN260 27/21 A2988\ RMK AO2 SLP119 T02670211= 201707210751 METAR KJFK 210751Z 32006KT 10SM FEW065 BKN260 27/21 A2987\ RMK AO2 SLP116 T02670206= 201707210851 METAR KJFK 210851Z 32003KT 10SM FEW060 BKN160 BKN260 26/21\ A2988 RMK AO2 SLP119 T02610206 55003= 201707210951 METAR KJFK 210951Z 32009KT 10SM FEW055 SCT140 SCT250 26/21\ A2989 RMK AO2 SLP123 T02610206= 201707211051 METAR KJFK 211051Z 32006KT 8SM FEW140 SCT250 27/21 A2990\ RMK AO2 SLP124 T02720211= 201707211151 METAR KJFK 211151Z 31007KT 10SM SCT130 SCT250 28/21 A2991\ RMK AO2 SLP128 T02830211 10283 20261\ 52009= 201707211251 METAR KJFK 211251Z 32010KT 10SM BKN095 BKN130 29/21 A2993\ RMK AO2 SLP133 T02940206= 201707211351 METAR KJFK 211351Z 32009KT 10SM FEW045 SCT100 31/20 A2992\ RMK AO2 SLP132 T03060200= 201707211451 METAR KJFK 211451Z 35010KT 10SM FEW045 FEW100 31/20 A2992\ RMK AO2 SLP131 T03110200 50002= 201707211551 METAR KJFK 211551Z 29008KT 10SM FEW050 FEW100 32/19 A2990\ RMK AO2 SLP126 T03220194= 201707211651 METAR KJFK 211651Z 33012KT 10SM FEW055 SCT350 34/18 A2989\ RMK AO2 SLP122 T03390183= 201707211751 METAR KJFK 211751Z 28011KT 10SM FEW060 BKN350 34/17 A2988\ RMK AO2 SLP117 T03440167 10344 20283\ 58014= 201707211851 METAR KJFK 211851Z 25015KT 10SM FEW065 BKN270 34/17 A2987\ RMK AO2 SLP114 T03440167= 201707211951 METAR KJFK 211951Z 22016KT 10SM FEW070 BKN270 33/20 A2987\ RMK AO2 SLP113 T03330200= 201707212051 METAR KJFK 212051Z 27012KT 10SM FEW070 BKN270 34/18 A2986\ RMK AO2 SLP112 T03440178 56005= 201707212151 METAR KJFK 212151Z 26012KT 10SM FEW070 BKN260 34/19 A2986\ RMK AO2 SLP110 T03390189= 201707212251 METAR KJFK 212251Z 22013KT 10SM FEW070 BKN260 31/21 A2985\ RMK AO2 SLP108 T03110211= 201707212351 METAR KJFK 212351Z 27012KT 10SM FEW070 FEW180 BKN260 32/19\ A2986 RMK AO2 SLP110 T03220194 10350\ 20306 55002= 201707220051 METAR KJFK 220051Z 19007KT 10SM FEW060 BKN260 28/22 A2986\ RMK AO2 SLP110 T02780222= 201707220151 METAR KJFK 220151Z 19008KT 10SM FEW060 BKN260 27/24 A2988\ RMK AO2 SLP117 T02670239= 201707220251 METAR KJFK 220251Z 19007KT 10SM FEW060 BKN250 27/24 A2988\ RMK AO2 SLP118 T02670244 53008= 201707220351 METAR KJFK 220351Z 22009KT 10SM FEW060 BKN250 28/23 A2988\ RMK AO2 SLP118 T02780233= 201707220451 METAR KJFK 220451Z 24008KT 10SM FEW060 BKN250 28/23 A2988\ RMK AO2 SLP117 T02780233 403500261= 201707220551 METAR KJFK 220551Z 24008KT 10SM SCT055 SCT070 BKN250 27/24\ A2987 RMK AO2 SLP114 T02720239 10322\ 20267 58004= 201707220651 METAR KJFK 220651Z 27006KT 10SM SCT055 SCT080 BKN100 BKN250\ 28/23 A2987 RMK AO2 SLP113 T02780233= 201707220751 METAR KJFK 220751Z 33012KT 10SM FEW045 FEW080 BKN100 BKN250\ 29/22 A2986 RMK AO2 SLP111 T02890217= 201707220851 METAR KJFK 220851Z 36009KT 10SM SCT045 BKN075 BKN250 28/22\ A2986 RMK AO2 SLP111 T02780217 56003= 201707220951 METAR KJFK 220951Z 02005KT 10SM FEW045 FEW080 BKN250 26/21\ A2987 RMK AO2 SLP115 T02610211= 201707221051 METAR KJFK 221051Z 03003KT 10SM BKN250 27/22 A2988 RMK AO2\ SLP118 T02720217= 201707221151 METAR KJFK 221151Z 02006KT 10SM BKN250 28/21 A2988 RMK AO2\ SLP119 T02830206 10289 20261 51008= 201707221251 METAR KJFK 221251Z 05005KT 10SM BKN250 29/20 A2989 RMK AO2\ SLP122 T02890200= 201707221351 METAR KJFK 221351Z 00000KT 10SM FEW130 BKN250 30/18 A2989\ RMK AO2 SLP121 T03000183= 201707221451 METAR KJFK 221451Z 17010KT 10SM FEW050 FEW130 BKN250 31/18\ A2989 RMK AO2 SLP120 T03110178 50001= 201707221551 METAR KJFK 221551Z 19007KT 10SM FEW045 FEW120 BKN250 31/19\ A2988 RMK AO2 SLP119 T03060189= 201707221651 METAR KJFK 221651Z 18009KT 10SM FEW050 BKN250 31/19 A2987\ RMK AO2 SLP113 T03060194= 201707221751 METAR KJFK 221751Z 19008KT 10SM FEW050 BKN200 BKN250 30/19\ A2984 RMK AO2 SLP105 T03000194 10311\ 20283 58015= 201707221851 METAR KJFK 221851Z 18009KT 10SM BKN220 30/19 A2983 RMK AO2\ SLP101 T03000194= 201707221951 METAR KJFK 221951Z 16008KT 10SM BKN250 30/19 A2981 RMK AO2\ SLP094 T03000194= 201707222051 METAR KJFK 222051Z 16007KT 10SM FEW160 BKN250 30/19 A2979\ RMK AO2 SLP089 T03000189 58016= 201707222151 METAR KJFK 222151Z 15008KT 10SM SCT180 BKN240 28/19 A2979\ RMK AO2 SLP087 T02830194= 201707222251 METAR KJFK 222251Z 12006KT 10SM SCT130 BKN190 OVC250 27/19\ A2978 RMK AO2 SLP084 T02720189= 201707222351 METAR KJFK 222351Z 13004KT 10SM FEW055 SCT120 BKN190 OVC250\ 27/22 A2978 RMK AO2 RAB10E39 SLP083\ P0000 60000 T02670222 10311 20267\ 56006= 201707230051 METAR KJFK 230051Z 15005KT 10SM FEW050 BKN100 OVC150 26/24\ A2979 RMK AO2 RAB2358E23 SLP086 P0000\ T02610239= 201707230151 METAR KJFK 230151Z 20010KT 7SM -RA BKN011 BKN034 OVC095 25/24\ A2979 RMK AO2 RAB19 SLP086 P0001\ T02500239= 201707230251 METAR KJFK 230251Z 16006KT 6SM -RA BR SCT015 BKN043 OVC075\ 24/23 A2978 RMK AO2 SLP083 P0001\ 60002 T02440233 58000= 201707230351 METAR KJFK 230351Z 08004KT 6SM -RA BR SCT007 SCT055 OVC075\ 24/24 A2975 RMK AO2 SLP073 P0003\ T02390239= 201707230451 METAR KJFK 230451Z 06006KT 1 1/2SM R04R/4500VP6000FT +RA\ BR SCT009 BKN032 OVC049 23/22 A2975\ RMK AO2 SLP074 P0043 T02280222 403110228= 201707230551 METAR KJFK 230551Z 06009KT 3SM RA BR BKN016 BKN043 OVC060\ 22/22 A2974 RMK AO2 SLP071 P0047\ 60095 T02170217 10267 20217 56012= 201707230651 METAR KJFK 230651Z 09006KT 9SM FEW016 BKN035 BKN050 22/22\ A2973 RMK AO2 RAE47 SLP067 P0004\ T02170217= 201707230751 METAR KJFK 230751Z 03003KT 9SM FEW017 OVC048 22/22 A2974\ RMK AO2 SLP072 T02220217= 201707230851 METAR KJFK 230851Z 00000KT 10SM FEW015 OVC055 22/22 A2975\ RMK AO2 RAB17E32 SLP073 P0000 60004\ T02220217 53003= 201707230951 METAR KJFK 230951Z 00000KT 10SM FEW020 OVC060 22/22 A2976\ RMK AO2 SLP077 T02220217= 201707231051 METAR KJFK 231051Z 14003KT 6SM -RA BR FEW023 BKN065 OVC080\ 22/22 A2976 RMK AO2 RAB36 SLP078\ P0000 T02220217= 201707231151 METAR KJFK 231151Z 14006KT 7SM SCT011 SCT027 OVC070 22/22\ A2978 RMK AO2 RAE07 SLP086 P0000\ 60004 70099 T02220217 10228 20217\ 53012= 201707231251 METAR KJFK 231251Z 00000KT 10SM FEW009 SCT025 OVC070 23/21\ A2980 RMK AO2 SLP090 T02330211= 201707231351 METAR KJFK 231351Z 00000KT 10SM FEW025 SCT060 BKN100 BKN250\ 25/22 A2980 RMK AO2 SLP092 T02500217= 201707231451 METAR KJFK 231451Z 15005KT 10SM FEW023 SCT085 BKN250 27/22\ A2982 RMK AO2 SLP096 T02670217 51011= 201707231551 METAR KJFK 231551Z 12008KT 10SM FEW030 BKN085 26/21 A2982\ RMK AO2 SLP098 T02610206= 201707231651 METAR KJFK 231651Z 16010KT 10SM FEW025 BKN075 BKN100 25/21\ A2984 RMK AO2 SLP105 T02500211= 201707231751 METAR KJFK 231751Z 11007KT 10SM SCT025 BKN065 BKN100 BKN250\ 26/21 A2984 RMK AO2 SLP103 T02560211\ 10267 20222 50006= 201707231851 METAR KJFK 231851Z 13007KT 10SM FEW025 FEW060 BKN080 BKN250\ 27/21 A2983 RMK AO2 SLP099 T02670206= 201707231951 METAR KJFK 231951Z 14010KT 10SM FEW025 BKN065 BKN080 BKN250\ 26/21 A2982 RMK AO2 SLP099 T02610211= 201707232051 METAR KJFK 232051Z 12011KT 10SM SCT019 OVC070 25/21 A2984\ RMK AO2 SLP105 T02500211 53002= 201707232151 METAR KJFK 232151Z 12009KT 10SM FEW020 BKN075 BKN250 24/21\ A2984 RMK AO2 SLP105 T02440206= 201707232251 METAR KJFK 232251Z 11012KT 10SM FEW023 BKN065 BKN080 24/21\ A2985 RMK AO2 SLP106 T02390206= 201707232351 METAR KJFK 232351Z 11011KT 10SM FEW019 BKN065 BKN080 BKN250\ 23/21 A2985 RMK AO2 SLP109 T02330206\ 10272 20233 53004= 201707240051 METAR KJFK 240051Z 10010KT 10SM FEW020 SCT080 BKN170 BKN250\ 23/22 A2985 RMK AO2 SLP109 T02330217= 201707240151 METAR KJFK 240151Z 09006KT 10SM FEW020 SCT100 BKN150 BKN200\ 23/21 A2988 RMK AO2 SLP116 T02330211= 201707240251 METAR KJFK 240251Z 11011KT 10SM FEW012 SCT060 OVC100 23/21\ A2985 RMK AO2 SLP109 T02280206 50001= 201707240351 METAR KJFK 240351Z 09008KT 10SM SCT016 OVC060 23/21 A2988\ RMK AO2 SLP116 T02330211= 201707240451 METAR KJFK 240451Z 10010KT 10SM FEW017 OVC060 23/21 A2985\ RMK AO2 RAB0359E08 SLP106 P0000 T02330211\ 402720217= 201707240551 METAR KJFK 240551Z 11011G18KT 10SM SCT016 OVC055 23/21 A2984\ RMK AO2 SLP103 60000 T02330206 10233\ 20228 58006= 201707240651 METAR KJFK 240651Z 09009KT 10SM SCT020 BKN060 OVC100 23/20\ A2982 RMK AO2 SLP096 T02280200= 201707240751 METAR KJFK 240751Z 10012KT 9SM -RA BKN021 BKN045 OVC090 22/20\ A2980 RMK AO2 RAB49 SLP090 P0000\ T02220200= 201707240851 METAR KJFK 240851Z 07012KT 8SM RA BKN020 OVC045 22/21 A2978\ RMK AO2 RAE17B38 SLP084 P0003 60003\ T02170206 56019= 201707240951 METAR KJFK 240951Z 09008KT 2SM +RA BR OVC010 21/21 A2978\ RMK AO2 SFC VIS 3 SLP086 P0025 T02110211= 201707241051 METAR KJFK 241051Z 08008KT 7SM -RA FEW006 BKN011 OVC055 21/21\ A2977 RMK AO2 SLP079 P0013 T02110211= 201707241151 METAR KJFK 241151Z 07009KT 8SM FEW006 BKN010 OVC030 22/21\ A2976 RMK AO2 RAE06 SLP076 VCSH N\ AND SW P0000 60041 70041 T02170211\ 10233 20211 58009= 201707241251 METAR KJFK 241251Z 09013KT 7SM -DZ OVC010 23/22 A2976 RMK\ AO2 DZB38 SLP077 CIG 008V012 P0000\ T02280217= 201707241351 METAR KJFK 241351Z 07007KT 8SM -RA OVC009 23/22 A2974 RMK\ AO2 DZE16RAB16 SLP072 P0000 T02330222= 201707241451 METAR KJFK 241451Z 02013G19KT 4SM -RA BR BKN006 OVC013 21/21\ A2975 RMK AO2 SLP074 BKN V SCT P0009\ 60009 T02060206 55002= 201707241551 METAR KJFK 241551Z 01018G26KT 7SM R04R/4500VP6000FT -RA BKN009\ BKN031 BKN230 18/18 A2977 RMK AO2\ PK WND 02028/1515 SLP079 CIG 007V011\ P0023 T01830178= 201707241651 METAR KJFK 241651Z 36015KT 10SM BKN011 OVC029 18/17 A2981\ RMK AO2 PK WND 02027/1600 RAE14 SLP094\ P0000 T01830172= 201707241751 METAR KJFK 241751Z 36018G21KT 10SM OVC012 18/17 A2983 RMK\ AO2 SLP100 60032 T01830167 10233\ 20178 53026= 201707241851 METAR KJFK 241851Z 01013KT 10SM BKN018 OVC027 20/16 A2984\ RMK AO2 SLP105 T02000161= 201707241951 METAR KJFK 241951Z 01009KT 10SM BKN017 21/16 A2985 RMK AO2\ SLP108 T02060161= 201707242051 METAR KJFK 242051Z 01012G16KT 10SM BKN021 BKN250 21/16 A2986\ RMK AO2 SLP111 T02060161 51010= 201707242151 METAR KJFK 242151Z 04009KT 10SM BKN021 BKN250 21/16 A2987\ RMK AO2 SLP115 T02060161= 201707242251 METAR KJFK 242251Z 04010KT 10SM BKN023 BKN250 21/16 A2988\ RMK AO2 SLP118 T02060161= 201707242351 METAR KJFK 242351Z 05010KT 10SM FEW023 FEW040 SCT210 BKN250\ 19/16 A2988 RMK AO2 SLP119 T01940161\ 10217 20183 51008= 201707250051 METAR KJFK 250051Z 07006KT 10SM -RA FEW024 FEW038 BKN100\ BKN140 BKN250 18/17 A2990 RMK AO2\ RAB21 SLP124 P0001 T01830167= 201707250151 METAR KJFK 250151Z 05006KT 10SM SCT017 SCT040 BKN065 BKN140\ BKN200 18/17 A2992 RMK AO2 RAE46\ SLP132 P0004 T01780167= 201707250251 METAR KJFK 250251Z 00000KT 10SM BKN018 OVC035 18/16 A2996\ RMK AO2 PRESRR SLP145 60005 T01780161\ 53026= 201707250351 METAR KJFK 250351Z 06007KT 10SM BKN017 OVC032 18/16 A2996\ RMK AO2 SLP146 T01780156= 201707250451 METAR KJFK 250451Z 08005KT 10SM BKN017 OVC033 18/16 A2997\ RMK AO2 SLP149 T01780161 402330178= 201707250551 METAR KJFK 250551Z 07004KT 10SM OVC016 18/16 A2999 RMK AO2\ SLP154 60005 T01780161 10194 20178\ 53009= 201707250651 METAR KJFK 250651Z 05007KT 10SM OVC021 18/16 A2998 RMK AO2\ CIG 015 W SLP153 T01780156= 201707250751 METAR KJFK 250751Z 05008KT 10SM OVC021 18/16 A2998 RMK AO2\ SLP152 T01780156= 201707250851 METAR KJFK 250851Z 06007KT 10SM OVC020 18/16 A2999 RMK AO2\ SLP156 T01780156 53002= 201707250951 METAR KJFK 250951Z 04008KT 10SM OVC016 18/16 A3002 RMK AO2\ SLP164 T01780156= 201707251051 METAR KJFK 251051Z 05007KT 10SM SCT017 BKN037 18/16 A3003\ RMK AO2 SLP169 T01780156= 201707251151 METAR KJFK 251151Z 06008KT 10SM BKN017 BKN043 BKN070 18/16\ A3004 RMK AO2 SLP173 70037 T01830156\ 10183 20172 51017= 201707251251 METAR KJFK 251251Z 04008KT 10SM OVC018 19/16 A3006 RMK AO2\ SLP178 T01890156= 201707251351 METAR KJFK 251351Z 04005KT 10SM BKN020 OVC033 19/16 A3007\ RMK AO2 SLP182 T01940161= 201707251451 METAR KJFK 251451Z 06006KT 10SM OVC020 21/16 A3008 RMK AO2\ SLP187 T02060161 53014= 201707251551 METAR KJFK 251551Z 03005KT 10SM OVC020 21/17 A3010 RMK AO2\ SLP192 T02110167= 201707251651 METAR KJFK 251651Z 04008KT 10SM OVC020 21/17 A3011 RMK AO2\ SLP195 T02060167= 201707251751 METAR KJFK 251751Z 34005KT 10SM BKN021 OVC030 22/17 A3011\ RMK AO2 SLP197 T02220167 10222 20183\ 51010= 201707251851 METAR KJFK 251851Z 03003KT 10SM BKN024 OVC035 22/17 A3012\ RMK AO2 SLP199 T02170167= 201707251951 METAR KJFK 251951Z 00000KT 10SM BKN024 OVC040 21/17 A3013\ RMK AO2 SLP203 T02110172= 201707252051 METAR KJFK 252051Z 13007KT 10SM BKN023 BKN040 BKN100 21/17\ A3014 RMK AO2 SLP206 T02060172 51009= 201707252151 METAR KJFK 252151Z 13006KT 10SM BKN025 BKN040 BKN100 21/17\ A3015 RMK AO2 SLP209 T02060172= 201707252251 METAR KJFK 252251Z 03008KT 10SM BKN027 BKN040 BKN100 21/16\ A3016 RMK AO2 SLP212 T02110161= 201707252351 METAR KJFK 252351Z 04011KT 10SM FEW028 BKN039 BKN090 21/16\ A3017 RMK AO2 SLP218 T02060156 10222\ 20206 53012= 201707260051 METAR KJFK 260051Z 04008KT 10SM BKN027 BKN040 BKN090 20/16\ A3019 RMK AO2 SLP224 T02000156= 201707260151 METAR KJFK 260151Z 03007KT 10SM FEW022 BKN029 BKN045 20/16\ A3021 RMK AO2 SLP230 T02000156= 201707260251 METAR KJFK 260251Z 01006KT 10SM FEW021 BKN032 BKN070 19/16\ A3022 RMK AO2 SLP234 T01940161 51016= 201707260351 METAR KJFK 260351Z 02007KT 10SM BKN032 20/16 A3022 RMK AO2\ SLP234 T02000161= 201707260451 METAR KJFK 260451Z 05006KT 10SM OVC031 20/16 A3023 RMK AO2\ SLP235 T02000161 402220172= 201707260551 METAR KJFK 260551Z 07008KT 10SM OVC024 19/16 A3024 RMK AO2\ SLP238 T01940161 10206 20194 53004= 201707260651 METAR KJFK 260651Z 03005KT 10SM OVC027 19/16 A3023 RMK AO2\ SLP235 T01890156= 201707260751 METAR KJFK 260751Z 03006KT 10SM SCT027 OVC085 18/16 A3021\ RMK AO2 SLP231 T01830156= 201707260851 METAR KJFK 260851Z 03006KT 10SM BKN045 18/16 A3022 RMK AO2\ SLP233 T01780156 55005= 201707260951 METAR KJFK 260951Z 03006KT 10SM SCT046 18/16 A3024 RMK AO2\ SLP240 T01780156= 201707261051 METAR KJFK 261051Z 02004KT 10SM FEW022 FEW046 SCT330 18/16\ A3024 RMK AO2 SLP241 T01830161= 201707261151 METAR KJFK 261151Z 05006KT 10SM FEW022 FEW050 SCT330 20/16\ A3025 RMK AO2 SLP243 T02000161 10200\ 20172 51010= 201707261251 METAR KJFK 261251Z 04005KT 10SM FEW028 FEW050 FEW330 22/14\ A3026 RMK AO2 SLP248 T02170139= 201707261351 METAR KJFK 261351Z VRB04KT 10SM FEW033 FEW050 FEW330 23/14\ A3026 RMK AO2 SLP246 T02280139= 201707261451 METAR KJFK 261451Z 16008KT 10SM FEW036 FEW055 FEW330 23/14\ A3025 RMK AO2 SLP243 T02280144 50000= 201707261551 METAR KJFK 261551Z 14008KT 10SM FEW038 FEW330 23/15 A3025\ RMK AO2 SLP243 T02280150= 201707261651 METAR KJFK 261651Z 19011KT 10SM FEW040 FEW330 24/16 A3024\ RMK AO2 SLP238 T02390156= 201707261751 METAR KJFK 261751Z 17008KT 10SM FEW040 FEW330 23/15 A3022\ RMK AO2 SLP233 T02330150 10239 20200\ 58009= 201707261851 METAR KJFK 261851Z 19009KT 10SM FEW040 FEW250 24/15 A3021\ RMK AO2 SLP230 T02390150= 201707261951 METAR KJFK 261951Z 19009KT 10SM FEW040 SCT250 24/14 A3020\ RMK AO2 SLP225 T02390144= 201707262051 METAR KJFK 262051Z 17010KT 10SM FEW045 SCT250 23/14 A3019\ RMK AO2 SLP222 T02330139 56011= 201707262151 METAR KJFK 262151Z 18008KT 10SM FEW045 SCT250 23/14 A3018\ RMK AO2 SLP218 T02280139= 201707262251 METAR KJFK 262251Z 16009KT 10SM FEW045 SCT250 22/14 A3016\ RMK AO2 SLP214 T02170144= 201707262351 METAR KJFK 262351Z 15008KT 10SM FEW045 BKN250 21/14 A3016\ RMK AO2 SLP212 T02110144 10244 20211\ 56010= 201707270051 METAR KJFK 270051Z 15005KT 10SM BKN250 21/15 A3015 RMK AO2\ SLP209 T02060150= 201707270151 METAR KJFK 270151Z 16005KT 10SM SCT250 20/16 A3016 RMK AO2\ SLP213 T02000156= 201707270251 METAR KJFK 270251Z 15004KT 10SM SCT250 19/15 A3015 RMK AO2\ SLP210 T01940150 58002= 201707270351 METAR KJFK 270351Z 17004KT 10SM FEW040 BKN250 19/16 A3014\ RMK AO2 SLP207 T01940156= 201707270451 METAR KJFK 270451Z 20006KT 10SM FEW040 BKN250 19/16 A3013\ RMK AO2 SLP203 T01940161 402440172= 201707270551 METAR KJFK 270551Z 20007KT 10SM FEW048 BKN250 19/17 A3012\ RMK AO2 SLP199 T01940167 10211 20189\ 58011= 201707270651 METAR KJFK 270651Z 22008KT 10SM FEW049 BKN250 19/17 A3010\ RMK AO2 SLP191 T01940167= 201707270751 METAR KJFK 270751Z 25008KT 10SM FEW049 FEW140 BKN250 19/17\ A3009 RMK AO2 SLP187 T01940172= 201707270851 METAR KJFK 270851Z 23008KT 10SM FEW018 FEW050 SCT170 BKN250\ 19/17 A3006 RMK AO2 SLP179 T01940167\ 58020= 201707270951 METAR KJFK 270951Z 24007KT 10SM SCT170 BKN250 19/17 A3007\ RMK AO2 SLP183 T01890167= 201707271051 METAR KJFK 271051Z 23005KT 10SM FEW022 SCT150 BKN250 20/17\ A3007 RMK AO2 SLP182 T02000172= 201707271151 METAR KJFK 271151Z 23007KT 10SM FEW028 SCT130 BKN260 21/17\ A3007 RMK AO2 SLP181 T02060172 10206\ 20183 50002= 201707271251 METAR KJFK 271251Z 24007KT 10SM FEW050 SCT130 BKN260 23/18\ A3006 RMK AO2 SLP179 T02280183= 201707271351 METAR KJFK 271351Z 21008KT 10SM SCT038 BKN130 BKN260 23/18\ A3004 RMK AO2 SLP174 T02280183= 201707271451 METAR KJFK 271451Z 20006KT 10SM BKN034 BKN260 23/19 A3003\ RMK AO2 SLP169 T02280189 58013= 201707271551 METAR KJFK 271551Z 20008KT 10SM BKN030 BKN044 BKN130 BKN250\ 24/19 A3001 RMK AO2 SLP162 CIG 027V033\ T02440194= 201707271651 METAR KJFK 271651Z 18007KT 10SM BKN025 BKN043 BKN130 BKN250\ 25/20 A2999 RMK AO2 SLP154 T02500200= 201707271751 METAR KJFK 271751Z 17008KT 10SM SCT027 BKN045 BKN130 25/21\ A2997 RMK AO2 SLP148 SCT V BKN T02500206\ 10256 20206 56021= 201707271851 METAR KJFK 271851Z 18009KT 10SM FEW011 BKN026 BKN034 OVC140\ 24/21 A2996 RMK AO2 SLP143 T02390206= 201707271951 METAR KJFK 271951Z 18010KT 10SM FEW011 BKN027 OVC042 24/22\ A2995 RMK AO2 RAB1853E19 SLP140 P0000\ T02390217= 201707272051 METAR KJFK 272051Z 17010KT 10SM -RA FEW011 SCT027 BKN039\ OVC170 24/22 A2992 RMK AO2 RAB44\ SLP133 P0000 60000 T02390217 58015= 201707272151 METAR KJFK 272151Z 19011KT 10SM FEW011 FEW027 SCT047 OVC150\ 24/22 A2991 RMK AO2 RAE2057 SLP128\ P0000 T02390222= 201707272251 METAR KJFK 272251Z 17013KT 10SM FEW011 BKN034 OVC190 24/22\ A2990 RMK AO2 SLP125 T02390222= 201707272351 METAR KJFK 272351Z 19013KT 10SM FEW011 FEW034 FEW070 BKN130\ BKN250 24/22 A2990 RMK AO2 SLP124\ 60000 T02390222 10250 20233 56008= 201707280051 METAR KJFK 280051Z 19013KT 10SM FEW041 SCT048 SCT140 BKN210\ 24/22 A2989 RMK AO2 SLP123 T02390222= 201707280151 METAR KJFK 280151Z 19010KT 10SM BKN026 BKN034 OVC120 24/23\ A2990 RMK AO2 SLP124 T02390228= 201707280251 METAR KJFK 280251Z 21010KT 10SM BKN023 OVC150 24/23 A2989\ RMK AO2 SLP122 T02390228 58001= 201707280351 METAR KJFK 280351Z 21006KT 10SM BKN025 OVC180 23/11 A2988\ RMK RAB0252E05= 201707280451 METAR KJFK 280451Z 22006KT 10SM SCT027 SCT200 23/22 A2988\ RMK AO2 SLP116 T02330217 402560183= 201707280551 METAR KJFK 280551Z 20004KT 10SM BKN034 BKN210 23/22 A2987\ RMK OCNL LTGICCG DSNT S CB DSNT S\ MOV E= 201707280651 METAR KJFK 280651Z 23003KT 10SM SCT018 BKN034 BKN220 23/22\ A2986 RMK OCNL LTGIC DSNT SE CB DSNT\ SE MOV E= 201707280751 METAR KJFK 280751Z 22004KT 10SM FEW018 SCT220 22/22 A2985= 201707280851 METAR KJFK 280851Z 23003KT 10SM FEW018 SCT250 22/22 A2985= 201707280951 METAR KJFK 280951Z 00000KT 10SM FEW050 FEW250 22/22 A2986= 201707281051 METAR KJFK 281051Z 11003KT 9SM FEW007 FEW055 FEW250 22/22\ A2986= 201707281151 METAR KJFK 281151Z 03003KT 10SM FEW010 BKN330 24/23 A2987\ RMK AO2 SLP115 T02440228 10244 20211\ 53006= 201707281251 METAR KJFK 281251Z 03009KT 9SM BKN014 BKN330 26/22 A2987= 201707281351 METAR KJFK 281351Z 01005KT 9SM FEW017 FEW120 BKN310 26/22\ A2986= 201707281451 METAR KJFK 281451Z VRB03KT 10SM SCT019 SCT120 BKN280 27/21\ A2986= 201707281551 METAR KJFK 281551Z 21007KT 10SM SCT026 BKN130 BKN280 27/23\ A2986 RMK AO2 SLP112 SCT V BKN T02720228= 201707281651 METAR KJFK 281651Z 16008KT 9SM SCT028TCU BKN270 27/23 A2985\ RMK TCU N-E= 201707281751 METAR KJFK 281751Z 15010KT 10SM SCT031TCU BKN260 27/22 A2984\ RMK TCU W-NE= 201707281851 METAR KJFK 281851Z 16005KT 10SM SCT031TCU SCT090 SCT130 BKN260\ 27/22 A2983 RMK AO2 SLP101 TCU N\ T02670222= 201707281951 METAR KJFK 281951Z 14007KT 10SM SCT035 SCT090 SCT160 BKN250\ 27/22 A2982 RMK TCU DSNT W AND NW= 201707282051 METAR KJFK 282051Z 12006KT 10SM FEW022 FEW035 FEW090 BKN240\ 27/21 A2980 RMK AO2 SLP090 T02720211\ 58015= 201707282151 METAR KJFK 282151Z 15007KT 10SM FEW035 FEW130 OVC250 26/22\ A2979 RMK AO2 SLP087 T02560217= 201707282251 METAR KJFK 282251Z 13006KT 10SM FEW035 FEW130 FEW210 OVC250\ 26/22 A2979 RMK AO2 SLP087 T02560222= 201707282351 METAR KJFK 282351Z 13005KT 10SM FEW035 FEW130 OVC250 24/22\ A2981 RMK AO2 SLP093 T02440222 10278\ 20244 53002= 201707290051 METAR KJFK 290051Z 14006KT 10SM FEW010 FEW035 FEW130 BKN250\ 24/23 A2982 RMK AO2 SLP097 T02390228= 201707290151 METAR KJFK 290151Z 08005KT 10SM FEW010 FEW120 OVC230 24/23\ A2980 RMK SLP092 T02390228= 201707290251 METAR KJFK 290251Z 04006KT 10SM FEW010 SCT140 OVC210 24/22\ A2980 RMK SLP092 T02390222 58001= 201707290351 METAR KJFK 290351Z 03006KT 10SM FEW011 FEW110 SCT170 OVC200\ 24/22 A2979 RMK SLP088 T02390222= 201707290451 METAR KJFK 290451Z 05004KT 10SM FEW020 FEW060 SCT130 OVC190\ 24/22 A2979 RMK A02 SLP086 T02390222\ 402830211= 201707290551 METAR KJFK 290551Z 03010KT 10SM FEW043 SCT070 BKN090 OVC170\ 23/19 A2977 RMK A02 SLP080 T02330194\ 10244 20233 58011= 201707290651 METAR KJFK 290651Z 05011KT 10SM FEW045 SCT090 OVC160 23/16\ A2976= 201707290751 METAR KJFK 290751Z 05017G23KT 10SM -RA FEW045 BKN090 OVC140\ 23/16 A2976= 201707290851 METAR KJFK 290851Z 03018G25KT 10SM SCT025 SCT085 BKN110 OVC130\ 22/12 A2976= 201707290951 METAR KJFK 290951Z 03014KT 10SM -RA FEW040 SCT070 BKN100\ OVC130 20/14 A2976= 201707291051 METAR KJFK 291051Z 04018G23KT 10SM FEW070 SCT080 BKN110 OVC150\ 21/14 A2976= 201707291151 METAR KJFK 291151Z 04018G24KT 10SM -RA FEW040 SCT075 SCT090\ OVC130 21/14 A2978= 201707291251 METAR KJFK 291251Z 02012KT 10SM -RA FEW039 SCT060 BKN110\ OVC130 19/15 A2978= 201707291351 METAR KJFK 291351Z 03017KG27T 10SM FEW039 SCT065 SCT080 OVC140\ 20/14 A2978= 201707291451 METAR KJFK 291451Z 02016G22KT 10SM FEW039 FEW070 SCT095 OVC160\ 21/14 A2980= 201707291551 METAR KJFK 291551Z 02018G25KT 10SM FEW039 SCT095 OVC180 21/14\ A2978= 201707291651 METAR KJFK 291651Z 02016G27KT 10SM SCT090 OVC200 23/14 A2979\ RMK AO2 PK WND 03030/1616 SLP088\ T02330139= 201707291751 METAR KJFK 291751Z 02020G27KT 10SM SCT030 BKN039 BKN050 BKN200\ 24/14 A2980 RMK AO2 PK WND 03028/1654\ SLP091 60000 T02390139 10244 20189\ 53001= 201707291851 METAR KJFK 291851Z 04022G31KT 10SM BKN034 BKN050 BKN065 BKN200\ 24/14 A2980 RMK AO2 PK WND 04031/1847\ SLP092 T02390144= 201707291951 METAR KJFK 291951Z 03016G29KT 10SM BKN036 BKN048 BKN070 BKN200\ 23/14 A2981 RMK AO2 PK WND 04033/1852\ SLP095 T02330139= 201707292051 METAR KJFK 292051Z 04015G22KT 10SM BKN037 BKN050 BKN200 23/14\ A2981 RMK AO2 SLP095 T02280139 51005= 201707292151 METAR KJFK 292151Z 04011KT 10SM BKN044 BKN200 23/14 A2982\ RMK AO2 SLP099 T02330144= 201707292251 METAR KJFK 292251Z 02012KT 10SM FEW047 BKN060 BKN080 BKN210\ 24/15 A2983 RMK AO2 SLP101 T02390150= 201707292351 METAR KJFK 292351Z 02014KT 10SM FEW055 SCT070 BKN250 23/13\ A2984 RMK AO2 SLP104 T02330133 10244\ 20228 53009= 201707300051 METAR KJFK 300051Z 02015G22KT 10SM FEW055 FEW070 SCT220 23/13\ A2985 RMK AO2 SLP108 T02280133= 201707300151 METAR KJFK 300151Z 02015G23KT 10SM FEW070 SCT220 22/12 A2987\ RMK AO2 SLP116 T02220122= 201707300251 METAR KJFK 300251Z 36013G18KT 10SM FEW070 SCT250 21/13 A2989\ RMK AO2 SLP120 T02110133 53016= 201707300351 METAR KJFK 300351Z 02007KT 10SM FEW250 20/13 A2990 RMK AO2\ SLP124 T02000133= 201707300451 METAR KJFK 300451Z 02007KT 10SM CLR 19/13 A2989 RMK AO2 SLP123\ T01940128 402440189= 201707300551 METAR KJFK 300551Z 36009KT 10SM CLR 18/12 A2989 RMK AO2 SLP123\ T01830122 10233 20183 50003= 201707300651 METAR KJFK 300651Z 36008KT 10SM CLR 18/12 A2990 RMK AO2 SLP125\ T01830122= 201707300751 METAR KJFK 300751Z 36007KT 10SM CLR 18/12 A2991 RMK AO2 SLP128\ T01780122= 201707300851 METAR KJFK 300851Z 35010KT 10SM FEW250 17/12 A2993 RMK AO2\ SLP134 T01720117 53011= 201707300951 METAR KJFK 300951Z 34009KT 10SM FEW200 FEW250 18/12 A2995\ RMK AO2 SLP140 T01780122= 201707301051 METAR KJFK 301051Z 34009KT 10SM FEW130 FEW250 18/13 A2996\ RMK AO2 SLP145 T01830128= 201707301151 METAR KJFK 301151Z 01008KT 10SM FEW130 FEW250 20/13 A2998\ RMK AO2 SLP151 T02000128 10200 20167\ 51017= 201707301251 METAR KJFK 301251Z 01010KT 10SM FEW130 FEW250 22/13 A2999\ RMK AO2 SLP155 T02220128= 201707301351 METAR KJFK 301351Z 36011KT 10SM FEW250 24/12 A3000 RMK AO2\ SLP159 T02390117= 201707301451 METAR KJFK 301451Z 36010KT 10SM FEW250 24/11 A3001 RMK AO2\ SLP162 T02440111 51011= 201707301551 METAR KJFK 301551Z 01006KT 10SM FEW060 26/11 A3002 RMK AO2\ SLP164 T02560106= 201707301651 METAR KJFK 301651Z 06005G16KT 10SM FEW060 27/10 A3002 RMK\ AO2 SLP167 T02670100= 201707301751 METAR KJFK 301751Z 05013KT 10SM FEW070 FEW250 27/09 A3003\ RMK AO2 SLP168 T02670089 10278 20200\ 51006= 201707301851 METAR KJFK 301851Z 03008KT 10SM FEW070 FEW300 28/11 A3002\ RMK AO2 SLP166 T02780111= 201707301951 METAR KJFK 301951Z VRB06KT 10SM FEW070 FEW300 26/12 A3002\ RMK AO2 SLP165 T02610122= 201707302051 METAR KJFK 302051Z 19009KT 10SM FEW070 FEW300 26/13 A3002\ RMK AO2 SLP167 T02560133 55001= 201707302151 METAR KJFK 302151Z 17008KT 10SM FEW070 FEW280 25/12 A3002\ RMK AO2 SLP166 T02500122= 201707302251 METAR KJFK 302251Z 19006KT 10SM FEW280 24/12 A3003 RMK AO2\ SLP167 T02440122= 201707302351 METAR KJFK 302351Z 18007KT 10SM CLR 22/15 A3004 RMK AO2 SLP173\ T02220150 10283 20222 53007= 201707310051 METAR KJFK 310051Z 20007KT 10SM CLR 21/17 A3005 RMK AO2 SLP176\ T02110167= 201707310151 METAR KJFK 310151Z 21006KT 10SM CLR 21/17 A3006 RMK AO2 SLP180\ T02060167= 201707310251 METAR KJFK 310251Z 22007KT 10SM CLR 21/15 A3008 RMK AO2 SLP185\ T02060150 53011= 201707310351 METAR KJFK 310351Z 23007KT 10SM CLR 21/14 A3008 RMK AO2 SLP186\ T02060144= 201707310451 METAR KJFK 310451Z 22007KT 10SM CLR 20/14 A3008 RMK AO2 SLP185\ T02000144 402830167= 201707310551 METAR KJFK 310551Z 24009KT 10SM CLR 21/14 A3007 RMK AO2 SLP183\ T02060139 10228 20189 58002= 201707310651 METAR KJFK 310651Z 24008KT 10SM CLR 19/14 A3007 RMK AO2 SLP183\ T01940139= 201707310751 METAR KJFK 310751Z 25009KT 10SM CLR 20/12 A3006 RMK AO2 SLP180\ T02000122= 201707310851 METAR KJFK 310851Z 25006KT 10SM CLR 19/14 A3006 RMK AO2 SLP178\ T01940139 58005= 201707310951 METAR KJFK 310951Z 27006KT 10SM FEW250 20/14 A3007 RMK AO2\ SLP182 T02000144= 201707311051 METAR KJFK 311051Z 27005KT 10SM FEW250 21/15 A3007 RMK AO2\ SLP184 T02110150= 201707311151 METAR KJFK 311151Z 25004KT 10SM FEW250 23/16 A3007 RMK AO2\ SLP184 T02280161 10228 20189 50006= 201707311251 METAR KJFK 311251Z 33004KT 10SM FEW250 25/15 A3008 RMK AO2\ SLP184 T02500150= 201707311351 METAR KJFK 311351Z 32004KT 10SM FEW250 27/14 A3008 RMK AO2\ SLP184 T02720144= 201707311451 METAR KJFK 311451Z 17006KT 10SM FEW250 27/16 A3008 RMK AO2\ SLP184 T02720156 52001= 201707311551 METAR KJFK 311551Z 18007KT 10SM FEW250 28/17 A3008 RMK AO2\ SLP185 T02830172= 201707311651 METAR KJFK 311651Z 20008KT 10SM FEW055 FEW250 29/16 A3007\ RMK AO2 SLP181 T02890161= 201707311751 METAR KJFK 311751Z 19010KT 10SM FEW060 FEW250 29/17 A3005\ RMK AO2 SLP174 T02890167 10294 20228\ 58010= 201707311851 METAR KJFK 311851Z 20010KT 10SM FEW060 SCT250 29/15 A3004\ RMK AO2 SLP170 T02940150= 201707311951 METAR KJFK 311951Z 20009KT 10SM FEW060 SCT250 29/16 A3002\ RMK AO2 SLP164 T02940156= 201707312051 METAR KJFK 312051Z 16010KT 10SM FEW060 SCT250 28/18 A3002\ RMK AO2 SLP165 T02830178 55010= 201707312151 METAR KJFK 312151Z 19011KT 10SM FEW060 SCT250 26/21 A3002\ RMK AO2 SLP166 T02610206= 201707312251 METAR KJFK 312251Z 17009KT 10SM FEW060 FEW250 25/19 A3003\ RMK AO2 SLP169 T02500189= 201707312351 METAR KJFK 312351Z 18009KT 10SM FEW060 FEW250 24/17 A3004\ RMK AO2 SLP171 CB DSNT N T02440167\ 10300 20244 53007=}
