 201701010051 METAR KJFK 010051Z 22017G25KT 10SM BKN080 OVC120 07/M05 A2997\ RMK AO2 PK WND 21035/0007 SLP148\ T00721050= 201701010151 METAR KJFK 010151Z 21012KT 10SM BKN065 OVC090 07/M06 A2995\ RMK AO2 SLP140 T00671056= 201701010251 METAR KJFK 010251Z 21011KT 10SM OVC075 07/M05 A2993 RMK AO2\ SLP135 T00671050 58013= 201701010351 METAR KJFK 010351Z 22010KT 10SM OVC075 07/M05 A2993 RMK AO2\ SLP136 T00721050= 201701010451 METAR KJFK 010451Z 22009KT 10SM SCT065 OVC080 07/M04 A2991\ RMK AO2 SLP129 T00671044 400720006= 201701010551 METAR KJFK 010551Z 24010KT 10SM OVC060 07/M03 A2992 RMK AO2\ RAB29E43 SLP131 P0000 60000 T00671028\ 10072 20067 55004= 201701010651 METAR KJFK 010651Z 23008KT 10SM SCT055 OVC080 07/M03 A2992\ RMK AO2 RAB08E19B40E51 SLP130 P0000\ T00721028= 201701010751 METAR KJFK 010751Z 22008KT 10SM SCT055 BKN080 OVC100 07/M02\ A2994 RMK AO2 SLP138 T00671022= 201701010851 METAR KJFK 010851Z 23009KT 10SM SCT055 SCT110 06/M02 A2995\ RMK AO2 SLP143 60000 T00561022 53012= 201701010951 METAR KJFK 010951Z 23006KT 10SM BKN060 04/M03 A2998 RMK AO2\ SLP151 T00441033= 201701011051 METAR KJFK 011051Z 24010KT 10SM SCT060 05/M03 A3001 RMK AO2\ SLP162 T00501028= 201701011151 METAR KJFK 011151Z 25010KT 10SM FEW060 05/M03 A3004 RMK AO2\ SLP171 60000 T00501028 10072 20044\ 53028= 201701011251 METAR KJFK 011251Z 24013KT 10SM FEW060 06/M03 A3007 RMK AO2\ SLP181 T00611033= 201701011351 METAR KJFK 011351Z 25016KT 10SM FEW060 08/M03 A3012 RMK AO2\ SLP198 T00781033= 201701011451 METAR KJFK 011451Z 28014G22KT 10SM FEW060 SCT250 09/M06 A3015\ RMK AO2 SLP210 T00891056 53039= 201701011551 METAR KJFK 011551Z 32014KT 10SM SCT046 SCT250 10/M05 A3017\ RMK AO2 SLP215 T01001050= 201701011651 METAR KJFK 011651Z 30011KT 10SM SCT050 SCT250 10/M06 A3018\ RMK AO2 SLP220 T01001056= 201701011751 METAR KJFK 011751Z 31011KT 10SM FEW050 FEW250 11/M08 A3018\ RMK AO2 SLP220 T01061083 10106 20050\ 51010= 201701011851 METAR KJFK 011851Z 34007KT 10SM FEW060 FEW250 11/M08 A3020\ RMK AO2 SLP226 T01061078= 201701011951 METAR KJFK 011951Z 31011KT 10SM FEW250 10/M09 A3023 RMK AO2\ SLP235 T01001089= 201701012051 METAR KJFK 012051Z 31009KT 10SM FEW250 09/M11 A3026 RMK AO2\ SLP248 T00941111 53027= 201701012151 METAR KJFK 012151Z 30009KT 10SM FEW250 08/M11 A3031 RMK AO2\ SLP263 T00831111= 201701012251 METAR KJFK 012251Z 35005KT 10SM FEW250 07/M11 A3034 RMK AO2\ SLP272 T00671106= 201701012351 METAR KJFK 012351Z 00000KT 10SM CLR 06/M09 A3036 RMK AO2\ SLP280 T00611094 10111 20050 51033= 201701020051 METAR KJFK 020051Z 05005KT 10SM FEW250 04/M08 A3039 RMK AO2\ SLP291 T00441083= 201701020151 METAR KJFK 020151Z 00000KT 10SM FEW250 05/M09 A3042 RMK AO2\ SLP299 T00501089= 201701020251 METAR KJFK 020251Z 09003KT 10SM SCT250 04/M08 A3045 RMK AO2\ PRESRR SLP309 T00391078 51029= 201701020351 METAR KJFK 020351Z 05009KT 10SM BKN250 02/M06 A3045 RMK AO2\ SLP310 T00221061= 201701020451 METAR KJFK 020451Z 06006KT 10SM BKN250 03/M08 A3044 RMK AO2\ SLP306 T00281078 401110011= 201701020551 METAR KJFK 020551Z 07007KT 10SM BKN250 02/M08 A3044 RMK AO2\ SLP307 T00171078 10067 20011 57002= 201701020651 METAR KJFK 020651Z 06007KT 10SM OVC250 01/M06 A3046 RMK AO2\ SLP313 T00111061= 201701020751 METAR KJFK 020751Z 07007KT 10SM OVC240 02/M06 A3046 RMK AO2\ SLP314 T00221061= 201701020851 METAR KJFK 020851Z 06007KT 10SM FEW150 OVC240 02/M06 A3047\ RMK AO2 SLP316 T00221061 51009= 201701020951 METAR KJFK 020951Z 05007KT 10SM SCT170 OVC250 03/M06 A3048\ RMK AO2 SLP319 T00281056= 201701021051 METAR KJFK 021051Z 06007KT 10SM OVC160 03/M05 A3048 RMK AO2\ SLP322 T00331050= 201701021151 METAR KJFK 021151Z 05007KT 10SM FEW070 BKN110 OVC140 04/M04\ A3048 RMK AO2 SLP322 T00391039 10039\ 20011 51006= 201701021251 METAR KJFK 021251Z 08006KT 10SM -RA FEW060 OVC090 04/M02\ A3049 RMK AO2 RAB14PLB32E43 SLP326\ P0000 T00441017= 201701021351 METAR KJFK 021351Z 06007KT 10SM -RA FEW047 OVC090 04/M01\ A3049 RMK AO2 SLP325 P0003 T00441006= 201701021451 METAR KJFK 021451Z 05008KT 10SM FEW018 FEW043 OVC060 05/01\ A3051 RMK AO2 RAE46 SLP332 P0000\ 60003 T00500006 53010= 201701021551 METAR KJFK 021551Z 05009KT 10SM -RA FEW015 OVC055 06/01 A3050\ RMK AO2 RAB33 SLP326 P0000 T00560011= 201701021651 METAR KJFK 021651Z 06008KT 10SM -RA FEW015 OVC049 06/02 A3046\ RMK AO2 SLP315 P0001 T00610017= 201701021751 METAR KJFK 021751Z 08009KT 8SM -RA FEW018 OVC048 06/02 A3044\ RMK AO2 SLP306 931000 P0002 60006\ T00610017 10061 20039 58026= 201701021851 METAR KJFK 021851Z 06010KT 7SM -RA FEW018 SCT033 OVC047 06/02\ A3042 RMK AO2 SLP299 SCT V BKN P0002\ T00560022= 201701021951 METAR KJFK 021951Z 06010KT 5SM -RA FEW018 BKN046 OVC070 06/02\ A3041 RMK AO2 SLP297 P0005 T00560022= 201701022051 METAR KJFK 022051Z 05011KT 6SM -RA FEW012 FEW023 OVC041 06/02\ A3041 RMK AO2 SLP296 P0006 60013\ T00560022 56010= 201701022151 METAR KJFK 022151Z 05008KT 4SM -RA BR FEW012 BKN025 OVC049\ 05/03 A3040 RMK AO2 SLP294 P0004\ T00500028= 201701022251 METAR KJFK 022251Z 03010KT 9SM -RA BKN009 BKN021 OVC035 06/03\ A3038 RMK AO2 SLP288 P0001 T00560028= 201701022351 METAR KJFK 022351Z 03011KT 6SM -RA FEW007 OVC013 05/02 A3037\ RMK AO2 SLP283 P0000 60018 T00500022\ 10061 20050 56011= 201701030051 METAR KJFK 030051Z 03010KT 4SM -RA BR BKN007 OVC021 05/03\ A3036 RMK AO2 SLP281 P0003 T00500028= 201701030151 METAR KJFK 030151Z 05010KT 5SM -DZ BR BKN007 OVC010 05/03\ A3031 RMK AO2 RAE36DZB48 PRESFR SLP264\ P0002 T00500028= 201701030251 METAR KJFK 030251Z 05012KT 6SM -DZ BKN008 OVC013 06/03 A3030\ RMK AO2 SLP259 P0001 60006 T00560028\ 58024= 201701030351 METAR KJFK 030351Z 02010KT 6SM -DZ BR OVC007 05/03 A3030\ RMK AO2 SLP261 P0000 T00500028= 201701030451 METAR KJFK 030451Z 03011KT 7SM -RA OVC008 05/02 A3027 RMK\ AO2 DZE45RAB45 SLP249 P0001 T00500022\ 400610011= 201701030551 METAR KJFK 030551Z 05011KT 10SM BKN009 OVC034 05/03 A3022\ RMK AO2 RAE0454 SLP234 P0000 60007\ T00500028 10056 20050 58025= 201701030651 METAR KJFK 030651Z 03009KT 8SM -DZ OVC008 05/03 A3022 RMK\ AO2 DZB36 SLP234 P0000 T00500028= 201701030751 METAR KJFK 030751Z 04011KT 10SM BKN010 OVC027 06/03 A3019\ RMK AO2 DZE22 SLP223 P0000 T00560028= 201701030851 METAR KJFK 030851Z 04011KT 10SM OVC011 06/03 A3015 RMK AO2\ SLP209 60000 T00610033 58025= 201701030951 METAR KJFK 030951Z 03011KT 7SM -RA OVC007 06/03 A3013 RMK\ AO2 RAB47 SLP202 P0000 T00610033= 201701031051 METAR KJFK 031051Z 03015KT 5SM -DZ OVC006 06/03 A3011 RMK\ AO2 RAE42DZB42 SLP196 P0000 T00560028= 201701031151 METAR KJFK 031151Z 04014KT 6SM -DZ OVC007 06/03 A3007 RMK\ AO2 SLP182 P0000 60000 70031 T00560028\ 10061 20050 58027= 201701031251 METAR KJFK 031251Z 05015KT 10SM OVC008 06/03 A3004 RMK AO2\ DZE17 SLP170 P0000 T00610033= 201701031351 METAR KJFK 031351Z 05015KT 2 1/2SM R04R/5500VP6000FT -DZ\ OVC007 07/04 A3001 RMK AO2 DZB24\ SLP162 CIG 006V009 P0000 T00670039= 201701031451 METAR KJFK 031451Z 05014KT 2 1/2SM R04R/6000VP6000FT -DZ\ BR OVC007 07/04 A2999 RMK AO2 SLP156\ P0000 60000 T00670044 56025= 201701031551 METAR KJFK 031551Z 05015G20KT 2SM R04R/5500VP6000FT -RA BR\ OVC007 07/05 A2995 RMK AO2 TWR VIS\ 2 1/2 DZE06RAB06 PRESFR SLP140 P0001\ T00720050= 201701031651 METAR KJFK 031651Z 05016KT 4SM R04R/6000VP6000FT -RA BR OVC007\ 07/05 A2985 RMK AO2 PRESFR SLP108\ P0002 T00720050= 201701031751 METAR KJFK 031751Z 06016G20KT 4SM R04R/6000VP6000FT RA OVC007\ 08/05 A2980 RMK AO2 SLP089 P0004\ 60007 T00780050 10078 20056 58067= 201701031851 METAR KJFK 031851Z 06016KT 5SM -RA OVC007 08/05 A2973 RMK\ AO2 PRESFR SLP067 P0003 T00780050= 201701031951 METAR KJFK 031951Z 06015KT 3SM R04R/5000V6000FT -RA BR OVC005\ 08/06 A2968 RMK AO2 SLP052 P0002\ T00780056= 201701032051 METAR KJFK 032051Z 05013KT 5SM -RA BR BKN008 OVC013 08/06\ A2965 RMK AO2 PRESFR SLP038 P0019\ 60024 T00780056 56051= 201701032151 METAR KJFK 032151Z 05012KT 10SM -RA BKN008 OVC013 08/06 A2960\ RMK AO2 SLP024 P0009 T00780056= 201701032251 METAR KJFK 032251Z 02007KT 5SM -DZ BR OVC007 08/06 A2959\ RMK AO2 RAE2152DZB46 SLP018 P0000\ T00780056= 201701032351 METAR KJFK 032351Z 36009KT 4SM -RA BR OVC006 08/06 A2956\ RMK AO2 DZE48RAB48 SLP009 P0001 60034\ T00780056 10078 20078 56029= 201701040051 METAR KJFK 040051Z 02008KT 5SM BR OVC006 08/06 A2951 RMK\ AO2 RAE34 SLP994 P0000 T00780056= 201701040151 METAR KJFK 040151Z 36007KT 3SM BR OVC005 07/05 A2951 RMK\ AO2 SFC VIS 4 SLP991 P0001 T00720050= 201701040251 METAR KJFK 040251Z 35008KT 3SM -DZ BR OVC004 07/05 A2950\ RMK AO2 DZB44 SLP989 P0000 60001\ T00720050 56020= 201701040351 METAR KJFK 040351Z 34005KT 2 1/2SM -RA BR OVC005 07/05 A2949\ RMK AO2 SFC VIS 5 DZE45RAB45 SLP987\ P0002 T00720050= 201701040451 METAR KJFK 040451Z 27009KT 7SM -RA OVC007 07/04 A2950 RMK\ AO2 SLP989 P0002 T00670044 400780050= 201701040551 METAR KJFK 040551Z 31006KT 8SM OVC005 07/04 A2947 RMK AO2\ RAE0455 SLP978 P0000 60005 T00670044\ 10078 20067 58011= 201701040651 METAR KJFK 040651Z 27010KT 10SM OVC008 06/04 A2947 RMK AO2\ SLP979 T00610039= 201701040751 METAR KJFK 040751Z 27007KT 9SM OVC008 06/04 A2947 RMK AO2\ SLP977 T00610039= 201701040851 METAR KJFK 040851Z 25010KT 10SM BKN011 06/03 A2947 RMK AO2\ SLP977 T00610033 58001= 201701040951 METAR KJFK 040951Z 25012KT 10SM OVC008 06/03 A2947 RMK AO2\ RAB35E51 SLP977 P0000 T00560033= 201701041051 METAR KJFK 041051Z 25009KT 10SM BKN011 BKN030 OVC075 06/04\ A2948 RMK AO2 SLP981 T00610039= 201701041151 METAR KJFK 041151Z 24008KT 7SM BKN010 OVC026 06/04 A2949\ RMK AO2 SLP986 CIG 008V013 60000\ 70046 T00610039 10067 20056 53009= 201701041251 METAR KJFK 041251Z 26012KT 7SM BKN010 BKN230 07/04 A2949\ RMK AO2 SLP987 CIG 009V012 T00670044= 201701041351 METAR KJFK 041351Z 26011KT 8SM FEW012 SCT036 BKN060 BKN210\ 08/04 A2950 RMK AO2 SLP990 T00780044= 201701041451 METAR KJFK 041451Z 27013KT 10SM BKN017 BKN070 BKN200 09/04\ A2951 RMK AO2 SLP993 BKN017 V SCT\ T00890044 53007= 201701041551 METAR KJFK 041551Z 25011KT 10SM FEW020 SCT026 BKN080 BKN230\ 09/04 A2952 RMK AO2 SLP996 SCT V\ BKN T00940044= 201701041651 METAR KJFK 041651Z 25013KT 10SM FEW018 BKN030 OVC230 09/05\ A2952 RMK AO2 SLP995 CIG 027V033\ T00890050= 201701041751 METAR KJFK 041751Z 26015KT 10SM SCT024 BKN032 BKN210 11/04\ A2951 RMK AO2 SLP991 T01060044 10106\ 20061 58002= 201701041851 METAR KJFK 041851Z 29022G26KT 10SM SCT033 SCT130 BKN210 13/02\ A2950 RMK AO2 PK WND 29026/1851 SLP988\ T01280022= 201701041951 METAR KJFK 041951Z 28015G24KT 10SM FEW042 FEW080 SCT250 12/02\ A2950 RMK AO2 PK WND 27029/1930 SLP989\ T01170017 $= 201701042051 METAR KJFK 042051Z 28023G35KT 10SM FEW050 FEW100 SCT250 11/M06\ A2953 RMK AO2 PK WND 30035/2042 SLP998\ T01061056 53007 $= 201701042151 METAR KJFK 042151Z 27023G34KT 10SM FEW050 FEW080 SCT250 10/M07\ A2955 RMK AO2 PK WND 28034/2146 SLP005\ T01001067 $= 201701042251 METAR KJFK 042251Z 27019G27KT 10SM FEW045 FEW250 08/M07 A2957\ RMK AO2 PK WND 26034/2153 SLP012\ T00831067 $= 201701042351 METAR KJFK 042351Z 27020G26KT 10SM FEW045 FEW250 08/M07 A2960\ RMK AO2 PK WND 27027/2257 SLP021\ T00781072 10128 20078 53023 $= 201701050051 METAR KJFK 050051Z 29025G31KT 10SM FEW045 06/M09 A2964 RMK\ AO2 PK WND 30031/0049 SLP035 T00611094\ $= 201701050151 METAR KJFK 050151Z 28022G32KT 10SM FEW045 05/M15 A2967 RMK\ AO2 PK WND 27036/0134 SLP047 T00501150\ $= 201701050251 METAR KJFK 050251Z 27019G32KT 10SM CLR 03/M14 A2971 RMK AO2\ PK WND 27033/0206 SLP059 T00331144\ 51037 $= 201701050351 METAR KJFK 050351Z 26024G31KT 10SM FEW050 03/M13 A2974 RMK\ AO2 PK WND 26033/0335 SLP069 T00281133\ $= 201701050451 METAR KJFK 050451Z 27022G30KT 10SM FEW050 02/M14 A2975 RMK\ AO2 PK WND 27034/0410 SLP073 T00171139\ 401280017 $= 201701050551 METAR KJFK 050551Z 27024G30KT 10SM CLR 01/M14 A2978 RMK AO2\ PK WND 28032/0506 SLP083 T00111139\ 10078 20011 51024 $= 201701050651 METAR KJFK 050651Z 27021G30KT 10SM CLR 01/M14 A2980 RMK AO2\ PK WND 27032/0626 SLP090 T00061139\ $= 201701050751 METAR KJFK 050751Z 26019G26KT 10SM CLR 00/M13 A2983 RMK AO2\ PK WND 27028/0737 SLP100 T00001133\ $= 201701050851 METAR KJFK 050851Z 26020G27KT 10SM CLR M01/M14 A2986 RMK\ AO2 PK WND 26027/0847 SLP111 T10111139\ 53028 $= 201701050951 METAR KJFK 050951Z 26020G25KT 10SM FEW055 M01/M14 A2989 RMK\ AO2 PK WND 25027/0859 SLP120 T10111139\ $= 201701051051 METAR KJFK 051051Z 25021G28KT 10SM FEW055 M02/M14 A2992 RMK\ AO2 PK WND 25028/1044 SLP131 T10171144\ $= 201701051151 METAR KJFK 051151Z 28019G28KT 10SM FEW055 FEW280 M02/M15\ A2995 RMK AO2 PK WND 27028/1143 SLP142\ T10171150 10011 21022 53031 $= 201701051251 METAR KJFK 051251Z 29016G23KT 10SM FEW055 FEW170 BKN230 M02/M16\ A2997 RMK AO2 PK WND 28026/1158 SLP147\ T10171156 $= 201701051351 METAR KJFK 051351Z 27016G22KT 10SM FEW060 SCT180 BKN250 M02/M16\ A2999 RMK AO2 PRESRR SLP156 T10171156\ $= 201701051451 METAR KJFK 051451Z 27017G22KT 10SM FEW060 SCT160 BKN250 M01/M15\ A3002 RMK AO2 SLP167 T10111150 53024\ $= 201701051551 METAR KJFK 051551Z 28013G21KT 10SM FEW100 FEW160 OVC260 M01/M15\ A2999 RMK AO2 SLP156 T10061150 $= 201701051651 METAR KJFK 051651Z 26016KT 10SM SCT095 BKN160 OVC260 00/M15\ A2998 RMK AO2 SLP152 T00001150= 201701051751 METAR KJFK 051751Z 27013KT 10SM FEW100 SCT160 BKN260 00/M14\ A2996 RMK AO2 SLP144 T00001144 10006\ 21022 56022= 201701051851 METAR KJFK 051851Z 24013KT 10SM FEW160 BKN260 01/M14 A2995\ RMK AO2 SLP140 T00111139= 201701051951 METAR KJFK 051951Z 27011KT 10SM FEW120 SCT190 OVC250 01/M14\ A2995 RMK AO2 SLP142 T00061139= 201701052051 METAR KJFK 052051Z 25010KT 10SM CLR 01/M14 A2995 RMK AO2\ SLP141 T00061139 56003= 201701052151 METAR KJFK 052151Z 25010KT 10SM FEW100 BKN130 BKN200 BKN250\ 01/M13 A2994 RMK AO2 SLP137 T00061128= 201701052251 METAR KJFK 052251Z 24012KT 10SM OVC085 01/M12 A2997 RMK AO2\ SLP149 T00061117= 201701052351 METAR KJFK 052351Z 26011KT 10SM FEW070 BKN100 OVC140 01/M12\ A2996 RMK AO2 SLP145 T00061117 10011\ 20000 52004= 201701060051 METAR KJFK 060051Z 24014KT 10SM FEW090 OVC120 01/M12 A2998\ RMK AO2 SLP151 T00061117= 201701060151 METAR KJFK 060151Z 26015KT 10SM FEW070 BKN095 OVC120 01/M12\ A2999 RMK AO2 SLP155 T00111122= 201701060251 METAR KJFK 060251Z 25013KT 10SM FEW065 SCT095 OVC110 01/M12\ A2998 RMK AO2 SLP153 T00061117 50008= 201701060351 METAR KJFK 060351Z 25011KT 10SM BKN070 BKN110 OVC220 01/M11\ A2998 RMK AO2 SLP150 T00061111= 201701060451 METAR KJFK 060451Z 23012KT 8SM -SN OVC046 00/M08 A2998 RMK\ AO2 SNB22E31B47 SLP151 P0000 T00001078\ 400171022= 201701060551 METAR KJFK 060551Z 28006KT 4SM -SN OVC034 M01/M05 A2997 RMK\ AO2 SLP149 931001 P0000 60000 T10061050\ 10011 21006 56004= 201701060651 METAR KJFK 060651Z 34006KT 2SM -SN SCT009 OVC025 M01/M04\ A2997 RMK AO2 SFC VIS 3 SLP149 SNINCR\ 1/1 P0000 T10111044= 201701060751 METAR KJFK 060751Z 34010KT 2SM R04R/5500VP6000FT -SN FEW007\ OVC019 M02/M04 A2998 RMK AO2 SLP150\ P0002 T10171044= 201701060851 METAR KJFK 060851Z 01004KT 8SM -SN FEW008 BKN035 OVC085 M02/M05\ A2994 RMK AO2 SLP139 P0001 60003\ T10171050 58010= 201701060951 METAR KJFK 060951Z 35006KT 8SM -SN FEW014 SCT045 OVC090 M01/M05\ A2996 RMK AO2 SLP144 P0000 T10111050= 201701061051 METAR KJFK 061051Z 36006KT 9SM -SN FEW014 FEW049 OVC075 M01/M06\ A2997 RMK AO2 SLP147 P0000 T10111061= 201701061151 METAR KJFK 061151Z 35007KT 9SM -SN FEW012 OVC075 M01/M07\ A3001 RMK AO2 SNE1059B46 SLP162 931010\ 4/001 P0000 60003 70003 T10111067\ 11006 21017 53023= 201701061251 METAR KJFK 061251Z 01007KT 7SM -SN FEW018 BKN026 OVC085 M01/M06\ A3002 RMK AO2 SLP166 BKN V SCT P0000\ T10111061= 201701061351 METAR KJFK 061351Z 01006KT 10SM BKN018 BKN060 BKN120 BKN220\ M02/M06 A3006 RMK AO2 SNE41 SLP177\ BKN018 V SCT P0000 T10171061= 201701061451 METAR KJFK 061451Z 33006KT 10SM FEW028 SCT095 BKN220 00/M08\ A3007 RMK AO2 SLP183 60000 T00001078\ 53021= 201701061551 METAR KJFK 061551Z 33010KT 10SM FEW035 FEW095 BKN250 01/M09\ A3007 RMK AO2 SLP181 T00061089= 201701061651 METAR KJFK 061651Z 33006KT 10SM SCT035 BKN250 01/M08 A3006\ RMK AO2 SLP178 T00111083= 201701061751 METAR KJFK 061751Z 35008KT 10SM SCT042 SCT140 BKN250 01/M09\ A3005 RMK AO2 SLP176 931000 60000\ T00111089 10017 21017 56006= 201701061851 METAR KJFK 061851Z 35006KT 10SM SCT046 SCT140 BKN250 02/M11\ A3005 RMK AO2 SLP176 T00171106= 201701061951 METAR KJFK 061951Z 34008KT 10SM SCT049 BKN110 BKN180 BKN250\ 01/M12 A3007 RMK AO2 SLP182 T00111122= 201701062051 METAR KJFK 062051Z 31006KT 10SM FEW049 BKN110 BKN130 BKN250\ 01/M13 A3009 RMK AO2 SLP190 T00111133\ 53013= 201701062151 METAR KJFK 062151Z 33007KT 10SM FEW049 BKN120 BKN250 01/M13\ A3013 RMK AO2 SLP202 T00061133= 201701062251 METAR KJFK 062251Z 34006KT 10SM FEW049 BKN130 OVC250 01/M13\ A3017 RMK AO2 SLP216 T00061128= 201701062351 METAR KJFK 062351Z 34007KT 10SM BKN140 OVC250 01/M13 A3019\ RMK AO2 SLP224 T00061133 10022 20006\ 51034= 201701070051 METAR KJFK 070051Z 35010KT 10SM FEW110 BKN130 BKN170 OVC250\ 00/M13 A3021 RMK AO2 SLP231 T00001133= 201701070151 METAR KJFK 070151Z 33012KT 10SM BKN140 BKN250 M01/M14 A3024\ RMK AO2 SLP239 T10111139= 201701070251 METAR KJFK 070251Z 35013KT 10SM SCT150 BKN250 M02/M14 A3025\ RMK AO2 SLP244 T10171144 51020= 201701070351 METAR KJFK 070351Z 35009KT 10SM FEW150 SCT250 M03/M15 A3025\ RMK AO2 SLP242 T10281150= 201701070451 METAR KJFK 070451Z 35009KT 10SM FEW150 BKN250 M03/M15 A3029\ RMK AO2 SLP255 T10281150 400221028= 201701070551 METAR KJFK 070551Z 36012KT 10SM BKN200 OVC250 M03/M14 A3029\ RMK AO2 SLP255 T10281139 10006 21028\ 53011= 201701070651 METAR KJFK 070651Z 02012KT 10SM BKN170 OVC220 M03/M15 A3031\ RMK AO2 SLP262 T10281150= 201701070751 METAR KJFK 070751Z 02011KT 10SM BKN130 OVC150 M03/M15 A3033\ RMK AO2 SLP269 T10331150= 201701070851 METAR KJFK 070851Z 01011KT 10SM SCT110 BKN130 OVC200 M03/M16\ A3033 RMK AO2 SLP270 T10331156 51015\ $= 201701070951 METAR KJFK 070951Z 02010KT 10SM BKN110 OVC130 M04/M16 A3034\ RMK AO2 SLP273 T10391161 $= 201701071051 METAR KJFK 071051Z 03011KT 10SM BKN100 OVC120 M04/M16 A3032\ RMK AO2 SLP266 T10391161 $= 201701071151 METAR KJFK 071151Z 02015KT 10SM OVC080 M04/M16 A3029 RMK\ AO2 SLP257 T10391161 11028 21039\ 58013 $= 201701071251 METAR KJFK 071251Z 03014KT 10SM OVC065 M04/M16 A3031 RMK\ AO2 SLP262 T10391161 $= 201701071351 METAR KJFK 071351Z 02012KT 5SM -SN OVC037 M04/M14 A3033 RMK\ AO2 SNB46 SLP270 P0000 T10441139\ $= 201701071451 METAR KJFK 071451Z 02011KT 3/4SM R04R/2000V4000FT -SN VV018\ M06/M10 A3032 RMK AO2 SLP265 P0001\ 60001 T10561100 50007 $= 201701071551 METAR KJFK 071551Z 36011KT 1/2SM R04R/2000V3000FT SN VV016\ M05/M09 A3027 RMK AO2 TWR VIS 3/4\ SLP249 P0002 T10501089 $= 201701071651 METAR KJFK 071651Z 36013G21KT 3/4SM R04R/2600V3500FT -SN\ FEW010 OVC018 M06/M09 A3022 RMK AO2\ SLP233 P0002 T10561089 $= 201701071751 METAR KJFK 071751Z 35015KT 1/2SM R04R/2400V2800FT SN VV013\ M06/M09 A3018 RMK AO2 SLP220 SNINCR\ 1/2 931018 4/002 933001 P0002 60007\ T10561089 11039 21056 55029 $= 201701071851 METAR KJFK 071851Z 36014KT 1/2SM R04R/1400V2400FT SN VV011\ M06/M09 A3015 RMK AO2 SLP210 SNINCR\ 1/3 P0003 T10561089 $= 201701071951 METAR KJFK 071951Z 35014KT 1/2SM R04R/2400V3500FT SN VV013\ M06/M09 A3016 RMK AO2 SLP211 SNINCR\ 2/5 P0002 T10561089 $= 201701072051 METAR KJFK 072051Z 35019G25KT 1/4SM R04R/1800V2400FT +SN\ VV010 M06/M09 A3010 RMK AO2 PRESFR\ SLP191 SNINCR 1/6 P0002 60007 T10611094\ 58028 $= 201701072151 METAR KJFK 072151Z 34017G24KT 3/4SM R04R/2000V4000FT SN VV013\ M06/M09 A3013 RMK AO2 SFC VIS 1 SLP201\ P0001 T10561094 $= 201701072251 METAR KJFK 072251Z 34019KT 3/4SM R04R/4000V4500FT -SN BR\ VV013 M06/M09 A3012 RMK AO2 SLP199\ SNINCR 1/7 P0001 T10561089 $= 201701072351 METAR KJFK 072351Z 34021G28KT 3/4SM R04R/2000V4000FT -SN\ BR VV014 M06/M09 A3012 RMK AO2 PK\ WND 35028/2316 SLP199 SNINCR 1/8\ 931057 4/008 P0001 60010 T10561089\ 11056 21061 51007 $= 201701080051 METAR KJFK 080051Z 34017KT 3/4SM R04R/2800V5000FT -SN BR\ BKN015 OVC025 M06/M09 A3012 RMK AO2\ PK WND 35030/0035 SLP199 P0001 T10561094\ $= 201701080151 METAR KJFK 080151Z 34017KT 1 1/4SM R04R/3000VP6000FT -SN\ FEW012 BKN019 OVC035 M06/M09 A3013\ RMK AO2 PK WND 35028/0055 SLP201\ P0001 T10561094 $= 201701080251 METAR KJFK 080251Z 34012KT 1 1/2SM R04R/3500VP6000FT -SN\ BKN020 OVC035 M06/M09 A3015 RMK AO2\ SLP208 P0000 60002 T10561094 53009\ $= 201701080351 METAR KJFK 080351Z 36011KT 8SM -SN SCT017 BKN045 BKN070 M06/M11\ A3016 RMK AO2 SLP211 P0003 T10561106\ $= 201701080451 METAR KJFK 080451Z 32016KT 10SM SCT025 OVC065 M05/M12 A3016\ RMK AO2 SNE42 SLP212 P0000 T10501117\ 410281061 $= 201701080551 METAR KJFK 080551Z 32015KT 10SM FEW032 BKN065 M05/M13 A3017\ RMK AO2 SLP217 931007 4/008 60005\ T10501133 11050 21056 53008 $= 201701080651 METAR KJFK 080651Z 31017G23KT 10SM FEW034 FEW065 M06/M14\ A3020 RMK AO2 SLP226 T10611144 $= 201701080751 METAR KJFK 080751Z 31012KT 10SM FEW034 FEW065 M07/M15 A3022\ RMK AO2 SLP232 T10671150 $= 201701080851 METAR KJFK 080851Z 32017KT 10SM FEW034 FEW065 M07/M16 A3023\ RMK AO2 SLP237 T10721156 51020 $= 201701080951 METAR KJFK 080951Z 31013KT 10SM FEW034 FEW065 M07/M16 A3024\ RMK AO2 SLP240 T10721156 $= 201701081051 METAR KJFK 081051Z 31013KT 10SM FEW035 FEW065 M07/M16 A3026\ RMK AO2 SLP246 T10721161 $= 201701081151 METAR KJFK 081151Z 29013KT 10SM FEW040 SCT070 M07/M16 A3028\ RMK AO2 SLP252 4/008 70022 T10721161\ 11050 21078 53015 $= 201701081251 METAR KJFK 081251Z 28014G21KT 10SM FEW040 SCT070 M07/M17\ A3029 RMK AO2 SLP255 T10721167 $= 201701081351 METAR KJFK 081351Z 28015KT 10SM FEW040 FEW070 M07/M17 A3031\ RMK AO2 SLP262 T10721167 $= 201701081451 METAR KJFK 081451Z 30016KT 10SM R04R/3000VP6000FT FEW035\ FEW070 M07/M17 A3030 RMK AO2 PK WND\ 29027/1434 SLP261 T10671172 50009\ $= 201701081551 METAR KJFK 081551Z 29020G25KT 8SM R04R/3000VP6000FT SCT043\ M07/M17 A3030 RMK AO2 PK WND 29027/1509\ SLP260 T10671167 $= 201701081651 METAR KJFK 081651Z 28016KT 10SM SCT045 BKN055 M06/M17 A3029\ RMK AO2 PK WND 28027/1556 SLP257\ VIRGA N T10561167 $= 201701081751 METAR KJFK 081751Z 31016G24KT 10SM R04R/3000VP6000FT BKN045\ BKN055 M06/M16 A3028 RMK AO2 SLP253\ VIRGA W-N 4/008 933014 T10561161\ 11056 21078 58008 $= 201701081851 METAR KJFK 081851Z 32020G25KT 10SM R04R/4000VP6000FT BKN048\ BKN055 M05/M16 A3029 RMK AO2 PK WND\ 29026/1814 SLP257 VIRGA N AND SE\ T10501161 $= 201701081951 METAR KJFK 081951Z 31019G24KT 10SM BKN050 BKN065 M04/M16\ A3032 RMK AO2 PK WND 32027/1853 SLP265\ VIRGA N AND SE T10391161 $= 201701082051 METAR KJFK 082051Z 28013KT 10SM SCT047 BKN060 M04/M18 A3035\ RMK AO2 SLP276 VIRGA ALQDS T10391178\ 53023 $= 201701082151 METAR KJFK 082151Z 29019G29KT 8SM R04R/5500VP6000FT SCT047\ SCT065 BKN100 M04/M18 A3038 RMK AO2\ PK WND 31030/2118 SLP288 SNB12E34\ VIRGA ALQDS P0000 T10441183 $= 201701082251 METAR KJFK 082251Z 30018G23KT 10SM R04R/4500VP6000FT FEW050\ SCT100 M05/M18 A3043 RMK AO2 PK WND\ 30029/2203 SLP303 SNB03E21 P0000\ T10501178 $= 201701082351 METAR KJFK 082351Z 29012KT 10SM FEW049 FEW100 M05/M18 A3047\ RMK AO2 SLP316 931000 4/007 60000\ T10501183 11033 21056 53040 $= 201701090051 METAR KJFK 090051Z 30018G24KT 10SM FEW048 M06/M18 A3050 RMK\ AO2 SLP329 T10561178 $= 201701090151 METAR KJFK 090151Z 31016G25KT 10SM FEW040 SCT070 M06/M18\ A3055 RMK AO2 PK WND 31029/0119 SLP343\ T10611178 $= 201701090251 METAR KJFK 090251Z 30018G27KT 10SM FEW040 M07/M18 A3057 RMK\ AO2 PK WND 30027/0244 SLP351 T10671183\ 51035 $= 201701090351 METAR KJFK 090351Z 31018G23KT 10SM FEW045 M07/M19 A3060 RMK\ AO2 SLP361 T10721189 $= 201701090451 METAR KJFK 090451Z 29013KT 10SM CLR M07/M18 A3062 RMK AO2\ PK WND 31026/0352 SLP368 T10671183\ 410331078 $= 201701090551 METAR KJFK 090551Z 31014KT 10SM CLR M08/M19 A3062 RMK AO2\ SLP368 4/007 T10781189 11044 21078\ 51017 $= 201701090651 METAR KJFK 090651Z 31011KT 10SM CLR M08/M19 A3066 RMK AO2\ SLP381 T10781194 $= 201701090751 METAR KJFK 090751Z 31010KT 10SM CLR M08/M19 A3067 RMK AO2\ SLP384 T10831194 $= 201701090851 METAR KJFK 090851Z 30015KT 10SM CLR M08/M19 A3068 RMK AO2\ SLP389 T10831189 51021 $= 201701090951 METAR KJFK 090951Z 31010KT 10SM FEW110 M09/M19 A3070 RMK\ AO2 SLP393 T10891189 $= 201701091051 METAR KJFK 091051Z 32009KT 10SM FEW110 SCT250 M10/M18 A3070\ RMK AO2 SLP396 T11001183 $= 201701091151 METAR KJFK 091151Z 32008KT 10SM FEW040 FEW110 SCT250 M10/M18\ A3070 RMK AO2 SLP396 4/007 T11001183\ 11078 21100 50007 $= 201701091251 METAR KJFK 091251Z 00000KT 10SM FEW040 FEW140 SCT250 M09/M18\ A3072 RMK AO2 SLP401 T10891183 $= 201701091351 METAR KJFK 091351Z 29006KT 10SM FEW045 FEW140 BKN250 M08/M17\ A3075 RMK AO2 SLP412 T10781167 $= 201701091451 METAR KJFK 091451Z 28006KT 10SM FEW050 FEW130 BKN260 M07/M17\ A3078 RMK AO2 SLP422 T10671167 53026\ $= 201701091551 METAR KJFK 091551Z 30008KT 10SM FEW050 FEW130 OVC260 M06/M17\ A3076 RMK AO2 SLP416 T10561167 $= 201701091651 METAR KJFK 091651Z 24004KT 10SM FEW050 OVC260 M06/M17 A3072\ RMK AO2 SLP403 T10561167 $= 201701091751 METAR KJFK 091751Z 24009KT 10SM FEW050 BKN110 OVC260 M06/M16\ A3071 RMK AO2 SLP398 4/006 933008\ T10561161 11056 21106 56024 $= 201701091851 METAR KJFK 091851Z 24007KT 10SM BKN100 OVC260 M06/M16 A3071\ RMK AO2 SLP400 T10561161 $= 201701091951 METAR KJFK 091951Z 25005KT 10SM SCT085 SCT100 BKN260 M05/M16\ A3070 RMK AO2 SLP394 T10501161 $= 201701092051 METAR KJFK 092051Z 22006KT 10SM SCT110 BKN260 M06/M16 A3070\ RMK AO2 SLP395 T10561156 58003 $= 201701092151 METAR KJFK 092151Z 20008KT 10SM FEW110 BKN160 BKN260 M06/M15\ A3069 RMK AO2 SLP392 T10561150 $= 201701092251 METAR KJFK 092251Z 23011KT 10SM SCT120 BKN150 BKN260 M04/M14\ A3070 RMK AO2 SLP395 T10441139 $= 201701092351 METAR KJFK 092351Z 23013KT 10SM SCT140 SCT260 M05/M14 A3070\ RMK AO2 SLP395 4/006 T10501144 11044\ 21061 53000 $= 201701100051 METAR KJFK 100051Z 20012KT 10SM SCT080 SCT250 M04/M14 A3069\ RMK AO2 SLP391 T10441139 $= 201701100151 METAR KJFK 100151Z 23015KT 10SM FEW080 FEW250 M05/M14 A3069\ RMK AO2 SLP392 T10501144 $= 201701100251 METAR KJFK 100251Z 23017KT 10SM FEW110 SCT250 M06/M14 A3071\ RMK AO2 SLP397 T10561139 53002 $= 201701100351 METAR KJFK 100351Z 24016KT 10SM BKN230 M04/M13 A3070 RMK\ AO2 SLP395 T10441133 $= 201701100451 METAR KJFK 100451Z 25012KT 10SM SCT230 M04/M13 A3068 RMK\ AO2 SLP388 T10441128 410441106 $= 201701100551 METAR KJFK 100551Z 25010KT 10SM FEW250 M05/M13 A3067 RMK\ AO2 SLP384 4/006 T10501128 11044\ 21056 58014 $= 201701100651 METAR KJFK 100651Z 25010KT 10SM SCT250 M04/M12 A3066 RMK\ AO2 SLP382 T10441122 $= 201701100751 METAR KJFK 100751Z 25008KT 10SM SCT250 M04/M12 A3065 RMK\ AO2 SLP379 T10441117 $= 201701100851 METAR KJFK 100851Z 26007KT 10SM FEW090 BKN180 M06/M12 A3064\ RMK AO2 SLP375 T10561117 58008 $= 201701100951 METAR KJFK 100951Z 26005KT 10SM BKN180 M06/M11 A3065 RMK\ AO2 SLP379 T10561111 $= 201701101051 METAR KJFK 101051Z 05003KT 10SM OVC180 M06/M11 A3065 RMK\ AO2 SLP377 T10561111 $= 201701101151 METAR KJFK 101151Z 07004KT 10SM BKN180 BKN230 M06/M11 A3065\ RMK AO2 SLP378 4/006 T10561111 11044\ 21067 51003 $= 201701101251 METAR KJFK 101251Z 00000KT 10SM FEW140 BKN160 BKN230 M05/M10\ A3066 RMK AO2 SLP380 T10501100 $= 201701101351 METAR KJFK 101351Z 08003KT 10SM FEW140 BKN170 OVC250 M04/M10\ A3066 RMK AO2 SLP380 T10441100 $= 201701101451 METAR KJFK 101451Z 21007KT 10SM FEW130 SCT170 OVC250 M02/M08\ A3066 RMK AO2 SLP381 T10171083 51003\ $= 201701101551 METAR KJFK 101551Z 21004KT 10SM FEW130 SCT170 BKN250 M01/M08\ A3064 RMK AO2 SLP374 T10111078 $= 201701101651 METAR KJFK 101651Z 26004KT 10SM FEW110 SCT170 BKN250 01/M07\ A3059 RMK AO2 SLP357 T00061072 $= 201701101751 METAR KJFK 101751Z 21006KT 10SM FEW042 FEW110 BKN170 OVC250\ 01/M06 A3055 RMK AO2 SLP344 4/005\ 933007 T00061061 10011 21061 58037\ $= 201701101851 METAR KJFK 101851Z 23004KT 10SM FEW042 BKN100 BKN170 OVC250\ 02/M04 A3052 RMK AO2 SLP335 T00171044\ $= 201701101951 METAR KJFK 101951Z 10003KT 10SM FEW017 FEW042 BKN090 OVC250\ 02/M05 A3048 RMK AO2 SLP320 T00171050= 201701102051 METAR KJFK 102051Z 09005KT 10SM FEW016 BKN070 OVC085 02/M02\ A3047 RMK AO2 SLP319 VIRGA SE-S T00221022\ 56025= 201701102151 METAR KJFK 102151Z 08004KT 10SM FEW016 BKN080 OVC095 02/M02\ A3046 RMK AO2 SLP313 T00221017= 201701102251 METAR KJFK 102251Z 07004KT 10SM FEW016 SCT085 OVC100 02/M02\ A3044 RMK AO2 SLP306 T00171017= 201701102351 METAR KJFK 102351Z 08004KT 10SM FEW016 BKN110 OVC140 03/M02\ A3041 RMK AO2 SLP297 4/005 T00281017\ 10028 20006 58022= 201701110051 METAR KJFK 110051Z 11006KT 10SM FEW016 SCT070 BKN120 OVC220\ 03/M01 A3037 RMK AO2 SLP284 T00281006= 201701110151 METAR KJFK 110151Z 17014G20KT 10SM BKN070 OVC095 07/02 A3034\ RMK AO2 SLP272 T00670022= 201701110251 METAR KJFK 110251Z 18020G26KT 10SM BKN038 OVC070 07/02 A3030\ RMK AO2 PK WND 17026/0251 SLP260\ T00720022 56037= 201701110351 METAR KJFK 110351Z 17014KT 10SM OVC034 08/03 A3026 RMK AO2\ PK WND 18026/0257 SLP248 T00780028= 201701110451 METAR KJFK 110451Z 19015KT 10SM OVC032 08/03 A3023 RMK AO2\ SLP236 T00830033 400831067= 201701110551 METAR KJFK 110551Z 20014KT 10SM OVC022 07/03 A3021 RMK AO2\ SLP229 4/004 T00720033 10083 20022\ 56030= 201701110651 METAR KJFK 110651Z 23006KT 10SM -RA OVC016 06/03 A3023 RMK\ AO2 RAB44 SLP236 P0000 T00610033= 201701110751 METAR KJFK 110751Z 19011KT 7SM -RA BKN013 OVC040 07/04 A3021\ RMK AO2 SLP228 P0006 T00670039= 201701110851 METAR KJFK 110851Z 20018KT 6SM -RA OVC017 08/06 A3020 RMK\ AO2 PK WND 21028/0834 SLP225 P0012\ 60018 T00830056 58004= 201701110951 METAR KJFK 110951Z 22017KT 10SM OVC021 09/05 A3021 RMK AO2\ RAE04B25E37 SLP228 P0000 T00890050= 201701111051 METAR KJFK 111051Z 24013KT 10SM BKN020 OVC150 08/04 A3023\ RMK AO2 SLP235 T00780039= 201701111151 METAR KJFK 111151Z 25014KT 10SM SCT021 SCT190 07/03 A3028\ RMK AO2 SLP252 4/001 60018 70018\ T00670028 10089 20050 53027= 201701111251 METAR KJFK 111251Z 24010KT 10SM FEW024 FEW190 FEW250 06/02\ A3030 RMK AO2 SLP260 T00610022= 201701111351 METAR KJFK 111351Z 23012KT 10SM FEW034 FEW190 FEW250 08/03\ A3033 RMK AO2 SLP271 T00780028= 201701111451 METAR KJFK 111451Z 23012KT 10SM FEW170 SCT280 08/03 A3035\ RMK AO2 SLP277 T00780028 51024= 201701111551 METAR KJFK 111551Z 23014KT 10SM FEW170 BKN260 08/03 A3034\ RMK AO2 SLP274 T00830028= 201701111651 METAR KJFK 111651Z 23008KT 10SM SCT210 BKN260 09/03 A3034\ RMK AO2 SLP272 T00890028= 201701111751 METAR KJFK 111751Z 24007KT 10SM FEW210 BKN250 09/03 A3033\ RMK AO2 SLP271 T00890028 10094 20061\ 56006= 201701111851 METAR KJFK 111851Z 24006KT 10SM FEW180 BKN230 10/03 A3031\ RMK AO2 SLP263 T01000028= 201701111951 METAR KJFK 111951Z 18007KT 10SM BKN230 10/03 A3031 RMK AO2\ SLP265 T01000028= 201701112051 METAR KJFK 112051Z 16005KT 10SM FEW070 FEW230 BKN260 08/03\ A3030 RMK AO2 SLP259 T00830028 56012= 201701112151 METAR KJFK 112151Z 15009KT 10SM FEW180 BKN240 07/04 A3031\ RMK AO2 SLP263 T00720044= 201701112251 METAR KJFK 112251Z 17010KT 10SM BKN180 OVC250 08/05 A3030\ RMK AO2 SLP260 T00780050= 201701112351 METAR KJFK 112351Z 18012KT 10SM OVC160 08/05 A3030 RMK AO2\ SLP260 T00780050 10106 20072 50001= 201701120051 METAR KJFK 120051Z 13005KT 10SM FEW090 BKN110 OVC130 08/05\ A3027 RMK AO2 SLP250 VIRGA SW-W T00780050= 201701120151 METAR KJFK 120151Z 17006KT 10SM BKN100 OVC120 08/05 A3027\ RMK AO2 SLP249 T00830050= 201701120251 METAR KJFK 120251Z 21004KT 5SM -RA BR OVC070 08/06 A3028\ RMK AO2 RAB00 SLP252 P0004 60004\ T00780056 55008= 201701120351 METAR KJFK 120351Z 17012KT 2SM RA BR BKN005 OVC034 08/06\ A3023 RMK AO2 SFC VIS 4 SLP237 P0013\ T00830061= 201701120451 METAR KJFK 120451Z 19011KT 1 1/2SM -RA BR OVC004 08/06 A3022\ RMK AO2 SFC VIS 4 SLP231 P0011 T00780061\ 401060050= 201701120551 METAR KJFK 120551Z 19010KT 4SM -RA BR SCT005 BKN050 OVC085\ 08/06 A3019 RMK AO2 SLP221 SCT005\ V BKN P0008 60036 T00780061 10083\ 20072 56031= 201701120651 METAR KJFK 120651Z 17008KT 5SM -RA BR SCT005 OVC060 08/06\ A3017 RMK AO2 RAE21B45 SLP216 P0002\ T00780061= 201701120751 METAR KJFK 120751Z 17007KT 8SM FEW005 OVC060 08/06 A3016\ RMK AO2 RAE37 SLP213 P0000 T00830061= 201701120851 METAR KJFK 120851Z 18010KT 9SM FEW008 OVC060 09/07 A3015\ RMK AO2 RAB11E21 SLP209 P0000 60002\ T00890067 56012= 201701120951 METAR KJFK 120951Z 19010KT 10SM OVC027 09/06 A3014 RMK AO2\ SLP204 T00890061= 201701121051 METAR KJFK 121051Z 18009KT 10SM -RA OVC027 08/06 A3011 RMK\ AO2 RAB50 SLP196 P0000 T00830061= 201701121151 METAR KJFK 121151Z 19010KT 9SM FEW019 SCT055 BKN085 BKN250\ 09/06 A3011 RMK AO2 RAE18 SLP197\ P0000 60002 70038 T00890061 10089\ 20078 55012= 201701121251 METAR KJFK 121251Z 18008KT 8SM FEW019 SCT055 SCT085 OVC250\ 08/07 A3011 RMK AO2 SLP197 T00830067= 201701121351 METAR KJFK 121351Z 20007KT 8SM FEW020 FEW050 BKN110 OVC250\ 09/07 A3011 RMK AO2 SLP196 T00890067= 201701121451 METAR KJFK 121451Z 19007KT 8SM SCT055 BKN100 BKN250 10/08\ A3010 RMK AO2 SLP194 T01000078 58003= 201701121551 METAR KJFK 121551Z 21010KT 10SM FEW022 FEW055 BKN100 BKN250\ 14/09 A3009 RMK AO2 SLP188 T01390094= 201701121651 METAR KJFK 121651Z 18006KT 10SM FEW024 BKN100 BKN250 14/09\ A3007 RMK AO2 SLP181 T01390089= 201701121751 METAR KJFK 121751Z 19009KT 10SM FEW043 SCT090 SCT120 BKN250\ 15/09 A3003 RMK AO2 RAB25E36 SLP168\ P0000 60000 T01500089 10161 20083\ 58025= 201701121851 METAR KJFK 121851Z 16008KT 10SM FEW045 FEW090 SCT120 BKN250\ 15/09 A3001 RMK AO2 SLP160 T01500089= 201701121951 METAR KJFK 121951Z 19014KT 10SM FEW045 FEW090 BKN240 14/08\ A3000 RMK AO2 SLP158 T01390078= 201701122051 METAR KJFK 122051Z 19013KT 10SM SCT090 BKN250 11/07 A3001\ RMK AO2 SLP160 T01110072 55008= 201701122151 METAR KJFK 122151Z 18010KT 10SM FEW090 BKN160 BKN210 BKN250\ 11/07 A3001 RMK AO2 SLP163 T01060067= 201701122251 METAR KJFK 122251Z 19013KT 10SM FEW070 BKN085 BKN170 BKN250\ 11/07 A3002 RMK AO2 SLP166 T01110072= 201701122351 METAR KJFK 122351Z 19013KT 10SM BKN120 BKN250 11/07 A3004\ RMK AO2 SLP172 T01110072 10161 20106= 201701130051 METAR KJFK 130051Z 19011KT 10SM BKN100 BKN120 BKN250 11/07\ A3006 RMK AO2 SLP177 T01110072= 201701130251 METAR KJFK 130251Z 18009KT 10SM FEW060 BKN140 OVC230 10/07\ A3008 RMK AO2 SLP184 T01000067 50012= 201701130351 METAR KJFK 130351Z 22012KT 10SM BKN080 BKN130 BKN200 12/07\ A3009 RMK AO2 SLP188 T01170072= 201701130451 METAR KJFK 130451Z 23016KT 10SM FEW045 SCT065 BKN090 BKN140\ BKN250 14/08 A3008 RMK AO2 SLP186\ T01390083 401610078= 201701130551 METAR KJFK 130551Z 26009KT 10SM BKN090 BKN120 BKN250 12/08\ A3010 RMK AO2 SLP193 T01220083 10139\ 20100 53008= 201701130651 METAR KJFK 130651Z 23007KT 10SM SCT030 BKN037 BKN100 BKN250\ 12/08 A3013 RMK AO2 SLP203 T01220083= 201701130751 METAR KJFK 130751Z 27007KT 10SM SCT039 SCT140 BKN250 14/10\ A3016 RMK AO2 SLP211 T01390100= 201701130851 METAR KJFK 130851Z 27009KT 10SM FEW035 SCT150 BKN250 13/10\ A3016 RMK AO2 SLP214 T01280100 51021= 201701130951 METAR KJFK 130951Z 28011KT 10SM FEW035 SCT150 SCT250 13/09\ A3019 RMK AO2 SLP224 T01330089= 201701131051 METAR KJFK 131051Z 32012KT 10SM SCT027 SCT250 13/08 A3024\ RMK AO2 SLP239 T01280078= 201701131151 METAR KJFK 131151Z 33010G22KT 10SM FEW029 SCT250 10/04 A3029\ RMK AO2 SLP257 T01000044 10144 20100\ 53043= 201701131251 METAR KJFK 131251Z 32016G23KT 10SM FEW029 FEW160 SCT250 09/03\ A3033 RMK AO2 SLP270 T00940028= 201701131351 METAR KJFK 131351Z 33020KT 10SM FEW037 FEW160 SCT250 09/00\ A3038 RMK AO2 PK WND 31027/1302 SLP286\ T00940000= 201701131451 METAR KJFK 131451Z 32021G27KT 10SM FEW045 SCT250 09/M03 A3040\ RMK AO2 PK WND 32027/1450 SLP294\ T00891028 51036= 201701131551 METAR KJFK 131551Z 31017G25KT 10SM FEW048 BKN250 09/M05 A3042\ RMK AO2 PK WND 31028/1537 SLP299\ T00891050= 201701131651 METAR KJFK 131651Z 32021G25KT 10SM FEW055 FEW180 BKN250 10/M04\ A3041 RMK AO2 PK WND 31026/1556 SLP297\ T01001044= 201701131751 METAR KJFK 131751Z 33020G28KT 10SM FEW070 BKN250 10/M06 A3043\ RMK AO2 PK WND 32031/1722 SLP304\ T01001061 10100 20089 53011= 201701131851 METAR KJFK 131851Z 33023KT 10SM FEW070 BKN250 09/M07 A3045\ RMK AO2 PK WND 32029/1835 SLP311\ T00891067= 201701131951 METAR KJFK 131951Z 34018G25KT 10SM FEW070 SCT220 BKN250 08/M08\ A3047 RMK AO2 PK WND 32029/1859 SLP319\ T00831083 $= 201701132051 METAR KJFK 132051Z 33017G23KT 10SM FEW210 BKN250 07/M10 A3050\ RMK AO2 PK WND 32026/2014 SLP328\ T00721100 53024 $= 201701132151 METAR KJFK 132151Z 34019G24KT 10SM FEW170 BKN250 06/M12 A3054\ RMK AO2 PK WND 32026/2131 SLP341\ T00561117= 201701132251 METAR KJFK 132251Z 31017KT 10SM FEW170 BKN250 04/M11 A3059\ RMK AO2 PK WND 32027/2216 SLP357\ T00441106= 201701132351 METAR KJFK 132351Z 33013KT 10SM BKN250 04/M11 A3061 RMK AO2\ SLP364 T00391111 10100 20039 51036= 201701140051 METAR KJFK 140051Z 34016KT 10SM FEW170 BKN250 03/M11 A3064\ RMK AO2 PK WND 34026/0038 SLP373\ T00281111= 201701140151 METAR KJFK 140151Z 01013G20KT 10SM BKN200 BKN250 02/M11 A3066\ RMK AO2 SLP382 T00221111= 201701140251 METAR KJFK 140251Z 34013KT 10SM SCT150 BKN200 BKN250 02/M11\ A3069 RMK AO2 SLP390 T00171111 51027= 201701140351 METAR KJFK 140351Z 36011KT 10SM BKN150 BKN200 BKN250 01/M11\ A3069 RMK AO2 SLP391 T00111111= 201701140451 METAR KJFK 140451Z 03010KT 10SM BKN140 BKN200 BKN250 01/M11\ A3070 RMK AO2 SLP396 T00111106 401440011= 201701140551 METAR KJFK 140551Z 02008KT 10SM BKN140 BKN200 BKN250 01/M12\ A3070 RMK AO2 SLP395 T00061117 10039\ 20006 50005= 201701140651 METAR KJFK 140651Z 05008KT 10SM BKN140 BKN200 OVC250 01/M12\ A3071 RMK AO2 SLP399 T00061117= 201701140751 METAR KJFK 140751Z 04009KT 10SM BKN140 BKN190 OVC250 00/M12\ A3072 RMK AO2 SLP402 T00001117= 201701140851 METAR KJFK 140851Z 04008KT 10SM BKN130 BKN200 OVC250 M01/M11\ A3072 RMK AO2 SLP401 T10061111 50006= 201701140951 METAR KJFK 140951Z 04009KT 10SM SCT130 BKN200 BKN250 M01/M11\ A3071 RMK AO2 SLP398 T10111111= 201701141051 METAR KJFK 141051Z 04009KT 10SM SCT120 BKN200 BKN250 M02/M12\ A3070 RMK AO2 SLP396 T10171117= 201701141151 METAR KJFK 141151Z 03009KT 10SM FEW120 BKN250 M02/M12 A3071\ RMK AO2 SLP397 T10171117 10006 21017\ 55004= 201701141251 METAR KJFK 141251Z 02009KT 10SM BKN150 BKN250 M02/M12 A3070\ RMK AO2 SLP396 T10171117= 201701141351 METAR KJFK 141351Z 05007KT 10SM FEW150 BKN250 M01/M12 A3069\ RMK AO2 SLP392 T10061117= 201701141451 METAR KJFK 141451Z VRB03KT 10SM SCT160 BKN250 00/M12 A3070\ RMK AO2 SLP393 T00001117 55003= 201701141551 METAR KJFK 141551Z VRB03KT 10SM SCT170 BKN250 01/M12 A3066\ RMK AO2 PRESFR SLP382 T00061122= 201701141651 METAR KJFK 141651Z 10006KT 10SM SCT110 BKN160 BKN250 01/M12\ A3061 RMK AO2 SLP364 T00061117= 201701141751 METAR KJFK 141751Z 15005KT 10SM SCT075 OVC090 01/M13 A3058\ RMK AO2 SLP355 T00061133 10011 21017\ 56039= 201701141851 METAR KJFK 141851Z 15003KT 10SM OVC065 01/M13 A3056 RMK AO2\ SLP346 T00061133= 201701141951 METAR KJFK 141951Z 20007KT 1 1/2SM R04R/3500VP6000FT -SN\ OVC025 M01/M08 A3054 RMK AO2 SNB34\ CIG 018 W SLP340 P0000 T10111078= 201701142051 METAR KJFK 142051Z 06003KT 1/2SM R04R/3500V5000FT SN VV013\ M02/M05 A3052 RMK AO2 SLP333 P0004\ 60004 T10221050 56022= 201701142151 METAR KJFK 142151Z 04005KT 1 1/2SM R04R/6000VP6000FT -SN\ OVC024 M02/M04 A3048 RMK AO2 SLP319\ P0004 T10171044= 201701142251 METAR KJFK 142251Z 00000KT 1 1/4SM R04R/4500VP6000FT -SN\ OVC021 M01/M04 A3046 RMK AO2 SLP315\ P0002 T10111039= 201701142351 METAR KJFK 142351Z 00000KT 1 3/4SM -SN BR SCT006 OVC020 M01/M03\ A3044 RMK AO2 SLP308 931016 4/002\ P0002 60012 T10111028 10011 21022\ 56024= 201701150051 METAR KJFK 150051Z 00000KT 1 3/4SM -SN FEW009 BKN035 OVC045\ M01/M03 A3041 RMK AO2 SFC VIS 2 SLP297\ P0002 T10061033= 201701150151 METAR KJFK 150151Z 11003KT 1 1/2SM -SN BR BKN007 OVC022 M01/M03\ A3039 RMK AO2 SLP291 P0001 T10061028= 201701150251 METAR KJFK 150251Z 25005KT 4SM -SN SCT013 OVC030 00/M03 A3038\ RMK AO2 SNE35B50 SLP285 P0000 60003\ T00001028 56012= 201701150351 METAR KJFK 150351Z 29005KT 7SM BKN009 BKN014 OVC027 01/M02\ A3035 RMK AO2 SNE22 SLP278 P0000\ T00061022= 201701150451 METAR KJFK 150451Z 28007KT 10SM OVC010 01/M02 A3033 RMK AO2\ SLP269 T00111022 400111022= 201701150551 METAR KJFK 150551Z 28007KT 10SM BKN011 OVC024 01/M02 A3031\ RMK AO2 SLP262 931002 4/002 60003\ T00111022 10011 21006 56023= 201701150651 METAR KJFK 150651Z 28007KT 10SM SCT022 BKN050 OVC085 01/M03\ A3030 RMK AO2 SLP259 T00111028= 201701150751 METAR KJFK 150751Z 30008KT 10SM SCT016 BKN060 OVC080 01/M03\ A3029 RMK AO2 SLP257 T00111028= 201701150851 METAR KJFK 150851Z 31009KT 10SM BKN065 BKN200 01/M04 A3028\ RMK AO2 SLP254 T00061039 56008= 201701150951 METAR KJFK 150951Z 32011KT 10SM SCT070 SCT200 01/M04 A3029\ RMK AO2 SLP255 T00061044= 201701151051 METAR KJFK 151051Z 32010KT 10SM FEW070 FEW200 00/M06 A3030\ RMK AO2 SLP260 T00001056= 201701151151 METAR KJFK 151151Z 33007KT 10SM FEW075 M01/M07 A3032 RMK\ AO2 SLP267 4/002 70015 T10061067\ 10011 21006 53013= 201701151251 METAR KJFK 151251Z 33006KT 10SM FEW075 M01/M07 A3035 RMK\ AO2 SLP278 T10061067= 201701151351 METAR KJFK 151351Z 33008KT 10SM FEW075 01/M07 A3038 RMK AO2\ SLP286 T00061067= 201701151451 METAR KJFK 151451Z 34006KT 10SM FEW250 02/M07 A3038 RMK AO2\ SLP288 T00171067 51021= 201701151551 METAR KJFK 151551Z 31008KT 10SM FEW040 FEW250 02/M07 A3038\ RMK AO2 SLP287 T00221072= 201701151651 METAR KJFK 151651Z 35010KT 10SM FEW040 FEW250 03/M07 A3036\ RMK AO2 SLP281 T00281067= 201701151751 METAR KJFK 151751Z 33009KT 10SM SCT250 04/M07 A3034 RMK AO2\ SLP273 4/001 T00391067 10039 21011\ 58016= 201701151851 METAR KJFK 151851Z 31010KT 10SM BKN250 05/M07 A3033 RMK AO2\ SLP271 T00501067= 201701151951 METAR KJFK 151951Z 32005KT 10SM BKN250 05/M07 A3034 RMK AO2\ SLP272 T00501067= 201701152051 METAR KJFK 152051Z 32007KT 10SM BKN250 05/M07 A3034 RMK AO2\ SLP275 T00501072 53002= 201701152151 METAR KJFK 152151Z 33005KT 10SM BKN250 03/M07 A3035 RMK AO2\ SLP276 T00331072= 201701152251 METAR KJFK 152251Z 30007KT 10SM BKN250 03/M07 A3038 RMK AO2\ SLP287 T00331072= 201701152351 METAR KJFK 152351Z 34006KT 10SM SCT250 03/M07 A3039 RMK AO2\ SLP290 T00281072 10050 20022 53016= 201701160051 METAR KJFK 160051Z 34007KT 10SM FEW250 02/M08 A3039 RMK AO2\ SLP290 T00221078= 201701160151 METAR KJFK 160151Z 32007KT 10SM FEW250 02/M08 A3042 RMK AO2\ SLP300 T00221078= 201701160251 METAR KJFK 160251Z 33004KT 10SM FEW250 01/M08 A3042 RMK AO2\ SLP299 T00111078 50008= 201701160351 METAR KJFK 160351Z 35005KT 10SM FEW250 01/M08 A3042 RMK AO2\ SLP302 T00061078= 201701160451 METAR KJFK 160451Z 35004KT 10SM FEW250 00/M08 A3043 RMK AO2\ SLP303 T00001078 400501011= 201701160551 METAR KJFK 160551Z 35004KT 10SM FEW250 M01/M08 A3043 RMK\ AO2 SLP305 T10061078 10028 21006\ 51006= 201701160651 METAR KJFK 160651Z 36004KT 10SM FEW250 M01/M08 A3045 RMK\ AO2 SLP311 T10061078= 201701160751 METAR KJFK 160751Z 01004KT 10SM FEW250 M01/M07 A3046 RMK\ AO2 SLP315 T10061072= 201701160851 METAR KJFK 160851Z 36003KT 10SM CLR M02/M07 A3046 RMK AO2\ SLP314 T10221072 50009= 201701160951 METAR KJFK 160951Z 35004KT 10SM CLR M01/M07 A3045 RMK AO2\ SLP312 T10111072= 201701161051 METAR KJFK 161051Z 35005KT 10SM CLR M02/M08 A3046 RMK AO2\ SLP314 T10171078= 201701161151 METAR KJFK 161151Z 00000KT 10SM FEW250 M01/M08 A3047 RMK\ AO2 SLP317 T10111078 10000 21022\ 53003= 201701161251 METAR KJFK 161251Z 01003KT 10SM SCT250 M01/M07 A3047 RMK\ AO2 SLP318 T10111067= 201701161351 METAR KJFK 161351Z 00000KT 10SM SCT250 01/M07 A3049 RMK AO2\ SLP323 T00111067= 201701161451 METAR KJFK 161451Z 00000KT 10SM SCT250 03/M08 A3049 RMK AO2\ SLP324 T00281083 52007= 201701161551 METAR KJFK 161551Z 24004KT 10SM SCT250 03/M08 A3048 RMK AO2\ SLP321 T00281078= 201701161651 METAR KJFK 161651Z 24006KT 10SM SCT250 03/M07 A3045 RMK AO2\ SLP311 T00331067= 201701161751 METAR KJFK 161751Z 23009KT 10SM BKN250 04/M06 A3042 RMK AO2\ SLP299 T00441056 10044 21017 58025= 201701161851 METAR KJFK 161851Z 20009KT 10SM BKN250 06/M06 A3039 RMK AO2\ SLP290 T00561061= 201701161951 METAR KJFK 161951Z 20009KT 10SM FEW080 BKN250 05/M05 A3037\ RMK AO2 SLP285 T00501050= 201701162051 METAR KJFK 162051Z 20009KT 10SM FEW080 BKN250 05/M04 A3038\ RMK AO2 SLP286 T00501039 55013= 201701162151 METAR KJFK 162151Z 19008KT 10SM FEW080 BKN250 03/M03 A3037\ RMK AO2 SLP283 T00331033= 201701162251 METAR KJFK 162251Z 21007KT 10SM FEW080 SCT170 BKN250 03/M02\ A3037 RMK AO2 SLP282 T00281022= 201701162351 METAR KJFK 162351Z 23009KT 10SM SCT150 BKN250 03/M03 A3036\ RMK AO2 SLP279 T00331028 10056 20028\ 56007= 201701170051 METAR KJFK 170051Z 23008KT 10SM BKN100 BKN140 OVC250 04/M03\ A3036 RMK AO2 SLP279 T00441028= 201701170151 METAR KJFK 170151Z 23008KT 10SM BKN100 OVC120 05/M03 A3035\ RMK AO2 SLP277 T00501033= 201701170251 METAR KJFK 170251Z 24008KT 10SM BKN090 OVC120 05/M03 A3034\ RMK AO2 SLP275 T00501028 58004= 201701170351 METAR KJFK 170351Z 23007KT 10SM OVC090 04/M03 A3033 RMK AO2\ SLP268 T00441028= 201701170451 METAR KJFK 170451Z 23009KT 10SM OVC070 05/M03 A3031 RMK AO2\ SLP263 T00501033 400561022= 201701170551 METAR KJFK 170551Z 24012KT 10SM OVC070 05/M04 A3030 RMK AO2\ SLP258 T00501039 10050 20033 56017= 201701170651 METAR KJFK 170651Z 25008KT 10SM OVC060 05/M03 A3028 RMK AO2\ SLP252 T00501033= 201701170751 METAR KJFK 170751Z 23007KT 10SM OVC055 04/M03 A3027 RMK AO2\ SLP251 T00441028= 201701170851 METAR KJFK 170851Z 24008KT 10SM OVC055 04/M02 A3025 RMK AO2\ SLP243 T00441022 58015= 201701170951 METAR KJFK 170951Z 24009KT 10SM BKN050 04/M02 A3024 RMK AO2\ SLP240 T00441022= 201701171051 METAR KJFK 171051Z 24007KT 10SM BKN035 BKN075 OVC200 04/M03\ A3024 RMK AO2 SLP239 T00441028= 201701171151 METAR KJFK 171151Z 23007KT 10SM BKN035 OVC090 04/M03 A3024\ RMK AO2 SLP239 T00441028 10050 20039\ 56004= 201701171251 METAR KJFK 171251Z 23005KT 10SM BKN026 OVC045 05/M03 A3023\ RMK AO2 SLP237 T00501028= 201701171351 METAR KJFK 171351Z 22004KT 10SM BKN027 OVC060 06/M03 A3024\ RMK AO2 SLP241 T00561033= 201701171451 METAR KJFK 171451Z 00000KT 8SM BKN028 OVC070 05/M01 A3024\ RMK AO2 RAB07E38 SLP241 P0001 60001\ T00501006 53001= 201701171551 METAR KJFK 171551Z 18003KT 4SM R04R/4500VP6000FT -RA BKN026\ BKN032 OVC048 04/01 A3023 RMK AO2\ RAB1453 SLP236 VIS SE-S 2 1/2 P0006\ T00440006= 201701171651 METAR KJFK 171651Z 00000KT 2 1/2SM R04R/5000VP6000FT RA BKN024\ OVC038 04/01 A3019 RMK AO2 TWR VIS\ 3 SLP224 P0008 T00440011= 201701171751 METAR KJFK 171751Z 07004KT 2 1/2SM R04R/6000VP6000FT -RA\ OVC022 04/01 A3017 RMK AO2 SLP215\ P0002 60017 T00440011 10061 20039\ 58026= 201701171851 METAR KJFK 171851Z 07005KT 3SM -RA FEW011 OVC022 04/02 A3014\ RMK AO2 SFC VIS 4 SLP207 P0002 T00440017= 201701171951 METAR KJFK 171951Z 08004KT 3SM -RA FEW011 OVC020 05/02 A3013\ RMK AO2 SFC VIS 5 RAE1853B25 SLP203\ P0000 T00500017= 201701172051 METAR KJFK 172051Z 09006KT 6SM HZ OVC016 04/02 A3011 RMK\ AO2 RAE51 SLP197 P0001 60003 T00440017\ 56018= 201701172151 METAR KJFK 172151Z 09008KT 5SM HZ OVC014 04/02 A3011 RMK\ AO2 RAB21E43 SLP195 P0000 T00440017= 201701172251 METAR KJFK 172251Z 06009KT 6SM HZ OVC011 04/02 A3010 RMK\ AO2 SLP191 T00440017= 201701172351 METAR KJFK 172351Z 08008KT 2 1/2SM RA BR BKN006 OVC014 04/03\ A3007 RMK AO2 SFC VIS 3 RAB2259 SLP181\ P0018 60021 T00440028 10050 20044\ 58016= 201701180051 METAR KJFK 180051Z 08010KT 2 1/2SM -RA BR BKN006 OVC011 05/03\ A3004 RMK AO2 SFC VIS 3 SLP173 P0007\ T00500033= 201701180151 METAR KJFK 180151Z 05006KT 2 1/2SM -RA BR OVC005 06/03 A3003\ RMK AO2 SFC VIS 5 SLP169 P0007 T00560033= 201701180251 METAR KJFK 180251Z 05007KT 3SM -RA BR OVC004 06/04 A3002\ RMK AO2 SFC VIS 4 SLP164 P0006 60020\ T00560039 56017= 201701180351 METAR KJFK 180351Z 05009KT 1SM R04R/P6000FT BR OVC004 06/03\ A2998 RMK AO2 SFC VIS 3 RAE50 SLP151\ P0001 T00560033= 201701180451 METAR KJFK 180451Z 02009KT 1 1/2SM -DZ BR OVC004 05/03 A2996\ RMK AO2 SFC VIS 4 DZB33 SLP145 P0000\ T00500033 400610039= 201701180551 METAR KJFK 180551Z 03009KT 1 1/2SM -RA BR OVC004 05/03 A2992\ RMK AO2 SFC VIS 2 DZE24RAB24 SLP131\ P0002 60023 T00500033 10056 20044\ 58034= 201701180651 METAR KJFK 180651Z 01007KT 1 1/2SM -DZ BR OVC004 05/03 A2991\ RMK AO2 SFC VIS 2 1/2 RAE0556DZB44\ SLP128 P0001 T00500033= 201701180751 METAR KJFK 180751Z 04011KT 1 1/2SM -RA BR OVC004 04/03 A2989\ RMK AO2 SFC VIS 4 DZE43RAB43 SLP121\ P0001 T00440028= 201701180851 METAR KJFK 180851Z 31011KT 10SM OVC005 05/03 A2992 RMK AO2\ RAE18B27E42 SLP132 P0000 60002 T00500033\ 53002= 201701180951 METAR KJFK 180951Z 03007KT 10SM OVC006 05/03 A2988 RMK AO2\ RAB04E47 SLP117 P0005 T00500033= 201701181051 METAR KJFK 181051Z 35009KT 10SM OVC006 06/03 A2990 RMK AO2\ SLP125 T00560033= 201701181151 METAR KJFK 181151Z 02010KT 9SM OVC005 05/03 A2990 RMK AO2\ SLP126 60007 70068 T00500033 10056\ 20044 55006= 201701181251 METAR KJFK 181251Z 03011KT 3SM -DZ BR OVC005 06/03 A2991\ RMK AO2 SFC VIS 5 DZB17 SLP129 CIG\ 003V007 P0000 T00560033= 201701181351 METAR KJFK 181351Z 03010KT 2 1/2SM -DZ BR OVC006 05/03 A2994\ RMK AO2 SFC VIS 3 SLP137 P0000 T00500033= 201701181451 METAR KJFK 181451Z 02011KT 2 1/2SM -DZ BR OVC006 05/03 A2993\ RMK AO2 SFC VIS 3 SLP135 P0000 60000\ T00500028 50009= 201701181551 METAR KJFK 181551Z 03012KT 7SM OVC006 05/03 A2993 RMK AO2\ DZE48 SLP136 P0000 T00500028= 201701181651 METAR KJFK 181651Z 02012KT 10SM OVC008 05/03 A2991 RMK AO2\ SLP127 T00500028= 201701181751 METAR KJFK 181751Z 02009KT 10SM OVC009 06/02 A2992 RMK AO2\ SLP132 60000 T00560022 10056 20050\ 55004= 201701181851 METAR KJFK 181851Z 36010KT 10SM OVC011 06/02 A2995 RMK AO2\ SLP141 T00560022= 201701181951 METAR KJFK 181951Z 35012KT 10SM OVC012 06/02 A2996 RMK AO2\ SLP145 T00560022= 201701182051 METAR KJFK 182051Z 01008KT 10SM OVC013 06/02 A2996 RMK AO2\ SLP145 T00560022 50014= 201701182151 METAR KJFK 182151Z 35009KT 10SM BKN012 OVC026 06/02 A3001\ RMK AO2 SLP160 T00560022= 201701182251 METAR KJFK 182251Z 35010KT 10SM BKN013 OVC029 06/02 A3003\ RMK AO2 SLP167 T00560022= 201701182351 METAR KJFK 182351Z 35010KT 10SM SCT012 BKN024 OVC065 06/02\ A3004 RMK AO2 SLP173 T00560022 10056\ 20050 51028= 201701190051 METAR KJFK 190051Z 36008KT 10SM SCT009 SCT013 OVC023 05/02\ A3005 RMK AO2 SLP176 T00500022= 201701190151 METAR KJFK 190151Z 36007KT 10SM FEW009 BKN022 OVC070 05/02\ A3004 RMK AO2 SLP171 T00500022= 201701190251 METAR KJFK 190251Z 34007KT 10SM BKN022 BKN070 05/02 A3003\ RMK AO2 SLP169 T00500017 58004= 201701190351 METAR KJFK 190351Z 35010KT 10SM OVC022 05/02 A3004 RMK AO2\ SLP172 T00500017= 201701190451 METAR KJFK 190451Z 35005KT 10SM BKN017 BKN065 05/02 A3002\ RMK AO2 SLP166 T00500017 400560044= 201701190551 METAR KJFK 190551Z 35005KT 10SM FEW016 BKN065 04/01 A3003\ RMK AO2 SLP167 T00440006 10056 20044\ 58002= 201701190651 METAR KJFK 190651Z 35003KT 10SM FEW016 OVC065 05/02 A3004\ RMK AO2 SLP172 T00500017= 201701190751 METAR KJFK 190751Z 00000KT 10SM FEW018 BKN060 04/02 A3004\ RMK AO2 SLP171 T00440017= 201701190851 METAR KJFK 190851Z 34003KT 10SM OVC060 04/02 A3004 RMK AO2\ SLP172 T00440017 51005= 201701190951 METAR KJFK 190951Z 00000KT 10SM FEW029 BKN060 03/02 A3003\ RMK AO2 SLP170 T00330017= 201701191051 METAR KJFK 191051Z 23004KT 10SM FEW029 BKN055 03/01 A3003\ RMK AO2 SLP169 T00330011= 201701191151 METAR KJFK 191151Z 24006KT 10SM FEW030 SCT047 SCT250 03/01\ A3004 RMK AO2 SLP173 T00330011 10050\ 20028 53000= 201701191251 METAR KJFK 191251Z 24007KT 9SM FEW030 FEW047 FEW250 03/02\ A3006 RMK AO2 SLP177 T00330017= 201701191351 METAR KJFK 191351Z 32011KT 10SM SCT021 SCT045 SCT250 07/02\ A3006 RMK SLP180 T00670017= 201701191451 METAR KJFK 191451Z 33013KT 10SM FEW024 FEW050 FEW250 08/02\ A3007 RMK SLP181 T00830017 51008= 201701191551 METAR KJFK 191551Z 33008KT 10SM FEW033 SCT250 09/01 A3005\ RMK AO2 SLP174 T00890011= 201701191651 METAR KJFK 191651Z 34008KT 10SM SCT033 SCT250 09/01 A3002\ RMK AO2 SLP164 T00940006= 201701191751 METAR KJFK 191751Z 33010G15KT 10SM SCT033 BKN250 12/01 A2999\ RMK AO2 SLP157 SCT V BKN T01170011\ 10117 20028 57025= 201701191851 METAR KJFK 191851Z 32013KT 10SM BKN034 BKN250 12/01 A2999\ RMK AO2 SLP155 T01220006= 201701191951 METAR KJFK 191951Z 31011KT 10SM BKN033 09/01 A3000 RMK AO2\ SLP159 T00940006= 201701192051 METAR KJFK 192051Z 30012KT 10SM BKN031 BKN250 08/00 A3000\ RMK AO2 SLP157 T00830000 50001= 201701192151 METAR KJFK 192151Z 33012KT 10SM BKN029 BKN250 08/M01 A3001\ RMK AO2 SLP162 T00781006= 201701192251 METAR KJFK 192251Z 32009KT 10SM OVC030 08/M01 A3002 RMK AO2\ SLP165 T00781006= 201701192351 METAR KJFK 192351Z 30008KT 10SM BKN031 08/M01 A3005 RMK AO2\ SLP175 T00781011 10122 20078 53018= 201701200051 METAR KJFK 200051Z 30009KT 10SM BKN034 07/M01 A3005 RMK AO2\ SLP176 T00721011= 201701200151 METAR KJFK 200151Z 33008KT 10SM BKN033 07/M01 A3004 RMK AO2\ SLP173 T00721011= 201701200251 METAR KJFK 200251Z 01007KT 10SM FEW031 BKN250 06/M01 A3002\ RMK AO2 SLP165 T00611011 58010= 201701200351 METAR KJFK 200351Z 36006KT 10SM BKN030 06/M01 A3003 RMK AO2\ SLP167 T00611011= 201701200451 METAR KJFK 200451Z 06005KT 10SM OVC028 07/M01 A3003 RMK AO2\ SLP169 T00671006 401220028= 201701200551 METAR KJFK 200551Z 05008KT 10SM OVC029 07/M01 A3005 RMK AO2\ SLP174 T00671011 10078 20056 53010= 201701200651 METAR KJFK 200651Z 05009KT 10SM OVC029 06/M02 A3005 RMK AO2\ SLP174 T00611022= 201701200751 METAR KJFK 200751Z 04009KT 10SM OVC030 06/M03 A3004 RMK AO2\ SLP171 T00561028= 201701200851 METAR KJFK 200851Z 03006KT 10SM OVC030 06/M03 A3003 RMK AO2\ SLP169 T00561028 58005= 201701200951 METAR KJFK 200951Z 04005KT 10SM OVC030 06/M03 A3003 RMK AO2\ SLP168 T00561028= 201701201051 METAR KJFK 201051Z 04003KT 10SM OVC030 06/M02 A3002 RMK AO2\ SLP165 T00561022= 201701201151 METAR KJFK 201151Z 06003KT 10SM OVC029 06/M02 A3002 RMK AO2\ SLP164 T00561022 10067 20056 56006= 201701201251 METAR KJFK 201251Z 06005KT 10SM BKN029 OVC220 06/M02 A3002\ RMK AO2 SLP165 T00561017= 201701201351 METAR KJFK 201351Z 08006KT 10SM BKN028 OVC220 06/M02 A3002\ RMK AO2 SLP166 T00611022= 201701201451 METAR KJFK 201451Z 07003KT 10SM OVC028 07/M02 A3003 RMK AO2\ SLP169 T00671022 53005= 201701201551 METAR KJFK 201551Z 16003KT 10SM FEW021 OVC027 07/M02 A3005\ RMK AO2 SLP174 T00671022= 201701201651 METAR KJFK 201651Z 11004KT 10SM BKN025 OVC170 07/M02 A3000\ RMK AO2 SLP159 T00721022= 201701201751 METAR KJFK 201751Z VRB03KT 10SM BKN027 BKN170 OVC250 08/M02\ A2998 RMK AO2 SLP153 CIG 025V029\ T00781017 10078 20056 58016= 201701201851 METAR KJFK 201851Z 12007KT 10SM FEW028 BKN160 OVC260 07/M02\ A2995 RMK AO2 SLP141 T00721022= 201701201951 METAR KJFK 201951Z 13004KT 10SM SCT020 BKN160 OVC250 07/M02\ A2995 RMK AO2 SLP143 T00721017= 201701202051 METAR KJFK 202051Z 12005KT 10SM -RA FEW021 BKN044 OVC090\ 07/00 A2995 RMK AO2 RAB35 SLP143\ P0000 60000 T00670000 56010= 201701202151 METAR KJFK 202151Z 12006KT 6SM -RA BR FEW021 BKN037 OVC050\ 06/04 A2995 RMK AO2 SLP140 P0003\ T00560044= 201701202251 METAR KJFK 202251Z 11004KT 8SM -RA BKN016 OVC031 06/05 A2995\ RMK AO2 SLP142 BKN V SCT P0003 T00560050= 201701202351 METAR KJFK 202351Z 10004KT 9SM -RA BKN017 BKN029 OVC075 06/05\ A2995 RMK AO2 SLP140 P0001 60007\ T00560050 10078 20056 56003= 201701210051 METAR KJFK 210051Z 10005KT 10SM SCT016 BKN027 OVC042 06/05\ A2994 RMK AO2 RAE02 SLP138 P0000\ T00560050= 201701210151 METAR KJFK 210151Z 10005KT 10SM FEW016 OVC027 06/05 A2994\ RMK AO2 SLP138 T00560050= 201701210251 METAR KJFK 210251Z 09004KT 9SM FEW016 OVC023 06/06 A2994\ RMK AO2 SLP138 60000 T00610056 56002= 201701210351 METAR KJFK 210351Z 10004KT 6SM -RA BR BKN017 OVC023 06/06\ A2993 RMK AO2 RAB20 SLP136 P0001\ T00610061= 201701210451 METAR KJFK 210451Z 00000KT 6SM BR BKN015 OVC021 06/06 A2994\ RMK AO2 RAE02 SLP137 P0000 T00610061\ 400780056= 201701210551 METAR KJFK 210551Z 19005KT 5SM BR SCT007 BKN015 OVC020 06/06\ A2994 RMK AO2 SLP137 60001 T00610061\ 10061 20056 55001= 201701210651 METAR KJFK 210651Z 23005KT 5SM BR SCT007 OVC017 06/06 A2994\ RMK AO2 SLP137 T00610061= 201701210751 METAR KJFK 210751Z 23003KT 5SM BR SCT007 OVC013 06/06 A2992\ RMK AO2 SLP131 T00610061= 201701210851 METAR KJFK 210851Z 24006KT 5SM BR SCT007 OVC010 06/06 A2991\ RMK AO2 SLP129 T00560056 58008= 201701210951 METAR KJFK 210951Z 24008KT 5SM BR OVC008 06/06 A2991 RMK\ AO2 SLP127 T00610061= 201701211051 METAR KJFK 211051Z 24008KT 4SM BR OVC007 06/06 A2990 RMK\ AO2 SLP124 T00610061= 201701211151 METAR KJFK 211151Z 23008KT 3SM BR BKN008 BKN085 06/06 A2990\ RMK AO2 SLP124 70008 T00610061 10061\ 20056 56005= 201701211251 METAR KJFK 211251Z 23008KT 3SM BR BKN009 OVC080 06/06 A2990\ RMK AO2 SLP125 T00610061= 201701211351 METAR KJFK 211351Z 24010KT 7SM OVC009 07/07 A2990 RMK AO2\ SLP124 T00670067= 201701211451 METAR KJFK 211451Z 24009KT 8SM OVC008 07/07 A2991 RMK AO2\ SLP127 T00720072 53003= 201701211551 METAR KJFK 211551Z 23007KT 6SM BR OVC007 08/08 A2988 RMK\ AO2 SLP119 T00780078= 201701211651 METAR KJFK 211651Z 27009KT 6SM BR OVC008 08/08 A2988 RMK\ AO2 SLP116 T00780078= 201701211751 METAR KJFK 211751Z 26007KT 5SM BR OVC008 08/08 A2985 RMK\ AO2 SLP106 T00830078 10083 20056\ 58021= 201701211851 METAR KJFK 211851Z 22006KT 4SM BR OVC006 08/08 A2982 RMK\ AO2 SLP099 T00780078= 201701211951 METAR KJFK 211951Z 25010KT 2SM BR OVC004 07/07 A2983 RMK\ AO2 SFC VIS 4 SLP100 T00720072= 201701212051 METAR KJFK 212051Z 23007KT 2SM BR OVC004 08/08 A2983 RMK\ AO2 SFC VIS 4 SLP100 T00780078 56006= 201701212151 METAR KJFK 212151Z 24009KT 3SM BR OVC006 08/08 A2983 RMK\ AO2 SFC VIS 4 SLP101 T00780078= 201701212251 METAR KJFK 212251Z 24008KT 2SM BR OVC005 08/08 A2983 RMK\ AO2 SFC VIS 4 SLP099 T00780078= 201701212351 METAR KJFK 212351Z 22007KT 2SM BR OVC004 08/08 A2983 RMK\ AO2 SFC VIS 3 SLP101 T00780078 10083\ 20072 53001= 201701220051 METAR KJFK 220051Z 24009KT 1/2SM R04R/2400V3500FT BR OVC002\ 07/07 A2984 RMK AO2 SFC VIS 1 1/4\ SLP103 T00720072 $= 201701220151 METAR KJFK 220151Z 23006KT 1/2SM R04R/1600V2200FT BR OVC002\ 07/07 A2982 RMK AO2 SFC VIS 3/4 SLP097\ T00720072 $= 201701220251 METAR KJFK 220251Z 22007KT 1/8SM R04R/1200V1400FT FG VV002\ 07/07 A2981 RMK AO2 SFC VIS 1/4 SLP094\ T00720072 56009 $= 201701220351 METAR KJFK 220351Z 23007KT 1/8SM R04R/2000V6000FT FG VV002\ 07/07 A2982 RMK AO2 SFC VIS 1/2 SLP098\ T00720072 $= 201701220451 METAR KJFK 220451Z 25005KT 1/8SM R04R/2000V2800FT FG VV002\ 07/07 A2979 RMK AO2 SFC VIS 1/2 SLP088\ T00670067 400830056 $= 201701220551 METAR KJFK 220551Z 20008KT 1/8SM R04R/1400V1600FT FG VV002\ 07/07 A2979 RMK AO2 SFC VIS 1/4 SLP089\ T00670067 10072 20067 57008 $= 201701220651 METAR KJFK 220651Z 21004KT 1/8SM R04R/1600V2200FT FG VV002\ 06/06 A2978 RMK AO2 SFC VIS 1/4 SLP082\ T00610061 $= 201701220751 METAR KJFK 220751Z 00000KT 1/8SM R04R/1800V2400FT FG VV003\ 07/07 A2977 RMK AO2 SFC VIS 1/4 SLP079\ T00670067 $= 201701220851 METAR KJFK 220851Z 16004KT 1/8SM R04R/1400FT FG VV002 07/07\ A2973 RMK AO2 SFC VIS 1/4 SLP067\ T00670067 58016 $= 201701220951 METAR KJFK 220951Z 00000KT 1/8SM R04R/1200V2200FT FG VV003\ 07/07 A2974 RMK AO2 SFC VIS 1/4 SLP069\ T00670067 $= 201701221051 METAR KJFK 221051Z 18006KT 1/8SM R04R/1800V2200FT FG VV003\ 07/07 A2975 RMK AO2 SFC VIS 1/2 SLP072\ T00670067 $= 201701221151 METAR KJFK 221151Z 00000KT 1 1/2SM R04R/5000VP6000FT BR OVC003\ 07/07 A2975 RMK AO2 SLP075 T00670067\ 10072 20061 53006 $= 201701221251 METAR KJFK 221251Z 09003KT 2SM R04R/1000V1400FT BR OVC005\ 07/07 A2974 RMK AO2 SLP070 T00720072\ $= 201701221351 METAR KJFK 221351Z 02008KT 2SM BR BKN004 OVC016 08/08 A2973\ RMK AO2 SLP066 T00780078 $= 201701221451 METAR KJFK 221451Z 04007KT 2SM BR OVC004 08/08 A2975 RMK\ AO2 SLP074 T00780078 55001 $= 201701221551 METAR KJFK 221551Z 05005KT 5SM BR OVC005 09/09 A2976 RMK\ AO2 SLP076 T00890089 $= 201701221651 METAR KJFK 221651Z 03005KT 5SM BR OVC008 11/09 A2973 RMK\ AO2 SLP068 T01060094 $= 201701221751 METAR KJFK 221751Z 03006KT 7SM BKN011 OVC023 12/09 A2970\ RMK AO2 SLP057 T01170094 10117 20067\ 58017 $= 201701221851 METAR KJFK 221851Z 01009KT 7SM BKN012 OVC027 11/08 A2969\ RMK AO2 SLP053 T01060083 $= 201701221951 METAR KJFK 221951Z 04006KT 2 1/2SM -RA BR OVC013 09/09 A2970\ RMK AO2 RAB38 SLP056 P0000 T00940094\ $= 201701222051 METAR KJFK 222051Z 03006KT 2 1/2SM -RA BR OVC017 09/09 A2972\ RMK AO2 RAE1955B23 SLP063 P0001 60001\ T00890089 53006 $= 201701222151 METAR KJFK 222151Z 03006KT 6SM BR OVC026 09/09 A2973 RMK\ AO2 RAE12 SLP067 P0000 T00940094\ $= 201701222251 METAR KJFK 222251Z 04006KT 7SM SCT030 OVC070 09/09 A2973\ RMK AO2 CIG 030 W SLP068 T00940094\ $= 201701222351 METAR KJFK 222351Z 07010KT 10SM OVC029 11/08 A2975 RMK AO2\ SLP074 60001 T01060083 10122 20089\ 53011 $= 201701230051 METAR KJFK 230051Z 09013KT 10SM BKN028 OVC044 09/08 A2976\ RMK AO2 SLP078 T00890078 $= 201701230151 METAR KJFK 230151Z 07019G29KT 10SM SCT020 OVC029 09/07 A2978\ RMK AO2 PK WND 08029/0149 SLP083\ T00940067 $= 201701230251 METAR KJFK 230251Z 06016G27KT 10SM OVC017 09/07 A2979 RMK\ AO2 PK WND 06029/0228 SLP089 T00890067\ 53015 $= 201701230351 METAR KJFK 230351Z 06021G29KT 10SM OVC018 09/06 A2981 RMK\ AO2 PK WND 05029/0339 SLP093 T00890061\ $= 201701230451 METAR KJFK 230451Z 05020KT 10SM OVC018 08/06 A2981 RMK AO2\ PK WND 06028/0406 SLP094 T00830061\ 401220061 $= 201701230551 METAR KJFK 230551Z 06020G28KT 10SM OVC013 08/06 A2981 RMK\ AO2 PK WND 05028/0549 SLP095 T00780061\ 10106 20078 51006 $= 201701230651 METAR KJFK 230651Z 06015G22KT 10SM OVC013 08/06 A2984 RMK\ AO2 PK WND 05027/0622 SLP103 T00780061\ $= 201701230751 METAR KJFK 230751Z 07021G27KT 10SM OVC012 07/06 A2982 RMK\ AO2 PK WND 06028/0715 SLP098 T00720056\ $= 201701230851 METAR KJFK 230851Z 06019G24KT 10SM OVC013 07/05 A2983 RMK\ AO2 PK WND 06029/0834 SLP101 T00720050\ 51005 $= 201701230951 METAR KJFK 230951Z 05016G28KT 10SM OVC015 07/04 A2983 RMK\ AO2 PK WND 07029/0906 SLP101 T00670044\ $= 201701231051 METAR KJFK 231051Z 06018G24KT 10SM OVC018 07/03 A2982 RMK\ AO2 PK WND 07027/1028 SLP099 T00670028\ $= 201701231151 METAR KJFK 231151Z 06019G30KT 10SM BKN021 OVC055 06/02 A2983\ RMK AO2 PK WND 05033/1124 SLP101\ 70001 T00610022 10078 20061 53001\ $= 201701231251 METAR KJFK 231251Z 06018G28KT 10SM BKN022 OVC050 06/02 A2986\ RMK AO2 PK WND 05036/1216 SLP110\ T00610017 $= 201701231351 METAR KJFK 231351Z 06026G32KT 10SM OVC025 06/01 A2984 RMK\ AO2 PK WND 06035/1302 SLP103 T00560011\ $= 201701231451 METAR KJFK 231451Z 06025G33KT 10SM OVC025 06/01 A2983 RMK\ AO2 PK WND 06036/1418 SLP102 T00560006\ 50001 $= 201701231551 METAR KJFK 231551Z 06023G33KT 10SM BKN026 OVC060 06/01 A2985\ RMK AO2 PK WND 05035/1521 SLP107\ T00560006= 201701231651 METAR KJFK 231651Z 05023G30KT 10SM OVC025 06/01 A2979 RMK\ AO2 PK WND 05034/1629 SLP087 T00560011= 201701231751 METAR KJFK 231751Z 06023G33KT 10SM BKN025 OVC055 06/01 A2974\ RMK AO2 PK WND 06034/1731 SLP070\ T00560011 10061 20056 58032= 201701231851 METAR KJFK 231851Z 06025G34KT 10SM BKN026 OVC050 06/M01 A2971\ RMK AO2 PK WND 06039/1800 SLP059\ T00561011= 201701231951 METAR KJFK 231951Z 05029G36KT 10SM -RA BKN025 OVC045 04/00\ A2967 RMK AO2 PK WND 05041/1910 RAB23\ SLP048 P0000 T00440000= 201701232051 METAR KJFK 232051Z 05022G37KT 10SM -RA OVC021 04/01 A2967\ RMK AO2 PK WND 06039/2026 SLP045\ P0000 60000 T00390006 56025= 201701232151 METAR KJFK 232151Z 05022G32KT 5SM RA BR OVC019 04/02 A2964\ RMK AO2 PK WND 05039/2138 SLP036\ P0002 T00390017= 201701232251 METAR KJFK 232251Z 04018G28KT 4SM RA BR OVC018 04/02 A2967\ RMK AO2 PK WND 05034/2226 SLP046\ P0011 T00390017= 201701232351 METAR KJFK 232351Z 04021G31KT 5SM RA BR OVC017 04/02 A2964\ RMK AO2 PK WND 05031/2342 SLP037\ P0016 60029 T00390017 10056 20039\ 58007= 201701240051 METAR KJFK 240051Z 04025G33KT 4SM RA BR BKN014 BKN019 OVC027\ 03/02 A2960 RMK AO2 PK WND 04034/0028\ PRESFR SLP024 P0014 T00330017= 201701240151 METAR KJFK 240151Z 03027G33KT 6SM -RA BR OVC015 03/02 A2958\ RMK AO2 PK WND 04040/0056 SLP017\ P0010 T00330017= 201701240251 METAR KJFK 240251Z 04022G34KT 6SM -RA BR BKN014 OVC020 03/02\ A2955 RMK AO2 PK WND 03040/0200 SLP005\ P0009 60033 T00330017 58022= 201701240351 METAR KJFK 240351Z 04024G33KT 5SM RA BR OVC014 03/02 A2949\ RMK AO2 PK WND 03040/0339 SLP985\ P0011 T00330017= 201701240451 METAR KJFK 240451Z 04023G33KT 5SM -RA BR OVC014 03/02 A2944\ RMK AO2 PK WND 04037/0352 SLP969\ P0010 T00330017 400830033= 201701240551 METAR KJFK 240551Z 04025G34KT 5SM RA BR OVC014 04/02 A2939\ RMK AO2 PK WND 04037/0509 SLP951\ P0012 60066 T00390022 10039 20033\ 56055= 201701240651 METAR KJFK 240651Z 04024G39KT 5SM -RA BR OVC014 04/02 A2936\ RMK AO2 PK WND 05045/0641 SLP943\ P0011 T00390022 $= 201701240751 METAR KJFK 240751Z 03027G35KT 5SM -RA BR OVC015 04/02 A2934\ RMK AO2 PK WND 03037/0658 SLP934\ P0009 T00390022 $= 201701240851 METAR KJFK 240851Z 03019G32KT 4SM -RA BR OVC014 03/02 A2934\ RMK AO2 PK WND 04033/0802 SLP935\ P0007 60027 T00330022 55016 $= 201701240951 METAR KJFK 240951Z 02017G26KT 4SM -RA BR OVC012 03/02 A2934\ RMK AO2 PK WND 02028/0936 SLP936\ P0002 T00330022 $= 201701241051 METAR KJFK 241051Z 02021G26KT 4SM -RA BR OVC011 04/02 A2935\ RMK AO2 PK WND 02029/1029 SLP939\ P0002 T00390022 $= 201701241151 METAR KJFK 241151Z 02022G30KT 4SM -RA BR FEW008 OVC012 04/02\ A2933 RMK AO2 PK WND 03030/1144 SLP933\ P0001 60032 70127 T00390022 10039\ 20033 58002 $= 201701241251 METAR KJFK 241251Z 02020G25KT 6SM -DZ BR OVC010 04/02 A2933\ RMK AO2 PK WND 02027/1220 RAE23DZB23\ SLP931 CIG 008V012 P0000 T00390022\ $= 201701241351 METAR KJFK 241351Z 36018KT 5SM -RA BR FEW006 OVC011 04/02\ A2933 RMK AO2 PK WND 01026/1335 DZE33RAB33\ SLP933 P0000 T00390022 $= 201701241451 METAR KJFK 241451Z 36019G27KT 7SM -RA BKN009 OVC017 03/02\ A2934 RMK AO2 PK WND 35028/1427 SLP935\ CIG 007V011 P0002 60002 T00330022\ 53002 $= 201701241551 METAR KJFK 241551Z 36017G28KT 6SM -RA BR BKN008 OVC015 04/02\ A2933 RMK AO2 PK WND 01029/1535 SLP932\ P0000 T00390022= 201701241651 METAR KJFK 241651Z 35015KT 2 1/2SM R04R/4500VP6000FT -RA\ BR SCT008 BKN013 OVC027 04/02 A2931\ RMK AO2 PK WND 36027/1554 SFC VIS\ 4 SLP924 P0006 T00390022= 201701241751 METAR KJFK 241751Z 33017KT 1SM R04R/3500VP6000FT +RA BR BKN006\ BKN011 OVC020 03/02 A2930 RMK AO2\ PK WND 33026/1720 SFC VIS 1 1/2 SLP922\ P0032 60040 T00330022 10039 20033\ 58013= 201701241851 METAR KJFK 241851Z 34018G26KT 2 1/2SM R04R/6000VP6000FT -SN\ BR BKN009 OVC015 03/02 A2930 RMK\ AO2 PK WND 33029/1835 SFC VIS 3 RAE45SNB45\ SLP920 P0004 T00330022= 201701241951 METAR KJFK 241951Z 33020G26KT 3SM -RA BR SCT009 OVC013 03/02\ A2931 RMK AO2 PK WND 33028/1859 SLP923\ P0001 T00330017= 201701242051 METAR KJFK 242051Z 33021G25KT 3SM -RA BR SCT009 OVC013 03/02\ A2933 RMK AO2 PK WND 33029/2033 SLP933\ P0002 60007 T00330017 53012= 201701242151 METAR KJFK 242151Z 32020KT 2 1/2SM -RA BR BKN013 OVC029 04/02\ A2936 RMK AO2 PK WND 32028/2053 SLP943\ P0005 T00390022= 201701242251 METAR KJFK 242251Z 32013KT 7SM -RA BKN012 BKN037 OVC050 04/03\ A2938 RMK AO2 PK WND 33026/2152 SLP948\ P0018 T00440028= 201701242351 METAR KJFK 242351Z 34018G22KT 10SM -RA BKN013 OVC038 04/02\ A2939 RMK AO2 SLP953 P0003 60033\ T00440022 10044 20033 51020= 201701250051 METAR KJFK 250051Z 34011G22KT 10SM -RA SCT012 BKN019 OVC039\ 04/03 A2942 RMK AO2 SLP961 P0001\ T00440028= 201701250151 METAR KJFK 250151Z 33015G22KT 10SM SCT012 BKN018 OVC048 04/02\ A2944 RMK AO2 RAE48 SLP968 P0001\ T00390017= 201701250251 METAR KJFK 250251Z 32017G23KT 7SM -RA BKN015 OVC050 03/02\ A2944 RMK AO2 RAB07 SLP970 P0002\ 60004 T00330017 51018= 201701250351 METAR KJFK 250351Z 31018G29KT 10SM SCT021 BKN075 04/01 A2945\ RMK AO2 PK WND 30029/0345 RAE32 SLP971\ P0002 T00390011= 201701250451 METAR KJFK 250451Z 30019G24KT 10SM SCT021 OVC090 03/00 A2947\ RMK AO2 PK WND 31030/0407 SLP978\ SCT021 V BKN T00330000 400440033= 201701250551 METAR KJFK 250551Z 30016KT 10SM SCT026 BKN055 OVC080 03/M01\ A2949 RMK AO2 PK WND 31030/0500 SLP984\ SCT026 V BKN 60006 T00331011 10044\ 20033 53014= 201701250651 METAR KJFK 250651Z 31019G30KT 10SM FEW029 SCT080 BKN170 03/M02\ A2952 RMK AO2 PK WND 32030/0646 SLP994\ T00331022= 201701250751 METAR KJFK 250751Z 31021G31KT 10SM FEW029 FEW180 03/M03 A2954\ RMK AO2 PK WND 30032/0722 SLP002\ T00331028= 201701250851 METAR KJFK 250851Z 31014KT 10SM BKN031 03/M02 A2957 RMK AO2\ PK WND 31031/0754 SLP011 T00331022\ 51027= 201701250951 METAR KJFK 250951Z 30023G27KT 10SM OVC029 04/M02 A2958 RMK\ AO2 PK WND 31031/0937 SLP018 T00391022= 201701251051 METAR KJFK 251051Z 31021G26KT 10SM SCT029 03/M02 A2959 RMK\ AO2 PK WND 30026/1050 SLP020 T00331022= 201701251151 METAR KJFK 251151Z 30012G19KT 10SM SCT031 03/M02 A2961 RMK\ AO2 SLP027 70079 T00331022 10039\ 20028 53016= 201701251251 METAR KJFK 251251Z 29012KT 10SM SCT031 04/M02 A2964 RMK AO2\ SLP037 T00391022= 201701251351 METAR KJFK 251351Z 30013KT 10SM BKN034 05/M02 A2966 RMK AO2\ SLP043 T00501017= 201701251451 METAR KJFK 251451Z 30016G21KT 10SM FEW037 07/M01 A2968 RMK\ AO2 SLP051 T00721011 51023= 201701251551 METAR KJFK 251551Z 28015G24KT 10SM FEW041 08/M01 A2968 RMK\ AO2 SLP050 T00831011= 201701251651 METAR KJFK 251651Z 30016KT 10SM FEW044 09/M01 A2966 RMK AO2\ SLP042 T00941006= 201701251751 METAR KJFK 251751Z 29014G18KT 10SM FEW045 10/00 A2965 RMK\ AO2 PK WND 28026/1715 SLP038 T01000000\ 10100 20033 58013= 201701251851 METAR KJFK 251851Z 30016G22KT 10SM SCT043 10/00 A2965 RMK\ AO2 PK WND 30026/1834 SLP038 T01000000= 201701251951 METAR KJFK 251951Z 30016KT 10SM FEW043 10/00 A2968 RMK AO2\ SLP049 T01000000= 201701252051 METAR KJFK 252051Z 31010KT 10SM FEW043 10/01 A2967 RMK AO2\ SLP047 T01000006 50009= 201701252151 METAR KJFK 252151Z 28007KT 10SM FEW043 09/01 A2967 RMK AO2\ SLP047 T00890006= 201701252251 METAR KJFK 252251Z 34004KT 10SM FEW043 SCT100 SCT250 08/01\ A2969 RMK AO2 SLP052 T00830006= 201701252351 METAR KJFK 252351Z 08003KT 10SM SCT150 08/01 A2967 RMK AO2\ SLP046 T00780006 10106 20061 58001= 201701260051 METAR KJFK 260051Z 14006KT 10SM BKN170 05/02 A2967 RMK AO2\ SLP046 T00500017= 201701260151 METAR KJFK 260151Z 19006KT 10SM SCT130 BKN170 07/03 A2965\ RMK AO2 SLP040 T00670033= 201701260251 METAR KJFK 260251Z 21010KT 10SM BKN120 08/02 A2964 RMK AO2\ SLP037 T00780022 58010= 201701260351 METAR KJFK 260351Z 19008KT 10SM FEW085 BKN120 07/03 A2961\ RMK AO2 SLP025 T00720028= 201701260451 METAR KJFK 260451Z 19011KT 10SM OVC090 07/03 A2959 RMK AO2\ SLP020 T00720033 401060028= 201701260551 METAR KJFK 260551Z 18005KT 10SM OVC080 07/04 A2956 RMK AO2\ SLP009 T00670039 10089 20050 57028= 201701260651 METAR KJFK 260651Z 18005KT 10SM OVC080 07/04 A2954 RMK AO2\ SLP002 T00670044= 201701260751 METAR KJFK 260751Z 18006KT 10SM OVC080 07/04 A2952 RMK AO2\ SLP995 T00670044= 201701260851 METAR KJFK 260851Z 25005KT 10SM SCT080 OVC170 06/04 A2949\ RMK AO2 SLP985 T00560044 58023= 201701260951 METAR KJFK 260951Z 18005KT 10SM OVC120 06/04 A2947 RMK AO2\ SLP979 T00610044= 201701261051 METAR KJFK 261051Z 23004KT 10SM OVC100 07/04 A2946 RMK AO2\ SLP976 T00720039= 201701261151 METAR KJFK 261151Z 26004KT 10SM OVC090 07/04 A2945 RMK AO2\ SLP973 T00720039 10078 20056 56012= 201701261251 METAR KJFK 261251Z 19007KT 10SM BKN065 OVC110 07/04 A2945\ RMK AO2 SLP972 T00720039= 201701261351 METAR KJFK 261351Z 24010KT 10SM -RA OVC060 07/04 A2947 RMK\ AO2 RAB20 SLP978 P0000 T00720044= 201701261451 METAR KJFK 261451Z 24010KT 10SM -RA FEW047 BKN060 OVC095\ 07/05 A2947 RMK AO2 SLP977 P0001\ 60001 T00720050 53004= 201701261551 METAR KJFK 261551Z 20006KT 10SM SCT060 OVC080 07/06 A2942\ RMK AO2 RAE47 SLP963 P0002 T00720056= 201701261651 METAR KJFK 261651Z 19006KT 10SM FEW040 BKN070 BKN095 BKN250\ 07/06 A2940 RMK AO2 RAB1559E16 SLP954\ P0000 T00720061= 201701261751 METAR KJFK 261751Z 20015KT 10SM FEW033 BKN080 BKN250 08/06\ A2936 RMK AO2 SLP941 60003 T00780061\ 10083 20067 56036= 201701261851 METAR KJFK 261851Z 21014KT 10SM FEW046 BKN095 09/07 A2934\ RMK AO2 SLP936 T00940072= 201701261951 METAR KJFK 261951Z 28021G29KT 10SM SCT060 SCT110 BKN130 12/00\ A2936 RMK AO2 PK WND 28032/1925 WSHFT\ 1911 SLP942 T01170000= 201701262051 METAR KJFK 262051Z 30023G35KT 10SM FEW055 BKN070 10/M02 A2940\ RMK AO2 PK WND 29036/2027 SLP955\ T01001022 53014= 201701262151 METAR KJFK 262151Z 29025G36KT 10SM SCT060 08/M04 A2944 RMK\ AO2 PK WND 29038/2131 SLP968 T00831044= 201701262251 METAR KJFK 262251Z 26022G33KT 10SM BKN055 08/M03 A2946 RMK\ AO2 PK WND 27033/2240 SLP976 T00781033= 201701262351 METAR KJFK 262351Z 27024G32KT 10SM BKN050 08/M02 A2948 RMK\ AO2 PK WND 27033/2341 SLP983 T00781022\ 10128 20078 51028= 201701270051 METAR KJFK 270051Z 27020G27KT 10SM SCT055 07/M02 A2950 RMK\ AO2 PK WND 27030/2352 SLP991 T00721022= 201701270151 METAR KJFK 270151Z 27022G30KT 10SM FEW055 SCT150 07/M02 A2951\ RMK AO2 PK WND 27030/0146 SLP993\ T00721022= 201701270251 METAR KJFK 270251Z 27017G30KT 10SM FEW055 FEW180 BKN250 07/M02\ A2953 RMK AO2 PK WND 28030/0248 SLP001\ T00721017 52018= 201701270351 METAR KJFK 270351Z 28017G27KT 10SM SCT055 SCT180 SCT250 07/M02\ A2957 RMK AO2 PK WND 28027/0259 SLP012\ T00671017= 201701270451 METAR KJFK 270451Z 28014G24KT 10SM FEW042 FEW180 FEW250 06/M03\ A2959 RMK AO2 PK WND 27030/0353 SLP019\ T00611028 401280056= 201701270551 METAR KJFK 270551Z 27019G24KT 10SM FEW041 FEW180 FEW250 06/M02\ A2961 RMK AO2 SLP026 T00561022 10078\ 20056 51025= 201701270651 METAR KJFK 270651Z 26016KT 10SM FEW042 FEW055 FEW250 05/M02\ A2963 RMK AO2 PK WND 26028/0611 SLP034\ T00501017= 201701270751 METAR KJFK 270751Z 25019KT 10SM SCT060 SCT250 06/M02 A2964\ RMK AO2 SLP035 T00561022= 201701270851 METAR KJFK 270851Z 25015KT 10SM SCT060 05/M02 A2964 RMK AO2\ SLP037 T00501017 51011= 201701270951 METAR KJFK 270951Z 26016KT 10SM BKN060 05/M03 A2964 RMK AO2\ SLP038 T00501028= 201701271051 METAR KJFK 271051Z 25019G23KT 10SM BKN065 05/M02 A2966 RMK\ AO2 PK WND 26028/0956 SLP042 T00501022= 201701271151 METAR KJFK 271151Z 26019KT 10SM BKN065 05/M03 A2967 RMK AO2\ PK WND 25027/1133 SLP045 70003 T00501028\ 10056 20044 53008= 201701271251 METAR KJFK 271251Z 26019G26KT 10SM BKN070 06/M04 A2967 RMK\ AO2 PK WND 25029/1239 SLP047 T00561039= 201701271351 METAR KJFK 271351Z 26018KT 10SM FEW038 BKN060 06/M04 A2968\ RMK AO2 PK WND 26029/1315 SLP050\ VCSH NW T00561044= 201701271451 METAR KJFK 271451Z 26021G30KT 10SM FEW040 BKN060 06/M04 A2968\ RMK AO2 PK WND 26033/1425 SLP051\ T00561044 51006= 201701271551 METAR KJFK 271551Z 27018G29KT 10SM FEW043 BKN060 07/M05 A2967\ RMK AO2 PK WND 27029/1545 SLP048\ T00721050= 201701271651 METAR KJFK 271651Z 29023G26KT 10SM FEW046 BKN055 BKN080 06/M06\ A2964 RMK AO2 PK WND 26028/1635 SLP037\ T00611061= 201701271751 METAR KJFK 271751Z 26020G27KT 10SM FEW042 BKN055 06/M05 A2962\ RMK AO2 PK WND 27029/1739 SLP029\ T00611050 10078 20050 58022= 201701271851 METAR KJFK 271851Z 27016G23KT 10SM FEW040 BKN060 06/M06 A2960\ RMK AO2 SLP022 VIRGA SW T00561056= 201701271951 METAR KJFK 271951Z 27015KT 10SM FEW040 OVC055 06/M06 A2959\ RMK AO2 PK WND 27029/1929 SLP018\ VIRGA SW-W T00561056= 201701272051 METAR KJFK 272051Z 26021G27KT 10SM FEW040 OVC060 06/M04 A2960\ RMK AO2 PK WND 26030/2031 SLP024\ VIRGA NE-SW T00561044 55005= 201701272151 METAR KJFK 272151Z 26017G24KT 10SM FEW040 OVC065 05/M04 A2961\ RMK AO2 PK WND 26029/2136 SLP027\ VIRGA E-SW AND NW T00501044= 201701272251 METAR KJFK 272251Z 27018G27KT 10SM FEW040 OVC060 05/M05 A2962\ RMK AO2 PK WND 27029/2236 SLP030\ VIRGA SE AND SW T00501050= 201701272351 METAR KJFK 272351Z 25020KT 10SM BKN055 OVC070 04/M03 A2963\ RMK AO2 PK WND 27027/2324 SNB01E23\ SLP032 931000 P0000 60000 T00441033\ 10067 20044 51008= 201701280051 METAR KJFK 280051Z 27020G26KT 10SM FEW040 OVC060 04/M04 A2964\ RMK AO2 PK WND 27027/0015 SLP037\ T00441039= 201701280151 METAR KJFK 280151Z 27021G24KT 10SM FEW040 SCT060 BKN075 04/M04\ A2965 RMK AO2 PK WND 27026/0115 SLP039\ T00391044= 201701280251 METAR KJFK 280251Z 25014KT 10SM FEW040 BKN070 03/M04 A2965\ RMK AO2 PK WND 26026/0209 SLP041\ T00331039 51009= 201701280351 METAR KJFK 280351Z 25016KT 10SM FEW040 SCT070 03/M04 A2966\ RMK AO2 SLP042 T00281039= 201701280451 METAR KJFK 280451Z 25017KT 10SM FEW060 02/M06 A2966 RMK AO2\ SLP043 T00221056 400780022= 201701280551 METAR KJFK 280551Z 26017KT 10SM BKN060 02/M06 A2965 RMK AO2\ PK WND 25026/0504 SLP041 T00171056\ 10044 20017 50000= 201701280651 METAR KJFK 280651Z 26017KT 10SM BKN060 02/M06 A2965 RMK AO2\ SLP041 T00221061= 201701280751 METAR KJFK 280751Z 25018G26KT 10SM BKN060 02/M07 A2966 RMK\ AO2 PK WND 25027/0725 SLP042 T00221067= 201701280851 METAR KJFK 280851Z 25018G24KT 10SM BKN060 02/M06 A2966 RMK\ AO2 SLP042 T00171061 53002= 201701280951 METAR KJFK 280951Z 26016KT 10SM SCT060 01/M07 A2966 RMK AO2\ SLP043 T00111067= 201701281051 METAR KJFK 281051Z 25020KT 10SM BKN060 02/M07 A2966 RMK AO2\ PK WND 26027/1034 SLP044 T00171067= 201701281151 METAR KJFK 281151Z 25018KT 10SM BKN065 02/M06 A2969 RMK AO2\ PK WND 26027/1107 SLP052 VIRGA E\ T00171061 10022 20011 53009= 201701281251 METAR KJFK 281251Z 25019G26KT 10SM BKN060 02/M06 A2970 RMK\ AO2 PK WND 25027/1227 SLP056 T00171061= 201701281351 METAR KJFK 281351Z 26019G26KT 10SM FEW045 BKN060 02/M05 A2972\ RMK AO2 PK WND 25028/1331 SLP062\ T00221050= 201701281451 METAR KJFK 281451Z 25020KT 10SM FEW045 BKN065 03/M05 A2972\ RMK AO2 PK WND 25027/1437 SLP063\ VIRGA E T00331050 51011= 201701281551 METAR KJFK 281551Z 27016G22KT 10SM FEW045 BKN070 04/M06 A2972\ RMK AO2 PK WND 27026/1512 SLP064\ VIRGA ALQDS T00391056= 201701281651 METAR KJFK 281651Z 27017KT 10SM BKN040 OVC060 04/M06 A2970\ RMK AO2 SLP057 VIRGA ALQDS T00391061= 201701281751 METAR KJFK 281751Z 25016G21KT 10SM SCT037 BKN050 OVC060 03/M04\ A2968 RMK AO2 SLP051 VIRGA S T00331044\ 10044 20017 58012= 201701281851 METAR KJFK 281851Z 27016G20KT 10SM BKN038 BKN048 BKN055 03/M06\ A2968 RMK AO2 SLP048 T00331056= 201701281951 METAR KJFK 281951Z 28014KT 10SM FEW031 BKN037 OVC048 03/M05\ A2969 RMK AO2 SNB09E39 SLP052 VIRGA\ E-SE P0000 T00331050= 201701282051 METAR KJFK 282051Z 28014KT 10SM FEW037 BKN042 OVC048 03/M06\ A2970 RMK AO2 SLP057 60000 T00331056\ 53006= 201701282151 METAR KJFK 282151Z 28016KT 10SM FEW042 OVC050 03/M06 A2971\ RMK AO2 SLP059 T00331056= 201701282251 METAR KJFK 282251Z 28011KT 10SM OVC047 03/M06 A2972 RMK AO2\ SLP064 T00281056= 201701282351 METAR KJFK 282351Z 27013G20KT 10SM FEW034 OVC043 03/M06 A2974\ RMK AO2 SLP072 931000 60000 T00331061\ 10039 20028 53015= 201701290051 METAR KJFK 290051Z 26012KT 10SM FEW039 OVC048 03/M06 A2977\ RMK AO2 SLP079 T00331061= 201701290151 METAR KJFK 290151Z 26012KT 10SM SCT048 OVC055 03/M06 A2977\ RMK AO2 SLP079 T00281056= 201701290251 METAR KJFK 290251Z 25011KT 10SM FEW055 BKN100 03/M06 A2977\ RMK AO2 SLP079 T00281056 50007= 201701290351 METAR KJFK 290351Z 23010KT 10SM FEW055 BKN100 02/M03 A2976\ RMK AO2 SLP077 T00171033= 201701290451 METAR KJFK 290451Z 22008KT 10SM SCT060 BKN100 02/M03 A2975\ RMK AO2 SLP074 T00171028 400440011= 201701290551 METAR KJFK 290551Z 25006KT 10SM SCT075 BKN100 BKN200 01/M03\ A2973 RMK AO2 SLP066 T00111033 10033\ 20006 58013= 201701290651 METAR KJFK 290651Z 23006KT 10SM SCT060 BKN090 BKN250 01/M02\ A2973 RMK AO2 SLP067 T00061022= 201701290751 METAR KJFK 290751Z 24005KT 10SM FEW100 SCT250 00/M03 A2972\ RMK AO2 SLP063 T00001028= 201701290851 METAR KJFK 290851Z 23008KT 10SM FEW100 SCT200 00/M02 A2972\ RMK AO2 SLP064 T00001022 57002= 201701290951 METAR KJFK 290951Z 25004KT 10SM SCT050 BKN065 BKN200 01/M02\ A2973 RMK AO2 SLP067 T00061022= 201701291051 METAR KJFK 291051Z 24006KT 10SM SCT060 BKN140 00/M02 A2973\ RMK AO2 SLP065 T00001022= 201701291151 METAR KJFK 291151Z 24007KT 10SM BKN060 BKN250 02/M02 A2973\ RMK AO2 SLP066 T00171022 10017 21011\ 51001= 201701291251 METAR KJFK 291251Z 23009KT 10SM BKN060 BKN250 02/M03 A2973\ RMK AO2 SLP068 T00221028= 201701291351 METAR KJFK 291351Z 25013KT 10SM FEW055 BKN085 BKN250 03/M03\ A2974 RMK AO2 SLP071 T00331028= 201701291451 METAR KJFK 291451Z 28016G23KT 10SM FEW050 FEW085 BKN190 04/M06\ A2975 RMK AO2 SLP075 T00441061 53009= 201701291551 METAR KJFK 291551Z 27016KT 10SM FEW050 FEW085 BKN220 04/M08\ A2975 RMK AO2 SLP073 T00441078= 201701291651 METAR KJFK 291651Z 29018G22KT 10SM FEW060 FEW090 BKN220 BKN260\ 06/M10 A2973 RMK AO2 SLP066 T00611100= 201701291751 METAR KJFK 291751Z 30013G18KT 10SM FEW060 FEW090 SCT220 BKN260\ 06/M11 A2970 RMK AO2 SLP056 T00611111\ 10061 20017 58018= 201701291851 METAR KJFK 291851Z 26016KT 10SM FEW065 SCT090 SCT220 BKN260\ 07/M12 A2968 RMK AO2 SLP050 T00671117= 201701291951 METAR KJFK 291951Z 28011KT 10SM BKN075 BKN090 BKN250 07/M11\ A2969 RMK AO2 SLP052 T00721106= 201701292051 METAR KJFK 292051Z 26015KT 10SM BKN070 BKN250 06/M09 A2971\ RMK AO2 SLP060 T00561094 53003= 201701292151 METAR KJFK 292151Z 29011KT 10SM BKN070 BKN250 05/M10 A2972\ RMK AO2 SLP063 T00501100= 201701292251 METAR KJFK 292251Z 27011KT 10SM SCT075 SCT250 04/M09 A2973\ RMK AO2 SLP068 T00441094= 201701292351 METAR KJFK 292351Z 26009KT 10SM SCT070 SCT250 04/M08 A2974\ RMK AO2 SLP072 T00391078 10078 20039\ 52012= 201701300051 METAR KJFK 300051Z 26009KT 10SM SCT070 03/M07 A2975 RMK AO2\ SLP075 T00331072= 201701300151 METAR KJFK 300151Z 25009KT 10SM SCT075 SCT250 03/M06 A2975\ RMK AO2 SLP073 T00281061= 201701300251 METAR KJFK 300251Z 25008KT 10SM SCT070 SCT250 02/M06 A2974\ RMK AO2 SLP071 T00221056 58000= 201701300351 METAR KJFK 300351Z 26009KT 10SM FEW080 BKN130 BKN250 02/M06\ A2975 RMK AO2 SLP073 T00221056= 201701300451 METAR KJFK 300451Z 25007KT 10SM FEW080 BKN130 BKN250 02/M06\ A2975 RMK AO2 SLP073 T00171056 400781011= 201701300551 METAR KJFK 300551Z 27007KT 10SM FEW110 BKN250 02/M06 A2975\ RMK AO2 SLP072 T00171061 10039 20017\ 50001= 201701300651 METAR KJFK 300651Z 32005KT 10SM BKN095 OVC250 02/M07 A2973\ RMK AO2 SLP068 T00171072= 201701300751 METAR KJFK 300751Z 34005KT 10SM OVC095 01/M07 A2974 RMK AO2\ SLP070 T00111072= 201701300851 METAR KJFK 300851Z 35008KT 10SM BKN095 OVC250 02/M08 A2974\ RMK AO2 SLP070 T00171083 55002= 201701300951 METAR KJFK 300951Z 35012KT 10SM BKN090 OVC250 01/M08 A2975\ RMK AO2 SLP074 T00061083= 201701301051 METAR KJFK 301051Z 36009KT 10SM SCT065 BKN130 OVC250 00/M08\ A2976 RMK AO2 SLP078 T00001078= 201701301151 METAR KJFK 301151Z 35009KT 10SM SCT060 BKN120 OVC180 00/M07\ A2977 RMK AO2 SLP080 T00001072 10022\ 20000 51010= 201701301251 METAR KJFK 301251Z 01008KT 10SM FEW065 SCT095 BKN180 00/M07\ A2977 RMK AO2 SLP080 T00001072= 201701301351 METAR KJFK 301351Z 35013KT 10SM FEW065 BKN120 OVC170 01/M08\ A2979 RMK AO2 SLP086 T00111083= 201701301451 METAR KJFK 301451Z 35011KT 10SM FEW043 BKN070 OVC160 02/M09\ A2980 RMK AO2 SLP092 VIRGA SE-S T00171094\ 53011= 201701301551 METAR KJFK 301551Z 36006KT 10SM BKN080 OVC180 02/M13 A2981\ RMK AO2 SLP094 VIRGA E-SW T00221133= 201701301651 METAR KJFK 301651Z 31014KT 10SM FEW060 BKN085 BKN160 03/M13\ A2979 RMK AO2 SLP089 T00281128= 201701301751 METAR KJFK 301751Z 32016KT 10SM FEW065 BKN110 BKN160 03/M13\ A2978 RMK AO2 SLP084 T00331128 10033\ 20000 58007= 201701301851 METAR KJFK 301851Z 31018KT 10SM FEW065 FEW130 BKN220 03/M13\ A2977 RMK AO2 SLP081 T00331133= 201701301951 METAR KJFK 301951Z 29015G22KT 10SM FEW065 SCT140 BKN250 03/M13\ A2978 RMK AO2 SLP085 T00331133= 201701302051 METAR KJFK 302051Z 31017G24KT 10SM SCT065 SCT140 SCT250 03/M13\ A2980 RMK AO2 SLP091 T00331133 53007= 201701302151 METAR KJFK 302151Z 32013KT 10SM FEW065 SCT130 SCT250 02/M14\ A2983 RMK AO2 SLP101 T00221139= 201701302251 METAR KJFK 302251Z 34010KT 10SM FEW065 FEW250 02/M13 A2986\ RMK AO2 SLP110 T00171133= 201701302351 METAR KJFK 302351Z 31013G18KT 10SM FEW065 FEW250 01/M15 A2989\ RMK AO2 SLP122 T00111150 10039 20011\ 53031= 201701310051 METAR KJFK 310051Z 32010KT 10SM FEW065 FEW100 01/M14 A2992\ RMK AO2 SLP132 T00061139= 201701310151 METAR KJFK 310151Z 33010KT 10SM FEW100 00/M14 A2994 RMK AO2\ SLP139 T00001139= 201701310251 METAR KJFK 310251Z 31011KT 10SM BKN070 00/M14 A2997 RMK AO2\ SLP148 T00001139 51025= 201701310351 METAR KJFK 310351Z 33012KT 10SM OVC070 00/M15 A2998 RMK AO2\ SLP152 T00001150= 201701310451 METAR KJFK 310451Z 31009KT 10SM SCT075 M01/M16 A2998 RMK\ AO2 SLP151 T10111156 400391011= 201701310551 METAR KJFK 310551Z 32007KT 10SM FEW080 M02/M16 A2999 RMK\ AO2 SLP153 T10171156 10011 21022\ 51005= 201701310651 METAR KJFK 310651Z 34007KT 10SM FEW080 M02/M15 A2998 RMK\ AO2 SLP153 T10221150= 201701310751 METAR KJFK 310751Z 36005KT 10SM SCT070 M03/M14 A3002 RMK\ AO2 SLP165 T10331144= 201701310851 METAR KJFK 310851Z 36007KT 10SM BKN055 M02/M13 A3002 RMK\ AO2 SLP166 T10221133 53013= 201701310951 METAR KJFK 310951Z 03005KT 10SM SCT055 OVC160 M03/M13 A3000\ RMK AO2 SLP160 T10281128= 201701311051 METAR KJFK 311051Z 03004KT 10SM BKN032 OVC120 M02/M14 A3000\ RMK AO2 SLP158 T10221139= 201701311151 METAR KJFK 311151Z 09003KT 10SM BKN031 BKN120 OVC190 M03/M13\ A3000 RMK AO2 SLP156 T10281128 11017\ 21033 56010= 201701311251 METAR KJFK 311251Z 09006KT 10SM SCT030 BKN085 BKN190 M03/M13\ A2998 RMK AO2 SLP153 T10281128= 201701311351 METAR KJFK 311351Z 09006KT 10SM FEW032 BKN070 OVC160 M02/M11\ A2997 RMK AO2 SLP147 T10171111= 201701311451 METAR KJFK 311451Z 10008KT 8SM -SN FEW031 BKN044 OVC070 M01/M09\ A2995 RMK AO2 SNB50 SLP142 P0000\ 60000 T10111094 58015= 201701311551 METAR KJFK 311551Z 17006KT 1 1/2SM R04R/2600V5500FT -SN BR\ FEW000 SCT012 OVC019 M03/M04 A2995\ RMK AO2 SLP140 SN FEW000 P0001 T10281044= 201701311651 METAR KJFK 311651Z 13007KT 8SM -SN FEW011 BKN016 OVC045 M01/M03\ A2989 RMK AO2 SLP121 P0001 T10111033= 201701311751 METAR KJFK 311751Z 10010KT 8SM -SN BKN016 BKN049 OVC065 M01/M04\ A2983 RMK AO2 SNE02B36 SLP101 VIS\ LWR W-NE BKN016 V SCT 931003 P0000\ 60002 T10061039 11006 21033 58041= 201701311851 METAR KJFK 311851Z 08008KT 1 1/2SM R04R/2000V3000FT -SN BR\ FEW000 SCT008 OVC013 M02/M02 A2979\ RMK AO2 SLP088 SN FEW000 P0001 T10171022= 201701311951 METAR KJFK 311951Z 05008KT 3SM R04R/4500VP6000FT -SN BR BKN009\ BKN015 OVC046 M01/M02 A2977 RMK AO2\ SLP080 P0001 T10111022= 201701312051 METAR KJFK 312051Z 05008KT 3SM -SN BR SCT012 BKN023 OVC060\ M01/M02 A2977 RMK AO2 SFC VIS 6 SLP081\ BKN V SCT P0001 60003 T10061022 55020= 201701312151 METAR KJFK 312151Z 36007KT 10SM BKN011 BKN050 OVC100 M01/M02\ A2981 RMK AO2 SNE21 SLP093 P0000\ T10061017= 201701312251 METAR KJFK 312251Z 36004KT 10SM SCT011 BKN080 M01/M02 A2982\ RMK AO2 SLP098 T10061022= 201701312351 METAR KJFK 312351Z 02004KT 10SM FEW065 BKN080 BKN150 M01/M02\ A2984 RMK AO2 SLP104 931003 60003\ T10061022 11006 21017 53011=
