 201703010051 METAR KJFK 010051Z 14008KT 1/4SM R04R/6000VP6000FT BR OVC002\ 10/10 A3015 RMK AO2 SFC VIS 1 SLP210\ T01000100= 201703010151 METAR KJFK 010151Z 03004KT 1 1/2SM BKN004 OVC070 09/09 A3013\ RMK AO2 SFC VIS 7 SLP201 T00890089= 201703010251 METAR KJFK 010251Z 16003KT 10SM OVC070 11/11 A3008 RMK AO2\ SLP185 T01060106 58026= 201703010351 METAR KJFK 010351Z 17009KT 10SM OVC050 11/10 A3005 RMK AO2\ SLP177 T01110100= 201703010451 METAR KJFK 010451Z 18011KT 10SM FEW005 OVC044 11/10 A3002\ RMK AO2 SLP164 T01060100 401440061= 201703010551 METAR KJFK 010551Z 19009KT 1/2SM R04R/4000VP6000FT BR OVC002\ 09/09 A2999 RMK AO2 SFC VIS 2 SLP157\ T00940094 10111 20089 56029= 201703010651 METAR KJFK 010651Z 19013KT 1/2SM R04R/3000V3500FT BR OVC002\ 10/10 A2996 RMK AO2 SFC VIS 1 1/2\ SLP145 T01000100= 201703010751 METAR KJFK 010751Z 18012KT 1/2SM R04R/1800V2000FT -RA FG\ VV002 09/09 A2990 RMK AO2 RAB43 SLP124\ P0000 T00940094= 201703010851 METAR KJFK 010851Z 18009KT 1/2SM R04R/2000V2400FT FG VV002\ 09/09 A2989 RMK AO2 RAE10 SLP121\ P0000 60000 T00940094 56036= 201703010951 METAR KJFK 010951Z 00000KT 5SM BR BKN002 OVC011 09/09 A2987\ RMK AO2 SLP114 T00940094= 201703011051 METAR KJFK 011051Z 15004KT 6SM BR BKN002 OVC011 11/11 A2984\ RMK AO2 SLP104 T01060106= 201703011151 METAR KJFK 011151Z 17006KT 1/4SM R04R/P6000FT BR BKN002 OVC008\ 09/09 A2981 RMK AO2 SFC VIS 2 1/2\ SLP094 60000 T00940094 10106 20089\ 58027= 201703011251 METAR KJFK 011251Z 17008KT 1/8SM R04R/P6000FT BR FEW000 OVC002\ 09/09 A2979 RMK AO2 SFC VIS 2 SLP086\ BR FEW000 T00890089= 201703011351 METAR KJFK 011351Z 17008KT 1/4SM R04R/P6000FT BR BKN002 OVC013\ 09/09 A2975 RMK AO2 SFC VIS 4 PRESFR\ SLP075 T00890089= 201703011451 METAR KJFK 011451Z 18009KT 2SM BR SCT003 OVC013 10/10 A2974\ RMK AO2 SFC VIS 6 SLP071 T01000100\ 56023= 201703011551 METAR KJFK 011551Z 20008KT 1SM R04R/P6000FT BR SCT003 OVC016\ 11/10 A2972 RMK AO2 SFC VIS 6 LTG\ DSNT NE AND W SLP064 T01060100= 201703011651 METAR KJFK 011651Z 16003KT 2 1/2SM -RA BR FEW004 OVC019 11/11\ A2968 RMK AO2 SFC VIS 3 LTG DSNT\ NE AND NW RAB12 SLP051 P0001 T01060106= 201703011751 METAR KJFK 011751Z 15008KT 1SM R04R/P6000FT BR BKN003 OVC025\ 11/11 A2962 RMK AO2 SFC VIS 4 RAE1655\ SLP031 P0000 60001 T01060106 10117\ 20089 58040= 201703011851 METAR KJFK 011851Z 17010KT 1 3/4SM BR BKN004 BKN035 BKN170\ 13/12 A2958 RMK AO2 SFC VIS 6 SLP016\ BKN004 V SCT T01280117= 201703011951 METAR KJFK 011951Z 21013KT 6SM BR FEW010 FEW034 BKN190 BKN250\ 13/12 A2955 RMK AO2 SLP004 T01330117= 201703012051 METAR KJFK 012051Z 19014KT 8SM BKN037 BKN050 OVC100 12/11\ A2952 RMK AO2 SLP997 VCSH SW T01220111\ 56034= 201703012151 METAR KJFK 012151Z 19018KT 7SM FEW037 BKN160 BKN250 13/12\ A2945 RMK AO2 RAB04E16 SLP972 P0000\ T01280117= 201703012251 METAR KJFK 012251Z 19018KT 7SM FEW037 FEW160 BKN250 12/11\ A2948 RMK AO2 PK WND 19028/2207 SLP982\ T01220111= 201703012351 METAR KJFK 012351Z 19011KT 8SM FEW160 BKN250 12/11 A2948\ RMK AO2 SLP982 60000 T01170106 10133\ 20106 55016= 201703020051 METAR KJFK 020051Z 18010KT 10SM BKN180 OVC250 12/09 A2948\ RMK AO2 SLP981 T01220094= 201703020151 METAR KJFK 020151Z 19010KT 10SM SCT200 OVC250 12/10 A2947\ RMK AO2 SLP978 T01220100= 201703020251 METAR KJFK 020251Z 24009KT 10SM FEW210 OVC250 14/10 A2944\ RMK AO2 SLP969 T01390100 58013= 201703020351 METAR KJFK 020351Z 23018KT 10SM BKN250 16/10 A2944 RMK AO2\ SLP969 T01610100= 201703020451 METAR KJFK 020451Z 23015KT 10SM OVC250 14/10 A2943 RMK AO2\ SLP967 T01440100 401610089= 201703020551 METAR KJFK 020551Z 23019KT 10SM FEW060 OVC250 15/10 A2943\ RMK AO2 SLP967 T01500100 10161 20117\ 56003= 201703020651 METAR KJFK 020651Z 24018KT 10SM FEW070 OVC250 15/10 A2943\ RMK AO2 PK WND 24028/0628 SLP965\ T01500100= 201703020751 METAR KJFK 020751Z 28025G38KT 10SM BKN060 OVC250 16/06 A2944\ RMK AO2 PK WND 28039/0709 SLP968\ T01610061= 201703020851 METAR KJFK 020851Z 28027G42KT 10SM SCT075 SCT250 14/01 A2947\ RMK AO2 PK WND 26042/0759 SLP980\ T01390006 53014= 201703020951 METAR KJFK 020951Z 27027G38KT 10SM FEW070 11/M03 A2951 RMK\ AO2 PK WND 26042/0856 SLP993 T01111028= 201703021051 METAR KJFK 021051Z 27025G34KT 10SM FEW070 FEW250 10/M04 A2953\ RMK AO2 PK WND 27042/1029 SLP998\ T01001044= 201703021151 METAR KJFK 021151Z 27020G33KT 10SM FEW047 FEW070 FEW250 09/M02\ A2957 RMK AO2 PK WND 27045/1131 SLP011\ 70001 T00941017 10167 20094 53031= 201703021251 METAR KJFK 021251Z 28030G44KT 10SM SCT049 SCT250 08/M02 A2962\ RMK AO2 PK WND 28044/1244 SLP031\ T00831017= 201703021351 METAR KJFK 021351Z 29024G42KT 10SM FEW055 FEW250 09/M06 A2965\ RMK AO2 PK WND 29047/1331 SLP041\ T00891061= 201703021451 METAR KJFK 021451Z 30029G41KT 10SM FEW060 FEW250 08/M07 A2970\ RMK AO2 PK WND 27043/1427 SLP057\ T00831067 51045= 201703021551 METAR KJFK 021551Z 28023G36KT 10SM FEW060 FEW250 09/M07 A2973\ RMK AO2 PK WND 30038/1540 SLP068\ T00941067= 201703021651 METAR KJFK 021651Z 29026G35KT 10SM FEW065 FEW250 09/M08 A2975\ RMK AO2 PK WND 27039/1605 SLP074\ T00941078= 201703021751 METAR KJFK 021751Z 30027G34KT 10SM FEW070 09/M08 A2977 RMK\ AO2 PK WND 29036/1738 SLP082 T00941083\ 10094 20083 51025= 201703021851 METAR KJFK 021851Z 29026G32KT 10SM FEW070 09/M08 A2980 RMK\ AO2 PK WND 32036/1841 SLP089 T00941083= 201703021951 METAR KJFK 021951Z 29024G34KT 10SM FEW070 09/M09 A2983 RMK\ AO2 PK WND 30036/1921 SLP101 T00891089= 201703022051 METAR KJFK 022051Z 28027G36KT 10SM FEW070 FEW250 09/M09 A2988\ RMK AO2 PK WND 29036/2051 SLP117\ T00891094 53035= 201703022151 METAR KJFK 022151Z 29023G32KT 10SM FEW065 07/M11 A2991 RMK\ AO2 PK WND 29039/2053 SLP129 T00721111= 201703022251 METAR KJFK 022251Z 30019G32KT 10SM FEW065 07/M12 A2996 RMK\ AO2 PK WND 31032/2246 SLP143 T00671117= 201703022351 METAR KJFK 022351Z 30017G24KT 10SM CLR 06/M13 A3000 RMK AO2\ PK WND 31030/2310 SLP157 T00611128\ 10100 20061 53041= 201703030051 METAR KJFK 030051Z 30014G24KT 10SM CLR 06/M13 A3003 RMK AO2\ PK WND 31028/0035 SLP169 T00561128\ $= 201703030151 METAR KJFK 030151Z 30016G25KT 10SM CLR 06/M14 A3006 RMK AO2\ PK WND 31029/0136 SLP178 T00561139\ $= 201703030251 METAR KJFK 030251Z 29017KT 10SM FEW050 04/M13 A3008 RMK AO2\ PK WND 29026/0241 SLP185 T00441133\ 51027 $= 201703030351 METAR KJFK 030351Z 30017G24KT 10SM CLR 04/M13 A3010 RMK AO2\ PK WND 29027/0319 SLP191 T00391128\ $= 201703030451 METAR KJFK 030451Z 30013KT 10SM CLR 03/M12 A3011 RMK AO2\ SLP195 T00281122 401670028 $= 201703030551 METAR KJFK 030551Z 31013KT 10SM CLR 02/M12 A3012 RMK AO2\ SLP199 T00221122 10061 20022 51014\ $= 201703030651 METAR KJFK 030651Z 32010KT 10SM CLR 02/M12 A3013 RMK AO2\ SLP204 T00171122 $= 201703030751 METAR KJFK 030751Z 30017G24KT 10SM CLR 01/M12 A3014 RMK AO2\ SLP205 T00111122 $= 201703030851 METAR KJFK 030851Z 32013KT 10SM CLR 00/M14 A3015 RMK AO2\ SLP207 T00001144 51008 $= 201703030951 METAR KJFK 030951Z 30015KT 10SM CLR 00/M13 A3017 RMK AO2\ SLP216 T00001128 $= 201703031051 METAR KJFK 031051Z 30013KT 10SM FEW055 M01/M13 A3020 RMK\ AO2 SLP226 T10061128 $= 201703031151 METAR KJFK 031151Z 29010KT 10SM FEW055 FEW140 M01/M12 A3022\ RMK AO2 SLP232 T10061122 10022 21006\ 51024 $= 201703031251 METAR KJFK 031251Z 29013KT 10SM FEW055 FEW140 00/M13 A3024\ RMK AO2 SLP239 T00001128 $= 201703031351 METAR KJFK 031351Z 28013KT 10SM FEW060 FEW140 01/M12 A3025\ RMK AO2 SLP243 T00111117 $= 201703031451 METAR KJFK 031451Z 30013KT 10SM FEW060 FEW095 FEW250 02/M13\ A3025 RMK AO2 SLP242 T00221128 50010= 201703031551 METAR KJFK 031551Z 27015G18KT 10SM SCT060 03/M13 A3025 RMK\ AO2 SLP242 T00281133= 201703031651 METAR KJFK 031651Z 30013KT 10SM SCT065 03/M13 A3024 RMK AO2\ SLP240 T00331133= 201703031751 METAR KJFK 031751Z 30010G25KT 10SM BKN070 04/M14 A3022 RMK\ AO2 PK WND 26028/1741 SLP232 T00391139\ 10044 21006 58009= 201703031851 METAR KJFK 031851Z 27017G24KT 10SM FEW060 BKN080 05/M16 A3021\ RMK AO2 SLP229 VIRGA SE-W T00501156= 201703031951 METAR KJFK 031951Z 29018G28KT 10SM FEW065 BKN090 BKN110 06/M17\ A3021 RMK AO2 PK WND 32029/1933 SLP230\ VIRGA NE-SW AND NW T00561167= 201703032051 METAR KJFK 032051Z 26017G31KT 10SM FEW065 BKN080 BKN095 04/M13\ A3023 RMK AO2 PK WND 26031/2044 SLP235\ VIRGA ALQDS T00391133 53003= 201703032151 METAR KJFK 032151Z 30016G22KT 10SM FEW065 BKN100 BKN130 03/M16\ A3024 RMK AO2 SLP239 VIRGA OHD AND\ N-SW T00331156= 201703032251 METAR KJFK 032251Z 29019G30KT 10SM FEW065 SCT085 03/M14 A3027\ RMK AO2 PK WND 31030/2250 SLP251\ VIRGA SE-SW AND NW T00331144= 201703032351 METAR KJFK 032351Z 30017G22KT 10SM FEW065 FEW100 02/M12 A3031\ RMK AO2 PK WND 31031/2312 SLP262\ T00171122 10056 20017 53027= 201703040051 METAR KJFK 040051Z 32020G26KT 10SM BKN055 00/M09 A3034 RMK\ AO2 PK WND 34030/0034 SLP272 VIRGA\ NE-E AND SW-W T00001094= 201703040151 METAR KJFK 040151Z 32025G30KT 10SM FEW042 SCT070 M01/M12\ A3038 RMK AO2 PK WND 32030/0150 SLP286\ T10061117= 201703040251 METAR KJFK 040251Z 32021G30KT 10SM FEW042 M02/M16 A3041 RMK\ AO2 PK WND 32034/0230 SLP295 T10221161\ 52033= 201703040351 METAR KJFK 040351Z 32026G37KT 10SM FEW042 M03/M18 A3043 RMK\ AO2 PK WND 31037/0342 SLP303 T10281183= 201703040451 METAR KJFK 040451Z 31019G26KT 10SM FEW045 M03/M18 A3045 RMK\ AO2 PK WND 30038/0400 SLP312 T10331178\ 400561033= 201703040551 METAR KJFK 040551Z 31022G32KT 10SM FEW050 M04/M18 A3047 RMK\ AO2 PK WND 30032/0545 SLP318 T10391178\ 10017 21039 51022= 201703040651 METAR KJFK 040651Z 31017KT 10SM FEW050 M04/M17 A3048 RMK\ AO2 PK WND 32035/0554 SLP320 T10441172= 201703040751 METAR KJFK 040751Z 30022G33KT 10SM FEW050 M05/M18 A3048 RMK\ AO2 PK WND 31033/0747 SLP320 T10501183= 201703040851 METAR KJFK 040851Z 31018G24KT 10SM FEW050 M05/M18 A3049 RMK\ AO2 PK WND 32033/0822 SLP324 T10501183\ 53006= 201703040951 METAR KJFK 040951Z 32012KT 10SM FEW050 M06/M17 A3050 RMK\ AO2 SLP326 T10561172= 201703041051 METAR KJFK 041051Z 31011KT 10SM FEW050 M06/M17 A3052 RMK\ AO2 SLP333 T10611172= 201703041151 METAR KJFK 041151Z 30010G18KT 10SM SCT049 M06/M16 A3053 RMK\ AO2 SLP337 T10561161 11039 21061\ 53014= 201703041251 METAR KJFK 041251Z 29012G18KT 10SM SCT055 M04/M16 A3054 RMK\ AO2 SLP342 T10441161= 201703041351 METAR KJFK 041351Z 29013KT 10SM R04R/2600VP6000FT SCT049\ BKN055 M03/M16 A3053 RMK AO2 SLP338\ T10331156= 201703041451 METAR KJFK 041451Z 31013G21KT 10SM SCT050 BKN060 M03/M16\ A3051 RMK AO2 SLP332 T10281156 58005= 201703041551 METAR KJFK 041551Z 32016G26KT 10SM BKN055 M02/M16 A3051 RMK\ AO2 PK WND 31026/1547 SLP331 T10221161= 201703041651 METAR KJFK 041651Z 31021G31KT 10SM BKN060 BKN070 M02/M17\ A3049 RMK AO2 PK WND 30031/1646 SLP324\ VIRGA ALQDS T10171172= 201703041751 METAR KJFK 041751Z 31020G29KT 10SM BKN070 M01/M18 A3047 RMK\ AO2 PK WND 31032/1717 SLP319 VIRGA\ ALQDS T10061183 10011 21056 58014= 201703041851 METAR KJFK 041851Z 31023G33KT 10SM SCT050 BKN070 00/M18 A3046\ RMK AO2 PK WND 32035/1834 SLP315\ VIRGA ALQDS T00001178= 201703041951 METAR KJFK 041951Z 30021G33KT 10SM BKN070 00/M18 A3046 RMK\ AO2 PK WND 31038/1859 SLP315 VIRGA\ ALQDS T00001183= 201703042051 METAR KJFK 042051Z 33026G32KT 10SM SCT070 00/M19 A3047 RMK\ AO2 PK WND 32036/2008 SLP317 VIRGA\ S-W T00001194 55002= 201703042151 METAR KJFK 042151Z 34022G31KT 10SM FEW070 M02/M23 A3049 RMK\ AO2 PK WND 31034/2112 SLP323 T10171228= 201703042251 METAR KJFK 042251Z 33025G29KT 10SM FEW070 M03/M23 A3053 RMK\ AO2 PK WND 33029/2154 SLP336 T10281233= 201703042351 METAR KJFK 042351Z 31020G27KT 10SM FEW070 M04/M22 A3055 RMK\ AO2 PK WND 33030/2258 SLP343 T10391217\ 10006 21039 53026= 201703050051 METAR KJFK 050051Z 32016G25KT 10SM CLR M05/M22 A3056 RMK\ AO2 PK WND 33029/2352 SLP347 T10501217= 201703050151 METAR KJFK 050151Z 34020G26KT 10SM CLR M06/M23 A3057 RMK\ AO2 PK WND 33029/0113 SLP352 T10561228= 201703050251 METAR KJFK 050251Z 34018G28KT 10SM CLR M07/M23 A3059 RMK\ AO2 PK WND 33030/0154 SLP359 T10671233\ 53016= 201703050351 METAR KJFK 050351Z 32016G22KT 10SM CLR M07/M23 A3060 RMK\ AO2 PK WND 32028/0314 SLP360 T10721228= 201703050451 METAR KJFK 050451Z 32018G23KT 10SM CLR M08/M23 A3061 RMK\ AO2 SLP364 T10781228 400111078= 201703050551 METAR KJFK 050551Z 33019KT 10SM CLR M08/M23 A3062 RMK AO2\ SLP367 T10831233 11033 21083 53007= 201703050651 METAR KJFK 050651Z 34013G22KT 10SM CLR M09/M23 A3062 RMK\ AO2 PK WND 34026/0632 SLP367 T10891233= 201703050751 METAR KJFK 050751Z 34017KT 10SM CLR M09/M23 A3061 RMK AO2\ PK WND 34026/0722 SLP364 T10891228= 201703050851 METAR KJFK 050851Z 33015KT 10SM CLR M09/M23 A3063 RMK AO2\ SLP371 T10891233 53004= 201703050951 METAR KJFK 050951Z 31014KT 10SM CLR M09/M23 A3065 RMK AO2\ SLP378 T10891233= 201703051051 METAR KJFK 051051Z 32014KT 10SM CLR M09/M23 A3066 RMK AO2\ SLP382 T10891233= 201703051151 METAR KJFK 051151Z 31015KT 10SM CLR M09/M23 A3067 RMK AO2\ SLP386 T10891233 11083 21089 51016= 201703051251 METAR KJFK 051251Z 34013KT 10SM CLR M07/M23 A3067 RMK AO2\ SLP386 T10721233= 201703051351 METAR KJFK 051351Z 33013KT 10SM CLR M06/M24 A3068 RMK AO2\ SLP389 T10611239= 201703051451 METAR KJFK 051451Z 33011KT 10SM CLR M04/M24 A3066 RMK AO2\ SLP382 T10391244 58004= 201703051551 METAR KJFK 051551Z 32014KT 10SM FEW200 M02/M24 A3065 RMK\ AO2 SLP380 T10221239= 201703051651 METAR KJFK 051651Z 35016KT 10SM FEW200 M01/M25 A3063 RMK\ AO2 SLP370 T10061250= 201703051751 METAR KJFK 051751Z 35018KT 10SM FEW200 01/M24 A3059 RMK AO2\ PK WND 34027/1726 SLP356 T00061244\ 10011 21089 58026= 201703051851 METAR KJFK 051851Z 35017G23KT 10SM FEW250 02/M24 A3055 RMK\ AO2 PK WND 33029/1833 SLP346 T00171244= 201703051951 METAR KJFK 051951Z 33015G23KT 10SM FEW250 02/M23 A3054 RMK\ AO2 SLP340 T00221233= 201703052051 METAR KJFK 052051Z 33009KT 10SM FEW250 03/M23 A3052 RMK AO2\ SLP333 T00281233 56023= 201703052151 METAR KJFK 052151Z 34009KT 10SM FEW250 02/M22 A3051 RMK AO2\ SLP331 T00221222= 201703052251 METAR KJFK 052251Z 01007KT 10SM FEW250 01/M22 A3052 RMK AO2\ SLP333 T00061217= 201703052351 METAR KJFK 052351Z 02007KT 10SM FEW250 00/M21 A3054 RMK AO2\ SLP340 T00001211 10033 20000 53006= 201703060051 METAR KJFK 060051Z 03005KT 10SM FEW250 M01/M21 A3055 RMK\ AO2 SLP343 T10061206= 201703060151 METAR KJFK 060151Z 01005KT 10SM FEW250 M01/M19 A3056 RMK\ AO2 SLP347 T10111194= 201703060251 METAR KJFK 060251Z 02006KT 10SM FEW250 M02/M21 A3056 RMK\ AO2 SLP349 T10171206 51009= 201703060351 METAR KJFK 060351Z 36005KT 10SM CLR M02/M21 A3056 RMK AO2\ SLP348 T10221206= 201703060451 METAR KJFK 060451Z 01007KT 10SM FEW250 M02/M19 A3055 RMK\ AO2 SLP345 T10171194 400331089= 201703060551 METAR KJFK 060551Z 02006KT 10SM FEW250 M03/M18 A3054 RMK\ AO2 SLP342 T10281183 10000 21033\ 58007= 201703060651 METAR KJFK 060651Z 00000KT 10SM FEW250 M03/M17 A3054 RMK\ AO2 SLP341 T10331172= 201703060751 METAR KJFK 060751Z 06005KT 10SM FEW250 M05/M14 A3053 RMK\ AO2 SLP337 T10501139= 201703060851 METAR KJFK 060851Z 35004KT 10SM SCT250 M03/M19 A3054 RMK\ AO2 SLP340 T10331189 55001= 201703060951 METAR KJFK 060951Z 34006KT 10SM FEW250 M04/M16 A3056 RMK\ AO2 SLP346 T10441156= 201703061051 METAR KJFK 061051Z 01005KT 10SM R04R/5000VP6000FT SCT250\ M03/M16 A3055 RMK AO2 SLP345 T10331161= 201703061151 METAR KJFK 061151Z 36005KT 10SM FEW100 FEW300 M03/M16 A3056\ RMK AO2 SLP347 T10331161 11028 21056\ 51007= 201703061251 METAR KJFK 061251Z 02004KT 10SM FEW100 FEW300 M01/M18 A3056\ RMK AO2 SLP348 T10111178= 201703061351 METAR KJFK 061351Z 32004KT 10SM FEW300 00/M17 A3056 RMK AO2\ SLP348 T00001172= 201703061451 METAR KJFK 061451Z 29003KT 10SM FEW120 FEW300 02/M19 A3056\ RMK AO2 SLP348 T00221189 50001= 201703061551 METAR KJFK 061551Z 17004KT 10SM FEW120 SCT300 02/M18 A3055\ RMK AO2 SLP344 T00221183= 201703061651 METAR KJFK 061651Z 21009KT 10SM FEW140 SCT300 03/M15 A3054\ RMK AO2 SLP340 T00331150= 201703061751 METAR KJFK 061751Z 19007KT 10SM FEW060 FEW140 SCT270 04/M14\ A3051 RMK AO2 SLP330 T00391139 10039\ 21033 58018= 201703061851 METAR KJFK 061851Z 18006KT 10SM FEW140 SCT270 04/M11 A3048\ RMK AO2 SLP322 T00391111= 201703061951 METAR KJFK 061951Z 17008KT 10SM BKN100 BKN270 03/M08 A3048\ RMK AO2 SLP322 T00331083= 201703062051 METAR KJFK 062051Z 17010KT 10SM OVC110 04/M06 A3046 RMK AO2\ SLP315 T00391061 56015= 201703062151 METAR KJFK 062151Z 18010KT 10SM BKN110 BKN260 04/M04 A3046\ RMK AO2 SLP314 T00391044= 201703062251 METAR KJFK 062251Z 18009KT 10SM BKN110 BKN250 04/M04 A3046\ RMK AO2 SLP314 T00441039= 201703062351 METAR KJFK 062351Z 18010KT 10SM OVC110 04/M04 A3046 RMK AO2\ SLP314 T00441044 10044 20033 56001= 201703070051 METAR KJFK 070051Z 19011KT 10SM OVC120 04/M03 A3046 RMK AO2\ SLP313 T00441033= 201703070151 METAR KJFK 070151Z 18008KT 10SM BKN080 OVC120 05/M02 A3046\ RMK AO2 SLP313 T00501022= 201703070251 METAR KJFK 070251Z 19012KT 10SM FEW075 OVC095 05/M02 A3045\ RMK AO2 SLP311 T00501022 58003= 201703070351 METAR KJFK 070351Z 19012KT 10SM OVC065 05/M01 A3045 RMK AO2\ RAB15E26 SLP311 P0000 T00501011= 201703070451 METAR KJFK 070451Z 18009KT 10SM OVC065 06/00 A3044 RMK AO2\ SLP306 T00560000 400561056= 201703070551 METAR KJFK 070551Z 16008KT 10SM OVC065 06/01 A3043 RMK AO2\ SLP305 60000 T00560011 10056 20044\ 58006= 201703070651 METAR KJFK 070651Z 15008KT 10SM OVC055 06/02 A3041 RMK AO2\ SLP298 T00610017= 201703070751 METAR KJFK 070751Z 15009KT 10SM OVC060 06/02 A3039 RMK AO2\ SLP291 T00610022= 201703070851 METAR KJFK 070851Z 14011KT 10SM OVC065 07/03 A3038 RMK AO2\ SLP286 T00670028 56019= 201703070951 METAR KJFK 070951Z 13009KT 10SM -RA OVC060 07/03 A3038 RMK\ AO2 RAB34 SLP285 P0000 T00670033= 201703071051 METAR KJFK 071051Z 12008KT 10SM -RA BKN049 OVC055 07/04 A3037\ RMK AO2 SLP285 P0000 T00670039= 201703071151 METAR KJFK 071151Z 13011KT 10SM SCT047 OVC055 07/04 A3037\ RMK AO2 RAE1056 SLP282 P0000 60000\ T00720044 10072 20056 58003= 201703071251 METAR KJFK 071251Z 14011KT 9SM SCT047 OVC055 08/05 A3036\ RMK AO2 RAB32E44 SLP281 P0000 T00780050= 201703071351 METAR KJFK 071351Z 15009KT 10SM OVC065 08/06 A3035 RMK AO2\ SLP277 T00830056= 201703071451 METAR KJFK 071451Z 16011KT 6SM -RA BR SCT042 OVC055 08/07\ A3033 RMK AO2 RAB00 SLP270 P0002\ 60002 T00830067 58013= 201703071551 METAR KJFK 071551Z 17011KT 5SM -RA BR BKN040 BKN055 OVC075\ 08/07 A3030 RMK AO2 SLP260 P0004\ T00830067= 201703071651 METAR KJFK 071651Z 17012KT 6SM -RA BR FEW010 SCT046 OVC065\ 08/07 A3028 RMK AO2 SLP252 P0003\ T00830072= 201703071751 METAR KJFK 071751Z 19008KT 9SM FEW015 SCT030 OVC055 08/07\ A3025 RMK AO2 RAE36 SLP241 P0001\ 60010 T00830067 10089 20072 58028= 201703071851 METAR KJFK 071851Z 17011KT 9SM -RA FEW018 BKN033 OVC070 08/07\ A3022 RMK AO2 RAB1758 SLP231 P0001\ T00830067= 201703071951 METAR KJFK 071951Z 16008KT 8SM -RA FEW046 OVC110 08/06 A3020\ RMK AO2 RAE1855B45 SLP224 P0000 T00830061= 201703072051 METAR KJFK 072051Z 17008KT 10SM FEW046 BKN110 OVC150 09/06\ A3018 RMK AO2 RAE1954 SLP219 P0000\ 60001 T00890061 56023= 201703072151 METAR KJFK 072151Z VRB03KT 10SM BKN048 OVC150 09/06 A3016\ RMK AO2 RAB03E13 SLP213 P0000 T00890061= 201703072251 METAR KJFK 072251Z 15007KT 10SM FEW048 BKN160 BKN250 09/07\ A3014 RMK AO2 SLP207 T00890067= 201703072351 METAR KJFK 072351Z 17010KT 10SM SCT050 SCT140 BKN230 09/07\ A3013 RMK AO2 SLP204 60001 T00890067\ 10094 20083 56015= 201703080051 METAR KJFK 080051Z 19016KT 10SM -RA SCT055 SCT120 OVC150\ 09/07 A3013 RMK AO2 RAB40 SLP202\ P0000 T00940067= 201703080151 METAR KJFK 080151Z 18015KT 10SM -RA FEW055 OVC090 09/07 A3011\ RMK AO2 RAE0059B44 SLP196 P0000 T00940067= 201703080251 METAR KJFK 080251Z 18015KT 10SM FEW050 OVC075 10/07 A3009\ RMK AO2 RAE0155 SLP188 P0000 60000\ T01000067 58016= 201703080351 METAR KJFK 080351Z 18013KT 10SM FEW080 OVC160 09/06 A3006\ RMK AO2 SLP177 T00940061= 201703080451 METAR KJFK 080451Z 18014KT 10SM -RA BKN060 OVC120 09/07 A3003\ RMK AO2 RAB43 SLP169 P0000 T00940067\ 401000056= 201703080551 METAR KJFK 080551Z 19014KT 10SM -RA OVC060 10/07 A3000 RMK\ AO2 SLP160 P0000 60000 T01000072\ 10106 20089 56028= 201703080651 METAR KJFK 080651Z 18012KT 10SM -RA OVC080 10/08 A2997 RMK\ AO2 SLP149 P0001 T01000078= 201703080751 METAR KJFK 080751Z 18014KT 10SM -RA BKN060 OVC095 09/07 A2994\ RMK AO2 RAE26B44 SLP139 P0000 T00940072= 201703080851 METAR KJFK 080851Z 18014KT 10SM FEW060 OVC100 09/08 A2991\ RMK AO2 RAE0752 SLP129 P0000 60001\ T00940078 56030= 201703080951 METAR KJFK 080951Z 18013KT 7SM FEW040 BKN080 OVC095 09/07\ A2991 RMK AO2 SLP127 T00890072= 201703081051 METAR KJFK 081051Z 19013KT 8SM -RA OVC028 09/08 A2992 RMK\ AO2 RAB0952 SLP132 P0002 T00890078= 201703081151 METAR KJFK 081151Z 32019G24KT 9SM -RA FEW011 BKN030 OVC044\ 09/06 A2999 RMK AO2 SLP154 PK WND\ 33027/1127 WSHFT 1125 FROPA CIG 027V033\ P0002 60005 70016 T00890061 10100\ 20083 53025= 201703081251 METAR KJFK 081251Z 31011KT 10SM SCT028 OVC055 09/04 A2998\ RMK AO2 RAE1158 SLP152 P0000 T00940039= 201703081351 METAR KJFK 081351Z 28015G20KT 10SM FEW030 SCT045 BKN075 10/03\ A3004 RMK AO2 SLP171 T01000033= 201703081451 METAR KJFK 081451Z 29021G27KT 10SM FEW033 BKN090 11/01 A3003\ RMK AO2 PK WND 29028/1440 SLP168\ 60000 T01060006 50014= 201703081551 METAR KJFK 081551Z 30017G25KT 10SM FEW040 BKN100 12/M01 A3003\ RMK AO2 PK WND 28028/1456 SLP170\ T01221006= 201703081651 METAR KJFK 081651Z 27015KT 10SM FEW048 SCT100 14/M02 A3002\ RMK AO2 SLP166 T01391017= 201703081751 METAR KJFK 081751Z 26012G21KT 10SM FEW065 FEW120 14/M04 A2999\ RMK AO2 SLP156 60000 T01441039 10150\ 20089 58012= 201703081851 METAR KJFK 081851Z 26014KT 10SM FEW070 FEW120 16/M05 A2996\ RMK AO2 SLP144 T01611050= 201703081951 METAR KJFK 081951Z 28019KT 10SM FEW070 FEW250 16/M06 A2995\ RMK AO2 PK WND 27027/1927 SLP142\ T01611056= 201703082051 METAR KJFK 082051Z 24012KT 10SM FEW080 FEW250 15/M03 A2993\ RMK AO2 PK WND 29028/1952 SLP136\ T01501028 56020= 201703082151 METAR KJFK 082151Z 22015KT 10SM FEW090 FEW250 14/M03 A2993\ RMK AO2 SLP133 T01391028= 201703082251 METAR KJFK 082251Z 23014KT 10SM FEW090 FEW250 12/M02 A2991\ RMK AO2 SLP128 T01221022= 201703082351 METAR KJFK 082351Z 20014KT 10SM FEW250 12/M01 A2991 RMK AO2\ SLP127 T01171011 10161 20106 56008= 201703090051 METAR KJFK 090051Z 20014KT 10SM FEW250 11/M01 A2991 RMK AO2\ SLP128 T01061006= 201703090151 METAR KJFK 090151Z 20015KT 10SM FEW250 08/03 A2993 RMK AO2\ SLP133 T00830028= 201703090251 METAR KJFK 090251Z 22016KT 10SM FEW050 10/00 A2994 RMK AO2\ SLP139 T01000000 53012= 201703090351 METAR KJFK 090351Z 22011KT 10SM CLR 09/M01 A2994 RMK AO2\ SLP139 T00941006= 201703090451 METAR KJFK 090451Z 25012KT 10SM CLR 09/M01 A2994 RMK AO2\ SLP137 T00941011 401610078= 201703090551 METAR KJFK 090551Z 26018G30KT 10SM CLR 13/M07 A2994 RMK AO2\ PK WND 26030/0544 SLP138 T01281072\ 10128 20078 55001= 201703090651 METAR KJFK 090651Z 26015KT 10SM CLR 12/M07 A2995 RMK AO2\ PK WND 25029/0629 SLP142 T01221067= 201703090751 METAR KJFK 090751Z 26023G31KT 10SM CLR 12/M07 A2995 RMK AO2\ PK WND 26031/0751 SLP141 T01221072= 201703090851 METAR KJFK 090851Z 25016KT 10SM CLR 11/M06 A2995 RMK AO2\ PK WND 27031/0752 SLP143 T01111056\ 51004= 201703090951 METAR KJFK 090951Z 24013G21KT 10SM CLR 09/M03 A2997 RMK AO2\ PK WND 27028/0856 SLP148 T00941033= 201703091051 METAR KJFK 091051Z 23014KT 10SM CLR 08/M02 A2998 RMK AO2\ SLP151 T00831017= 201703091151 METAR KJFK 091151Z 24013KT 10SM FEW300 09/M02 A2998 RMK AO2\ SLP152 T00891022 10128 20078 51010= 201703091251 METAR KJFK 091251Z 25017KT 10SM FEW300 12/M07 A2999 RMK AO2\ SLP156 T01221067= 201703091351 METAR KJFK 091351Z 27023G29KT 10SM FEW090 FEW300 14/M08 A2999\ RMK AO2 PK WND 26029/1350 SLP154\ T01391078= 201703091451 METAR KJFK 091451Z 27022G34KT 10SM FEW085 FEW300 15/M09 A2998\ RMK AO2 PK WND 29035/1400 SLP153\ T01501089 50000= 201703091551 METAR KJFK 091551Z 29023G34KT 10SM FEW085 FEW300 16/M10 A2998\ RMK AO2 PK WND 27036/1538 SLP150\ T01561100= 201703091651 METAR KJFK 091651Z 29023G34KT 10SM FEW090 FEW300 16/M09 A2996\ RMK AO2 PK WND 27036/1624 SLP146\ T01611089= 201703091751 METAR KJFK 091751Z 26022G31KT 10SM FEW095 FEW120 FEW300 17/M08\ A2993 RMK AO2 PK WND 30036/1703 SLP136\ T01721083 10172 20089 58017= 201703091851 METAR KJFK 091851Z 26021G29KT 10SM FEW095 FEW120 17/M08 A2993\ RMK AO2 PK WND 26035/1840 SLP134\ T01721078= 201703091951 METAR KJFK 091951Z 27019G26KT 10SM FEW095 FEW120 18/M08 A2992\ RMK AO2 PK WND 27033/1925 SLP131\ T01781078= 201703092051 METAR KJFK 092051Z 29019G24KT 10SM FEW095 FEW250 18/M08 A2992\ RMK AO2 PK WND 27031/2033 SLP130\ T01781083 56005= 201703092151 METAR KJFK 092151Z 30017G31KT 10SM FEW100 FEW250 17/M08 A2992\ RMK AO2 PK WND 26031/2106 SLP130\ T01721078= 201703092251 METAR KJFK 092251Z 35008KT 10SM SCT100 SCT250 14/M08 A2994\ RMK AO2 SLP139 T01391078= 201703092351 METAR KJFK 092351Z 35012KT 10SM FEW110 SCT130 BKN250 12/M06\ A2997 RMK AO2 SLP147 T01221061 10178\ 20122 53017= 201703100051 METAR KJFK 100051Z 34013G21KT 10SM FEW110 BKN140 BKN250 12/M07\ A2998 RMK AO2 SLP153 T01221067= 201703100151 METAR KJFK 100151Z 34017G23KT 10SM OVC120 12/M07 A2999 RMK\ AO2 SLP156 T01171072= 201703100251 METAR KJFK 100251Z 33013G23KT 10SM FEW095 OVC110 11/M05 A3000\ RMK AO2 SLP158 T01061050 51011= 201703100351 METAR KJFK 100351Z 34012KT 10SM OVC110 10/M04 A3000 RMK AO2\ SLP157 T01001044= 201703100451 METAR KJFK 100451Z 35011KT 10SM OVC120 09/M06 A2999 RMK AO2\ SLP154 T00941061 401780078= 201703100551 METAR KJFK 100551Z 35009KT 10SM BKN110 OVC250 09/M05 A2995\ RMK AO2 SLP143 T00891050 10128 20089\ 58015= 201703100651 METAR KJFK 100651Z 01010KT 10SM OVC130 08/M07 A2993 RMK AO2\ SLP134 T00831067= 201703100751 METAR KJFK 100751Z 03009KT 10SM OVC130 08/M08 A2992 RMK AO2\ SLP131 T00781078= 201703100851 METAR KJFK 100851Z 05014KT 10SM BKN120 OVC250 07/M07 A2991\ RMK AO2 SLP127 T00671072 56016= 201703100951 METAR KJFK 100951Z 04013KT 10SM FEW060 OVC120 06/M07 A2989\ RMK AO2 SLP122 T00561067= 201703101051 METAR KJFK 101051Z 04012KT 10SM FEW050 OVC100 06/M07 A2987\ RMK AO2 SLP113 T00561067= 201703101151 METAR KJFK 101151Z 03012KT 10SM BKN048 OVC085 03/M04 A2991\ RMK AO2 SLP127 VCSH W-NW T00331044\ 10089 20033 55000= 201703101251 METAR KJFK 101251Z 03011KT 1/2SM R04R/2400V3000FT -SN BR\ VV008 01/M01 A2989 RMK AO2 SFC VIS\ 3/4 SNB01 SLP120 P0003 T00061006= 201703101351 METAR KJFK 101351Z 04012KT 1SM R04R/2800V3000FT -SN BR SCT000\ BKN006 OVC013 01/M01 A2987 RMK AO2\ SLP114 SN SCT000 P0006 T00061006= 201703101451 METAR KJFK 101451Z 01011KT 3/4SM R04R/3500V5000FT -SN BR\ VV007 01/M01 A2986 RMK AO2 SLP112\ P0006 60015 T00061006 56015= 201703101551 METAR KJFK 101551Z 36011KT 1/2SM R04R/1600V4500FT SN FG VV005\ 00/M01 A2984 RMK AO2 SLP104 SNINCR\ 1/2 P0006 T00001011= 201703101651 METAR KJFK 101651Z 34013KT 1/2SM R04R/2400V3500FT -SN BR\ SCT000 BKN008 OVC012 01/M01 A2985\ RMK AO2 SFC VIS 3/4 SLP108 SN SCT000\ P0002 T00061011= 201703101751 METAR KJFK 101751Z 34013KT 1SM R04R/2800V5000FT -SN BR FEW008\ BKN023 OVC032 01/M01 A2982 RMK AO2\ SFC VIS 2 SLP099 931022 4/002 933002\ P0001 60024 T00061011 10033 20000\ 58014= 201703101851 METAR KJFK 101851Z 33015KT 4SM -SN FEW009 SCT025 OVC037 01/M02\ A2981 RMK AO2 SLP094 SCT V BKN P0002\ T00111022= 201703101951 METAR KJFK 101951Z 33016G22KT 10SM FEW016 FEW039 BKN065 BKN250\ 02/M04 A2979 RMK AO2 SNE39 SLP088\ P0000 T00221039= 201703102051 METAR KJFK 102051Z 32019G24KT 10SM SCT038 BKN065 03/M06 A2980\ RMK AO2 SLP090 VCSH SW-W AND NW 60002\ T00281061 55008= 201703102151 METAR KJFK 102151Z 32017G26KT 10SM SCT055 SCT075 03/M09 A2982\ RMK AO2 PK WND 32030/2128 SLP098\ VCSH SE AND SW-W T00281094= 201703102251 METAR KJFK 102251Z 32017G22KT 10SM SCT055 BKN075 03/M09 A2985\ RMK AO2 PK WND 30030/2156 SLP108\ VCSH SE-SW T00281094= 201703102351 METAR KJFK 102351Z 32026G31KT 10SM FEW065 SCT085 01/M12 A2988\ RMK AO2 PK WND 33031/2350 SLP119\ 931002 4/002 60002 T00111117 10033\ 20006 53028= 201703110051 METAR KJFK 110051Z 32016G26KT 10SM FEW050 FEW085 00/M13 A2991\ RMK AO2 PK WND 32029/0004 SLP128\ T00001128= 201703110151 METAR KJFK 110151Z 32020G28KT 10SM FEW065 M01/M13 A2995 RMK\ AO2 PK WND 31031/0120 SLP140 T10061128= 201703110251 METAR KJFK 110251Z 31027G33KT 10SM FEW055 M02/M14 A2999 RMK\ AO2 PK WND 30038/0230 SLP156 T10221144\ 53037= 201703110351 METAR KJFK 110351Z 31021G29KT 10SM SCT055 M03/M14 A3001 RMK\ AO2 PK WND 30034/0252 SLP161 T10331144= 201703110451 METAR KJFK 110451Z 30021G30KT 10SM FEW055 M04/M13 A3004 RMK\ AO2 PK WND 31034/0403 SLP171 T10441133\ 400941044= 201703110551 METAR KJFK 110551Z 32026G33KT 10SM BKN050 M05/M16 A3005 RMK\ AO2 PK WND 30033/0548 SLP174 4/002\ T10501156 10011 21050 51018= 201703110651 METAR KJFK 110651Z 32020G27KT 10SM SCT050 M06/M17 A3008 RMK\ AO2 PK WND 31032/0609 SLP184 T10561167= 201703110751 METAR KJFK 110751Z 31024G35KT 10SM SCT050 M07/M19 A3008 RMK\ AO2 PK WND 32035/0746 SLP186 T10671189= 201703110851 METAR KJFK 110851Z 30018G28KT 10SM SCT055 M07/M20 A3010 RMK\ AO2 PK WND 31031/0824 SLP192 T10721200\ 51018= 201703110951 METAR KJFK 110951Z 30014KT 10SM FEW055 M07/M19 A3013 RMK\ AO2 PK WND 32029/0855 SLP203 T10721189= 201703111051 METAR KJFK 111051Z 31018G23KT 10SM SCT050 M08/M18 A3016 RMK\ AO2 PK WND 30028/1031 SLP212 T10781183= 201703111151 METAR KJFK 111151Z 31009KT 10SM SCT050 SCT250 M07/M17 A3019\ RMK AO2 SLP223 4/002 70026 T10721172\ 11050 21078 51030= 201703111251 METAR KJFK 111251Z 29010KT 10SM BKN050 BKN250 M07/M17 A3020\ RMK AO2 PK WND 29026/1241 SLP227\ T10671167= 201703111351 METAR KJFK 111351Z 26012KT 10SM BKN050 BKN060 BKN250 M06/M17\ A3021 RMK AO2 SLP228 T10611167= 201703111451 METAR KJFK 111451Z 27016G24KT 10SM SCT048 BKN060 BKN250 M05/M17\ A3020 RMK AO2 SLP227 T10501167 50005= 201703111551 METAR KJFK 111551Z 29011KT 10SM BKN048 BKN250 M05/M16 A3020\ RMK AO2 SLP225 T10501156= 201703111651 METAR KJFK 111651Z 29015G24KT 10SM BKN055 BKN070 BKN250 M04/M15\ A3018 RMK AO2 PK WND 32028/1614 SLP219\ T10391150= 201703111751 METAR KJFK 111751Z 31012KT 9SM FEW034 BKN046 BKN055 BKN250\ M04/M13 A3016 RMK AO2 PK WND 31027/1718\ UPB17E22SNB36E49 SLP212 VIRGA SE-S\ 931000 4/002 933002 P0000 60000 T10391133\ 11033 21072 58016= 201703111851 METAR KJFK 111851Z 29017G33KT 10SM FEW050 BKN065 BKN250 M03/M15\ A3014 RMK AO2 PK WND 31033/1845 SLP207\ T10281150= 201703111951 METAR KJFK 111951Z 31013KT 10SM R04R/6000VP6000FT BKN065\ BKN080 M02/M14 A3014 RMK AO2 SLP204\ VIRGA ALQDS T10171139= 201703112051 METAR KJFK 112051Z 30017G22KT 10SM SCT050 BKN060 BKN080 M02/M14\ A3014 RMK AO2 PK WND 27026/2007 SLP204\ VIRGA ALQDS T10221139 55008= 201703112151 METAR KJFK 112151Z 29020G26KT 10SM SCT055 BKN075 M02/M13\ A3016 RMK AO2 PK WND 30030/2118 SLP211\ VIRGA ALQDS T10221133= 201703112251 METAR KJFK 112251Z 30014G23KT 10SM BKN070 M03/M13 A3018 RMK\ AO2 PK WND 27030/2203 SLP218 VIRGA\ ALQDS T10281128= 201703112351 METAR KJFK 112351Z 32016G22KT 10SM R04R/5500VP6000FT BKN070\ M03/M13 A3019 RMK AO2 PK WND 29032/2308\ SLP222 4/001 T10331133 11017 21039\ 51018= 201703120051 METAR KJFK 120051Z 31019G25KT 10SM SCT060 M03/M14 A3022 RMK\ AO2 SLP232 T10331139= 201703120151 METAR KJFK 120151Z 31020G26KT 10SM SCT060 M04/M15 A3024 RMK\ AO2 PK WND 32027/0137 SLP241 T10391150= 201703120251 METAR KJFK 120251Z 29016G24KT 10SM SCT055 M04/M15 A3026 RMK\ AO2 PK WND 29030/0156 SLP248 T10441150\ 51026= 201703120351 METAR KJFK 120351Z 31016G24KT 10SM SCT055 M04/M16 A3028 RMK\ AO2 PK WND 30026/0331 SLP252 T10441156= 201703120451 METAR KJFK 120451Z 31015G24KT 10SM SCT055 M05/M16 A3029 RMK\ AO2 PK WND 30027/0434 SLP255 T10501156\ 410171078= 201703120551 METAR KJFK 120551Z 29013G20KT 10SM SCT055 M05/M16 A3029 RMK\ AO2 PK WND 30027/0509 SLP257 4/001\ T10501156 11033 21050 51009= 201703120651 METAR KJFK 120651Z 30017G26KT 10SM SCT055 M05/M16 A3030 RMK\ AO2 PK WND 30026/0646 SLP260 T10501161= 201703120751 METAR KJFK 120751Z 29018G27KT 10SM SCT050 M06/M17 A3030 RMK\ AO2 PK WND 29030/0710 SLP258 T10561167= 201703120851 METAR KJFK 120851Z 31014KT 10SM SCT050 M06/M16 A3030 RMK\ AO2 PK WND 29029/0820 SLP261 T10611161\ 51004= 201703120951 METAR KJFK 120951Z 30014KT 10SM SCT050 M06/M16 A3030 RMK\ AO2 PK WND 30028/0926 SLP260 T10611161= 201703121051 METAR KJFK 121051Z 31017G23KT 10SM SCT050 SCT250 M07/M17\ A3030 RMK AO2 PK WND 31026/1010 SLP261\ T10671167= 201703121151 METAR KJFK 121151Z 32013KT 10SM FEW050 SCT250 M06/M17 A3032\ RMK AO2 SLP268 4/001 T10611167 11050\ 21067 53007= 201703121251 METAR KJFK 121251Z 32017G28KT 10SM FEW050 FEW250 M06/M16\ A3033 RMK AO2 PK WND 31028/1245 SLP269\ T10561161= 201703121351 METAR KJFK 121351Z 31017G26KT 10SM FEW050 SCT250 M04/M16\ A3033 RMK AO2 PK WND 33027/1329 SLP271\ T10441156= 201703121451 METAR KJFK 121451Z 30016G22KT 10SM SCT048 SCT250 M04/M15\ A3033 RMK AO2 PK WND 32028/1424 SLP270\ T10391150 50002= 201703121551 METAR KJFK 121551Z 29013G19KT 10SM SCT050 BKN250 M03/M14\ A3033 RMK AO2 SLP270 T10281144= 201703121651 METAR KJFK 121651Z 29015G22KT 10SM BKN050 BKN250 M02/M13\ A3033 RMK AO2 SLP268 VIRGA SE-S T10171133= 201703121751 METAR KJFK 121751Z 30014G19KT 10SM BKN050 BKN250 M02/M13\ A3029 RMK AO2 SLP257 T10171133 11011\ 21061 58013= 201703121851 METAR KJFK 121851Z 29021KT 10SM BKN060 BKN250 M01/M14 A3028\ RMK AO2 PK WND 27027/1814 SLP253\ T10111139= 201703121951 METAR KJFK 121951Z 31018KT 10SM SCT060 OVC250 M01/M14 A3029\ RMK AO2 PK WND 27032/1921 SLP255\ T10061139= 201703122051 METAR KJFK 122051Z 30019G27KT 10SM SCT060 SCT250 M01/M15\ A3028 RMK AO2 PK WND 30027/2040 SLP254\ T10061150 56003= 201703122151 METAR KJFK 122151Z 30018G25KT 10SM SCT060 M01/M16 A3030 RMK\ AO2 PK WND 30026/2127 SLP259 T10111161= 201703122251 METAR KJFK 122251Z 30013KT 10SM FEW060 M02/M17 A3032 RMK\ AO2 PK WND 28027/2210 SLP265 T10171167= 201703122351 METAR KJFK 122351Z 30015G25KT 10SM FEW060 M02/M17 A3035 RMK\ AO2 SLP276 T10171172 10000 21022\ 53022= 201703130051 METAR KJFK 130051Z 32015KT 10SM CLR M02/M17 A3038 RMK AO2\ PK WND 30026/0001 SLP286 T10171172= 201703130151 METAR KJFK 130151Z 32017G24KT 10SM CLR M02/M17 A3040 RMK\ AO2 SLP292 T10221172= 201703130251 METAR KJFK 130251Z 32015KT 10SM CLR M04/M18 A3041 RMK AO2\ PK WND 32027/0203 SLP296 T10391178\ 51021= 201703130351 METAR KJFK 130351Z 33018G27KT 10SM CLR M04/M18 A3043 RMK\ AO2 PK WND 34027/0346 SLP303 T10441183= 201703130451 METAR KJFK 130451Z 32014G21KT 10SM CLR M04/M18 A3045 RMK\ AO2 SLP310 T10441178 400001067= 201703130551 METAR KJFK 130551Z 32014KT 10SM CLR M05/M17 A3046 RMK AO2\ SLP314 T10501167 11017 21050 51018= 201703130651 METAR KJFK 130651Z 33009KT 10SM CLR M06/M17 A3046 RMK AO2\ SLP315 T10561167= 201703130751 METAR KJFK 130751Z 33013KT 10SM CLR M06/M16 A3045 RMK AO2\ SLP312 T10561161= 201703130851 METAR KJFK 130851Z 33010KT 10SM CLR M06/M16 A3047 RMK AO2\ SLP317 T10611161 53003= 201703130951 METAR KJFK 130951Z 33007KT 10SM SCT260 M06/M16 A3048 RMK\ AO2 SLP321 T10611156= 201703131051 METAR KJFK 131051Z 34008KT 10SM FEW260 M07/M16 A3050 RMK\ AO2 SLP328 T10671156= 201703131151 METAR KJFK 131151Z 34005KT 10SM SCT260 M06/M15 A3052 RMK\ AO2 SLP335 T10561150 11050 21067\ 53019= 201703131251 METAR KJFK 131251Z 36003KT 10SM SCT260 M04/M16 A3053 RMK\ AO2 SLP337 T10441156= 201703131351 METAR KJFK 131351Z 00000KT 10SM BKN260 M04/M16 A3054 RMK\ AO2 SLP342 T10391156= 201703131451 METAR KJFK 131451Z VRB04KT 10SM FEW170 BKN260 M02/M15 A3053\ RMK AO2 SLP339 T10221150 50003= 201703131551 METAR KJFK 131551Z 16004KT 10SM FEW170 BKN260 M02/M15 A3052\ RMK AO2 SLP334 T10171150= 201703131651 METAR KJFK 131651Z 20009KT 10SM FEW150 BKN250 M01/M13 A3050\ RMK AO2 SLP327 T10061133= 201703131751 METAR KJFK 131751Z 18010KT 10SM FEW150 BKN250 M01/M11 A3048\ RMK AO2 SLP321 T10061111 10000 21056\ 58018= 201703131851 METAR KJFK 131851Z 20006KT 10SM BKN250 M01/M13 A3045 RMK\ AO2 SLP309 T10111128= 201703131951 METAR KJFK 131951Z 18007KT 10SM BKN250 00/M12 A3042 RMK AO2\ SLP301 T00001122= 201703132051 METAR KJFK 132051Z 14009KT 10SM BKN250 01/M12 A3039 RMK AO2\ SLP291 T00061122 56030= 201703132151 METAR KJFK 132151Z 12009KT 10SM FEW120 BKN250 M01/M11 A3039\ RMK AO2 SLP289 T10061106= 201703132251 METAR KJFK 132251Z 12009KT 10SM FEW120 BKN250 M01/M10 A3039\ RMK AO2 SLP290 T10111100= 201703132351 METAR KJFK 132351Z 13008KT 10SM FEW090 BKN250 M01/M08 A3037\ RMK AO2 SLP282 T10061083 10006 21011\ 58009= 201703140051 METAR KJFK 140051Z 13005KT 10SM FEW038 BKN065 OVC080 01/M07\ A3037 RMK AO2 SLP284 T00061072= 201703140151 METAR KJFK 140151Z 09008KT 10SM BKN070 OVC085 01/M07 A3033\ RMK AO2 SLP269 T00061067= 201703140251 METAR KJFK 140251Z 08009KT 10SM FEW032 OVC060 01/M06 A3031\ RMK AO2 PRESFR SLP262 T00111056 58021= 201703140351 METAR KJFK 140351Z 09012KT 9SM -SN FEW028 BKN065 OVC080 01/M06\ A3027 RMK AO2 SNB46 SLP248 P0000\ T00111056= 201703140451 METAR KJFK 140451Z 08011KT 9SM -SN FEW027 OVC050 01/M05 A3023\ RMK AO2 SNE21B46 PRESFR SLP237 P0000\ T00111050 400111067= 201703140551 METAR KJFK 140551Z 06010KT 1SM R04R/5000VP6000FT -SN BR OVC012\ M01/M02 A3021 RMK AO2 SFC VIS 1 1/2\ SLP228 931002 P0002 60002 T10061022\ 10011 21006 56020= 201703140651 METAR KJFK 140651Z 04013G20KT 1SM R04R/4500V5000FT -SN BR\ VV009 M02/M03 A3014 RMK AO2 PRESFR\ SLP206 SNINCR 1/1 P0007 T10171028= 201703140751 METAR KJFK 140751Z 05014KT 1/2SM R04R/2600V3000FT SN FZFG\ VV006 M02/M03 A3005 RMK AO2 PRESFR\ SLP177 SNINCR 1/2 P0007 T10171028= 201703140851 METAR KJFK 140851Z 04019KT 1/2SM R04R/4000V6000FT -SN BR\ VV008 M01/M03 A2999 RMK AO2 SFC VIS\ 3/4 PRESFR SLP154 SNINCR 1/3 P0010\ 60024 T10111028 58075= 201703140951 METAR KJFK 140951Z 05018G26KT 1 1/2SM -SN BR OVC012 M01/M02\ A2992 RMK AO2 PK WND 04027/0911 SLP130\ SNINCR 1/4 PRESENT WX DRSN P0010\ T10061022= 201703141051 METAR KJFK 141051Z 05021G29KT 3SM R04R/4000VP6000FT -SNPL\ BR OVC015 00/M02 A2983 RMK AO2 PK\ WND 05032/1017 SFC VIS 4 PLB12 PRESFR\ SLP101 P0006 T00001017= 201703141151 METAR KJFK 141151Z 05016G26KT 3SM -PLRA BR OVC012 01/M01\ A2977 RMK AO2 PK WND 05030/1113 SFC\ VIS 4 RAB15SNE15 SLP080 931039 4/004\ P0012 60052 70054 T00111006 10011\ 21017 56074= 201703141251 METAR KJFK 141251Z 04021G30KT 3SM PLRA BR OVC012 01/M01 A2967\ RMK AO2 PK WND 04031/1232 SNB08E48\ PRESFR SLP045 P0024 T00061006= 201703141351 METAR KJFK 141351Z 04028G42KT 2SM R04R/4500V6000FT PL BR\ OVC011 01/M01 A2951 RMK AO2 PK WND\ 04042/1344 LTG DSNT W RAE13 PRESFR\ SLP994 P0025 T00061006= 201703141451 METAR KJFK 141451Z 03029G39KT 2SM R04R/3000VP6000FT PL BR\ OVC012 01/M01 A2940 RMK AO2 PK WND\ 03041/1411 PRESFR SLP957 P0013 60062\ T00111006 58123 $= 201703141551 METAR KJFK 141551Z 03030G39KT 3SM R04R/3500V5000FT PL BR\ OVC014 02/00 A2929 RMK AO2 PK WND\ 04039/1551 PRESFR SLP919 P0023 T00170000\ $= 201703141651 METAR KJFK 141651Z 02028G35KT 2 1/2SM R04R/3500VP6000FT -RA\ BR OVC012 02/00 A2921 RMK AO2 PK\ WND 03038/1603 RAB36PLE36 SLP891\ P0013 T00170000= 201703141751 METAR KJFK 141751Z 01021G35KT 2SM R04R/2800V3500FT -RA BR\ OVC009 01/M01 A2909 RMK AO2 PK WND\ 01037/1737 PRESFR SLP849 931006 4/005\ 933021 P0007 60105 T00111006 10022\ 20006 58108= 201703141851 METAR KJFK 141851Z 34028G33KT 2SM R04R/4000V6000FT -RA BR\ OVC009 01/M01 A2906 RMK AO2 PK WND\ 35038/1824 SLP841 P0003 T00061011= 201703141951 METAR KJFK 141951Z 33029G37KT 2SM R04R/4500VP6000FT -SN BR\ BKN009 OVC015 M01/M03 A2914 RMK AO2\ PK WND 33040/1928 SFC VIS 3 RAE00SNB00\ SLP867 P0000 T10111028= 201703142051 METAR KJFK 142051Z 32026G37KT 3SM -SN FEW009 BKN017 OVC038\ M01/M04 A2920 RMK AO2 PK WND 33040/1958\ SFC VIS 5 VIS 2 W PRESRR SLP887 P0000\ 60003 T10061039 50046= 201703142151 METAR KJFK 142151Z 31022G30KT 1 3/4SM R04R/5000VP6000FT -SN\ BLSN BR FEW000 BKN014 OVC026 M01/M02\ A2924 RMK AO2 PK WND 32037/2058 SFC\ VIS 2 SLP900 SN BLSN FEW000 P0001\ T10061022= 201703142251 METAR KJFK 142251Z 29019G26KT 10SM BKN022 OVC029 00/M04 A2933\ RMK AO2 PK WND 30031/2214 SNE39 PRESRR\ SLP930 P0000 T00001044= 201703142351 METAR KJFK 142351Z 29019G24KT 10SM FEW029 FEW038 BKN055 00/M06\ A2937 RMK AO2 PK WND 31030/2310 SLP945\ 931004 4/005 60004 T00001056 10011\ 21011 53058= 201703150051 METAR KJFK 150051Z 30018G25KT 10SM FEW034 BKN070 M01/M07\ A2941 RMK AO2 PK WND 29028/0002 SLP958\ T10061067= 201703150151 METAR KJFK 150151Z 30017G29KT 10SM SCT033 SCT070 M02/M09\ A2946 RMK AO2 PK WND 32035/0122 SLP977\ T10221089= 201703150251 METAR KJFK 150251Z 29021G32KT 10SM FEW035 SCT070 M04/M11\ A2949 RMK AO2 PK WND 31035/0206 SLP987\ T10391106 51042= 201703150351 METAR KJFK 150351Z 30022G29KT 10SM FEW075 M05/M12 A2953 RMK\ AO2 PK WND 29033/0340 SLP999 T10501122= 201703150451 METAR KJFK 150451Z 29022G31KT 10SM FEW075 M05/M13 A2953 RMK\ AO2 PK WND 28032/0403 SLP999 T10501128\ 400221050= 201703150551 METAR KJFK 150551Z 29016G29KT 10SM FEW039 FEW070 M05/M13\ A2956 RMK AO2 PK WND 29030/0525 SLP010\ 4/004 T10501133 10000 21056 51023= 201703150651 METAR KJFK 150651Z 29016G26KT 10SM FEW040 FEW070 M06/M13\ A2956 RMK AO2 PK WND 31029/0632 SLP008\ T10561133= 201703150751 METAR KJFK 150751Z 29017G24KT 10SM FEW075 M06/M13 A2957 RMK\ AO2 PK WND 29029/0659 SLP013 T10561133= 201703150851 METAR KJFK 150851Z 28014G20KT 10SM SCT040 SCT075 M06/M14\ A2959 RMK AO2 PK WND 29027/0833 SLP020\ T10561139 53010= 201703150951 METAR KJFK 150951Z 29016G26KT 10SM FEW040 SCT070 M06/M14\ A2961 RMK AO2 PK WND 28027/0903 SLP025\ T10561139= 201703151051 METAR KJFK 151051Z 28016G22KT 10SM FEW042 SCT080 M06/M13\ A2961 RMK AO2 PK WND 31027/0954 SLP027\ T10561133= 201703151151 METAR KJFK 151151Z 27016G21KT 10SM SCT044 SCT085 M05/M13\ A2962 RMK AO2 SLP030 4/004 70109\ T10501133 11050 21056 51010= 201703151251 METAR KJFK 151251Z 28015G28KT 10SM SCT041 BKN100 BKN220 M04/M12\ A2962 RMK AO2 PK WND 27028/1247 SLP031\ T10441122= 201703151351 METAR KJFK 151351Z 28021G30KT 10SM BKN042 BKN090 BKN220 M04/M13\ A2962 RMK AO2 PK WND 27031/1302 SLP030\ T10441128= 201703151451 METAR KJFK 151451Z 28017G26KT 10SM BKN048 BKN110 OVC200 M04/M13\ A2962 RMK AO2 PK WND 29029/1420 SLP030\ T10391128 58000= 201703151551 METAR KJFK 151551Z 28022G29KT 10SM BKN045 OVC120 M04/M12\ A2961 RMK AO2 PK WND 27029/1549 SLP028\ T10391122= 201703151651 METAR KJFK 151651Z 27021G31KT 9SM R04R/4000VP6000FT -SN SCT034\ BKN048 BKN120 M03/M11 A2961 RMK AO2\ PK WND 28031/1607 SLP026 SNB14 P0000\ T10331111= 201703151751 METAR KJFK 151751Z 28021G31KT 8SM -SN BKN038 BKN110 M03/M10\ A2960 RMK AO2 PK WND 27033/1723 SLP023\ 931000 4/004 933017 P0000 60000 T10331100\ 11028 21050 58006= 201703151851 METAR KJFK 151851Z 27026G29KT 8SM R04R/2800VP6000FT -SN SCT032\ BKN047 BKN070 OVC250 M04/M10 A2961\ RMK AO2 PK WND 29032/1816 SLP026\ P0000 T10391100= 201703151951 METAR KJFK 151951Z 29018G27KT 10SM FEW028 BKN041 OVC050 M03/M12\ A2963 RMK AO2 PK WND 29033/1935 SNE48\ SLP033 P0000 T10331122= 201703152051 METAR KJFK 152051Z 27022G30KT 10SM FEW037 BKN050 OVC070 M03/M12\ A2965 RMK AO2 PK WND 26036/2028 UPB1959E07\ SLP041 VCSH E AND SW-W P0000 60000\ T10281122 53017= 201703152151 METAR KJFK 152151Z 28018G29KT 10SM SCT044 OVC060 M03/M12\ A2968 RMK AO2 PK WND 27035/2124 SLP049\ T10281122= 201703152251 METAR KJFK 152251Z 29022G35KT 10SM -SN FEW044 BKN055 OVC070\ M03/M13 A2971 RMK AO2 PK WND 29035/2224\ SNB49 SLP061 P0000 T10281128= 201703152351 METAR KJFK 152351Z 30021G37KT 10SM FEW044 BKN060 OVC085 M03/M13\ A2976 RMK AO2 PK WND 29037/2343 SNE34\ SLP077 931000 4/004 P0000 60000 T10281128\ 11028 21039 53037= 201703160051 METAR KJFK 160051Z 28016G27KT 10SM FEW040 FEW055 SCT070 BKN240\ M02/M13 A2980 RMK AO2 PK WND 30032/2354\ SLP091 T10221133 $= 201703160151 METAR KJFK 160151Z 29016G27KT 10SM FEW055 BKN100 BKN250 M02/M12\ A2983 RMK AO2 PK WND 29027/0141 SLP102\ T10221122 $= 201703160251 METAR KJFK 160251Z 29023G29KT 10SM SCT047 SCT100 BKN250 M03/M11\ A2986 RMK AO2 PK WND 28029/0250 SLP112\ T10281111 51035 $= 201703160351 METAR KJFK 160351Z 29016G26KT 10SM FEW046 SCT250 M03/M11\ A2988 RMK AO2 PK WND 29033/0324 SLP119\ T10281106 $= 201703160451 METAR KJFK 160451Z 29016G26KT 10SM FEW045 SCT250 M03/M12\ A2989 RMK AO2 PK WND 27031/0357 SLP122\ T10281117 410221056 $= 201703160551 METAR KJFK 160551Z 28015G23KT 10SM FEW044 SCT250 M03/M12\ A2991 RMK AO2 PK WND 29028/0518 SLP127\ 4/004 T10281122 11022 21028 51015\ $= 201703160651 METAR KJFK 160651Z 28018KT 10SM FEW044 FEW250 M03/M12 A2991\ RMK AO2 PK WND 27028/0637 SLP128\ T10281122 $= 201703160751 METAR KJFK 160751Z 27018KT 10SM FEW045 SCT250 M03/M13 A2991\ RMK AO2 PK WND 27028/0655 SLP129\ T10281128 $= 201703160851 METAR KJFK 160851Z 27016G22KT 10SM FEW250 M03/M13 A2992 RMK\ AO2 PK WND 27026/0807 SLP130 T10331128\ 53003 $= 201703160951 METAR KJFK 160951Z 28014G24KT 10SM FEW250 M03/M12 A2994 RMK\ AO2 SLP139 T10331122 $= 201703161051 METAR KJFK 161051Z 26014KT 10SM FEW040 FEW250 M04/M11 A2996\ RMK AO2 SLP144 T10391111 $= 201703161151 METAR KJFK 161151Z 26015G22KT 10SM FEW040 FEW250 M03/M11\ A2997 RMK AO2 SLP148 4/004 T10331111\ 11028 21039 51018 $= 201703161251 METAR KJFK 161251Z 28014G23KT 10SM FEW043 FEW250 M03/M11\ A2998 RMK AO2 SLP151 T10281111 $= 201703161351 METAR KJFK 161351Z 28016G21KT 10SM FEW045 SCT250 M02/M11\ A2998 RMK AO2 SLP151 T10221111 $= 201703161451 METAR KJFK 161451Z 27013G21KT 10SM FEW047 FEW140 BKN250 M01/M11\ A2998 RMK AO2 SLP150 T10111106 50002= 201703161551 METAR KJFK 161551Z 28014G23KT 10SM SCT050 SCT140 BKN250 00/M11\ A2998 RMK AO2 SLP150 T00001106= 201703161651 METAR KJFK 161651Z 28015G22KT 10SM FEW055 SCT170 BKN250 01/M12\ A2997 RMK AO2 PK WND 30026/1630 SLP149\ T00111117= 201703161751 METAR KJFK 161751Z 29015G23KT 10SM SCT055 SCT250 02/M11 A2997\ RMK AO2 PK WND 30027/1701 SLP147\ 4/003 933015 T00171106 10017 21033\ 58003= 201703161851 METAR KJFK 161851Z 28018KT 10SM FEW060 FEW250 03/M11 A2995\ RMK AO2 PK WND 29031/1832 SLP142\ T00281111= 201703161951 METAR KJFK 161951Z 28018G25KT 10SM FEW060 FEW250 04/M12 A2995\ RMK AO2 PK WND 30027/1914 SLP141\ T00391117= 201703162051 METAR KJFK 162051Z 30016G27KT 10SM FEW060 FEW250 04/M13 A2995\ RMK AO2 PK WND 29028/2023 SLP141\ T00441128 56006= 201703162151 METAR KJFK 162151Z 30019G28KT 10SM FEW060 FEW250 04/M12 A2996\ RMK AO2 PK WND 31028/2139 SLP143\ T00441122= 201703162251 METAR KJFK 162251Z 30013G21KT 10SM SCT250 04/M12 A2998 RMK\ AO2 PK WND 29028/2216 SLP151 T00391117= 201703162351 METAR KJFK 162351Z 30013KT 10SM SCT250 03/M12 A3001 RMK AO2\ SLP163 4/003 T00331122 10044 20017\ 53022= 201703170051 METAR KJFK 170051Z 30013KT 10SM BKN250 03/M12 A3005 RMK AO2\ SLP175 T00331117= 201703170151 METAR KJFK 170151Z 31014G23KT 10SM SCT250 03/M13 A3008 RMK\ AO2 SLP185 T00281128= 201703170251 METAR KJFK 170251Z 34010KT 10SM SCT250 01/M12 A3012 RMK AO2\ PK WND 32026/0214 SLP199 T00111117\ 53036= 201703170351 METAR KJFK 170351Z 32018G22KT 10SM SCT060 BKN250 01/M11 A3014\ RMK AO2 SLP205 T00111111= 201703170451 METAR KJFK 170451Z 30013KT 10SM FEW060 BKN250 01/M11 A3015\ RMK AO2 SLP208 T00111106 400441039= 201703170551 METAR KJFK 170551Z 30012KT 10SM FEW060 SCT250 01/M09 A3016\ RMK AO2 SLP213 4/003 T00111094 10039\ 20006 52015= 201703170651 METAR KJFK 170651Z 28008KT 10SM FEW060 SCT250 01/M09 A3017\ RMK AO2 SLP217 T00061094= 201703170751 METAR KJFK 170751Z 28012KT 10SM FEW250 00/M09 A3018 RMK AO2\ SLP218 T00001089= 201703170851 METAR KJFK 170851Z 29013KT 10SM FEW250 00/M09 A3020 RMK AO2\ SLP226 T00001094 53013= 201703170951 METAR KJFK 170951Z 29010KT 10SM FEW250 M01/M09 A3022 RMK\ AO2 SLP232 T10061089= 201703171051 METAR KJFK 171051Z 27009KT 10SM FEW032 M01/M08 A3024 RMK\ AO2 SLP241 T10061083= 201703171151 METAR KJFK 171151Z 27012KT 10SM FEW032 FEW250 00/M08 A3027\ RMK AO2 SLP250 4/003 T00001083 10011\ 21011 53024= 201703171251 METAR KJFK 171251Z 27018KT 10SM FEW035 FEW160 00/M08 A3029\ RMK AO2 SLP257 T00001083= 201703171351 METAR KJFK 171351Z 27013KT 10SM FEW160 01/M09 A3030 RMK AO2\ SLP260 T00111089= 201703171451 METAR KJFK 171451Z 28013KT 10SM FEW160 02/M08 A3029 RMK AO2\ SLP256 T00171078 50005= 201703171551 METAR KJFK 171551Z 27012G20KT 10SM CLR 03/M08 A3027 RMK AO2\ SLP251 T00331083= 201703171651 METAR KJFK 171651Z 30011G19KT 10SM CLR 04/M08 A3026 RMK AO2\ SLP245 T00441083= 201703171751 METAR KJFK 171751Z 29013KT 10SM FEW250 06/M09 A3023 RMK AO2\ SLP236 4/003 933012 T00561094 10056\ 21006 58020= 201703171851 METAR KJFK 171851Z 29010G18KT 10SM FEW250 07/M09 A3020 RMK\ AO2 SLP226 T00671094= 201703171951 METAR KJFK 171951Z 24012KT 10SM FEW250 07/M09 A3019 RMK AO2\ SLP223 T00671089= 201703172051 METAR KJFK 172051Z 23014KT 10SM FEW250 06/M06 A3018 RMK AO2\ SLP221 T00611056 56015= 201703172151 METAR KJFK 172151Z 23018KT 10SM FEW250 06/M06 A3019 RMK AO2\ SLP221 T00561056= 201703172251 METAR KJFK 172251Z 24013KT 10SM SCT250 05/M06 A3020 RMK AO2\ SLP226 T00501056= 201703172351 METAR KJFK 172351Z 23013KT 10SM SCT250 04/M03 A3021 RMK AO2\ SLP230 4/002 T00441033 10072 20044\ 53009= 201703180051 METAR KJFK 180051Z 23010KT 10SM BKN250 03/M03 A3023 RMK AO2\ SLP236 T00331033= 201703180151 METAR KJFK 180151Z 24011KT 10SM BKN240 04/M04 A3024 RMK AO2\ SLP241 T00391039= 201703180251 METAR KJFK 180251Z 26008KT 10SM BKN230 03/M06 A3025 RMK AO2\ SLP242 T00331056 51012= 201703180351 METAR KJFK 180351Z 25007KT 10SM FEW170 SCT230 02/M04 A3026\ RMK AO2 SLP247 T00221044= 201703180451 METAR KJFK 180451Z 26003KT 10SM SCT200 BKN250 02/M07 A3025\ RMK AO2 SLP241 T00171067 400721011= 201703180551 METAR KJFK 180551Z 00000KT 10SM FEW170 FEW210 SCT250 01/M07\ A3024 RMK AO2 SLP240 4/002 T00111072\ 10044 20000 58002= 201703180651 METAR KJFK 180651Z 23005KT 10SM FEW170 FEW200 SCT250 01/M04\ A3024 RMK AO2 SLP238 T00111039= 201703180751 METAR KJFK 180751Z 00000KT 10SM FEW200 SCT250 M02/M05 A3022\ RMK AO2 SLP234 T10171050= 201703180851 METAR KJFK 180851Z 13003KT 10SM FEW080 SCT200 SCT250 M02/M05\ A3022 RMK AO2 SLP231 T10171050 58009= 201703180951 METAR KJFK 180951Z 05009KT 10SM FEW080 BKN130 BKN250 M01/M04\ A3021 RMK AO2 SLP230 T10061044= 201703181051 METAR KJFK 181051Z 06006KT 10SM SCT060 BKN100 BKN250 01/M07\ A3022 RMK AO2 SLP232 T00111067= 201703181151 METAR KJFK 181151Z 07007KT 10SM -SN BKN050 BKN060 BKN100\ 02/M07 A3023 RMK AO2 SNB45 SLP236\ 931000 4/002 P0000 60000 T00171067\ 10022 21022 53005= 201703181251 METAR KJFK 181251Z 06009KT 10SM BKN060 OVC080 02/M07 A3023\ RMK AO2 SNE24 SLP235 P0000 T00221072= 201703181351 METAR KJFK 181351Z 07011KT 10SM BKN070 BKN080 BKN110 03/M07\ A3022 RMK AO2 SLP234 T00331072= 201703181451 METAR KJFK 181451Z 06011KT 10SM BKN041 OVC055 04/M06 A3021\ RMK AO2 SLP230 60000 T00391061 58006= 201703181551 METAR KJFK 181551Z 07009KT 10SM BKN040 BKN050 OVC060 04/M04\ A3019 RMK AO2 SLP224 T00441044= 201703181651 METAR KJFK 181651Z 09013KT 10SM -RA BKN036 OVC045 04/M01\ A3018 RMK AO2 RAB47SNB06E29 SLP221\ P0000 T00441011= 201703181751 METAR KJFK 181751Z 07013KT 10SM OVC035 04/M01 A3016 RMK AO2\ RAE13 SLP212 931000 4/002 933008\ P0000 60000 T00391011 10044 20017\ 58018= 201703181851 METAR KJFK 181851Z 07013KT 9SM OVC032 04/00 A3016 RMK AO2\ SLP211 T00390000= 201703181951 METAR KJFK 181951Z 07011KT 6SM R04R/6000VP6000FT -RA BR BKN017\ OVC025 03/01 A3016 RMK AO2 RAB46\ SLP211 P0000 T00330011= 201703182051 METAR KJFK 182051Z 06013KT 3SM -RA BR OVC012 03/01 A3015\ RMK AO2 SLP207 P0002 60002 T00280011\ 58005= 201703182151 METAR KJFK 182151Z 05011KT 4SM BR OVC011 02/01 A3017 RMK\ AO2 RAE24 SLP215 P0000 T00220011= 201703182251 METAR KJFK 182251Z 05011KT 2 1/2SM -RA BR OVC010 02/01 A3018\ RMK AO2 RAB10 SLP217 P0003 T00170006= 201703182351 METAR KJFK 182351Z 04010KT 6SM -RASN BR BKN007 OVC011 02/01\ A3017 RMK AO2 RAE2252B38UPB35E38SNB2252E35B38\ SLP215 931000 4/002 P0002 60007 T00170006\ 10044 20011 50007= 201703190051 METAR KJFK 190051Z 04010KT 10SM FEW011 SCT039 OVC055 02/00\ A3017 RMK AO2 RAE2358SNE2358 SLP217\ P0000 T00220000= 201703190151 METAR KJFK 190151Z 04010KT 10SM FEW040 BKN055 OVC140 02/M01\ A3016 RMK AO2 SLP211 T00221006= 201703190251 METAR KJFK 190251Z 05012KT 10SM BKN055 BKN140 03/M01 A3017\ RMK AO2 SLP215 60000 T00281006 55000= 201703190351 METAR KJFK 190351Z 05015KT 10SM BKN038 OVC060 03/M02 A3018\ RMK AO2 SLP217 T00281017= 201703190451 METAR KJFK 190451Z 04016KT 10SM BKN035 OVC060 02/M02 A3015\ RMK AO2 SLP208 T00221022 400441022= 201703190551 METAR KJFK 190551Z 04013KT 10SM OVC035 02/M02 A3016 RMK AO2\ PK WND 03026/0513 SLP211 931000 4/001\ 60000 T00171022 10028 20017 58004= 201703190651 METAR KJFK 190651Z 03013KT 10SM FEW035 OVC042 02/M02 A3015\ RMK AO2 SLP207 T00171022= 201703190751 METAR KJFK 190751Z 03014KT 10SM OVC043 02/M03 A3015 RMK AO2\ SLP209 T00221028= 201703190851 METAR KJFK 190851Z 02015KT 10SM OVC043 02/M03 A3015 RMK AO2\ SLP210 T00221028 55001= 201703190951 METAR KJFK 190951Z 03012KT 10SM SCT033 BKN043 BKN070 BKN140\ 02/M03 A3016 RMK AO2 SLP213 T00171033= 201703191051 METAR KJFK 191051Z 02013G21KT 10SM OVC041 02/M03 A3017 RMK\ AO2 SLP216 T00171033= 201703191151 METAR KJFK 191151Z 02015KT 10SM FEW025 BKN045 BKN070 02/M04\ A3017 RMK AO2 SLP216 4/001 70007\ T00171039 10022 20017 51006= 201703191251 METAR KJFK 191251Z 02016G25KT 10SM FEW025 SCT065 BKN200 BKN250\ 03/M03 A3017 RMK AO2 SLP217 T00281033= 201703191351 METAR KJFK 191351Z 02018G24KT 10SM BKN065 BKN200 BKN250 04/M03\ A3019 RMK AO2 SLP223 T00391033= 201703191451 METAR KJFK 191451Z 02015G25KT 10SM SCT029 BKN065 BKN200 BKN250\ 05/M03 A3020 RMK AO2 SLP227 T00501028\ 53011= 201703191551 METAR KJFK 191551Z 01014KT 10SM SCT031 SCT065 BKN200 BKN250\ 06/M03 A3020 RMK AO2 SLP227 T00561033= 201703191651 METAR KJFK 191651Z 03017G23KT 10SM SCT037 SCT070 BKN200 BKN250\ 07/M03 A3019 RMK AO2 SLP222 T00671033= 201703191751 METAR KJFK 191751Z 35015G21KT 10SM FEW037 SCT070 SCT200 BKN250\ 08/M04 A3017 RMK AO2 SLP214 4/001\ T00781039 10078 20017 58013= 201703191851 METAR KJFK 191851Z 01013KT 10SM FEW047 FEW070 SCT200 08/M05\ A3014 RMK AO2 SLP207 T00831050= 201703191951 METAR KJFK 191951Z 33016KT 10SM FEW070 FEW200 09/M06 A3013\ RMK AO2 SLP202 T00891061= 201703192051 METAR KJFK 192051Z 35011KT 10SM FEW250 09/M07 A3012 RMK AO2\ SLP198 T00891072 56016= 201703192151 METAR KJFK 192151Z 32014KT 10SM FEW250 08/M09 A3012 RMK AO2\ SLP197 T00831094= 201703192251 METAR KJFK 192251Z 34012KT 10SM FEW250 07/M09 A3013 RMK AO2\ SLP201 T00721094= 201703192351 METAR KJFK 192351Z 35012KT 10SM CLR 06/M08 A3015 RMK AO2\ SLP208 T00611083 10089 20061 53009= 201703200051 METAR KJFK 200051Z 01007KT 10SM CLR 06/M08 A3016 RMK AO2\ SLP214 T00561078= 201703200151 METAR KJFK 200151Z 04004KT 10SM CLR 04/M06 A3017 RMK AO2\ SLP215 T00441061= 201703200251 METAR KJFK 200251Z 34005KT 10SM CLR 04/M07 A3016 RMK AO2\ SLP212 T00441072 50004= 201703200351 METAR KJFK 200351Z 33009KT 10SM CLR 04/M08 A3015 RMK AO2\ SLP208 T00391078= 201703200451 METAR KJFK 200451Z 33009KT 10SM CLR 04/M08 A3014 RMK AO2\ SLP206 T00391083 400890017= 201703200551 METAR KJFK 200551Z 33011KT 10SM CLR 03/M09 A3013 RMK AO2\ SLP203 T00331089 10067 20033 56009= 201703200651 METAR KJFK 200651Z 34012KT 10SM CLR 03/M09 A3013 RMK AO2\ SLP201 T00331094= 201703200751 METAR KJFK 200751Z 34011KT 10SM CLR 03/M10 A3012 RMK AO2\ SLP198 T00281100= 201703200851 METAR KJFK 200851Z 34013KT 10SM CLR 03/M09 A3012 RMK AO2\ SLP200 T00281094 55004= 201703200951 METAR KJFK 200951Z 35015KT 10SM CLR 02/M09 A3013 RMK AO2\ SLP201 T00221094= 201703201051 METAR KJFK 201051Z 34012KT 10SM CLR 02/M09 A3014 RMK AO2\ SLP205 T00171094= 201703201151 METAR KJFK 201151Z 34014KT 10SM FEW270 03/M09 A3015 RMK AO2\ SLP210 T00281094 10033 20017 53010= 201703201251 METAR KJFK 201251Z 35013KT 10SM FEW270 04/M09 A3016 RMK AO2\ SLP211 T00391089= 201703201351 METAR KJFK 201351Z 35013KT 10SM SCT300 05/M08 A3015 RMK AO2\ SLP209 T00501083= 201703201451 METAR KJFK 201451Z 35014KT 10SM SCT300 06/M09 A3013 RMK AO2\ SLP203 T00611089 58007= 201703201551 METAR KJFK 201551Z 36015KT 10SM BKN270 07/M09 A3011 RMK AO2\ SLP194 T00721089= 201703201651 METAR KJFK 201651Z 36012G18KT 10SM BKN270 09/M09 A3009 RMK\ AO2 SLP190 T00891094= 201703201751 METAR KJFK 201751Z 32010G21KT 10SM BKN270 10/M09 A3008 RMK\ AO2 SLP185 T01001089 10100 20028\ 56018= 201703201851 METAR KJFK 201851Z 33012G19KT 10SM FEW150 BKN270 11/M09 A3007\ RMK AO2 SLP181 T01111094= 201703201951 METAR KJFK 201951Z 30010G18KT 10SM FEW150 BKN260 12/M11 A3004\ RMK AO2 SLP172 T01171106= 201703202051 METAR KJFK 202051Z 34013KT 10SM SCT130 BKN190 BKN260 11/M12\ A3002 RMK AO2 SLP165 T01111117 58021= 201703202151 METAR KJFK 202151Z 36007KT 10SM FEW130 BKN150 BKN260 12/M12\ A3000 RMK AO2 SLP159 T01221117= 201703202251 METAR KJFK 202251Z 31004KT 10SM BKN120 BKN250 11/M12 A2999\ RMK AO2 SLP155 T01061117= 201703202351 METAR KJFK 202351Z 23008KT 10SM BKN120 BKN250 09/M04 A2999\ RMK AO2 SLP156 T00891044 10128 20089\ 55008= 201703210051 METAR KJFK 210051Z 24011KT 10SM SCT110 SCT250 09/M04 A3000\ RMK AO2 SLP158 T00891044= 201703210151 METAR KJFK 210151Z 28009KT 10SM BKN085 BKN110 BKN250 10/M06\ A3001 RMK AO2 SLP163 T01001061= 201703210251 METAR KJFK 210251Z 30007KT 10SM OVC085 09/M06 A3001 RMK AO2\ SLP161 T00891056 50005= 201703210351 METAR KJFK 210351Z 28008KT 10SM FEW070 OVC090 09/M06 A3000\ RMK AO2 SLP158 T00891056= 201703210451 METAR KJFK 210451Z 30007KT 10SM OVC090 08/M05 A2999 RMK AO2\ SLP153 T00831050 401280017= 201703210551 METAR KJFK 210551Z 31006KT 10SM OVC090 08/M05 A2997 RMK AO2\ SLP149 T00781050 10100 20078 58013= 201703210651 METAR KJFK 210651Z 31007KT 10SM BKN090 BKN250 07/M05 A2995\ RMK AO2 SLP141 T00721050= 201703210751 METAR KJFK 210751Z 30005KT 10SM BKN070 BKN250 07/M04 A2994\ RMK AO2 SLP138 T00721044= 201703210851 METAR KJFK 210851Z 33006KT 10SM OVC070 07/M04 A2994 RMK AO2\ SLP136 T00671044 56012= 201703210951 METAR KJFK 210951Z 34005KT 10SM OVC070 07/M04 A2993 RMK AO2\ SLP134 T00671044= 201703211051 METAR KJFK 211051Z 35007KT 10SM BKN070 OVC150 07/M04 A2993\ RMK AO2 SLP134 T00671039= 201703211151 METAR KJFK 211151Z 19005KT 10SM OVC065 06/M01 A2994 RMK AO2\ SLP138 T00611006 10083 20061 53002= 201703211251 METAR KJFK 211251Z 25005KT 10SM BKN060 BKN140 07/M02 A2994\ RMK AO2 SLP139 T00721017= 201703211351 METAR KJFK 211351Z 25007KT 10SM BKN065 BKN120 BKN320 09/M04\ A2994 RMK AO2 SLP137 T00891039= 201703211451 METAR KJFK 211451Z 25005KT 10SM BKN070 BKN320 10/M04 A2994\ RMK AO2 SLP137 T01001044 58001= 201703211551 METAR KJFK 211551Z 24008KT 10SM BKN070 BKN320 11/M03 A2993\ RMK AO2 SLP135 T01111033= 201703211651 METAR KJFK 211651Z 22009KT 10SM BKN065 12/M01 A2992 RMK AO2\ SLP130 T01171011= 201703211751 METAR KJFK 211751Z 23011KT 10SM FEW065 BKN300 12/M01 A2990\ RMK AO2 SLP124 T01221011 10128 20056\ 58014= 201703211851 METAR KJFK 211851Z 23011KT 10SM FEW065 BKN270 13/M01 A2988\ RMK AO2 SLP117 T01281011= 201703211951 METAR KJFK 211951Z 22013KT 10SM FEW065 SCT270 13/M01 A2986\ RMK AO2 SLP111 T01331006= 201703212051 METAR KJFK 212051Z 20011KT 10SM FEW065 SCT270 13/01 A2983\ RMK AO2 SLP102 T01330011 58021= 201703212151 METAR KJFK 212151Z 19010KT 10SM FEW065 BKN260 11/02 A2984\ RMK AO2 SLP103 T01110017= 201703212251 METAR KJFK 212251Z 19012KT 10SM FEW065 BKN260 09/02 A2985\ RMK AO2 SLP107 T00890022= 201703212351 METAR KJFK 212351Z 21008KT 10SM FEW065 BKN250 08/04 A2986\ RMK AO2 SLP111 T00830039 10139 20078\ 53009= 201703220051 METAR KJFK 220051Z 26009KT 10SM SCT075 BKN230 12/00 A2988\ RMK AO2 SLP117 T01220000= 201703220151 METAR KJFK 220151Z 28006KT 10SM BKN060 OVC220 13/02 A2988\ RMK AO2 SLP118 T01280017= 201703220251 METAR KJFK 220251Z 26008KT 10SM BKN065 OVC220 12/02 A2987\ RMK AO2 SLP115 T01220022 50004= 201703220351 METAR KJFK 220351Z 01010KT 10SM BKN060 OVC170 12/M03 A2987\ RMK AO2 SLP113 T01171033= 201703220451 METAR KJFK 220451Z 36008KT 10SM BKN060 OVC170 10/M08 A2987\ RMK AO2 SLP116 T01001078 401390056= 201703220551 METAR KJFK 220551Z 34004KT 10SM SCT060 OVC200 09/M09 A2987\ RMK AO2 SLP116 T00941089 10128 20078\ 53001= 201703220651 METAR KJFK 220651Z 31005KT 10SM FEW060 FEW220 08/M09 A2987\ RMK AO2 SLP114 T00831089= 201703220751 METAR KJFK 220751Z 32016KT 10SM FEW220 09/M08 A2988 RMK AO2\ SLP116 T00891078= 201703220851 METAR KJFK 220851Z 31017G21KT 10SM FEW220 07/M04 A2989 RMK\ AO2 SLP122 T00671044 53006= 201703220951 METAR KJFK 220951Z 32025G35KT 10SM FEW250 06/M07 A2993 RMK\ AO2 PK WND 32035/0950 SLP135 T00561067= 201703221051 METAR KJFK 221051Z 31022G29KT 10SM FEW055 FEW250 04/M08 A2997\ RMK AO2 PK WND 32033/0954 SLP147\ T00441083= 201703221151 METAR KJFK 221151Z 30020G31KT 10SM SCT055 SCT250 04/M08 A2999\ RMK AO2 PK WND 30031/1151 SLP156\ T00391083 10094 20039 51034= 201703221251 METAR KJFK 221251Z 30025G37KT 10SM FEW060 FEW250 04/M12 A3001\ RMK AO2 PK WND 32041/1241 SLP163\ T00391122= 201703221351 METAR KJFK 221351Z 30028G36KT 10SM FEW060 FEW250 03/M12 A3006\ RMK AO2 PK WND 30046/1319 SLP178\ T00331117= 201703221451 METAR KJFK 221451Z 32024G31KT 10SM SCT055 04/M10 A3010 RMK\ AO2 PK WND 32036/1354 SLP191 T00391100\ 53035= 201703221551 METAR KJFK 221551Z 32025G32KT 10SM FEW055 03/M14 A3014 RMK\ AO2 PK WND 32040/1524 SLP204 T00281139= 201703221651 METAR KJFK 221651Z 33027G36KT 10SM FEW060 02/M17 A3017 RMK\ AO2 PK WND 32040/1632 SLP216 T00221172= 201703221751 METAR KJFK 221751Z 31023G31KT 10SM FEW060 02/M18 A3017 RMK\ AO2 PK WND 32039/1736 SLP217 T00221183\ 10044 20017 51026= 201703221851 METAR KJFK 221851Z 32025G38KT 10SM CLR 03/M20 A3018 RMK AO2\ PK WND 31039/1803 SLP219 T00281200= 201703221951 METAR KJFK 221951Z 31023G31KT 10SM CLR 03/M20 A3020 RMK AO2\ PK WND 31036/1908 SLP227 T00281200= 201703222051 METAR KJFK 222051Z 33022G32KT 10SM CLR 02/M19 A3023 RMK AO2\ PK WND 33039/2025 SLP235 T00171194\ 53018= 201703222151 METAR KJFK 222151Z 31024G31KT 10SM CLR 01/M20 A3027 RMK AO2\ PK WND 34037/2108 SLP249 T00061200= 201703222251 METAR KJFK 222251Z 34022G33KT 10SM CLR 00/M20 A3030 RMK AO2\ PK WND 33033/2246 SLP261 T00001200= 201703222351 METAR KJFK 222351Z 34018G27KT 10SM CLR M01/M22 A3034 RMK\ AO2 PK WND 32036/2331 SLP275 T10111222\ 10028 21011 52040= 201703230051 METAR KJFK 230051Z 32021G29KT 10SM CLR M02/M21 A3039 RMK\ AO2 PK WND 33030/0012 SLP291 T10171211= 201703230151 METAR KJFK 230151Z 33024G30KT 10SM CLR M03/M22 A3042 RMK\ AO2 PK WND 33034/0055 SLP299 T10281217= 201703230251 METAR KJFK 230251Z 33019KT 10SM CLR M03/M21 A3044 RMK AO2\ PK WND 34030/0156 SLP306 T10331211\ 51031= 201703230351 METAR KJFK 230351Z 32016G24KT 10SM CLR M04/M19 A3046 RMK\ AO2 PK WND 32028/0322 SLP313 T10391194= 201703230451 METAR KJFK 230451Z 33015G24KT 10SM CLR M04/M19 A3047 RMK\ AO2 PK WND 34029/0437 SLP319 T10441189\ 401001044= 201703230551 METAR KJFK 230551Z 33014KT 10SM CLR M04/M18 A3048 RMK AO2\ SLP321 T10441178 11011 21044 51015= 201703230651 METAR KJFK 230651Z 33014KT 10SM CLR M04/M16 A3049 RMK AO2\ SLP324 T10441161= 201703230751 METAR KJFK 230751Z 33012KT 10SM CLR M04/M16 A3049 RMK AO2\ SLP325 T10441156= 201703230851 METAR KJFK 230851Z 32009KT 10SM CLR M04/M16 A3051 RMK AO2\ SLP332 T10441156 53010= 201703230951 METAR KJFK 230951Z 31007KT 10SM CLR M04/M16 A3054 RMK AO2\ SLP341 T10441156= 201703231051 METAR KJFK 231051Z 31009KT 10SM CLR M04/M15 A3057 RMK AO2\ SLP350 T10441150= 201703231151 METAR KJFK 231151Z 34008KT 10SM CLR M03/M15 A3059 RMK AO2\ SLP358 T10281150 11028 21050 51026= 201703231251 METAR KJFK 231251Z 32011KT 10SM FEW250 M02/M16 A3061 RMK\ AO2 SLP364 T10221161= 201703231351 METAR KJFK 231351Z 32010KT 10SM FEW250 M01/M18 A3062 RMK\ AO2 SLP367 T10111178= 201703231451 METAR KJFK 231451Z 30012KT 10SM CLR 01/M17 A3062 RMK AO2\ SLP367 T00061172 51008= 201703231551 METAR KJFK 231551Z 30006KT 10SM CLR 02/M18 A3061 RMK AO2\ SLP363 T00171178= 201703231651 METAR KJFK 231651Z 30011G15KT 10SM FEW250 03/M18 A3059 RMK\ AO2 SLP357 T00331183= 201703231751 METAR KJFK 231751Z 32015KT 10SM R04R/4500VP6000FT FEW250\ 05/M18 A3057 RMK AO2 SLP350 T00501178\ 10050 21033 58017= 201703231851 METAR KJFK 231851Z 29008G16KT 230V320 10SM FEW250 05/M18\ A3054 RMK AO2 SLP341 T00501178= 201703231951 METAR KJFK 231951Z 31010G17KT 10SM FEW250 06/M17 A3053 RMK\ AO2 SLP337 T00611172= 201703232051 METAR KJFK 232051Z 28012KT 10SM R04R/4500VP6000FT FEW250\ 06/M18 A3052 RMK AO2 SLP333 T00611178\ 56017= 201703232151 METAR KJFK 232151Z 30010KT 10SM FEW250 06/M18 A3051 RMK AO2\ SLP331 T00611183= 201703232251 METAR KJFK 232251Z 26009KT 10SM FEW250 06/M18 A3052 RMK AO2\ SLP335 T00561178= 201703232351 METAR KJFK 232351Z 20014KT 10SM FEW250 02/M05 A3053 RMK AO2\ SLP339 T00221050 10067 20022 53006= 201703240051 METAR KJFK 240051Z 20011KT 10SM FEW250 03/M04 A3055 RMK AO2\ SLP344 T00281039= 201703240151 METAR KJFK 240151Z 19009KT 10SM FEW250 02/M03 A3058 RMK AO2\ SLP355 T00221033= 201703240251 METAR KJFK 240251Z 19006KT 10SM FEW250 03/M03 A3057 RMK AO2\ SLP352 T00281028 50013= 201703240351 METAR KJFK 240351Z 19009KT 10SM FEW250 03/M03 A3055 RMK AO2\ SLP343 T00281028= 201703240451 METAR KJFK 240451Z 21006KT 10SM FEW150 FEW250 02/M03 A3055\ RMK AO2 SLP343 T00171033 400671050= 201703240551 METAR KJFK 240551Z 21008KT 10SM FEW150 FEW250 01/M04 A3054\ RMK AO2 SLP339 T00111044 10028 20011\ 56013= 201703240651 METAR KJFK 240651Z 23004KT 10SM SCT150 02/M04 A3054 RMK AO2\ SLP342 T00171044= 201703240751 METAR KJFK 240751Z 20009KT 10SM FEW150 BKN250 01/M05 A3050\ RMK AO2 SLP329 T00111050= 201703240851 METAR KJFK 240851Z 22009KT 10SM FEW150 BKN250 01/M04 A3051\ RMK AO2 SLP330 T00061044 58009= 201703240951 METAR KJFK 240951Z 21012KT 10SM SCT140 OVC220 02/M03 A3051\ RMK AO2 SLP331 T00221033= 201703241051 METAR KJFK 241051Z 21013KT 10SM SCT110 BKN220 02/M02 A3050\ RMK AO2 SLP329 T00221022= 201703241151 METAR KJFK 241151Z 21012KT 10SM BKN110 BKN220 03/M01 A3050\ RMK AO2 SLP327 T00331006 10033 20000\ 58002= 201703241251 METAR KJFK 241251Z 20013KT 10SM BKN110 BKN190 BKN250 04/01\ A3049 RMK AO2 SLP323 T00440006= 201703241351 METAR KJFK 241351Z 20017KT 10SM BKN110 BKN250 06/M01 A3047\ RMK AO2 SLP319 T00611006= 201703241451 METAR KJFK 241451Z 19018KT 10SM SCT110 BKN160 BKN250 07/M01\ A3044 RMK AO2 SLP307 T00671006 58021= 201703241551 METAR KJFK 241551Z 18015KT 10SM BKN085 BKN160 OVC250 07/01\ A3041 RMK AO2 SLP296 T00670011= 201703241651 METAR KJFK 241651Z 19019KT 10SM BKN070 OVC160 07/02 A3034\ RMK AO2 PRESFR SLP275 T00720017= 201703241751 METAR KJFK 241751Z 19017KT 10SM -RA BKN050 OVC130 07/02 A3031\ RMK AO2 RAB12E21B43 SLP262 P0000\ 60000 T00670017 10078 20033 58044= 201703241851 METAR KJFK 241851Z 18020G26KT 10SM SCT043 OVC070 07/02 A3025\ RMK AO2 PK WND 19026/1850 RAE1754\ SLP242 P0000 T00670017= 201703241951 METAR KJFK 241951Z 19016KT 10SM SCT070 BKN095 BKN250 09/03\ A3020 RMK AO2 SLP225 T00890033= 201703242051 METAR KJFK 242051Z 19016KT 10SM FEW070 SCT095 BKN250 09/03\ A3017 RMK AO2 SLP215 60000 T00940033\ 56048= 201703242151 METAR KJFK 242151Z 19011KT 10SM BKN070 BKN085 BKN250 08/03\ A3015 RMK AO2 SLP208 T00830033= 201703242251 METAR KJFK 242251Z 18011KT 10SM SCT065 SCT085 BKN250 08/04\ A3013 RMK AO2 SLP204 T00780039= 201703242351 METAR KJFK 242351Z 19011KT 10SM FEW070 BKN250 07/04 A3013\ RMK AO2 SLP203 60000 T00720039 10094\ 20067 56011= 201703250051 METAR KJFK 250051Z 19008KT 10SM FEW080 BKN250 07/04 A3016\ RMK AO2 SLP213 T00670039= 201703250151 METAR KJFK 250151Z 21008KT 10SM BKN250 07/04 A3017 RMK AO2\ SLP217 T00720039= 201703250251 METAR KJFK 250251Z 20006KT 10SM SCT250 08/03 A3016 RMK AO2\ SLP212 T00780033 50008= 201703250351 METAR KJFK 250351Z 20007KT 10SM SCT170 BKN250 07/04 A3015\ RMK AO2 SLP208 T00670039= 201703250451 METAR KJFK 250451Z 18008KT 10SM FEW170 BKN250 07/04 A3013\ RMK AO2 SLP203 T00670044 400940000= 201703250551 METAR KJFK 250551Z 19011KT 10SM FEW170 OVC250 07/04 A3011\ RMK AO2 SLP194 T00720044 10083 20061\ 58017= 201703250651 METAR KJFK 250651Z 20008KT 10SM BKN250 06/04 A3009 RMK AO2\ SLP189 T00610044= 201703250751 METAR KJFK 250751Z 19004KT 10SM BKN200 06/04 A3009 RMK AO2\ SLP188 T00610039= 201703250851 METAR KJFK 250851Z 25012KT 10SM SCT200 BKN250 09/04 A3009\ RMK AO2 SLP189 T00890039 55005= 201703250951 METAR KJFK 250951Z 25013KT 10SM SCT170 BKN200 11/04 A3010\ RMK AO2 SLP192 T01060044= 201703251051 METAR KJFK 251051Z 27007KT 10SM BKN150 BKN250 12/05 A3012\ RMK AO2 SLP199 T01170050= 201703251151 METAR KJFK 251151Z 27005KT 10SM BKN150 BKN250 13/05 A3015\ RMK AO2 SLP210 T01280050 10128 20056\ 53021= 201703251251 METAR KJFK 251251Z 34004KT 10SM BKN120 BKN150 OVC250 13/06\ A3017 RMK AO2 SLP214 T01330056= 201703251351 METAR KJFK 251351Z 21003KT 10SM BKN120 OVC250 13/06 A3017\ RMK AO2 SLP217 T01280056= 201703251451 METAR KJFK 251451Z 00000KT 10SM BKN120 OVC250 14/06 A3016\ RMK AO2 SLP212 T01390056 50003= 201703251551 METAR KJFK 251551Z VRB05KT 10SM SCT150 BKN250 15/06 A3017\ RMK AO2 SLP216 T01500056= 201703251651 METAR KJFK 251651Z 17005KT 10SM BKN110 OVC250 14/06 A3018\ RMK AO2 SLP219 T01440056= 201703251751 METAR KJFK 251751Z 36008KT 10SM FEW037 SCT070 BKN120 OVC250\ 16/04 A3019 RMK AO2 RAB26E37 SLP223\ P0000 60000 T01610044 10167 20117\ 52011= 201703251851 METAR KJFK 251851Z 36008KT 7SM -RA FEW045 BKN090 OVC120 14/08\ A3019 RMK AO2 RAB09 SLP223 P0000\ T01440083= 201703251951 METAR KJFK 251951Z 12009KT 10SM -RA FEW037 SCT049 BKN080\ OVC130 13/08 A3022 RMK AO2 RAE06B48\ SLP233 P0001 T01280078= 201703252051 METAR KJFK 252051Z 09006KT 10SM FEW043 SCT085 BKN110 OVC250\ 10/07 A3026 RMK AO2 RAE35 SLP247\ P0000 60001 T01000072 53024= 201703252151 METAR KJFK 252151Z 06014KT 10SM SCT049 SCT100 OVC250 11/05\ A3028 RMK AO2 WSHFT 2129 SLP252 T01110050= 201703252251 METAR KJFK 252251Z 12008KT 10SM BKN046 BKN095 BKN130 OVC250\ 10/05 A3029 RMK AO2 SLP255 T01000050= 201703252351 METAR KJFK 252351Z 10009KT 10SM OVC049 07/05 A3033 RMK AO2\ PRESRR SLP270 60001 T00720050 10161\ 20072 53017= 201703260051 METAR KJFK 260051Z 04008KT 10SM BKN016 OVC024 08/04 A3038\ RMK AO2 SLP286 T00780044= 201703260151 METAR KJFK 260151Z 07007KT 10SM BKN029 OVC060 07/04 A3037\ RMK AO2 SLP285 T00720044= 201703260251 METAR KJFK 260251Z 05011KT 10SM OVC015 07/04 A3039 RMK AO2\ SLP291 T00720044 51022= 201703260351 METAR KJFK 260351Z 05010KT 10SM SCT015 OVC028 07/04 A3040\ RMK AO2 SLP294 T00670039= 201703260451 METAR KJFK 260451Z 05008KT 10SM BKN015 OVC050 06/03 A3041\ RMK AO2 SLP298 T00610033 401670056= 201703260551 METAR KJFK 260551Z 05011KT 10SM BKN018 OVC050 06/02 A3041\ RMK AO2 SLP297 T00610022 10078 20061\ 50005= 201703260651 METAR KJFK 260651Z 05007KT 10SM -RA OVC015 06/03 A3043 RMK\ AO2 RAB18 SLP302 P0001 T00560028= 201703260751 METAR KJFK 260751Z 05008KT 7SM -RA OVC015 05/03 A3042 RMK\ AO2 SLP301 P0001 T00500033= 201703260851 METAR KJFK 260851Z 04010KT 6SM -RA BR FEW010 SCT025 OVC047\ 04/03 A3042 RMK AO2 SLP299 P0007\ 60009 T00440033 50002= 201703260951 METAR KJFK 260951Z 03009KT 10SM FEW010 FEW025 OVC046 04/03\ A3042 RMK AO2 RAE45 SLP302 P0003\ T00390028= 201703261051 METAR KJFK 261051Z 04010KT 10SM FEW010 FEW023 OVC044 04/02\ A3043 RMK AO2 SLP305 T00390017= 201703261151 METAR KJFK 261151Z 05010KT 10SM FEW010 FEW025 OVC043 04/02\ A3045 RMK AO2 SLP312 60012 70013\ T00390017 10061 20039 53013= 201703261251 METAR KJFK 261251Z 04010KT 10SM SCT015 OVC035 04/02 A3046\ RMK AO2 SLP314 T00390017= 201703261351 METAR KJFK 261351Z 06010KT 10SM OVC016 04/02 A3047 RMK AO2\ SLP318 T00440017= 201703261451 METAR KJFK 261451Z 07010KT 10SM OVC015 05/02 A3048 RMK AO2\ SLP321 T00500022 53009= 201703261551 METAR KJFK 261551Z 08013KT 10SM OVC017 06/02 A3049 RMK AO2\ SLP324 T00560022= 201703261651 METAR KJFK 261651Z 09015KT 10SM BKN019 OVC033 06/02 A3048\ RMK AO2 SLP319 T00560017= 201703261751 METAR KJFK 261751Z 09014KT 10SM FEW021 OVC033 06/02 A3046\ RMK AO2 RAB35E51 SLP313 P0000 60000\ T00560017 10061 20039 58008= 201703261851 METAR KJFK 261851Z 08012KT 10SM SCT017 OVC035 06/02 A3043\ RMK AO2 SLP305 T00610022= 201703261951 METAR KJFK 261951Z 08010KT 10SM SCT019 OVC032 06/02 A3041\ RMK AO2 SLP298 T00610022= 201703262051 METAR KJFK 262051Z 09013KT 10SM SCT021 OVC027 06/02 A3041\ RMK AO2 SLP297 T00610017 56016= 201703262151 METAR KJFK 262151Z 08014KT 10SM OVC017 05/02 A3040 RMK AO2\ SLP294 T00500022= 201703262251 METAR KJFK 262251Z 08011KT 4SM BR OVC009 05/03 A3039 RMK\ AO2 SLP291 T00500033= 201703262351 METAR KJFK 262351Z 09007KT 3SM BR OVC006 04/04 A3038 RMK\ AO2 SLP288 T00440039 10061 20044\ 56009= 201703270051 METAR KJFK 270051Z 06009KT 3SM BR BKN007 OVC011 04/04 A3038\ RMK AO2 RAB04E26 SLP287 P0000 T00440039= 201703270151 METAR KJFK 270151Z 07010KT 3SM BR OVC006 04/04 A3035 RMK\ AO2 SLP278 P0001 T00440039= 201703270251 METAR KJFK 270251Z 08012KT 4SM -DZ BR OVC006 04/04 A3035\ RMK AO2 DZB03 SLP276 P0000 60001\ T00440039 58012= 201703270351 METAR KJFK 270351Z 06009KT 4SM -DZ BR OVC006 04/04 A3033\ RMK AO2 SLP270 P0000 T00440039= 201703270451 METAR KJFK 270451Z 05008KT 2 1/2SM -DZ BR OVC005 04/04 A3030\ RMK AO2 SLP260 P0001 T00440039 400610039= 201703270551 METAR KJFK 270551Z 05007KT 3SM -DZ BR OVC005 04/04 A3027\ RMK AO2 SFC VIS 4 SLP250 P0001 60003\ T00440039 10044 20044 58026= 201703270651 METAR KJFK 270651Z 07008KT 3SM -DZ BR OVC005 04/04 A3024\ RMK AO2 SLP239 P0000 T00440039= 201703270751 METAR KJFK 270751Z 07007KT 3SM -DZ BR OVC005 04/04 A3020\ RMK AO2 SLP226 P0000 T00440044= 201703270851 METAR KJFK 270851Z 06006KT 2SM -DZ BR OVC004 05/04 A3019\ RMK AO2 SLP221 P0000 60000 T00500044\ 56028= 201703270951 METAR KJFK 270951Z 07005KT 1/2SM R04R/5500VP6000FT -DZ BR\ OVC003 06/05 A3017 RMK AO2 SFC VIS\ 1 1/2 SLP214 P0000 T00560050= 201703271051 METAR KJFK 271051Z 08006KT 1/2SM R04R/3500V4000FT -DZ BR\ VV002 06/06 A3015 RMK AO2 SFC VIS\ 3/4 SLP208 P0001 T00560056= 201703271151 METAR KJFK 271151Z 08008KT 0SM R04R/1800V2200FT -DZ FG VV002\ 06/06 A3013 RMK AO2 SFC VIS 1/2 DZE22B44RAB22E44\ SLP203 P0000 60001 70004 T00610061\ 10061 20044 56019= 201703271251 METAR KJFK 271251Z 10006KT 0SM R04R/1600V1800FT -DZ FG VV002\ 07/07 A3011 RMK AO2 SFC VIS 1/4 SLP196\ P0000 T00670067= 201703271351 METAR KJFK 271351Z 08003KT 0SM R04R/1000V1200FT -RA FG VV002\ 07/07 A3011 RMK AO2 SFC VIS 1/2 DZE00RAB00\ SLP196 P0000 T00720072= 201703271451 METAR KJFK 271451Z 00000KT 1SM R04R/2000VP6000FT RA BR BKN006\ OVC013 08/08 A3010 RMK AO2 SFC VIS\ 2 1/2 SLP192 VIS SE-S 1 1/2 P0012\ 60012 T00780078 56011= 201703271551 METAR KJFK 271551Z 35003KT 6SM -RA BR BKN005 OVC013 07/07\ A3008 RMK AO2 SLP184 P0005 T00720067= 201703271651 METAR KJFK 271651Z 00000KT 7SM BKN009 OVC017 09/08 A3006\ RMK AO2 RAE05 SLP178 CIG 007V011\ P0000 T00940083= 201703271751 METAR KJFK 271751Z 25005KT 7SM BKN011 OVC017 11/08 A3005\ RMK AO2 SLP174 CIG 009V013 60017\ T01060083 10106 20061 56018= 201703271851 METAR KJFK 271851Z 27007KT 8SM BKN012 BKN028 OVC080 12/09\ A3002 RMK AO2 SLP167 T01220094= 201703271951 METAR KJFK 271951Z 27010KT 8SM BKN016 BKN023 BKN110 BKN220\ 14/10 A3001 RMK AO2 SLP161 BKN016\ V SCT T01390100= 201703272051 METAR KJFK 272051Z VRB06KT 9SM BKN019 BKN120 BKN250 14/09\ A3000 RMK AO2 SLP157 BKN019 V SCT\ T01390094 56016= 201703272151 METAR KJFK 272151Z 22007KT 10SM FEW020 BKN090 BKN250 13/10\ A2999 RMK AO2 SLP155 T01280100= 201703272251 METAR KJFK 272251Z 24008KT 10SM FEW019 SCT095 BKN250 13/10\ A3000 RMK AO2 SLP158 T01280100= 201703272351 METAR KJFK 272351Z 13003KT 9SM FEW017 FEW095 BKN250 09/08\ A3000 RMK AO2 SLP157 T00940078 10144\ 20094 56001= 201703280051 METAR KJFK 280051Z 03004KT 9SM FEW017 FEW095 BKN250 10/08\ A3001 RMK AO2 SLP162 T01000083= 201703280151 METAR KJFK 280151Z 07004KT 9SM FEW085 BKN250 08/07 A3002\ RMK AO2 SLP165 T00830072= 201703280251 METAR KJFK 280251Z 08003KT 7SM OVC085 08/08 A3002 RMK AO2\ SLP164 T00830078 50007= 201703280351 METAR KJFK 280351Z 09005KT 7SM BKN070 OVC090 09/08 A3002\ RMK AO2 SLP164 T00890083= 201703280451 METAR KJFK 280451Z 08004KT 7SM OVC060 09/08 A3000 RMK AO2\ SLP159 T00940083 401440044= 201703280551 METAR KJFK 280551Z 05006KT 6SM BR SCT049 OVC090 09/08 A2999\ RMK AO2 SLP154 T00890078 10100 20078\ 58010= 201703280651 METAR KJFK 280651Z 03007KT 6SM BR FEW007 BKN033 OVC090 09/07\ A2997 RMK AO2 RAB04E13 SLP147 P0000\ T00890072= 201703280751 METAR KJFK 280751Z 15004KT 6SM BR SCT007 OVC036 08/07 A2996\ RMK AO2 LTG DSNT SW SLP146 T00780067= 201703280851 METAR KJFK 280851Z 10008KT 5SM VCTS RA BR SCT008 OVC036 07/07\ A2995 RMK AO2 LTG DSNT S AND SW RAB10\ TSE38 SLP141 OCNL LTGIC DSNT SW CB\ DSNT SW MOV NE P0011 60011 T00720067\ 56013= 201703280951 METAR KJFK 280951Z 09006KT 7SM OVC006 07/06 A2996 RMK AO2\ LTG DSNT SW RAE39 SLP145 P0002 T00670061= 201703281051 METAR KJFK 281051Z 10005KT 3SM BR OVC004 07/07 A2997 RMK\ AO2 SFC VIS 5 SLP148 T00720067= 201703281151 METAR KJFK 281151Z 08008KT 6SM BR OVC005 07/07 A2997 RMK\ AO2 LTG DSNT S SLP149 CIG 004V007\ 60013 70030 T00720067 10089 20067\ 51005= 201703281251 METAR KJFK 281251Z 06009KT 8SM OVC006 08/07 A2995 RMK AO2\ SLP143 T00830072= 201703281351 METAR KJFK 281351Z 07006KT 10SM OVC007 08/07 A2997 RMK AO2\ SLP148 T00830072= 201703281451 METAR KJFK 281451Z VRB03KT 6SM -TSRA BR BKN007 OVC027CB 08/07\ A3000 RMK AO2 LTG DSNT NE RAB15E32B48\ TSB24 SLP158 OCNL LTGICCG OHD AND\ SW-W TS OHD AND SW-W MOV NE P0000\ 60000 T00830072 53008= 201703281551 METAR KJFK 281551Z 08016KT 3SM -RA BR BKN005 BKN070 OVC090\ 08/07 A2992 RMK AO2 SFC VIS 5 SLP133\ BKN005 V SCT TSE08 P0046 T00780072= 201703281651 METAR KJFK 281651Z 07010KT 8SM -RA BKN006 BKN065 OVC080 08/08\ A2993 RMK AO2 PRESRR SLP134 P0004\ T00830078= 201703281751 METAR KJFK 281751Z 06003KT 6SM RA BR BKN008 OVC050 08/08\ A2995 RMK AO2 LTG DSNT S SLP140 P0010\ 60060 T00830078 10083 20072 55017= 201703281851 METAR KJFK 281851Z 07006KT 10SM -RA BKN008 OVC017 09/08 A2991\ RMK AO2 SLP128 P0007 T00890083= 201703281951 METAR KJFK 281951Z 03009KT 10SM OVC005 09/08 A2988 RMK AO2\ RAE31 SLP117 P0000 T00890078= 201703282051 METAR KJFK 282051Z 02007KT 10SM OVC005 08/07 A2989 RMK AO2\ SLP120 60007 T00830072 55021= 201703282151 METAR KJFK 282151Z 36006KT 3SM BR OVC005 08/07 A2989 RMK\ AO2 SFC VIS 6 SLP120 T00830072= 201703282251 METAR KJFK 282251Z 35008KT 1/2SM R04R/P6000FT -RA BR OVC003\ 06/06 A2990 RMK AO2 SFC VIS 2 1/2\ RAB37 SLP125 P0000 T00610056= 201703282351 METAR KJFK 282351Z 02010KT 1/2SM R04R/P6000FT -RA BR OVC004\ 06/06 A2991 RMK AO2 SFC VIS 3 SLP128\ P0003 60010 T00610056 10094 20061\ 53008= 201703290051 METAR KJFK 290051Z 35008KT 7SM -RA BKN005 BKN020 OVC025 06/06\ A2993 RMK AO2 SLP135 BKN005 V SCT\ P0009 T00610056= 201703290151 METAR KJFK 290151Z 02012KT 10SM -RA BKN008 OVC022 07/06 A2994\ RMK AO2 SLP139 BKN008 V SCT P0000\ T00670056= 201703290251 METAR KJFK 290251Z 01005KT 10SM -RA BKN008 OVC039 07/06 A2994\ RMK AO2 SLP137 BKN008 V SCT P0001\ 60010 T00670056 50009= 201703290351 METAR KJFK 290351Z 36006KT 10SM -RA FEW008 OVC033 07/06 A2994\ RMK AO2 SLP138 P0000 T00720061= 201703290451 METAR KJFK 290451Z 34006KT 10SM SCT007 BKN031 OVC100 07/06\ A2994 RMK AO2 RAE17 SLP137 P0000\ T00670061 400940056= 201703290551 METAR KJFK 290551Z 35005KT 10SM FEW007 OVC022 07/06 A2993\ RMK AO2 SLP136 60010 T00720061 10072\ 20056 58002= 201703290651 METAR KJFK 290651Z 35006KT 10SM OVC015 08/06 A2996 RMK AO2\ SLP143 T00780061= 201703290751 METAR KJFK 290751Z 35011KT 10SM OVC015 08/07 A2996 RMK AO2\ SLP146 T00830067= 201703290851 METAR KJFK 290851Z 34012KT 10SM SCT017 OVC028 08/06 A2999\ RMK AO2 SLP155 T00830061 53019= 201703290951 METAR KJFK 290951Z 35012KT 10SM OVC022 08/05 A3001 RMK AO2\ SLP160 T00780050= 201703291051 METAR KJFK 291051Z 35014KT 10SM FEW015 BKN022 BKN050 08/04\ A3002 RMK AO2 SLP167 T00780044= 201703291151 METAR KJFK 291151Z 35014KT 10SM FEW021 BKN028 08/04 A3004\ RMK AO2 SLP172 70080 T00780039 10083\ 20072 51017= 201703291251 METAR KJFK 291251Z 35015KT 10SM FEW019 BKN028 08/04 A3006\ RMK AO2 SLP178 T00780039= 201703291351 METAR KJFK 291351Z 35016G23KT 10SM BKN025 09/03 A3006 RMK\ AO2 SLP180 T00890028= 201703291451 METAR KJFK 291451Z 36020G26KT 10SM BKN028 10/03 A3008 RMK\ AO2 PK WND 36026/1451 SLP187 T01000028\ 53015= 201703291551 METAR KJFK 291551Z 33014KT 10SM SCT033 12/03 A3008 RMK AO2\ SLP185 T01170028= 201703291651 METAR KJFK 291651Z 35017KT 10SM FEW035 13/02 A3006 RMK AO2\ SLP180 T01280022= 201703291751 METAR KJFK 291751Z 32019G23KT 10SM FEW043 15/02 A3006 RMK\ AO2 SLP177 T01500017 10150 20072\ 58010= 201703291851 METAR KJFK 291851Z 34014G22KT 10SM FEW050 16/01 A3003 RMK\ AO2 SLP170 T01560006= 201703291951 METAR KJFK 291951Z 33016G23KT 10SM FEW055 16/M01 A3003 RMK\ AO2 SLP170 T01561011= 201703292051 METAR KJFK 292051Z 32018G22KT 10SM FEW055 16/M01 A3004 RMK\ AO2 PK WND 33026/2037 SLP172 T01561011\ 55004= 201703292151 METAR KJFK 292151Z 33016G23KT 10SM FEW055 14/M02 A3008 RMK\ AO2 SLP184 T01441022= 201703292251 METAR KJFK 292251Z 33020G27KT 10SM FEW055 12/M04 A3012 RMK\ AO2 PK WND 33027/2232 SLP198 T01171039= 201703292351 METAR KJFK 292351Z 36013KT 10SM FEW055 11/M04 A3014 RMK AO2\ SLP207 T01061039 10161 20106 51035= 201703300051 METAR KJFK 300051Z 36009KT 10SM CLR 09/M03 A3018 RMK AO2\ SLP219 T00941028= 201703300151 METAR KJFK 300151Z 02016G21KT 10SM FEW055 08/M04 A3021 RMK\ AO2 SLP229 T00831044= 201703300251 METAR KJFK 300251Z 01017G23KT 10SM FEW250 07/M06 A3023 RMK\ AO2 SLP237 T00721056 51030= 201703300351 METAR KJFK 300351Z 01014G22KT 10SM CLR 06/M06 A3024 RMK AO2\ SLP240 T00611056= 201703300451 METAR KJFK 300451Z 01013G21KT 10SM FEW140 06/M06 A3023 RMK\ AO2 SLP237 T00561056 401610056= 201703300551 METAR KJFK 300551Z 01005KT 10SM CLR 04/M05 A3023 RMK AO2\ SLP235 T00441050 10106 20044 58002= 201703300651 METAR KJFK 300651Z 36007KT 10SM FEW250 04/M05 A3022 RMK AO2\ SLP234 T00391050 CHINO W $= 201703300751 METAR KJFK 300751Z 35008KT 10SM FEW250 03/M06 A3023 RMK AO2\ SLP235 T00331056 $= 201703300851 METAR KJFK 300851Z 35005KT 10SM FEW250 03/M05 A3024 RMK AO2\ SLP239 T00331050 $= 201703300951 METAR KJFK 300951Z 36007KT 10SM FEW130 03/M06 A3025 RMK AO2\ SLP243 T00281056 $= 201703301051 METAR KJFK 301051Z 01006KT 10SM FEW170 FEW320 03/M04 A3027\ RMK AO2 SLP249 T00281044 $= 201703301151 METAR KJFK 301151Z 03008KT 10SM FEW170 SCT320 04/M05 A3027\ RMK AO2 SLP250 T00441050 10050 20028\ 51012 $= 201703301251 METAR KJFK 301251Z 02012KT 10SM CLR 06/M06 A3027 RMK AO2\ SLP250 T00611056 $= 201703301351 METAR KJFK 301351Z 04013KT 10SM SCT160 BKN300 06/M06 A3028\ RMK AO2 SLP253 T00611056 $= 201703301451 METAR KJFK 301451Z 35011KT 10SM BKN150 BKN270 07/M06 A3027\ RMK AO2 SLP250 T00671056 50000 $= 201703301551 METAR KJFK 301551Z VRB03KT 10SM BKN160 07/M06 A3023 RMK AO2\ SLP235 T00721056 $= 201703301651 METAR KJFK 301651Z 10SM BKN130 BKN250 09/M06 A3023 RMK AO2\ SLP236 T00941056 $= 201703301751 METAR KJFK 301751Z 20010KT 10SM SCT140 BKN230 08/M02 A3022\ RMK AO2 SLP232 T00831022 10100 20044\ 56018 $= 201703301851 METAR KJFK 301851Z 20008KT 10SM SCT110 BKN160 BKN250 08/M03\ A3021 RMK AO2 SLP231 T00831028 $= 201703301951 METAR KJFK 301951Z 19010KT 10SM SCT110 BKN150 BKN250 07/M01\ A3019 RMK AO2 SLP222 T00721011 $= 201703302051 METAR KJFK 302051Z 18009KT 10SM FEW085 FEW100 BKN120 OVC150\ 07/M01 A3016 RMK AO2 SLP213 T00671011\ 58019 $= 201703302151 METAR KJFK 302151Z 20013KT 10SM FEW085 OVC100 06/M01 A3017\ RMK AO2 SLP216 T00611006 $= 201703302251 METAR KJFK 302251Z 19010KT 10SM FEW075 OVC090 06/00 A3016\ RMK AO2 SLP213 T00610000= 201703302351 METAR KJFK 302351Z 21014KT 10SM -RA OVC080 06/M01 A3017 RMK\ AO2 RAB35 SLP216 P0000 60000 T00611006\ 10089 20061 53002= 201703310051 METAR KJFK 310051Z 21012KT 10SM OVC075 06/M01 A3017 RMK AO2\ RAE2357 SLP216 P0000 T00611006= 201703310151 METAR KJFK 310151Z 21008KT 10SM OVC070 06/01 A3016 RMK AO2\ SLP212 T00610011= 201703310251 METAR KJFK 310251Z 19007KT 10SM OVC070 06/00 A3014 RMK AO2\ RAB04E19 PRESFR SLP206 P0000 60000\ T00610000 58009= 201703310351 METAR KJFK 310351Z 00000KT 10SM OVC060 06/01 A3017 RMK AO2\ SLP214 T00610011= 201703310451 METAR KJFK 310451Z 17007KT 10SM -RA OVC050 06/03 A3016 RMK\ AO2 RAB25 SLP212 P0000 T00610028\ 401000028= 201703310551 METAR KJFK 310551Z 19007KT 10SM -RA OVC047 05/03 A3017 RMK\ AO2 SLP216 P0006 60006 T00500033\ 10061 20050 51010= 201703310651 METAR KJFK 310651Z 15006KT 6SM -RA BR FEW013 OVC046 04/03\ A3015 RMK AO2 SLP208 P0017 T00390028= 201703310751 METAR KJFK 310751Z 13005KT 6SM RA BR BKN008 BKN021 OVC060\ 04/03 A3015 RMK AO2 SLP209 P0017\ T00390028= 201703310851 METAR KJFK 310851Z 14007KT 6SM -RA BR BKN008 OVC040 04/03\ A3014 RMK AO2 SLP205 P0008 60042\ T00390028 56011= 201703310951 METAR KJFK 310951Z 12008KT 10SM -RA BKN009 OVC034 04/03 A3012\ RMK AO2 SLP198 P0003 T00390028= 201703311051 METAR KJFK 311051Z 11008KT 4SM -RA BR BKN006 BKN013 OVC023\ 04/03 A3010 RMK AO2 SLP192 P0001\ T00390033= 201703311151 METAR KJFK 311151Z 10009KT 3SM -RA BR BKN008 BKN012 OVC027\ 04/03 A3009 RMK AO2 SLP188 P0004\ 60050 70056 T00440033 10050 20039\ 56017= 201703311251 METAR KJFK 311251Z 09009KT 3SM -RA BR BKN006 BKN013 OVC018\ 05/04 A3008 RMK AO2 SLP185 P0003\ T00500044= 201703311351 METAR KJFK 311351Z 11011KT 2 1/2SM R04R/6000VP6000FT -RA\ BR SCT007 BKN015 OVC022 05/04 A3006\ RMK AO2 SLP179 P0003 T00500039= 201703311451 METAR KJFK 311451Z 10014G22KT 2 1/2SM R04R/6000VP6000FT -RA\ BR BKN006 OVC015 05/04 A3004 RMK\ AO2 SLP173 P0005 60011 T00500039\ 58015= 201703311551 METAR KJFK 311551Z 09017G24KT 3SM RA BR BKN007 BKN014 OVC021\ 05/04 A3002 RMK AO2 RAB45 SLP164\ P0006 T00500039 VISNO W $= 201703311651 METAR KJFK 311651Z 09018G28KT 4SM -RA BR BKN009 OVC020 05/04\ A3000 RMK AO2 PK WND 09029/1619 SLP157\ P0006 T00500039 $= 201703311751 METAR KJFK 311751Z 09019G29KT 3SM R04R/6000VP6000FT RA BR\ BKN009 OVC019 05/04 A2996 RMK AO2\ PK WND 09031/1654 SLP146 P0009 60032\ T00500039 10050 20039 $= 201703311851 METAR KJFK 311851Z 09021G30KT 5SM RA BR BKN009 OVC024 04/03\ A2994 RMK AO2 PK WND 07032/1818 SLP138\ P0010 T00440033 $= 201703311951 METAR KJFK 311951Z 08019G27KT 5SM RA BR BKN010 OVC022 05/04\ A2990 RMK AO2 PK WND 08032/1859 SLP123\ P0011 T00500039 $= 201703312051 METAR KJFK 312051Z 09022G30KT 5SM RA BR BKN010 OVC020 05/04\ A2985 RMK AO2 PK WND 09032/2030 SLP109\ P0009 60030 T00500039 58029 $= 201703312151 METAR KJFK 312151Z 08022G32KT 4SM RA BR BKN009 OVC015 05/04\ A2981 RMK AO2 PK WND 09034/2137 SLP095\ P0009 T00500039 $= 201703312251 METAR KJFK 312251Z 08021G35KT 5SM RA BR BKN009 OVC016 05/04\ A2981 RMK AO2 PK WND 09035/2251 SLP094\ P0009 T00500039 $= 201703312351 METAR KJFK 312351Z 07023G32KT 5SM RA BR OVC009 05/04 A2977\ RMK AO2 PK WND 07037/2336 CIG 007V012\ SLP079 P0014 60062 T00500044 10050\ 20044 58029 $=}
