  201707010051 METAR KLGA 010051Z 20010G19KT 10SM FEW055 SCT140 BKN200 28/21\ A2993 RMK AO2 LTG DSNT W SLP137 T02830211\ $= 201707010151 METAR KLGA 010151Z 19009KT 10SM FEW055 BKN200 28/21 A2996\ RMK AO2 SLP146 T02830211 $= 201707010251 METAR KLGA 010251Z 21014KT 10SM FEW070 SCT085 BKN150 OVC250\ 28/21 A2996 RMK AO2 SLP145 T02830211\ 50012 $= 201707010351 METAR KLGA 010351Z 25009KT 10SM -RA FEW090 SCT110 SCT150\ BKN250 27/21 A2995 RMK AO2 RAB39\ SLP143 P0000 T02720211 $= 201707010451 METAR KLGA 010451Z 18008KT 10SM SCT150 SCT190 BKN250 26/21\ A2996 RMK AO2 RAE00 SLP144 P0000\ T02560206 403170239 $= 201707010551 METAR KLGA 010551Z 18010KT 10SM FEW150 FEW190 SCT250 24/21\ A2995 RMK AO2 SLP142 60000 T02440206\ 10289 20244 58003 $= 201707010651 METAR KLGA 010651Z 16007KT 10SM FEW120 SCT250 24/20 A2994\ RMK AO2 SLP137 T02390200 $= 201707010751 METAR KLGA 010751Z 19006KT 10SM CLR 23/20 A2993 RMK AO2 SLP135\ T02330200 $= 201707010851 METAR KLGA 010851Z 17006KT 10SM FEW100 SCT150 SCT250 23/20\ A2993 RMK AO2 SLP136 T02330200 55006\ $= 201707010951 METAR KLGA 010951Z 17006KT 10SM -RA SCT110 BKN150 23/21 A2995\ RMK AO2 RAB47 SLP142 P0000 T02330206\ $= 201707011051 METAR KLGA 011051Z 16006KT 10SM -RA FEW037 FEW070 SCT095\ BKN140 BKN250 23/21 A2996 RMK AO2\ RAE0956B33 SLP146 P0000 T02330211\ $= 201707011151 METAR KLGA 011151Z 16005KT 10SM FEW050 FEW070 SCT110 SCT150\ BKN250 24/21 A2997 RMK AO2 RAE01\ SLP149 P0000 60000 T02440211 10250\ 20233 51012 $= 201707011251 METAR KLGA 011251Z 16009KT 10SM FEW040 SCT110 BKN140 BKN200\ 26/22 A2997 RMK AO2 SLP148 T02560217\ $= 201707011351 METAR KLGA 011351Z 17008KT 10SM FEW025 BKN120 BKN200 26/22\ A2994 RMK AO2 SLP140 T02610222 $= 201707011451 METAR KLGA 011451Z 17011KT 10SM BKN020 BKN120 BKN200 27/23\ A2994 RMK AO2 SLP139 BKN020 V SCT\ T02720228 57009 $= 201707011551 METAR KLGA 011551Z 14011KT 10SM FEW020 SCT045 BKN130 BKN200\ 28/23 A2992 RMK AO2 SLP133 T02780228\ $= 201707011651 METAR KLGA 011651Z 18015G20KT 10SM FEW020 BKN045 BKN130 BKN200\ 28/22 A2991 RMK AO2 SLP129 T02780222\ $= 201707011751 METAR KLGA 011751Z 16011G19KT 10SM FEW020 FEW045 BKN075 BKN130\ 28/22 A2990 RMK AO2 SLP123 T02780222\ 10294 20244 56016 $= 201707011851 METAR KLGA 011851Z 17013G22KT 10SM FEW020 SCT045TCU BKN080\ BKN130 27/22 A2988 RMK AO2 LTG DSNT\ SW SLP119 TCU W VCSH T02720217 $= 201707011951 METAR KLGA 011951Z 14011KT 9SM VCTS FEW033 SCT050TCU BKN085\ 26/24 A2987 RMK AO2 LTG DSNT SE RAB01E49\ SLP115 TCU W P0001 T02610244 $= 201707012051 METAR KLGA 012051Z 17011KT 10SM FEW033 FEW050 SCT110 27/22\ A2986 RMK AO2 SLP110 60001 T02670222\ 58014 $= 201707012151 METAR KLGA 012151Z 13006KT 10SM FEW033 SCT050 SCT110 BKN220\ 27/22 A2985 RMK AO2 SLP106 CB DSNT\ W T02670217 $= 201707012251 METAR KLGA 012251Z 17010KT 10SM FEW033 SCT065 BKN110 BKN220\ 26/22 A2987 RMK AO2 LTG DSNT SW-N\ SLP113 CB DSNT SW-N T02610217 $= 201707012351 METAR KLGA 012351Z 25008G18KT 7SM -RA FEW037 SCT065 BKN110\ BKN220 24/22 A2989 RMK AO2 WSHFT\ 2335 LTG DSNT N AND NW RAB17 TSB16E31B33E51\ SLP122 P0005 60006 T02390217 10283\ 20239 53013 $= 201707020051 METAR KLGA 020051Z 21007KT 10SM FEW037 SCT060 BKN200 BKN250\ 24/21 A2988 RMK AO2 RAE05 SLP116\ CB DSNT N P0001 T02390211 $= 201707020151 METAR KLGA 020151Z 18007KT 10SM FEW037 FEW060 SCT200 SCT250\ 24/21 A2989 RMK AO2 SLP120 T02390211\ $= 201707020251 METAR KLGA 020251Z 22009KT 10SM FEW037 SCT250 23/21 A2991\ RMK AO2 SLP128 60001 T02330211 53005\ $= 201707020351 METAR KLGA 020351Z 23006KT 10SM SCT012 SCT250 23/22 A2991\ RMK AO2 SLP127 T02330217 $= 201707020451 METAR KLGA 020451Z 24006KT 10SM FEW010 SCT065 23/22 A2990\ RMK AO2 SLP126 T02330217 402940233\ $= 201707020551 METAR KLGA 020551Z 24005KT 10SM BKN012 BKN070 23/22 A2990\ RMK AO2 SLP125 60001 T02330217 10244\ 20233 58003 $= 201707020651 METAR KLGA 020651Z 26006KT 10SM BKN012 23/22 A2989 RMK AO2\ SLP122 T02330217 $= 201707020751 METAR KLGA 020751Z 24004KT 10SM SCT012 SCT016 23/22 A2990\ RMK AO2 SLP126 T02330217 $= 201707020851 METAR KLGA 020851Z 28006KT 10SM SCT015 23/22 A2991 RMK AO2\ SLP129 T02330217 53004 $= 201707020951 METAR KLGA 020951Z 27004KT 10SM FEW015 SCT150 BKN250 23/22\ A2994 RMK AO2 SLP137 T02330217 $= 201707021051 METAR KLGA 021051Z 30008KT 10SM FEW013 SCT090 SCT170 SCT250\ 24/21 A2996 RMK AO2 SLP144 T02390206\ $= 201707021151 METAR KLGA 021151Z 30009G22KT 10SM FEW024 SCT090 SCT170 SCT250\ 25/19 A2997 RMK AO2 SLP150 70007\ T02500189 10250 20228 51021 $= 201707021251 METAR KLGA 021251Z 32007KT 10SM FEW090 FEW190 SCT250 26/18\ A2998 RMK AO2 SLP151 T02560183 $= 201707021351 METAR KLGA 021351Z 31005KT 10SM FEW090 FEW170 SCT250 27/18\ A2998 RMK AO2 SLP150 T02670178 $= 201707021451 METAR KLGA 021451Z 32009KT 10SM FEW042 FEW090 SCT170 SCT250\ 28/17 A2998 RMK AO2 SLP152 T02780172\ 52002 $= 201707021551 METAR KLGA 021551Z VRB04KT 10SM FEW044 FEW170 SCT250 29/18\ A2998 RMK AO2 SLP150 T02940183 $= 201707021651 METAR KLGA 021651Z VRB06KT 10SM FEW050 FEW170 SCT250 30/18\ A2997 RMK AO2 SLP147 T03000178 $= 201707021751 METAR KLGA 021751Z 25007KT 230V300 10SM SCT055 31/18 A2995\ RMK AO2 SLP143 T03110178 10317 20250\ 58008 $= 201707021851 METAR KLGA 021851Z 31013G18KT 10SM SCT060 32/16 A2995 RMK\ AO2 SLP142 T03220161 $= 201707021951 METAR KLGA 021951Z 27011G19KT 10SM SCT060 32/16 A2994 RMK\ AO2 SLP140 T03220156 $= 201707022051 METAR KLGA 022051Z 22011KT 10SM SCT065 33/16 A2992 RMK AO2\ SLP133 T03280161 58010 $= 201707022151 METAR KLGA 022151Z 22011KT 10SM FEW060 SCT075 32/17 A2992\ RMK AO2 SLP131 T03220172 $= 201707022251 METAR KLGA 022251Z 18009KT 10SM FEW060 SCT090 BKN120 30/20\ A2993 RMK AO2 SLP135 T03000200 $= 201707022351 METAR KLGA 022351Z 19007KT 10SM FEW065 BKN090 BKN130 BKN250\ 29/19 A2994 RMK AO2 SLP137 T02940194\ 10328 20294 53005 $= 201707030051 METAR KLGA 030051Z 24006KT 10SM SCT130 BKN250 31/17 A2994\ RMK AO2 SLP138 T03060167 $= 201707030151 METAR KLGA 030151Z 24008KT 10SM FEW065 FEW130 BKN250 30/18\ A2995 RMK AO2 SLP142 T03000178 $= 201707030251 METAR KLGA 030251Z 23009KT 10SM FEW130 SCT250 29/18 A2994\ RMK AO2 SLP140 T02940183 50002 $= 201707030351 METAR KLGA 030351Z 25009KT 10SM FEW060 BKN250 29/19 A2993\ RMK AO2 SLP137 T02940189 $= 201707030451 METAR KLGA 030451Z 30007KT 10SM FEW060 BKN250 28/18 A2994\ RMK AO2 SLP138 T02830183 403280228\ $= 201707030551 METAR KLGA 030551Z 31006KT 10SM SCT250 25/19 A2994 RMK AO2\ SLP139 T02500194 10306 20250 55001\ $= 201707030651 METAR KLGA 030651Z 29003KT 10SM FEW250 26/18 A2994 RMK AO2\ SLP137 T02610183 $= 201707030751 METAR KLGA 030751Z 29004KT 10SM FEW250 26/18 A2993 RMK AO2\ SLP135 T02560183 $= 201707030851 METAR KLGA 030851Z 29004KT 10SM CLR 26/17 A2994 RMK AO2 SLP140\ T02560172 53001 $= 201707030951 METAR KLGA 030951Z 28003KT 10SM CLR 26/17 A2995 RMK AO2 SLP141\ T02610167 $= 201707031051 METAR KLGA 031051Z 29004KT 10SM FEW250 26/17 A2996 RMK AO2\ SLP146 T02610167 $= 201707031151 METAR KLGA 031151Z 30008KT 10SM BKN250 26/17 A2997 RMK AO2\ SLP150 T02610172 10261 20250 53010\ $= 201707031251 METAR KLGA 031251Z 32009KT 10SM BKN250 27/17 A2998 RMK AO2\ SLP151 T02670172 $= 201707031351 METAR KLGA 031351Z 32008KT 10SM FEW100 BKN250 28/17 A2998\ RMK AO2 SLP153 T02780167= 201707031451 METAR KLGA 031451Z 33007KT 10SM BKN250 29/16 A2998 RMK AO2\ SLP151 T02890161 50001= 201707031551 METAR KLGA 031551Z 32005KT 10SM BKN250 29/16 A2997 RMK AO2\ SLP148 T02940161= 201707031651 METAR KLGA 031651Z 25008G15KT 10SM FEW070 SCT250 31/15 A2995\ RMK AO2 SLP143 T03110150= 201707031751 METAR KLGA 031751Z 26014KT 10SM FEW070 SCT250 32/16 A2994\ RMK AO2 SLP139 T03170156 10317 20261\ 58012= 201707031851 METAR KLGA 031851Z 30012KT 10SM BKN080 31/16 A2994 RMK AO2\ WSHFT 1831 SLP139 T03110161= 201707031951 METAR KLGA 031951Z 30012KT 10SM BKN075 32/16 A2994 RMK AO2\ SLP139 T03170161= 201707032051 METAR KLGA 032051Z 26019G29KT 3SM R04/4000VP6000FT +TSRA\ BKN070CB BKN095 25/21 A2997 RMK AO2\ PK WND 27029/2046 RAB41 TSB32 PRESRR\ SLP150 OCNL LTGICCG OHD TS OHD MOV\ E P0004 60004 T02500211 53010= 201707032151 METAR KLGA 032151Z 24007KT 10SM FEW060 BKN090 28/21 A2995\ RMK AO2 RAE15 TSE11 SLP141 P0008\ T02780206= 201707032251 METAR KLGA 032251Z 27005KT 10SM FEW060 SCT090 SCT110 SCT250\ 29/17 A2994 RMK AO2 SLP140 T02940172= 201707032351 METAR KLGA 032351Z 27006KT 10SM FEW060 FEW090 SCT250 29/16\ A2996 RMK AO2 SLP146 TCU DSNT SE-S\ 60012 T02940161 10322 20244 55004= 201707040051 METAR KLGA 040051Z 28005KT 10SM SCT055 SCT250 28/17 A2997\ RMK AO2 SLP148 TCU DSNT W-NW T02830167= 201707040151 METAR KLGA 040151Z 32003KT 10SM FEW060 SCT075 SCT250 28/17\ A2999 RMK AO2 SLP154 TCU DSNT W-NW\ T02780172= 201707040251 METAR KLGA 040251Z 00000KT 10SM SCT060 SCT100 SCT120 28/19\ A2999 RMK AO2 SLP154 CB DSNT NW-N\ MOV E T02780189 51008= 201707040351 METAR KLGA 040351Z 06004KT 10SM FEW060 SCT085 BKN110 23/19\ A3000 RMK AO2 PK WND 32028/0313 RAB17E33\ SLP158 P0000 T02330189= 201707040451 METAR KLGA 040451Z 06006KT 10SM SCT060 SCT150 SCT250 23/20\ A3000 RMK AO2 SLP159 T02280200 403220228= 201707040551 METAR KLGA 040551Z 08003KT 10SM FEW075 SCT250 23/21 A2999\ RMK AO2 SLP156 60000 T02280206 10294\ 20222 50002= 201707040651 METAR KLGA 040651Z 09003KT 10SM SCT070 SCT250 23/20 A3000\ RMK AO2 SLP158 T02280200= 201707040751 METAR KLGA 040751Z 02005KT 10SM SCT075 SCT100 22/19 A3001\ RMK AO2 SLP160 T02220189= 201707040851 METAR KLGA 040851Z 06004KT 10SM FEW075 SCT100 22/17 A3002\ RMK AO2 SLP166 T02170172 53010= 201707040951 METAR KLGA 040951Z 04003KT 10SM FEW080 SCT100 BKN250 22/17\ A3003 RMK AO2 SLP168 T02170167= 201707041051 METAR KLGA 041051Z 04005KT 10SM SCT075 SCT100 BKN130 BKN250\ 22/16 A3005 RMK AO2 SLP176 T02170161= 201707041151 METAR KLGA 041151Z 05006KT 10SM BKN070 BKN110 BKN250 22/14\ A3008 RMK AO2 SLP184 70012 T02220139\ 10228 20211 53018= 201707041251 METAR KLGA 041251Z 05008KT 10SM BKN070 BKN110 BKN250 23/13\ A3009 RMK AO2 SLP188 T02330128= 201707041351 METAR KLGA 041351Z 05006KT 10SM BKN075 BKN110 OVC250 23/13\ A3009 RMK AO2 SLP189 T02280133= 201707041451 METAR KLGA 041451Z 05006KT 10SM SCT070 BKN110 BKN250 24/14\ A3008 RMK AO2 SLP186 T02440139 50002= 201707041551 METAR KLGA 041551Z 00000KT 10SM FEW080 BKN130 BKN250 26/13\ A3007 RMK AO2 SLP183 T02610133= 201707041651 METAR KLGA 041651Z 02004KT 10SM SCT080 SCT130 SCT250 27/14\ A3006 RMK AO2 SLP179 T02720139= 201707041751 METAR KLGA 041751Z VRB04KT 10SM FEW080 SCT250 29/16 A3004\ RMK AO2 SLP172 T02890156 10289 20222\ 58014= 201707041851 METAR KLGA 041851Z 02003KT 10SM SCT065 SCT250 29/15 A3003\ RMK AO2 SLP170 T02890150= 201707041951 METAR KLGA 041951Z VRB03KT 10SM BKN065 BKN130 BKN250 29/16\ A3003 RMK AO2 SLP169 T02890156= 201707042051 METAR KLGA 042051Z 01004KT 10SM OVC085 28/16 A3003 RMK AO2\ SLP170 T02830156 55003= 201707042151 METAR KLGA 042151Z VRB06KT 10SM SCT065 SCT090 29/14 A3003\ RMK AO2 SLP167 T02890144= 201707042251 METAR KLGA 042251Z VRB04KT 10SM BKN070 29/14 A3003 RMK AO2\ SLP170 T02890144= 201707042351 METAR KLGA 042351Z VRB04KT 10SM BKN060 BKN100 29/14 A3006\ RMK AO2 SLP177 T02890144 10306 20283\ 53008= 201707050051 METAR KLGA 050051Z 17008KT 10SM SCT070 28/15 A3007 RMK AO2\ SLP182 T02780150= 201707050151 METAR KLGA 050151Z 16005KT 10SM SCT090 SCT250 26/16 A3009\ RMK AO2 SLP189 T02560156= 201707050251 METAR KLGA 050251Z 19004KT 10SM SCT085 SCT250 25/14 A3010\ RMK AO2 SLP194 T02500139 53017= 201707050351 METAR KLGA 050351Z 18004KT 10SM FEW085 SCT250 25/13 A3011\ RMK AO2 SLP194 T02500133= 201707050451 METAR KLGA 050451Z 00000KT 10SM FEW250 25/13 A3010 RMK AO2\ SLP193 T02500133 403060211= 201707050551 METAR KLGA 050551Z 05007KT 9SM SCT250 23/16 A3011 RMK AO2\ SLP194 T02280161 10289 20228 53000= 201707050651 METAR KLGA 050651Z 06006KT 7SM SCT200 SCT250 22/18 A3011\ RMK AO2 SLP194 T02170178= 201707050751 METAR KLGA 050751Z 07004KT 9SM SCT070 SCT250 22/17 A3011\ RMK AO2 SLP197 T02170172= 201707050851 METAR KLGA 050851Z 00000KT 10SM FEW070 FEW250 22/16 A3012\ RMK AO2 SLP200 T02170156 53006= 201707050951 METAR KLGA 050951Z 05003KT 10SM FEW080 FEW250 21/14 A3014\ RMK AO2 SLP206 T02110144= 201707051051 METAR KLGA 051051Z 05006KT 10SM FEW080 SCT250 22/14 A3016\ RMK AO2 SLP212 T02170144= 201707051151 METAR KLGA 051151Z 05006KT 10SM SCT250 22/16 A3019 RMK AO2\ SLP221 T02220161 10228 20211 53021= 201707051251 METAR KLGA 051251Z 04009KT 10SM FEW080 BKN250 22/16 A3020\ RMK AO2 SLP226 T02220161= 201707051351 METAR KLGA 051351Z 05013G20KT 10SM BKN100 BKN250 24/17 A3020\ RMK AO2 SLP225 T02390167= 201707051451 METAR KLGA 051451Z 05013KT 10SM SCT100 BKN250 24/17 A3020\ RMK AO2 SLP227 T02390172 51005= 201707051551 METAR KLGA 051551Z 04012KT 10SM SCT100 BKN250 24/18 A3020\ RMK AO2 SLP227 T02440178= 201707051651 METAR KLGA 051651Z 05013KT 10SM FEW070 SCT130 BKN250 26/18\ A3019 RMK AO2 SLP224 T02560183= 201707051751 METAR KLGA 051751Z 05011KT 10SM SCT070 BKN130 OVC250 27/19\ A3018 RMK AO2 SLP221 T02670189 10267\ 20217 58005= 201707051851 METAR KLGA 051851Z 14010G17KT 10SM FEW070 SCT130 SCT250 29/13\ A3018 RMK AO2 SLP219 T02890128= 201707051951 METAR KLGA 051951Z 15011KT 10SM FEW065 FEW130 SCT250 29/13\ A3018 RMK AO2 SLP218 T02890128= 201707052051 METAR KLGA 052051Z 16011G19KT 10SM FEW065 FEW250 28/13 A3017\ RMK AO2 SLP216 T02830128 58005= 201707052151 METAR KLGA 052151Z 13013G21KT 10SM FEW250 27/12 A3017 RMK\ AO2 SLP215 T02720122= 201707052251 METAR KLGA 052251Z 15008KT 10SM FEW250 26/12 A3017 RMK AO2\ SLP217 T02610122= 201707052351 METAR KLGA 052351Z 14010KT 10SM FEW250 26/12 A3017 RMK AO2\ SLP217 T02560122 10294 20256 53001= 201707060051 METAR KLGA 060051Z 17010KT 10SM FEW070 FEW250 24/13 A3018\ RMK AO2 SLP221 T02440128= 201707060151 METAR KLGA 060151Z 14008KT 10SM FEW070 SCT250 24/14 A3020\ RMK AO2 SLP226 T02390139= 201707060251 METAR KLGA 060251Z 15006KT 10SM BKN080 23/16 A3020 RMK AO2\ SLP227 T02330156 51009= 201707060351 METAR KLGA 060351Z 16006KT 10SM BKN080 BKN250 23/16 A3018\ RMK AO2 SLP221 T02330161= 201707060451 METAR KLGA 060451Z 14006KT 10SM SCT095 BKN250 23/17 A3017\ RMK AO2 SLP217 T02280167 402940211= 201707060551 METAR KLGA 060551Z 14005KT 10SM FEW085 OVC250 22/17 A3016\ RMK AO2 SLP213 T02220172 10256 20222\ 56014= 201707060651 METAR KLGA 060651Z 12007KT 10SM OVC259 22/17 A3015 RMK AO2\ SLP209 T02220172= 201707060751 METAR KLGA 060751Z 06006KT 10SM SCT110 OVC250 22/18 A3014\ RMK AO2 SLP205 T02170183= 201707060851 METAR KLGA 060851Z 07004KT 10SM SCT120 BKN180 OVC250 21/18\ A3014 RMK AO2 SLP204 T02110183 56008= 201707060951 METAR KLGA 060951Z 08004KT 10SM OVC110 21/18 A3014 RMK AO2\ SLP204 T02110183= 201707061051 METAR KLGA 061051Z 12006KT 10SM SCT110 OVC170 22/17 A3014\ RMK AO2 SLP205 T02220172= 201707061151 METAR KLGA 061151Z VRB04KT 10SM SCT120 SCT150 OVC200 23/17\ A3014 RMK AO2 SLP206 T02280167 10233\ 20206 53002= 201707061251 METAR KLGA 061251Z 05006KT 10SM SCT110 OVC200 22/18 A3014\ RMK AO2 RAB28E37 SLP207 P0000 T02220183= 201707061351 METAR KLGA 061351Z 11007KT 10SM -RA FEW070 SCT110 BKN200\ OVC250 23/17 A3014 RMK AO2 RAB45\ SLP207 P0000 T02330167 $= 201707061451 METAR KLGA 061451Z 13008KT 10SM -RA FEW070 SCT120 BKN200\ OVC250 24/16 A3015 RMK AO2 SLP209\ P0000 60000 T02390161 52003 $= 201707061551 METAR KLGA 061551Z 14008KT 10SM -RA FEW050 SCT090 SCT120\ OVC200 24/15 A3013 RMK AO2 SLP202\ P0000 T02440150 $= 201707061651 METAR KLGA 061651Z 14007KT 10SM FEW050 SCT130 BKN200 BKN250\ 24/15 A3012 RMK AO2 RAE1555 SLP199\ P0000 T02440150 $= 201707061751 METAR KLGA 061751Z 13007KT 10SM FEW070 BKN130 BKN250 24/13\ A3011 RMK AO2 SLP196 60000 T02440133\ 10256 20217 56013 $= 201707061851 METAR KLGA 061851Z 12011KT 10SM FEW060 SCT140 BKN250 26/13\ A3009 RMK AO2 SLP188 T02560128 $= 201707061951 METAR KLGA 061951Z 14007G15KT 10SM FEW050 BKN140 BKN250 26/12\ A3006 RMK AO2 SLP180 T02560122 $= 201707062051 METAR KLGA 062051Z 14010KT 10SM FEW050 BKN140 BKN250 26/14\ A3004 RMK AO2 SLP173 T02560139 56023\ $= 201707062151 METAR KLGA 062151Z 13009KT 10SM FEW050 SCT140 BKN180 BKN250\ 26/13 A3002 RMK AO2 SLP167 T02560133\ $= 201707062251 METAR KLGA 062251Z 15008KT 10SM FEW050 SCT160 BKN250 26/11\ A3002 RMK AO2 SLP165 T02560111 $= 201707062351 METAR KLGA 062351Z 13009KT 10SM FEW050 SCT075 BKN150 BKN250\ 24/14 A3000 RMK AO2 SLP160 T02390144\ 10272 20239 56013 $= 201707070051 METAR KLGA 070051Z 13006KT 10SM FEW050 BKN075 BKN140 BKN250\ 23/16 A3000 RMK AO2 SLP160 T02330161\ $= 201707070151 METAR KLGA 070151Z 12008KT 10SM FEW040 BKN080 BKN140 BKN250\ 23/18 A3000 RMK AO2 SLP157 T02330178\ $= 201707070251 METAR KLGA 070251Z 13006KT 10SM BKN029 OVC080 23/19 A2999\ RMK AO2 SLP154 T02280189 55005 $= 201707070351 METAR KLGA 070351Z 10008KT 10SM BKN018 OVC029 23/19 A2996\ RMK AO2 SLP146 T02280194 $= 201707070451 METAR KLGA 070451Z 06007KT 10SM OVC015 22/17 A2995 RMK AO2\ RAB07E16 SLP140 P0000 T02170172 402720206\ $= 201707070551 METAR KLGA 070551Z 05008KT 10SM OVC014 22/18 A2992 RMK AO2\ SLP132 60000 T02170183 10250 20211\ 57022 $= 201707070651 METAR KLGA 070651Z 05008KT 10SM OVC011 21/19 A2990 RMK AO2\ RAB36E46 SLP125 P0000 T02110189 $= 201707070751 METAR KLGA 070751Z 05007KT 10SM OVC008 21/20 A2987 RMK AO2\ RAB0654E40 SLP115 P0000 T02060200\ $= 201707070851 METAR KLGA 070851Z 05008KT 10SM OVC008 21/20 A2985 RMK AO2\ RAB0752E12 SLP108 P0001 60001 T02060200\ 56024 $= 201707070951 METAR KLGA 070951Z 05010KT 10SM OVC006 21/21 A2983 RMK AO2\ SLP102 T02060206 $= 201707071051 METAR KLGA 071051Z 05011KT 10SM OVC005 21/21 A2982 RMK AO2\ SLP098 T02060206 $= 201707071151 METAR KLGA 071151Z 05009KT 1/2SM R04/P6000FT BR OVC003 21/21\ A2980 RMK AO2 SFC VIS 1 1/2 SLP092\ 60001 70001 T02060206 10217 20206\ 56010 $= 201707071251 METAR KLGA 071251Z 05012KT 1/2SM R04/P6000FT BR OVC002 21/21\ A2978 RMK AO2 SFC VIS 1 RAB05E29\ SLP084 P0000 T02060206 $= 201707071351 METAR KLGA 071351Z 05015KT 1/2SM R04/P6000FT BR OVC002 21/21\ A2976 RMK AO2 SFC VIS 1 RAB22E42\ SLP079 P0000 T02060206= 201707071451 METAR KLGA 071451Z 34013KT 1/2SM R04/2400V4000FT +RA BR OVC002\ 21/21 A2977 RMK AO2 SFC VIS 1 RAB23\ SLP079 P0051 60051 T02060206 55013= 201707071551 METAR KLGA 071551Z 03013KT 1 1/2SM R04/6000VP6000FT +RA BR\ SCT005 BKN021 OVC070 21/20 A2976\ RMK AO2 SFC VIS 3 SLP079 P0129 T02060200= 201707071651 METAR KLGA 071651Z 04009G19KT 7SM FEW008 BKN048 BKN070 BKN150\ 22/21 A2976 RMK AO2 RAE42 SLP079\ P0011 T02170206= 201707071751 METAR KLGA 071751Z 06009KT 10SM FEW007 BKN015 BKN055 23/21\ A2975 RMK AO2 SLP076 60191 T02280211\ 10228 20200 58003= 201707071851 METAR KLGA 071851Z 05006KT 10SM BKN020 BKN028 BKN070 23/21\ A2975 RMK AO2 SLP074 T02280206= 201707071951 METAR KLGA 071951Z 05005KT 10SM SCT028 BKN037 BKN150 25/21\ A2973 RMK AO2 SLP067 T02500206= 201707072051 METAR KLGA 072051Z 06003KT 10SM FEW028 SCT035 SCT250 26/20\ A2972 RMK AO2 SLP064 T02610200 58012= 201707072151 METAR KLGA 072151Z 05005KT 10SM FEW030 FEW250 27/19 A2971\ RMK AO2 SLP062 T02670194= 201707072251 METAR KLGA 072251Z 04003KT 10SM FEW040 FEW250 28/19 A2971\ RMK AO2 SLP062 T02780194= 201707072351 METAR KLGA 072351Z 14006KT 10SM FEW040 SCT100 SCT250 27/21\ A2972 RMK AO2 SLP065 CB DSNT NW MOV\ SE T02720206 10278 20222 53001= 201707080051 METAR KLGA 080051Z VRB04KT 10SM -RA FEW015 BKN044CB BKN055\ BKN250 27/21 A2973 RMK AO2 RAB49\ SLP068 CB OHD MOV SE P0000 T02670206= 201707080151 METAR KLGA 080151Z 18008KT 10SM -RA FEW015 SCT045 BKN095\ BKN250 23/22 A2975 RMK AO2 SLP073\ P0022 T02330222= 201707080251 METAR KLGA 080251Z 00000KT 10SM SCT040 BKN048 BKN080 OVC250\ 23/21 A2974 RMK AO2 RAE08 SLP070\ P0000 60022 T02330211 50005 $= 201707080351 METAR KLGA 080351Z 36007KT 10SM FEW016 SCT031 OVC043 23/21\ A2976 RMK AO2 RAB20E29 SLP076 P0000\ T02330211 $= 201707080451 METAR KLGA 080451Z 11006KT 10SM BKN095 BKN120 22/21 A2975\ RMK AO2 SLP073 T02170206 402780200\ $= 201707080551 METAR KLGA 080551Z 21004KT 10SM FEW060 FEW090 FEW120 22/21\ A2974 RMK AO2 SLP070 60022 T02220206\ 10278 20217 50000 $= 201707080651 METAR KLGA 080651Z 00000KT 10SM FEW120 FEW250 22/21 A2973\ RMK AO2 SLP069 T02220211 $= 201707080751 METAR KLGA 080751Z 20005KT 9SM FEW120 FEW250 22/22 A2973\ RMK AO2 SLP067 T02220217 $= 201707080851 METAR KLGA 080851Z 22005KT 10SM FEW250 22/21 A2973 RMK AO2\ SLP067 T02220206 56003 $= 201707080951 METAR KLGA 080951Z 23004KT 10SM FEW050 FEW250 22/20 A2974\ RMK AO2 SLP070 T02170200 $= 201707081051 METAR KLGA 081051Z 22003KT 10SM FEW050 SCT160 SCT250 23/20\ A2974 RMK AO2 SLP069 T02280200 $= 201707081151 METAR KLGA 081151Z 20005KT 10SM FEW050 SCT150 SCT250 24/20\ A2975 RMK AO2 SLP074 70213 T02440200\ 10244 20217 53006 $= 201707081251 METAR KLGA 081251Z 24006KT 10SM FEW050 BKN140 BKN250 26/21\ A2975 RMK AO2 SLP075 T02610206 $= 201707081351 METAR KLGA 081351Z 21007KT 10SM FEW120 BKN140 BKN250 27/21\ A2976 RMK AO2 SLP076 T02670206 $= 201707081451 METAR KLGA 081451Z 22008KT 10SM FEW035 BKN100 BKN140 BKN250\ 27/21 A2976 RMK AO2 SLP078 T02670206\ 53005 $= 201707081551 METAR KLGA 081551Z 23009KT 10SM FEW037 FEW100 SCT140 SCT250\ 29/19 A2975 RMK AO2 SLP073 T02890194\ $= 201707081651 METAR KLGA 081651Z 24010G18KT 10SM FEW050 FEW150 BKN250 30/18\ A2974 RMK AO2 SLP069 TCU DSNT W-NW\ T03000178 $= 201707081751 METAR KLGA 081751Z 26015G21KT 10SM FEW050 FEW150 BKN250 31/18\ A2973 RMK AO2 SLP067 T03060178 10306\ 20244 56011 $= 201707081851 METAR KLGA 081851Z 26011G20KT 10SM SCT050 SCT150 BKN250 29/18\ A2973 RMK AO2 SLP067 T02940183 $= 201707081951 METAR KLGA 081951Z 26010G20KT 10SM SCT050 SCT150 BKN250 30/18\ A2972 RMK AO2 SLP064 T03000183= 201707082051 METAR KLGA 082051Z 28019G26KT 10SM FEW050 SCT150 BKN250 30/18\ A2972 RMK AO2 PK WND 28026/2051 SLP064\ T03000178 57003= 201707082151 METAR KLGA 082151Z 25015G23KT 10SM FEW050 SCT150 BKN250 29/18\ A2973 RMK AO2 PK WND 25026/2108 SLP068\ TCU DSNT NW-N T02940178= 201707082251 METAR KLGA 082251Z 26013G23KT 10SM SCT050 BKN140 BKN250 29/18\ A2975 RMK AO2 SLP074 TCU DSNT W T02890178= 201707082351 METAR KLGA 082351Z 32007KT 10SM -RA FEW046 SCT080 BKN110\ BKN250 25/18 A2978 RMK AO2 RAB40\ SLP085 P0000 60000 T02500178 10306\ 20250 53021= 201707090051 METAR KLGA 090051Z 32010KT 10SM FEW048 BKN110 BKN250 25/17\ A2979 RMK AO2 RAE2354 SLP089 P0000\ T02500167= 201707090151 METAR KLGA 090151Z 31010KT 10SM BKN120 BKN250 25/17 A2983\ RMK AO2 SLP101 T02500167= 201707090251 METAR KLGA 090251Z 33008KT 10SM BKN120 24/17 A2985 RMK AO2\ SLP108 60000 T02440167 53023= 201707090351 METAR KLGA 090351Z 32009KT 10SM BKN180 24/17 A2986 RMK AO2\ SLP111 T02390172= 201707090451 METAR KLGA 090451Z 32007KT 10SM SCT180 23/17 A2987 RMK AO2\ SLP114 T02330172 403060217= 201707090551 METAR KLGA 090551Z 32010KT 10SM FEW060 SCT180 23/16 A2989\ RMK AO2 SLP121 60000 T02280161 10256\ 20228 53013= 201707090651 METAR KLGA 090651Z 32006KT 10SM SCT060 22/16 A2989 RMK AO2\ SLP122 T02220156= 201707090751 METAR KLGA 090751Z 31010KT 10SM SCT070 22/14 A2989 RMK AO2\ SLP123 T02220144= 201707090851 METAR KLGA 090851Z 31010KT 10SM FEW070 22/13 A2991 RMK AO2\ SLP127 T02170133 53006= 201707090951 METAR KLGA 090951Z 31008KT 10SM FEW250 21/13 A2993 RMK AO2\ SLP135 T02110133= 201707091051 METAR KLGA 091051Z 31008KT 10SM FEW033 FEW090 SCT250 21/13\ A2996 RMK AO2 SLP146 T02110128= 201707091151 METAR KLGA 091151Z 31006KT 10SM FEW090 22/12 A2998 RMK AO2\ SLP152 T02220122 10228 20211 51024= 201707091251 METAR KLGA 091251Z 32010KT 10SM FEW090 23/12 A3000 RMK AO2\ SLP158 T02280117= 201707091351 METAR KLGA 091351Z 31011KT 10SM CLR 24/12 A3000 RMK AO2 SLP160\ T02390117= 201707091451 METAR KLGA 091451Z 32009KT 10SM FEW055 25/11 A3001 RMK AO2\ SLP163 T02500111 51012= 201707091551 METAR KLGA 091551Z 33008KT 10SM FEW060 26/11 A3002 RMK AO2\ SLP165 T02560106= 201707091651 METAR KLGA 091651Z 32009KT 10SM SCT060 26/12 A3001 RMK AO2\ SLP164 T02610117= 201707091751 METAR KLGA 091751Z 30008G19KT 10SM SCT065 27/11 A3001 RMK\ AO2 SLP161 T02720111 10278 20222\ 58002= 201707091851 METAR KLGA 091851Z 27013KT 10SM SCT070 28/11 A3000 RMK AO2\ SLP160 T02830106= 201707091951 METAR KLGA 091951Z 30008G18KT 10SM SCT075 28/11 A3000 RMK\ AO2 SLP160 T02830111= 201707092051 METAR KLGA 092051Z 26007G17KT 10SM SCT070 28/11 A3000 RMK\ AO2 SLP158 T02830111 58003= 201707092151 METAR KLGA 092151Z 25008KT 10SM FEW070 28/11 A2999 RMK AO2\ SLP157 T02830111= 201707092251 METAR KLGA 092251Z VRB06G14KT 10SM FEW070 27/14 A3000 RMK\ AO2 SLP157 T02720144= 201707092351 METAR KLGA 092351Z 18010KT 10SM FEW070 26/16 A3001 RMK AO2\ SLP161 T02610156 10294 20256 53003= 201707100051 METAR KLGA 100051Z 19010KT 10SM CLR 24/17 A3002 RMK AO2 SLP164\ T02440167= 201707100151 METAR KLGA 100151Z 20005KT 10SM CLR 25/17 A3003 RMK AO2 SLP168\ T02500167= 201707100251 METAR KLGA 100251Z 18006KT 10SM CLR 24/18 A3004 RMK AO2 SLP171\ T02390183 53010= 201707100351 METAR KLGA 100351Z 20007KT 10SM CLR 23/18 A3005 RMK AO2 SLP174\ T02330183= 201707100451 METAR KLGA 100451Z 21004KT 10SM CLR 24/17 A3005 RMK AO2 SLP175\ T02390167 402940211= 201707100551 METAR KLGA 100551Z 20006KT 10SM CLR 24/15 A3005 RMK AO2 SLP175\ T02390150 10261 20233 50003= 201707100651 METAR KLGA 100651Z 22005KT 10SM CLR 24/12 A3005 RMK AO2 SLP176\ T02390122= 201707100751 METAR KLGA 100751Z 23005KT 10SM CLR 23/13 A3005 RMK AO2 SLP176\ T02330128= 201707100851 METAR KLGA 100851Z 23003KT 10SM CLR 23/13 A3004 RMK AO2 SLP173\ T02280128 58001= 201707100951 METAR KLGA 100951Z 00000KT 10SM FEW250 23/13 A3004 RMK AO2\ SLP172 T02280128= 201707101051 METAR KLGA 101051Z 21005KT 10SM SCT250 23/13 A3005 RMK AO2\ SLP175 T02330128= 201707101151 METAR KLGA 101151Z 22006KT 10SM FEW060 SCT250 25/12 A3005\ RMK AO2 SLP177 T02500122 10250 20222\ 53003= 201707101251 METAR KLGA 101251Z 21007KT 10SM SCT080 SCT250 26/12 A3007\ RMK AO2 SLP181 T02560117= 201707101351 METAR KLGA 101351Z 23009KT 10SM FEW090 BKN250 27/12 A3006\ RMK AO2 SLP180 T02670117= 201707101451 METAR KLGA 101451Z 24009KT 10SM BKN080 BKN250 28/12 A3007\ RMK AO2 SLP182 T02780122 51005= 201707101551 METAR KLGA 101551Z 21008KT 10SM SCT080 BKN250 28/12 A3006\ RMK AO2 SLP179 T02830122= 201707101651 METAR KLGA 101651Z 22008KT 180V260 10SM BKN070 BKN250 29/13\ A3005 RMK AO2 SLP176 T02940128= 201707101751 METAR KLGA 101751Z 18012G17KT 10SM FEW070 SCT130 BKN250 29/16\ A3004 RMK AO2 SLP172 T02940161 10311\ 20250 58011= 201707101851 METAR KLGA 101851Z 17013G18KT 10SM SCT060 BKN130 BKN250 29/19\ A3002 RMK AO2 SLP166 T02890189= 201707101951 METAR KLGA 101951Z 17015KT 10SM SCT055 BKN100 BKN250 29/19\ A2999 RMK AO2 SLP157 T02890189= 201707102051 METAR KLGA 102051Z 17014G22KT 10SM SCT055 SCT100 BKN250 29/19\ A2997 RMK AO2 SLP149 T02890194 58023= 201707102151 METAR KLGA 102151Z 17017G23KT 10SM SCT060 SCT100 BKN250 28/19\ A2995 RMK AO2 SLP142 T02830189= 201707102251 METAR KLGA 102251Z 18008G19KT 10SM FEW055 SCT070 BKN100 BKN250\ 29/17 A2995 RMK AO2 SLP141 VCSH T02890172= 201707102351 METAR KLGA 102351Z 18013KT 10SM SCT060 BKN080 BKN100 BKN250\ 27/19 A2996 RMK AO2 SLP145 T02670194\ 10300 20267 55004= 201707110051 METAR KLGA 110051Z 19013KT 10SM FEW060 SCT080 SCT100 BKN250\ 26/20 A2996 RMK AO2 SLP145 T02610200= 201707110151 METAR KLGA 110151Z 19009KT 10SM FEW050 SCT080 BKN190 BKN250\ 26/21 A2997 RMK AO2 SLP149 T02560211= 201707110251 METAR KLGA 110251Z 19008KT 10SM FEW095 SCT150 BKN250 25/22\ A2998 RMK AO2 SLP151 T02500217 53007= 201707110351 METAR KLGA 110351Z 18008KT 10SM FEW050 SCT085 SCT180 BKN250\ 25/22 A2998 RMK AO2 SLP151 T02500217= 201707110451 METAR KLGA 110451Z 18006KT 10SM FEW065 SCT110 OVC250 25/22\ A2996 RMK AO2 SLP146 T02500217 403110222= 201707110551 METAR KLGA 110551Z 19008KT 10SM FEW050 SCT075 BKN100 OVC250\ 25/22 A2995 RMK AO2 SLP141 T02500217\ 10267 20250 58010= 201707110651 METAR KLGA 110651Z 18008KT 10SM BKN110 24/22 A2993 RMK AO2\ SLP135 T02440217= 201707110751 METAR KLGA 110751Z 18006KT 10SM OVC110 24/22 A2992 RMK AO2\ LTG DSNT N AND NW TSE32 SLP130 T02390222= 201707110851 METAR KLGA 110851Z 16004KT 10SM SCT095 SCT180 BKN250 24/22\ A2991 RMK AO2 SLP128 T02390222 56014= 201707110951 METAR KLGA 110951Z 21007KT 10SM BKN025 BKN090 BKN180 25/21\ A2991 RMK AO2 SLP129 T02500211= 201707111051 METAR KLGA 111051Z 23006KT 10SM BKN020 BKN100 25/22 A2992\ RMK AO2 SLP132 T02500217= 201707111151 METAR KLGA 111151Z 26010KT 10SM FEW020 FEW100 BKN250 26/21\ A2993 RMK AO2 SLP136 T02610211 10261\ 20239 53008= 201707111251 METAR KLGA 111251Z 26010KT 10SM FEW100 BKN250 27/20 A2994\ RMK AO2 SLP139 T02720200= 201707111351 METAR KLGA 111351Z 24008KT 10SM FEW075 BKN100 OVC120 27/19\ A2994 RMK AO2 SLP137 T02670194= 201707111451 METAR KLGA 111451Z 22009KT 10SM FEW030 SCT075 BKN100 BKN250\ 28/20 A2994 RMK AO2 RAB39E49 SLP139\ P0000 60000 T02780200 51004= 201707111551 METAR KLGA 111551Z 23012KT 10SM FEW035 SCT150 BKN250 29/20\ A2994 RMK AO2 SLP137 T02890200= 201707111651 METAR KLGA 111651Z 25009KT 10SM BKN040 BKN047 BKN150 BKN250\ 29/20 A2993 RMK AO2 SLP133 T02940200= 201707111751 METAR KLGA 111751Z 28012KT 10SM SCT040 BKN100 BKN150 BKN250\ 30/20 A2992 RMK AO2 SLP133 60000\ T03000200 10300 20261 56007= 201707111851 METAR KLGA 111851Z 28007KT 10SM BKN047 BKN150 BKN250 30/21\ A2992 RMK AO2 SLP132 T03000206= 201707111951 METAR KLGA 111951Z 26007KT 10SM FEW047 SCT110 BKN150 BKN250\ 31/21 A2993 RMK AO2 SLP134 T03060206\ $= 201707112051 METAR KLGA 112051Z 31007KT 10SM FEW046 SCT070 BKN110 BKN160\ BKN250 30/21 A2991 RMK AO2 LTG DSNT\ SW SLP129 CB DSNT SW T03000211 58004\ $= 201707112151 METAR KLGA 112151Z 19009KT 10SM VCTS SCT050CB SCT070 BKN160\ BKN250 29/22 A2991 RMK AO2 LTG DSNT\ E RAB16E30 TSB06E50 SLP129 OCNL LTGIC\ NE TS NE MOV E P0000 T02890222 $= 201707112251 METAR KLGA 112251Z 24006KT 10SM FEW050 SCT100 BKN160 BKN250\ 30/22 A2992 RMK AO2 LTG DSNT NE AND\ E SLP133 CB DSNT E T03000222 $= 201707112351 METAR KLGA 112351Z 26008KT 10SM FEW045 BKN090 BKN160 BKN280\ 29/21 A2993 RMK AO2 SLP137 60000\ T02940211 10317 20278 53008 $= 201707120051 METAR KLGA 120051Z 28007KT 10SM FEW045 SCT090 SCT250 29/21\ A2993 RMK AO2 SLP133 T02940211 $= 201707120151 METAR KLGA 120151Z 28004KT 10SM FEW090 SCT250 28/21 A2995\ RMK AO2 SLP141 T02830211 $= 201707120251 METAR KLGA 120251Z 24004KT 10SM FEW250 28/22 A2994 RMK AO2\ SLP137 T02830217 50000 $= 201707120351 METAR KLGA 120351Z 15009KT 10SM SCT250 28/23 A2994 RMK AO2\ SLP138 T02780228 $= 201707120451 METAR KLGA 120451Z 17006KT 10SM BKN250 27/23 A2994 RMK AO2\ SLP137 T02670228 403170239 $= 201707120551 METAR KLGA 120551Z 19005KT 10SM BKN250 27/23 A2995 RMK AO2\ SLP141 T02670233 10300 20261 53004\ $= 201707120651 METAR KLGA 120651Z 22004KT 10SM SCT180 BKN250 27/22 A2995\ RMK AO2 SLP142 T02720222 $= 201707120751 METAR KLGA 120751Z 00000KT 10SM SCT120 BKN250 27/22 A2994\ RMK AO2 SLP139 T02720222 $= 201707120851 METAR KLGA 120851Z 21007KT 10SM BKN100 BKN250 27/22 A2995\ RMK AO2 SLP141 T02670217 53000 $= 201707120951 METAR KLGA 120951Z 23009KT 10SM BKN230 BKN250 26/21 A2995\ RMK AO2 SLP141 T02610211 $= 201707121051 METAR KLGA 121051Z 27009KT 10SM SCT150 BKN250 26/21 A2995\ RMK AO2 SLP142 T02610211 $= 201707121151 METAR KLGA 121151Z 26008KT 10SM BKN150 OVC250 27/21 A2998\ RMK AO2 SLP151 T02670211 10272 20256\ 53009 $= 201707121251 METAR KLGA 121251Z 27011KT 10SM CLR 28/21 A2998 RMK AO2 SLP152\ T02780211 $= 201707121351 METAR KLGA 121351Z 27008KT 10SM FEW150 BKN250 28/21 A2998\ RMK AO2 SLP150 T02830211= 201707121451 METAR KLGA 121451Z 22010G19KT 10SM FEW150 BKN250 29/22 A2998\ RMK AO2 SLP152 T02940217 53001= 201707121551 METAR KLGA 121551Z 28007G20KT 10SM SCT040 SCT250 31/22 A2998\ RMK AO2 SLP151 T03060217= 201707121651 METAR KLGA 121651Z 28014KT 10SM SCT044 SCT050 BKN250 31/21\ A2996 RMK AO2 SLP146 T03110211= 201707121751 METAR KLGA 121751Z 25016G24KT 10SM SCT045 BKN250 32/20 A2995\ RMK AO2 SLP141 T03220200 10328 20267\ 58011= 201707121851 METAR KLGA 121851Z 26011KT 10SM SCT049 BKN250 32/21 A2993\ RMK AO2 SLP135 T03220206= 201707121951 METAR KLGA 121951Z 26011G20KT 10SM SCT050 SCT070 BKN250 32/21\ A2993 RMK AO2 SLP135 T03220206= 201707122051 METAR KLGA 122051Z 27016G23KT 10SM SCT050 BKN250 32/21 A2991\ RMK AO2 SLP129 T03220206 58013= 201707122151 METAR KLGA 122151Z 24018G22KT 10SM SCT048 SCT070 BKN080 32/21\ A2992 RMK AO2 CIG 060 R22 SW SLP132\ T03220211= 201707122251 METAR KLGA 122251Z 26017G21KT 10SM -RA SCT050CB BKN075 OVC090\ 31/22 A2993 RMK AO2 PK WND 26027/2208\ RAB47 SLP136 CB NW MOV SE P0000 T03060217= 201707122351 METAR KLGA 122351Z 26009KT 10SM BKN065 BKN090 BKN250 31/22\ A2994 RMK AO2 RAE2257 SLP139 P0000\ 60000 T03060217 10328 20306 51010= 201707130051 METAR KLGA 130051Z 27011G21KT 10SM SCT050CB BKN070 BKN090\ OVC250 31/22 A2997 RMK AO2 SLP147\ CB W MOV SE T03060222= 201707130151 METAR KLGA 130151Z 32012KT 10SM SCT039 BKN080 BKN250 28/23\ A2999 RMK AO2 PK WND 27026/0100 LTG\ DSNT E SLP156 T02780228= 201707130251 METAR KLGA 130251Z 27008KT 10SM BKN210 28/23 A3000 RMK AO2\ SLP157 T02830228 51019= 201707130351 METAR KLGA 130351Z 26010KT 10SM SCT200 BKN250 29/23 A3000\ RMK AO2 SLP158 T02890228= 201707130451 METAR KLGA 130451Z 30004KT 10SM SCT150 BKN250 28/23 A2998\ RMK AO2 SLP152 T02830228 403280256= 201707130551 METAR KLGA 130551Z 25008KT 10SM SCT150 OVC220 29/22 A2998\ RMK AO2 SLP153 T02890222 10306 20272\ 58005= 201707130651 METAR KLGA 130651Z 22007KT 10SM OVC220 28/22 A2998 RMK AO2\ SLP151 T02830222= 201707130751 METAR KLGA 130751Z 20007KT 10SM BKN210 OVC250 28/23 A2997\ RMK AO2 SLP147 T02830228= 201707130851 METAR KLGA 130851Z 22008KT 10SM SCT150 SCT210 28/23 A2997\ RMK AO2 SLP149 T02780228 55003= 201707130951 METAR KLGA 130951Z 22007KT 10SM SCT150 SCT220 SCT250 28/23\ A2999 RMK AO2 SLP154 T02780228= 201707131051 METAR KLGA 131051Z 23005KT 10SM SCT150 SCT250 29/22 A2999\ RMK AO2 SLP154 T02890217= 201707131151 METAR KLGA 131151Z 22008KT 10SM FEW100 SCT150 BKN250 29/22\ A2999 RMK AO2 SLP154 T02940217 10294\ 20278 50005= 201707131251 METAR KLGA 131251Z 24010KT 10SM CLR 31/21 A2998 RMK AO2 SLP152\ T03110211= 201707131351 METAR KLGA 131351Z 24010KT 10SM FEW150 BKN250 32/21 A2997\ RMK AO2 SLP148 T03220211= 201707131451 METAR KLGA 131451Z 26010G16KT 10SM BKN250 33/21 A2996 RMK\ AO2 SLP145 T03330211 58009= 201707131551 METAR KLGA 131551Z 27009G18KT 10SM SCT050 BKN150 BKN250 33/21\ A2995 RMK AO2 SLP141 T03330211= 201707131651 METAR KLGA 131651Z 26010G20KT 10SM SCT050 BKN150 BKN250 33/21\ A2995 RMK AO2 SLP142 T03330211= 201707131751 METAR KLGA 131751Z 27014KT 10SM SCT050 SCT150 BKN250 34/22\ A2994 RMK AO2 SLP138 T03390217 10344\ 20289 57006= 201707131851 METAR KLGA 131851Z 27013KT 10SM SCT050 BKN200 BKN250 33/22\ A2994 RMK AO2 LTG DSNT N AND NE SLP139\ TCU DSNT NW-NE T03280222= 201707131951 METAR KLGA 131951Z 27014G20KT 10SM FEW050 BKN200 BKN250 33/23\ A2993 RMK AO2 SLP135 T03280228= 201707132051 METAR KLGA 132051Z 27011G17KT 10SM FEW045 BKN150 OVC250 32/23\ A2993 RMK AO2 LTG DSNT N SLP135 T03170228\ 55003= 201707132151 METAR KLGA 132151Z 35010KT 10SM SCT040 BKN090 BKN120 OVC150\ 26/22 A2996 RMK AO2 PK WND 32031/2121\ LTG DSNT SW RAB15E38 SLP146 P0000\ T02610217= 201707132251 METAR KLGA 132251Z 31005KT 10SM -RA FEW055 SCT070 BKN110\ OVC200 26/22 A2998 RMK AO2 LTG DSNT\ S RAB46 SLP153 CB DSNT S P0000 T02560217= 201707132351 METAR KLGA 132351Z 01003KT 10SM FEW040 SCT065 BKN090 OVC180\ 27/21 A2998 RMK AO2 RAE22 SLP153\ P0000 60000 T02670211 10339 20256\ 51018= 201707140051 METAR KLGA 140051Z 04010KT 10SM FEW033 SCT050 BKN100 BKN180\ BKN250 26/22 A2999 RMK AO2 SLP154\ P0000 T02560222= 201707140151 METAR KLGA 140151Z 05009KT 10SM FEW037 SCT055 BKN100 BKN180\ BKN250 24/22 A3000 RMK AO2 RAB06E16\ SLP159 P0000 T02390222= 201707140251 METAR KLGA 140251Z 05007KT 10SM SCT015 SCT031 OVC042 23/23\ A3001 RMK AO2 SLP162 60000 T02330228\ 53009= 201707140351 METAR KLGA 140351Z 09011KT 10SM BKN012 OVC019 23/22 A3003\ RMK AO2 SLP168 T02330217= 201707140451 METAR KLGA 140451Z 11011KT 10SM OVC012 23/21 A3002 RMK AO2\ SLP167 T02280206 403440228= 201707140551 METAR KLGA 140551Z 10011KT 10SM OVC010 22/21 A3003 RMK AO2\ SLP167 60000 T02220206 10267 20222\ 51005= 201707140651 METAR KLGA 140651Z 06011KT 10SM OVC006 21/20 A3004 RMK AO2\ SLP172 T02110200= 201707140751 METAR KLGA 140751Z 05011KT 10SM OVC007 21/19 A3005 RMK AO2\ SLP175 T02060189= 201707140851 METAR KLGA 140851Z 05013KT 8SM OVC005 19/18 A3005 RMK AO2\ SLP176 T01890183 51009= 201707140951 METAR KLGA 140951Z 07011KT 10SM OVC006 18/18 A3007 RMK AO2\ SLP182 T01830178= 201707141051 METAR KLGA 141051Z 07007KT 5SM -DZ BR OVC006 18/18 A3009\ RMK AO2 DZB32 SLP188 P0000 T01830178= 201707141151 METAR KLGA 141151Z 08009KT 6SM -RA BR BKN006 OVC012 18/18\ A3008 RMK AO2 LTG DSNT SW DZE1059RAB1059\ SLP186 P0001 60001 70001 T01830178\ 10222 20183 50010= 201707141251 METAR KLGA 141251Z 06009KT 8SM -RA BKN006 OVC013 19/18 A3009\ RMK AO2 TSB1158E26 SLP188 P0002 T01890178= 201707141351 METAR KLGA 141351Z 06008KT 5SM -RA BR BKN006 BKN021 OVC048\ 18/18 A3008 RMK AO2 SLP187 P0030\ T01830183= 201707141451 METAR KLGA 141451Z 05008G20KT 5SM -RA BR BKN006 BKN029 OVC085\ 19/18 A3008 RMK AO2 SLP186 P0005\ 60037 T01940183 58000= 201707141551 METAR KLGA 141551Z 07007KT 8SM BKN009 OVC030 19/18 A3007\ RMK AO2 RAE27 SLP181 P0001 T01940183= 201707141651 METAR KLGA 141651Z 20006KT 10SM OVC010 21/19 A3006 RMK AO2\ SLP179 T02060189= 201707141751 METAR KLGA 141751Z 16005KT 6SM BR OVC009 21/19 A3006 RMK\ AO2 RAB03E37 SLP177 P0000 60038 T02060194\ 10217 20183 56009= 201707141851 METAR KLGA 141851Z 09008KT 2SM -RA BR SCT004 OVC009 21/20\ A3004 RMK AO2 RAB1758E19B36 SLP172\ P0001 T02060200= 201707141951 METAR KLGA 141951Z COR 15006KT 2SM SCT004 OVC009 21/20 A3002\ RMK AO2 SFC VIS 6 RAE25 SLP167 P0004\ T02060200= 201707142051 METAR KLGA 142051Z 09008KT 070V130 2SM -RA BR OVC007 22/21\ A2999 RMK AO2 SFC VIS 5 RAB1957 SLP154\ P0003 60008 T02170206 58023= 201707142151 METAR KLGA 142151Z 04009KT 2SM BR OVC005 20/20 A3001 RMK\ AO2 RAE24 SLP162 P0000 T02000200= 201707142251 METAR KLGA 142251Z 05009KT 1/2SM R04/P6000FT BR OVC005 21/20\ A3000 RMK AO2 SFC VIS 1 1/2 SLP159\ T02060200= 201707142351 METAR KLGA 142351Z 05006KT 3SM BR OVC005 21/21 A2999 RMK\ AO2 SLP157 60008 T02060206 10217\ 20200 50003= 201707150051 METAR KLGA 150051Z 11008KT 3SM BR OVC006 21/21 A2997 RMK\ AO2 SFC VIS 4 SLP149 T02060206= 201707150151 METAR KLGA 150151Z 11009KT 3SM -RA BR OVC005 21/21 A3000\ RMK AO2 SFC VIS 4 RAB44 SLP157 P0000\ T02110206= 201707150251 METAR KLGA 150251Z 12006KT 6SM BR OVC005 21/20 A2999 RMK\ AO2 RAE0154 SLP154 P0000 60000 T02060200\ 56003= 201707150351 METAR KLGA 150351Z 06006KT 6SM BR OVC005 21/20 A2996 RMK\ AO2 SLP144 T02060200= 201707150451 METAR KLGA 150451Z 05005KT 1 1/2SM BR OVC005 21/21 A2996\ RMK AO2 SFC VIS 3 SLP143 T02060206\ 402280183= 201707150551 METAR KLGA 150551Z 06008KT 1 1/2SM -RA BR OVC004 20/20 A2996\ RMK AO2 SFC VIS 2 1/2 DZB04E50RAB50\ SLP144 P0001 60001 T02000200 10211\ 20200 55010= 201707150651 METAR KLGA 150651Z 06007KT 1 1/2SM -DZ BR OVC004 20/20 A2994\ RMK AO2 SFC VIS 4 RAE0558DZB11 SLP137\ P0000 T02000200= 201707150751 METAR KLGA 150751Z 04007KT 1 1/2SM -DZ BR OVC004 19/19 A2993\ RMK AO2 SFC VIS 5 SLP134 P0000 T01940194= 201707150851 METAR KLGA 150851Z 04007KT 1 1/2SM -DZ BR OVC004 20/20 A2993\ RMK AO2 SFC VIS 3 SLP135 P0000 60000\ T02000200 55009= 201707150951 METAR KLGA 150951Z 06006KT 3SM BR OVC004 19/19 A2993 RMK\ AO2 SFC VIS 4 DZE44 SLP134 P0000\ T01940194= 201707151051 METAR KLGA 151051Z 01004KT 1SM R04/P6000FT BR OVC003 19/19\ A2995 RMK AO2 SFC VIS 3 SLP140 T01940194= 201707151151 METAR KLGA 151151Z 05003KT 5SM BR OVC006 20/20 A2994 RMK\ AO2 SLP139 60000 70047 T02000200\ 10200 20194 50004= 201707151251 METAR KLGA 151251Z 00000KT 5SM BR SCT006 OVC016 21/21 A2995\ RMK AO2 SLP141 T02110206= 201707151351 METAR KLGA 151351Z 04004KT 10SM SCT015 BKN022 BKN100 BKN250\ 23/21 A2994 RMK AO2 SLP138 T02280211= 201707151451 METAR KLGA 151451Z 32005KT 10SM FEW016 FEW025 BKN100 BKN250\ 24/20 A2993 RMK AO2 SLP135 T02440200\ 58004= 201707151551 METAR KLGA 151551Z 34008KT 10SM FEW030 FEW045 SCT090 BKN150\ BKN250 26/20 A2993 RMK AO2 SLP134\ T02610200= 201707151651 METAR KLGA 151651Z 01004KT 10SM SCT036 BKN045 BKN085 BKN150\ BKN250 27/20 A2991 RMK AO2 SLP129\ T02720200= 201707151751 METAR KLGA 151751Z 33010KT 10SM SCT048 BKN095 BKN150 BKN250\ 28/19 A2989 RMK AO2 SLP123 T02830189\ 10289 20200 58012= 201707151851 METAR KLGA 151851Z 31007KT 10SM SCT055 SCT080 BKN090 BKN130\ BKN250 29/18 A2989 RMK AO2 SLP120\ T02890178= 201707151951 METAR KLGA 151951Z 32009KT 10SM SCT060 BKN070 BKN095 BKN250\ 29/18 A2988 RMK AO2 SLP118 T02940178= 201707152051 METAR KLGA 152051Z 31008KT 10SM BKN060 BKN090 BKN250 29/17\ A2987 RMK AO2 SLP116 T02890172 56007= 201707152151 METAR KLGA 152151Z 33011KT 10SM SCT060 BKN085 BKN250 28/17\ A2987 RMK AO2 SLP115 T02830167= 201707152251 METAR KLGA 152251Z 32010KT 10SM FEW060 SCT085 SCT250 28/17\ A2987 RMK AO2 SLP114 T02780167= 201707152351 METAR KLGA 152351Z 32008KT 10SM BKN075 BKN250 27/18 A2988\ RMK AO2 SLP118 T02670178 10300 20267\ 53002= 201707160051 METAR KLGA 160051Z 33009KT 10SM BKN080 BKN250 26/17 A2989\ RMK AO2 SLP121 T02610167= 201707160151 METAR KLGA 160151Z 32008KT 10SM SCT080 25/17 A2992 RMK AO2\ SLP131 T02500172= 201707160251 METAR KLGA 160251Z 32006KT 10SM FEW080 24/17 A2992 RMK AO2\ SLP132 T02440172 51014= 201707160351 METAR KLGA 160351Z 33007KT 10SM FEW080 24/18 A2993 RMK AO2\ SLP134 T02390178= 201707160451 METAR KLGA 160451Z 33008KT 10SM CLR 23/18 A2992 RMK AO2 SLP131\ T02330178 403000194= 201707160551 METAR KLGA 160551Z 32007KT 10SM CLR 23/17 A2992 RMK AO2 SLP130\ T02330172 10272 20233 58001= 201707160651 METAR KLGA 160651Z 33005KT 10SM CLR 23/18 A2992 RMK AO2 SLP131\ T02280178= 201707160751 METAR KLGA 160751Z 32003KT 10SM CLR 22/18 A2992 RMK AO2 SLP130\ T02220178= 201707160851 METAR KLGA 160851Z 30005KT 10SM CLR 22/18 A2993 RMK AO2 SLP133\ T02220183 53003= 201707160951 METAR KLGA 160951Z 31008KT 10SM CLR 22/18 A2994 RMK AO2 SLP139\ T02170178= 201707161051 METAR KLGA 161051Z 31005KT 10SM FEW220 FEW250 22/18 A2996\ RMK AO2 SLP144 T02220178= 201707161151 METAR KLGA 161151Z 31006KT 10SM FEW220 FEW290 23/18 A2996\ RMK AO2 SLP146 T02330183 10233 20217\ 51013= 201707161251 METAR KLGA 161251Z 29005KT 10SM FEW024 FEW220 FEW290 24/18\ A2996 RMK AO2 SLP146 T02390178= 201707161351 METAR KLGA 161351Z 00000KT 10SM FEW031 FEW220 FEW290 26/18\ A2996 RMK AO2 SLP144 T02560178= 201707161451 METAR KLGA 161451Z 34004KT 10SM FEW038 FEW220 SCT250 27/17\ A2996 RMK AO2 SLP144 T02670172 57002= 201707161551 METAR KLGA 161551Z VRB03KT 10SM FEW046 SCT200 SCT250 28/18\ A2995 RMK AO2 SLP140 T02780178= 201707161651 METAR KLGA 161651Z 04004KT 10SM SCT044 SCT210 SCT250 28/17\ A2994 RMK AO2 SLP138 T02830167= 201707161751 METAR KLGA 161751Z 09005KT 10SM SCT055 SCT210 SCT250 28/17\ A2994 RMK AO2 SLP139 T02830172 10294\ 20233 56006= 201707161851 METAR KLGA 161851Z 15010KT 10SM FEW044 SCT055 SCT210 BKN250\ 29/18 A2993 RMK AO2 SLP134 T02940183= 201707161951 METAR KLGA 161951Z 17011KT 10SM FEW045 SCT060 BKN250 29/18\ A2994 RMK AO2 SLP138 T02940183= 201707162051 METAR KLGA 162051Z 18009G17KT 10SM FEW050 SCT250 29/17 A2993\ RMK AO2 SLP136 T02940172 56003= 201707162151 METAR KLGA 162151Z 16013KT 10SM FEW050 SCT250 29/16 A2993\ RMK AO2 SLP134 T02940161= 201707162251 METAR KLGA 162251Z 17010KT 10SM FEW050 SCT250 28/18 A2994\ RMK AO2 SLP138 T02780183= 201707162351 METAR KLGA 162351Z 17009KT 10SM FEW050 SCT250 27/19 A2995\ RMK AO2 SLP140 T02670189 10300 20267\ 53004= 201707170051 METAR KLGA 170051Z 18007KT 10SM FEW050 FEW250 26/19 A2996\ RMK AO2 SLP146 T02610194= 201707170151 METAR KLGA 170151Z 19008KT 10SM FEW050 FEW250 26/18 A2999\ RMK AO2 SLP154 T02560183= 201707170251 METAR KLGA 170251Z 19007KT 10SM FEW050 FEW250 26/18 A3000\ RMK AO2 SLP158 T02560183 51017= 201707170351 METAR KLGA 170351Z 18006KT 10SM CLR 25/19 A3000 RMK AO2 SLP158\ T02500194= 201707170451 METAR KLGA 170451Z 18005KT 10SM CLR 25/20 A3000 RMK AO2 SLP158\ T02500200 403000217= 201707170551 METAR KLGA 170551Z 18005KT 10SM FEW060 FEW250 24/20 A2999\ RMK AO2 SLP156 T02440200 10267 20244\ 58001= 201707170651 METAR KLGA 170651Z 18003KT 10SM FEW060 FEW250 24/19 A2999\ RMK AO2 SLP154 T02440189= 201707170751 METAR KLGA 170751Z 19003KT 10SM FEW070 24/19 A2999 RMK AO2\ SLP155 T02440194= 201707170851 METAR KLGA 170851Z 21004KT 10SM FEW070 24/19 A3000 RMK AO2\ SLP157 T02440194 53001= 201707170951 METAR KLGA 170951Z 18004KT 10SM FEW070 24/19 A3002 RMK AO2\ SLP164 T02390194= 201707171051 METAR KLGA 171051Z 00000KT 10SM FEW070 SCT150 SCT250 25/20\ A3002 RMK AO2 SLP166 T02500200= 201707171151 METAR KLGA 171151Z 32003KT 10SM FEW070 SCT150 SCT250 26/20\ A3004 RMK AO2 SLP171 T02610200 10261\ 20239 51014= 201707171251 METAR KLGA 171251Z 04003KT 10SM FEW070 SCT150 SCT250 28/21\ A3004 RMK AO2 SLP171 T02780206= 201707171351 METAR KLGA 171351Z 07005KT 10SM SCT035 SCT150 BKN250 28/19\ A3005 RMK AO2 SLP174 T02780194= 201707171451 METAR KLGA 171451Z 19008KT 10SM FEW030 SCT050 BKN250 29/18\ A3004 RMK AO2 SLP174 T02940183 51003= 201707171551 METAR KLGA 171551Z 17010KT 10SM SCT040 BKN250 29/19 A3005\ RMK AO2 SLP175 T02940189= 201707171651 METAR KLGA 171651Z 18010KT 10SM FEW040 OVC250 28/19 A3005\ RMK AO2 SLP175 T02830194= 201707171751 METAR KLGA 171751Z 17011G17KT 10SM FEW040 BKN250 29/21 A3003\ RMK AO2 SLP170 T02890206 10300 20261\ 58003= 201707171851 METAR KLGA 171851Z 16012G20KT 10SM SCT030 BKN250 29/21 A3003\ RMK AO2 SLP168 T02890211= 201707171951 METAR KLGA 171951Z 18011G19KT 10SM SCT027 BKN250 30/22 A3003\ RMK AO2 SLP169 T03000217= 201707172051 METAR KLGA 172051Z 15013G19KT 10SM SCT028 BKN250 29/22 A3003\ RMK AO2 SLP168 T02890217 56002= 201707172151 METAR KLGA 172151Z 17014G19KT 10SM FEW030 SCT120 BKN250 28/21\ A3004 RMK AO2 SLP171 T02780211 $= 201707172251 METAR KLGA 172251Z 16011G17KT 10SM FEW030 BKN120 BKN250 27/22\ A3004 RMK AO2 LTG DSNT W AND NW SLP173\ T02720222 $= 201707172351 METAR KLGA 172351Z 19009KT 10SM FEW030 SCT085 BKN120 BKN200\ BKN250 26/22 A3006 RMK AO2 LTG DSNT\ N AND NW SLP180 T02610222 10306 20261\ 53012 $= 201707180051 METAR KLGA 180051Z 15006KT 10SM FEW016 SCT050 BKN120 BKN200\ BKN250 26/23 A3006 RMK AO2 SLP178\ T02610228 $= 201707180151 METAR KLGA 180151Z 18010KT 10SM SCT012 BKN050 BKN120 BKN200\ BKN250 26/23 A3005 RMK AO2 SLP176\ T02560233 $= 201707180251 METAR KLGA 180251Z 16011KT 10SM BKN012 BKN250 26/23 A3006\ RMK AO2 SLP178 T02560233 55001 $= 201707180351 METAR KLGA 180351Z 19008KT 10SM BKN011 BKN250 25/23 A3007\ RMK AO2 SLP184 T02500233 $= 201707180447 METAR KLGA 180447Z 19006KT 10SM BKN015 BKN070 BKN250 25/23\ A3007 RMK AO2 SLP183 T02500228 403060239\ $= 201707180551 METAR KLGA 180551Z 22005KT 10SM FEW015 FEW065 FEW250 25/22\ A3006 RMK AO2 SLP180 T02500217 10267\ 20250 50001 $= 201707180651 METAR KLGA 180651Z 19008KT 10SM FEW025 FEW070 FEW250 25/21\ A3006 RMK AO2 SLP180 T02500211 $= 201707180751 METAR KLGA 180751Z 20005KT 10SM FEW070 FEW250 24/21 A3007\ RMK AO2 SLP182 T02440206 $= 201707180851 METAR KLGA 180851Z 20004KT 10SM FEW070 FEW250 24/21 A3007\ RMK AO2 SLP181 T02440211 50001 $= 201707181051 METAR KLGA 181051Z 18005KT 10SM FEW075 FEW250 25/22 A3008\ RMK AO2 SLP184 T02500217 $= 201707181151 METAR KLGA 181151Z 21006KT 10SM FEW013 FEW070 FEW250 26/21\ A3010 RMK AO2 SLP192 T02560211 10256\ 20244 53011 $= 201707181251 METAR KLGA 181251Z 19005KT 10SM FEW014 FEW070 FEW250 27/21\ A3010 RMK AO2 SLP194 T02670211 $= 201707181351 METAR KLGA 181351Z 26004KT 10SM FEW015 FEW250 28/21 A3010\ RMK AO2 SLP193 T02780211 $= 201707181451 METAR KLGA 181451Z 19004KT 10SM FEW030 SCT250 28/21 A3010\ RMK AO2 SLP191 T02830211 58001 $= 201707181551 METAR KLGA 181551Z 17010KT 10SM SCT035 SCT250 29/22 A3009\ RMK AO2 SLP190 T02940222 $= 201707181651 METAR KLGA 181651Z 16010G15KT 10SM FEW040 SCT250 29/21 A3008\ RMK AO2 SLP185 T02940211 $= 201707181751 METAR KLGA 181751Z 16011G18KT 10SM FEW040 FEW250 31/21 A3006\ RMK AO2 SLP179 T03060206 10306 20256\ 58012 $= 201707181851 METAR KLGA 181851Z 17009KT 10SM FEW040 FEW250 30/20 A3005\ RMK AO2 SLP176 T03000200 $= 201707181951 METAR KLGA 181951Z 17009G16KT 10SM FEW040 SCT250 30/21 A3004\ RMK AO2 SLP174 T03000206 $= 201707182051 METAR KLGA 182051Z 18012KT 10SM FEW040 SCT250 30/21 A3004\ RMK AO2 SLP172 T03000211 56007 $= 201707182151 METAR KLGA 182151Z 19014KT 10SM SCT040 SCT250 29/21 A3004\ RMK AO2 SLP171 T02890211 $= 201707182251 METAR KLGA 182251Z 16012G20KT 10SM FEW040 SCT250 28/22 A3005\ RMK AO2 SLP174 T02830217 $= 201707182351 METAR KLGA 182351Z 18010KT 10SM FEW040 SCT250 28/22 A3004\ RMK AO2 SLP171 T02780217 10311 20278\ 58001 $= 201707190051 METAR KLGA 190051Z 18010KT 10SM FEW040 SCT250 27/23 A3005\ RMK AO2 SLP174 T02670228= 201707190151 METAR KLGA 190151Z 19007KT 10SM FEW250 27/23 A3005 RMK AO2\ SLP177 T02670228= 201707190251 METAR KLGA 190251Z 20010KT 10SM FEW250 28/22 A3005 RMK AO2\ SLP177 T02780222 50005= 201707190351 METAR KLGA 190351Z 20009KT 10SM FEW250 27/22 A3006 RMK AO2\ SLP179 T02720222= 201707190451 METAR KLGA 190451Z 21007KT 10SM FEW250 27/23 A3005 RMK AO2\ SLP177 T02670228 403110244= 201707190551 METAR KLGA 190551Z 22008KT 10SM FEW250 26/23 A3005 RMK AO2\ SLP176 T02610228 10283 20261 58001= 201707190651 METAR KLGA 190651Z 21006KT 10SM FEW250 26/23 A3004 RMK AO2\ SLP172 T02610228= 201707190751 METAR KLGA 190751Z 22005KT 10SM FEW250 26/23 A3003 RMK AO2\ SLP170 T02610228= 201707190851 METAR KLGA 190851Z 20007KT 10SM FEW250 26/23 A3003 RMK AO2\ SLP169 T02560228 56007= 201707190951 METAR KLGA 190951Z 21004KT 10SM FEW250 26/23 A3003 RMK AO2\ SLP169 T02560228= 201707191051 METAR KLGA 191051Z 20005KT 10SM FEW250 26/23 A3003 RMK AO2\ SLP170 T02610233= 201707191151 METAR KLGA 191151Z 20005KT 10SM FEW250 27/23 A3004 RMK AO2\ SLP174 T02720233 10272 20256 53005= 201707191251 METAR KLGA 191251Z VRB03KT 10SM FEW040 29/23 A3004 RMK AO2\ SLP172 T02890228= 201707191351 METAR KLGA 191351Z VRB05KT 10SM CLR 30/22 A3003 RMK AO2 SLP169\ T03000222= 201707191451 METAR KLGA 191451Z 29006KT 10SM FEW038 FEW250 31/20 A3003\ RMK AO2 SLP168 T03110200 56005= 201707191551 METAR KLGA 191551Z 25010KT 10SM FEW045 33/16 A3002 RMK AO2\ SLP165 T03280161= 201707191651 METAR KLGA 191651Z 26011G15KT 10SM FEW075 34/14 A3000 RMK\ AO2 SLP160 T03390139= 201707191751 METAR KLGA 191751Z 30006KT 10SM FEW070 33/17 A2998 RMK AO2\ SLP153 T03280172 10339 20272 58015= 201707191851 METAR KLGA 191851Z 29014G18KT 10SM FEW070 33/18 A2997 RMK\ AO2 SLP149 T03330178= 201707191951 METAR KLGA 191951Z 30008KT 10SM FEW065 BKN250 34/18 A2996\ RMK AO2 SLP144 T03390183= 201707192051 METAR KLGA 192051Z 31012KT 10SM SCT065 SCT250 34/19 A2995\ RMK AO2 SLP140 T03390194 57013= 201707192151 METAR KLGA 192151Z 31006KT 10SM SCT060 SCT090 SCT250 33/19\ A2994 RMK AO2 SLP138 T03330194= 201707192251 METAR KLGA 192251Z 25009KT 10SM FEW060 FEW090 SCT250 34/19\ A2994 RMK AO2 SLP139 T03390189= 201707192351 METAR KLGA 192351Z 27009KT 10SM FEW060 SCT090 SCT250 33/19\ A2994 RMK AO2 SLP139 T03330189 10344\ 20322 56002= 201707200051 METAR KLGA 200051Z VRB04KT 10SM FEW060 SCT100 SCT250 31/20\ A2997 RMK AO2 SLP148 T03110200= 201707200151 METAR KLGA 200151Z 00000KT 10SM CLR 31/21 A2997 RMK AO2 SLP148\ T03110206= 201707200251 METAR KLGA 200251Z 06003KT 10SM FEW060 SCT090 BKN250 30/22\ A2997 RMK AO2 SLP149 T03000217 51010= 201707200351 METAR KLGA 200351Z 07003KT 10SM FEW060 SCT080 BKN250 29/23\ A2998 RMK AO2 SLP151 T02890228= 201707200451 METAR KLGA 200451Z 13005KT 10SM SCT150 SCT250 29/23 A2997\ RMK AO2 SLP150 T02940233 403440256= 201707200551 METAR KLGA 200551Z 00000KT 10SM SCT150 BKN250 28/23 A2997\ RMK AO2 SLP148 T02780233 10333 20272\ 58001= 201707200651 METAR KLGA 200651Z 00000KT 10SM FEW050 BKN070 BKN250 27/23\ A2996 RMK AO2 SLP146 T02670228= 201707200751 METAR KLGA 200751Z 00000KT 10SM FEW060 FEW150 SCT250 28/22\ A2995 RMK AO2 SLP143 T02780222= 201707200851 METAR KLGA 200851Z 04003KT 10SM FEW150 FEW250 26/23 A2995\ RMK AO2 SLP142 T02610228 56006= 201707200951 METAR KLGA 200951Z 06003KT 10SM FEW150 SCT250 26/23 A2995\ RMK AO2 SLP142 T02560233= 201707201051 METAR KLGA 201051Z 06003KT 10SM FEW150 BKN250 26/23 A2996\ RMK AO2 SLP145 T02610228= 201707201151 METAR KLGA 201151Z 08004KT 10SM FEW150 BKN250 27/23 A2997\ RMK AO2 SLP148 T02720228 10294 20250\ 53006= 201707201251 METAR KLGA 201251Z 04004KT 10SM BKN250 28/22 A2997 RMK AO2\ SLP148 T02830217= 201707201351 METAR KLGA 201351Z 00000KT 10SM BKN250 30/22 A2997 RMK AO2\ SLP149 T03000222= 201707201451 METAR KLGA 201451Z VRB03KT 10SM FEW045 SCT250 32/23 A2996\ RMK AO2 SLP145 T03170228 58003= 201707201551 METAR KLGA 201551Z 10SM FEW070 BKN250 34/20 A2995 RMK AO2\ SLP141 T03390200= 201707201651 METAR KLGA 201651Z 30006KT 10SM FEW060 BKN250 34/19 A2993\ RMK AO2 SLP134 T03390194= 201707201751 METAR KLGA 201751Z 27006G16KT 10SM FEW060 SCT250 34/20 A2990\ RMK AO2 SLP125 T03440200 10350 20272\ 58021= 201707201851 METAR KLGA 201851Z 24011KT 10SM SCT060 SCT250 35/19 A2988\ RMK AO2 SLP118 T03500194= 201707201951 METAR KLGA 201951Z 25010KT 10SM SCT075 SCT250 36/17 A2986\ RMK AO2 SLP113 T03560172= 201707202051 METAR KLGA 202051Z 21009KT 180V260 10SM BKN070 BKN250 34/22\ A2985 RMK AO2 SLP109 T03440222 56016= 201707202151 METAR KLGA 202151Z 27012KT 10SM SCT075 BKN250 34/17 A2985\ RMK AO2 SLP107 T03440167= 201707202251 METAR KLGA 202251Z 26015KT 10SM SCT070 SCT170 BKN250 34/18\ A2985 RMK AO2 SLP108 T03390183= 201707202351 METAR KLGA 202351Z 29009KT 10SM FEW060 SCT170 BKN250 33/20\ A2987 RMK AO2 SLP115 CB DSNT NW MOV\ SE T03280200 10367 20322 53006= 201707210051 METAR KLGA 210051Z 29014KT 10SM -RA FEW060 SCT110 BKN170\ BKN250 28/23 A2987 RMK AO2 RAB30\ SLP113 CB DSNT SW MOV SE P0000 T02780228= 201707210151 METAR KLGA 210151Z 28009KT 10SM FEW060 SCT170 BKN240 27/21\ A2988 RMK AO2 RAE03 SLP117 P0000\ T02720211= 201707210251 METAR KLGA 210251Z 27004KT 10SM FEW060 FEW160 SCT250 28/21\ A2987 RMK AO2 SLP114 60000 T02780211\ 58001= 201707210351 METAR KLGA 210351Z 30005KT 10SM SCT085 SCT250 27/21 A2987\ RMK AO2 SLP113 T02670206= 201707210451 METAR KLGA 210451Z 30011KT 10SM SCT090 SCT250 27/21 A2987\ RMK AO2 SLP115 T02670206 403670250= 201707210551 METAR KLGA 210551Z 30007KT 10SM FEW065 BKN085 BKN250 27/21\ A2987 RMK AO2 SLP116 60000 T02670206\ 10328 20261 53002= 201707210651 METAR KLGA 210651Z 30006KT 10SM BKN050 BKN250 26/21 A2987\ RMK AO2 SLP114 T02610211= 201707210751 METAR KLGA 210751Z 33007KT 10SM BKN049 BKN250 26/21 A2986\ RMK AO2 SLP113 T02560211= 201707210851 METAR KLGA 210851Z 33005KT 10SM FEW047 SCT250 26/21 A2987\ RMK AO2 SLP114 T02560211 55003= 201707210951 METAR KLGA 210951Z 31008KT 10SM SCT055 SCT250 26/21 A2988\ RMK AO2 SLP118 T02560206= 201707211051 METAR KLGA 211051Z 31007KT 10SM FEW050 SCT250 26/21 A2989\ RMK AO2 SLP121 T02560211= 201707211151 METAR KLGA 211151Z 31005KT 10SM FEW100 FEW250 27/22 A2990\ RMK AO2 SLP124 T02670217 10267 20250\ 51010= 201707211251 METAR KLGA 211251Z 30008KT 10SM FEW100 SCT250 28/21 A2991\ RMK AO2 SLP128 T02780211= 201707211351 METAR KLGA 211351Z 33008KT 10SM FEW040 FEW100 28/21 A2992\ RMK AO2 SLP130 T02830206= 201707211451 METAR KLGA 211451Z 32010KT 10SM FEW037 FEW100 29/20 A2991\ RMK AO2 SLP127 T02940200 50003= 201707211551 METAR KLGA 211551Z 33010KT 10SM FEW040 SCT250 31/20 A2989\ RMK AO2 SLP123 T03060200= 201707211651 METAR KLGA 211651Z 31010KT 10SM FEW045 BKN250 32/19 A2988\ RMK AO2 SLP118 T03170194= 201707211751 METAR KLGA 211751Z 32011KT 10SM FEW050 BKN250 32/19 A2987\ RMK AO2 SLP114 T03220194 10328 20267\ 56013= 201707211851 METAR KLGA 211851Z 29011G15KT 10SM FEW050 BKN250 33/18 A2985\ RMK AO2 SLP109 T03330178= 201707211951 METAR KLGA 211951Z 29014G19KT 10SM FEW050 BKN250 34/17 A2985\ RMK AO2 SLP109 T03390172= 201707212051 METAR KLGA 212051Z 25011G15KT 10SM FEW060 BKN250 34/18 A2985\ RMK AO2 SLP107 T03390178 56006= 201707212151 METAR KLGA 212151Z 26010KT 10SM FEW060 BKN250 33/19 A2984\ RMK AO2 SLP104 T03330189= 201707212251 METAR KLGA 212251Z 27010KT 10SM FEW060 BKN250 33/20 A2984\ RMK AO2 SLP104 T03280200= 201707212351 METAR KLGA 212351Z 28010KT 10SM FEW060 BKN250 33/20 A2984\ RMK AO2 SLP104 T03280200 10344 20317\ 55003= 201707220051 METAR KLGA 220051Z 24009KT 10SM FEW060 BKN250 32/20 A2984\ RMK AO2 SLP104 T03170200= 201707220151 METAR KLGA 220151Z 26012KT 10SM FEW060 BKN250 32/21 A2986\ RMK AO2 SLP110 T03170206= 201707220251 METAR KLGA 220251Z 24006KT 10SM OVC250 32/21 A2986 RMK AO2\ SLP111 T03170211 53006= 201707220351 METAR KLGA 220351Z 25009KT 10SM BKN250 31/22 A2986 RMK AO2\ SLP111 T03110217= 201707220451 METAR KLGA 220451Z 26011KT 10SM SCT070 BKN250 31/22 A2985\ RMK AO2 SLP109 T03110217 403440250= 201707220551 METAR KLGA 220551Z 31010KT 10SM BKN055 BKN070 BKN095 BKN250\ 29/22 A2985 RMK AO2 SLP109 T02890222\ 10333 20289 58001= 201707220651 METAR KLGA 220651Z 29006KT 10SM SCT048 SCT070 BKN250 29/22\ A2985 RMK AO2 SLP109 T02890222= 201707220751 METAR KLGA 220751Z 33009KT 10SM FEW050 BKN090 BKN250 27/22\ A2985 RMK AO2 SLP108 T02720217= 201707220851 METAR KLGA 220851Z 03005KT 10SM FEW070 BKN250 27/21 A2985\ RMK AO2 SLP108 T02670211 55001= 201707220951 METAR KLGA 220951Z 07003KT 10SM FEW100 BKN250 26/21 A2986\ RMK AO2 SLP111 T02610211= 201707221051 METAR KLGA 221051Z 02003KT 10SM FEW130 BKN250 27/21 A2987\ RMK AO2 SLP113 T02670206= 201707221151 METAR KLGA 221151Z 05006KT 10SM FEW130 BKN250 27/21 A2988\ RMK AO2 SLP118 T02720211 10289 20256\ 53009= 201707221251 METAR KLGA 221251Z 07009KT 10SM FEW130 BKN250 27/21 A2989\ RMK AO2 SLP120 T02720206= 201707221351 METAR KLGA 221351Z 06008KT 10SM FEW130 SCT250 28/19 A2987\ RMK AO2 SLP116 T02780189= 201707221451 METAR KLGA 221451Z 04008KT 10SM FEW045 FEW130 SCT200 SCT250\ 29/18 A2988 RMK AO2 SLP117 T02890178\ 58001= 201707221551 METAR KLGA 221551Z 05011KT 10SM FEW060 FEW130 SCT200 SCT250\ 31/14 A2987 RMK AO2 SLP113 T03060144= 201707221651 METAR KLGA 221651Z 05007KT 10SM FEW050 FEW130 SCT190 BKN250\ 31/17 A2984 RMK AO2 SLP105 T03060167= 201707221751 METAR KLGA 221751Z 04006KT 10SM FEW060 BKN190 31/18 A2983\ RMK AO2 SLP100 T03060178 10317 20267\ 58017= 201707221851 METAR KLGA 221851Z 15005KT 10SM FEW060 BKN180 BKN250 31/19\ A2981 RMK AO2 SLP095 T03110194= 201707221951 METAR KLGA 221951Z 05009KT 10SM FEW060 BKN180 BKN250 31/18\ A2979 RMK AO2 SLP087 T03110183= 201707222051 METAR KLGA 222051Z 06010KT 10SM FEW060 BKN250 31/19 A2977\ RMK AO2 SLP081 T03110189 58019= 201707222151 METAR KLGA 222151Z VRB04KT 10SM FEW060 BKN250 31/18 A2976\ RMK AO2 SLP079 T03060178= 201707222251 METAR KLGA 222251Z VRB05KT 10SM FEW060 SCT120 BKN250 29/18\ A2976 RMK AO2 SLP078 T02940178= 201707222351 METAR KLGA 222351Z 15008KT 10SM FEW060 BKN110 OVC250 28/19\ A2976 RMK AO2 RAB2255E28 SLP077 P0000\ 60000 T02830189 10328 20278 57003= 201707230051 METAR KLGA 230051Z 17007KT 10SM FEW050 BKN100 OVC250 28/19\ A2977 RMK AO2 SLP080 T02780194= 201707230151 METAR KLGA 230151Z 17009KT 10SM SCT018 SCT050 OVC100 26/24\ A2976 RMK AO2 RAB0053E18 SLP079 P0000\ T02610239= 201707230251 METAR KLGA 230251Z 16005KT 10SM SCT013 BKN050 OVC080 26/24\ A2975 RMK AO2 RAB36E46 SLP073 P0000\ 60000 T02610239 58004= 201707230351 METAR KLGA 230351Z 11008KT 7SM -RA FEW015 BKN060 OVC090 24/22\ A2974 RMK AO2 RAB06 SLP069 P0007\ T02440222= 201707230451 METAR KLGA 230451Z 12004KT 2SM +RA BR BKN011 BKN023 OVC040\ 23/23 A2974 RMK AO2 SLP071 P0036\ T02280228 403280228= 201707230551 METAR KLGA 230551Z VRB04KT 9SM -RA FEW020 BKN048 OVC065 23/22\ A2972 RMK AO2 SLP065 P0015 60058\ T02280217 10283 20222 58008= 201707230651 METAR KLGA 230651Z 00000KT 10SM SCT043 OVC050 22/21 A2972\ RMK AO2 RAE04 SLP064 P0000 T02220211= 201707230751 METAR KLGA 230751Z 00000KT 9SM -RA FEW018 OVC060 23/21 A2973\ RMK AO2 RAB51 SLP066 P0000 T02280211= 201707230851 METAR KLGA 230851Z 00000KT 8SM -RA FEW025 BKN065 OVC085 23/22\ A2974 RMK AO2 SLP070 P0002 60002\ T02280217 53005= 201707230951 METAR KLGA 230951Z 23003KT 8SM FEW025 OVC065 23/22 A2975\ RMK AO2 RAE0856 SLP073 P0000 T02330217= 201707231051 METAR KLGA 231051Z 00000KT 6SM BR BKN013 BKN021 OVC065 23/21\ A2975 RMK AO2 SLP073 T02330211= 201707231151 METAR KLGA 231151Z 19003KT 6SM BR SCT015 BKN020 BKN100 23/21\ A2976 RMK AO2 SLP078 60002 70060\ T02330211 10239 20222 53009= 201707231251 METAR KLGA 231251Z 21003KT 6SM HZ SCT017 BKN022 BKN085 24/21\ A2978 RMK AO2 SLP084 T02390206= 201707231351 METAR KLGA 231351Z 05004KT 7SM BKN019 BKN027 BKN085 25/21\ A2979 RMK AO2 SLP088 T02500211= 201707231451 METAR KLGA 231451Z 05010KT 8SM FEW019 BKN027 BKN100 26/21\ A2980 RMK AO2 SLP090 T02560211 51011= 201707231551 METAR KLGA 231551Z 05012KT 8SM FEW024 BKN080 BKN095 BKN140\ 26/21 A2980 RMK AO2 SLP092 T02610206= 201707231651 METAR KLGA 231651Z 04009KT 8SM -RA SCT026 BKN060 BKN080 BKN140\ 25/20 A2983 RMK AO2 RAB41 SLP100\ P0000 T02500200= 201707231751 METAR KLGA 231751Z 00000KT 8SM -RA BKN026 BKN031 BKN050 OVC140\ 24/21 A2982 RMK AO2 SLP099 P0001\ 60001 T02440206 10267 20233 50009= 201707231851 METAR KLGA 231851Z 04004KT 10SM FEW022 OVC043 25/21 A2982\ RMK AO2 RAE1753 SLP097 P0000 T02500211= 201707231951 METAR KLGA 231951Z 05007KT 10SM OVC050 24/21 A2981 RMK AO2\ SLP093 T02440211= 201707232051 METAR KLGA 232051Z 09010KT 10SM SCT026 BKN035 OVC050 25/21\ A2982 RMK AO2 SLP097 60000 T02500206\ 55002= 201707232151 METAR KLGA 232151Z 14009KT 10SM BKN026 BKN060 26/20 A2982\ RMK AO2 RAB2055E04 SLP098 P0000 T02610200= 201707232251 METAR KLGA 232251Z 13009KT 10SM BKN060 BKN250 26/19 A2983\ RMK AO2 SLP101 T02560194= 201707232351 METAR KLGA 232351Z 12010KT 10SM BKN085 BKN250 26/19 A2984\ RMK AO2 SLP104 60000 T02560194 10261\ 20244 53007= 201707240051 METAR KLGA 240051Z 12010KT 10SM SCT060 BKN090 BKN250 25/20\ A2985 RMK AO2 SLP107 T02500200= 201707240151 METAR KLGA 240151Z 10010KT 10SM SCT020 BKN060 BKN090 BKN250\ 24/21 A2986 RMK AO2 SLP113 T02390206= 201707240251 METAR KLGA 240251Z 13011KT 10SM SCT018 SCT095 BKN110 24/20\ A2984 RMK AO2 RAB33E45 SLP105 P0000\ 60000 T02390200 50002= 201707240351 METAR KLGA 240351Z 13011KT 10SM SCT020 BKN060 OVC110 23/20\ A2986 RMK AO2 RAB31E48 SLP111 P0000\ T02330200= 201707240451 METAR KLGA 240451Z 09009KT 10SM SCT020 BKN028 OVC085 23/21\ A2984 RMK AO2 RAB0357E42 SLP103 P0000\ T02280206 402670222= 201707240551 METAR KLGA 240551Z 07010KT 10SM BKN019 BKN026 OVC055 23/21\ A2982 RMK AO2 SLP098 60000 T02280206\ 10256 20228 56013 CHINO R22 SW VISNO\ R22 SW $= 201707240651 METAR KLGA 240651Z 06010KT 10SM SCT021 BKN060 OVC100 22/21\ A2980 RMK AO2 SLP091 T02220206 CHINO\ R22 SW VISNO R22 SW $= 201707240751 METAR KLGA 240751Z 07008KT 10SM BKN022 OVC029 22/20 A2979\ RMK AO2 SLP086 T02220200 CHINO R22\ SW VISNO R22 SW $= 201707240851 METAR KLGA 240851Z 06011KT 6SM RA BR BKN016 OVC020 22/21\ A2977 RMK AO2 RAB31 SLP082 P0001\ 60001 T02170206 56017 CHINO R22 SW\ VISNO R22 SW $= 201707240951 METAR KLGA 240951Z 07010KT 2SM +RA BR BKN011 BKN016 OVC026\ 21/21 A2978 RMK AO2 SFC VIS 3 SLP083\ P0025 T02060206 CHINO R22 SW VISNO\ R22 SW $= 201707241051 METAR KLGA 241051Z 07007KT 2SM R04/6000VP6000FT RA BR BKN008\ OVC010 21/20 A2977 RMK AO2 SFC VIS\ 2 1/2 SLP080 P0015 T02110200 VISNO\ R22 SW $= 201707241151 METAR KLGA 241151Z 07014KT 7SM -RA OVC008 21/20 A2975 RMK\ AO2 CIG 006V010 SLP074 P0004 60045\ 70046 T02110200 10228 20206 58008\ CHINO R22 SW VISNO R22 SW $= 201707241251 METAR KLGA 241251Z 05009KT 5SM -RA OVC007 21/20 A2977 RMK\ AO2 RAE1156B49 SLP079 P0000 T02110200\ CHINO R22 SW VISNO R22 SW $= 201707241351 METAR KLGA 241351Z 05025G31KT 4SM ? -RA BR BKN007 OVC017\ 19/18 A2975 RMK AO2 PK WND 05031/1351\ SLP073 P0011 T01940183 VISNO R22\ SW $= 201707241451 METAR KLGA 241451Z 03012G20KT 2SM R04/4000VP6000FT +RA BR\ BKN006 OVC015 18/17 A2978 RMK AO2\ PK WND 05031/1400 CIG 005V011 SLP085\ P0018 60029 T01830172 53011 CHINO\ R22 SW VISNO R22 SW $= 201707241551 METAR KLGA 241551Z 04016KT 10SM -RA FEW008 OVC012 18/16 A2979\ RMK AO2 SLP087 P0016 T01780161 VISNO\ R22 SW $= 201707241651 METAR KLGA 241651Z 01011KT 8SM -RA FEW008 OVC012 18/16 A2982\ RMK AO2 RAE1553B15 SLP099 P0000 T01780161\ VISNO R22 SW $= 201707241751 METAR KLGA 241751Z 02011KT 10SM OVC016 19/16 A2983 RMK AO2\ RAE1654 SLP100 P0000 60045 T01890161\ 10217 20178 52015 CHINO R22 SW VISNO\ R22 SW $= 201707241851 METAR KLGA 241851Z 02009G17KT 10SM OVC018 19/16 A2983 RMK\ AO2 SLP103 T01940156 CHINO R22 SW\ VISNO R22 SW $= 201707241951 METAR KLGA 241951Z 05011KT 10SM OVC020 19/16 A2985 RMK AO2\ SLP107 T01940156 CHINO R22 SW VISNO\ R22 SW $= 201707242051 METAR KLGA 242051Z 06009KT 10SM OVC022 20/16 A2985 RMK AO2\ SLP107 T02000156 51006 CHINO R22\ SW VISNO R22 SW $= 201707242151 METAR KLGA 242151Z 08008KT 10SM OVC022 20/16 A2986 RMK AO2\ SLP110 T02000156 CHINO R22 SW VISNO\ R22 SW $= 201707242251 METAR KLGA 242251Z 09011KT 10SM OVC027 20/16 A2987 RMK AO2\ SLP115 T02000156 CHINO R22 SW VISNO\ R22 SW $= 201707242351 METAR KLGA 242351Z 08011KT 10SM BKN027 19/16 A2987 RMK AO2\ SLP115 T01940156 10211 20183 51008\ VISNO R22 SW $= 201707250051 METAR KLGA 250051Z 06011KT 10SM -RA BKN020 OVC100 19/16 A2988\ RMK AO2 RAB02 SLP119 P0000 T01940161\ CHINO R22 SW VISNO R22 SW $= 201707250151 METAR KLGA 250151Z 06012KT 10SM SCT017 BKN022 BKN042 18/15\ A2991 RMK AO2 RAE07 SLP128 P0000\ T01830150 CHINO R22 SW VISNO R22\ SW $= 201707250251 METAR KLGA 250251Z 06013KT 10SM BKN017 BKN028 OVC039 19/15\ A2994 RMK AO2 SLP139 60000 T01890150\ 53020 VISNO R22 SW $= 201707250351 METAR KLGA 250351Z 08009KT 10SM OVC019 18/15 A2996 RMK AO2\ SLP145 T01830150 CHINO R22 SW VISNO\ R22 SW $= 201707250451 METAR KLGA 250451Z 08008KT 10SM OVC015 18/15 A2996 RMK AO2\ SLP146 T01780150 402280178 CHINO\ R22 SW VISNO R22 SW $= 201707250551 METAR KLGA 250551Z 09010KT 10SM OVC015 18/15 A2997 RMK AO2\ SLP150 60000 T01780150 10194 20178\ 51010 CHINO R22 SW VISNO R22 SW $= 201707250651 METAR KLGA 250651Z 05010KT 10SM OVC013 17/16 A2998 RMK AO2\ SLP150 T01720156 CHINO R22 SW VISNO\ R22 SW $= 201707250751 METAR KLGA 250751Z 08009KT 10SM SCT012 OVC017 17/16 A2997\ RMK AO2 SLP148 T01720156 CHINO R22\ SW VISNO R22 SW $= 201707250851 METAR KLGA 250851Z 07007KT 10SM OVC025 17/15 A2999 RMK AO2\ SLP154 T01720150 53004 CHINO R22\ SW VISNO R22 SW $= 201707250951 METAR KLGA 250951Z 03006KT 10SM BKN012 OVC022 17/16 A3001\ RMK AO2 SLP160 T01670156 VISNO R22\ SW $= 201707251051 METAR KLGA 251051Z 08007KT 10SM BKN013 BKN024 BKN050 18/16\ A3002 RMK AO2 SLP164 T01780156 VISNO\ R22 SW $= 201707251151 METAR KLGA 251151Z 06006KT 10SM SCT014 BKN024 OVC050 18/16\ A3004 RMK AO2 SLP171 70045 T01830156\ 10183 20167 53012 VISNO R22 SW $= 201707251251 METAR KLGA 251251Z 04008KT 10SM OVC012 18/16 A3005 RMK AO2\ SLP176 T01830156 CHINO R22 SW VISNO\ R22 SW $= 201707251351 METAR KLGA 251351Z 04011KT 10SM OVC013 19/16 A3006 RMK AO2\ SLP180 T01940161 CHINO R22 SW VISNO\ R22 SW $= 201707251451 METAR KLGA 251451Z 05010KT 10SM OVC013 18/16 A3008 RMK AO2\ SLP185 T01830156 52014 CHINO R22\ SW VISNO R22 SW $= 201707251551 METAR KLGA 251551Z 04011KT 10SM OVC014 19/16 A3010 RMK AO2\ SLP192 T01890156 CHINO R22 SW VISNO\ R22 SW $= 201707251651 METAR KLGA 251651Z 05010KT 10SM OVC015 19/16 A3011 RMK AO2\ SLP194 T01890156 CHINO R22 SW VISNO\ R22 SW $= 201707251751 METAR KLGA 251751Z 05009KT 10SM SCT024 OVC040 20/16 A3011\ RMK AO2 SLP195 T02000161 10200 20178\ 51010 VISNO R22 SW $= 201707251851 METAR KLGA 251851Z 05009KT 10SM OVC036 20/16 A3012 RMK AO2\ SLP199 T02000156 CHINO R22 SW VISNO\ R22 SW $= 201707251951 METAR KLGA 251951Z 05008KT 10SM OVC039 21/16 A3013 RMK AO2\ SLP202 T02060161 CHINO R22 SW VISNO\ R22 SW $= 201707252051 METAR KLGA 252051Z 06009KT 10SM FEW023 OVC041 21/16 A3013\ RMK AO2 SLP204 T02060161 51009 CHINO\ R22 SW VISNO R22 SW $= 201707252151 METAR KLGA 252151Z 06009KT 10SM FEW024 OVC046 21/16 A3015\ RMK AO2 SLP208 T02060161 CHINO R22\ SW VISNO R22 SW $= 201707252251 METAR KLGA 252251Z 06008KT 10SM BKN044 OVC090 20/16 A3015\ RMK AO2 SLP211 T02000156 CHINO R22\ SW VISNO R22 SW $= 201707252351 METAR KLGA 252351Z 06011KT 10SM BKN029 OVC090 21/17 A3017\ RMK AO2 SLP215 T02110167 10217 20194\ 53012 CHINO R22 SW VISNO R22 SW $= 201707260051 METAR KLGA 260051Z 05009KT 10SM BKN031 BKN090 21/16 A3018\ RMK AO2 SLP221 T02060161 VISNO R22\ SW $= 201707260151 METAR KLGA 260151Z 04008KT 10SM BKN024 OVC030 21/16 A3020\ RMK AO2 SLP227 T02060161 CHINO R22\ SW VISNO R22 SW $= 201707260251 METAR KLGA 260251Z 03007KT 10SM OVC027 20/16 A3021 RMK AO2\ SLP230 T02000156 51009 CHINO R22\ SW VISNO R22 SW $= 201707260351 METAR KLGA 260351Z 03008KT 10SM SCT025 OVC030 20/16 A3021\ RMK AO2 SLP231 T02000156 CHINO R22\ SW VISNO R22 SW $= 201707260451 METAR KLGA 260451Z 03008KT 10SM OVC024 19/15 A3022 RMK AO2\ SLP233 T01940150 402170167 CHINO\ R22 SW VISNO R22 SW $= 201707260551 METAR KLGA 260551Z 03009KT 10SM OVC024 19/15 A3022 RMK AO2\ SLP234 T01940150 10211 20194 53004\ CHINO R22 SW VISNO R22 SW $= 201707260651 METAR KLGA 260651Z 04007KT 10SM OVC028 19/15 A3022 RMK AO2\ SLP231 T01940150 CHINO R22 SW VISNO\ R22 SW $= 201707260751 METAR KLGA 260751Z 04005KT 10SM OVC031 19/15 A3020 RMK AO2\ SLP227 T01940150 CHINO R22 SW VISNO\ R22 SW $= 201707260851 METAR KLGA 260851Z 02005KT 10SM BKN045 19/15 A3021 RMK AO2\ SLP230 T01890150 55005 CHINO R22\ SW VISNO R22 SW $= 201707260951 METAR KLGA 260951Z 03006KT 10SM SCT045 SCT250 18/15 A3023\ RMK AO2 SLP237 T01830150 VISNO R22\ SW $= 201707261051 METAR KLGA 261051Z 02004KT 10SM SCT048 SCT250 19/14 A3023\ RMK AO2 SLP237 T01890144 VISNO R22\ SW $= 201707261151 METAR KLGA 261151Z 06005KT 10SM FEW047 FEW250 19/14 A3024\ RMK AO2 SLP240 T01940144 10200 20183\ 51010 VISNO R22 SW $= 201707261251 METAR KLGA 261251Z 05006KT 10SM FEW045 FEW250 21/15 A3025\ RMK AO2 SLP244 T02060150 VISNO R22\ SW $= 201707261351 METAR KLGA 261351Z 04007KT 10SM FEW035 FEW250 22/14 A3025\ RMK AO2 SLP242 T02170139 VISNO R22\ SW $= 201707261451 METAR KLGA 261451Z 04008KT 10SM FEW035 23/13 A3023 RMK AO2\ SLP237 T02280133 58003 VISNO R22\ SW $= 201707261551 METAR KLGA 261551Z 05010KT 10SM FEW038 FEW250 23/14 A3023\ RMK AO2 SLP235 T02330139 VISNO R22\ SW $= 201707261651 METAR KLGA 261651Z 04009KT 10SM FEW042 SCT250 23/14 A3021\ RMK AO2 SLP229 T02330139 VISNO R22\ SW $= 201707261751 METAR KLGA 261751Z 17009KT 10SM SCT044 SCT250 25/15 A3020\ RMK AO2 SLP225 T02500150 10250 20194\ 58013 VISNO R22 SW $= 201707261851 METAR KLGA 261851Z 21006KT 10SM SCT045 SCT250 26/15 A3019\ RMK AO2 SLP222 T02560150 VISNO R22\ SW $= 201707261951 METAR KLGA 261951Z 17008KT 130V200 10SM BKN045 BKN250 25/14\ A3017 RMK AO2 SLP215 T02500139= 201707262051 METAR KLGA 262051Z 16008KT 10SM SCT045 BKN250 24/14 A3017\ RMK AO2 SLP216 T02440139 55009= 201707262151 METAR KLGA 262151Z 18008KT 10SM SCT045 BKN250 24/13 A3016\ RMK AO2 SLP211 T02390133= 201707262251 METAR KLGA 262251Z 16010KT 10SM SCT045 BKN250 23/13 A3014\ RMK AO2 SLP207 T02280128= 201707262351 METAR KLGA 262351Z 16009KT 10SM FEW045 BKN250 22/13 A3014\ RMK AO2 SLP207 T02220128 10256 20222\ 56009= 201707270051 METAR KLGA 270051Z 17009KT 10SM FEW030 SCT055 BKN250 22/14\ A3014 RMK AO2 SLP205 T02170144= 201707270151 METAR KLGA 270151Z 17009KT 10SM FEW055 BKN250 21/14 A3014\ RMK AO2 SLP207 T02110144= 201707270251 METAR KLGA 270251Z 17006KT 10SM SCT250 21/14 A3013 RMK AO2\ SLP204 T02110144 58003= 201707270351 METAR KLGA 270351Z 19005KT 10SM BKN250 21/14 A3013 RMK AO2\ SLP202 T02110144= 201707270451 METAR KLGA 270451Z 17008KT 10SM BKN250 21/15 A3011 RMK AO2\ SLP195 T02060150 402560183= 201707270551 METAR KLGA 270551Z 19004KT 10SM BKN250 21/16 A3011 RMK AO2\ SLP194 T02060156 10228 20206 56010= 201707270651 METAR KLGA 270651Z 21006KT 10SM BKN250 20/16 A3008 RMK AO2\ SLP185 T02000161= 201707270751 METAR KLGA 270751Z 22007KT 10SM FEW050 BKN250 20/17 A3007\ RMK AO2 SLP182 T02000167= 201707270851 METAR KLGA 270851Z 22008KT 10SM FEW060 BKN250 19/16 A3004\ RMK AO2 SLP174 T01940161 56020= 201707270951 METAR KLGA 270951Z 21006KT 10SM SCT200 BKN250 19/16 A3006\ RMK AO2 SLP179 T01940161= 201707271051 METAR KLGA 271051Z 21005KT 10SM FEW170 BKN250 20/16 A3005\ RMK AO2 SLP177 T02000161= 201707271151 METAR KLGA 271151Z 22006KT 10SM SCT045 BKN250 21/17 A3005\ RMK AO2 SLP176 T02110167 10211 20194\ 50002= 201707271251 METAR KLGA 271251Z 24007KT 10SM FEW035 BKN200 BKN250 22/17\ A3004 RMK AO2 SLP173 T02220167= 201707271351 METAR KLGA 271351Z 25011KT 10SM BKN032 BKN046 OVC200 24/17\ A3002 RMK AO2 SLP166 T02390167= 201707271451 METAR KLGA 271451Z 23009KT 10SM SCT025 BKN030 BKN036 OVC200\ 24/18 A3000 RMK AO2 SLP160 T02440183\ 58016= 201707271551 METAR KLGA 271551Z 24010G17KT 10SM BKN026 BKN032 BKN200 25/19\ A2999 RMK AO2 SLP154 T02500194= 201707271651 METAR KLGA 271651Z 23008KT 10SM BKN026 BKN046 OVC180 25/19\ A2996 RMK AO2 SLP146 T02500194= 201707271751 METAR KLGA 271751Z 16010KT 10SM OVC027 25/20 A2994 RMK AO2\ SLP139 T02500200 10256 20211 58021= 201707271851 METAR KLGA 271851Z 17011KT 10SM BKN033 OVC040 23/21 A2993\ RMK AO2 RAB31E50 SLP135 P0000 T02330206= 201707271951 METAR KLGA 271951Z 18010KT 10SM FEW028 BKN040 OVC047 24/21\ A2992 RMK AO2 RAB1853E10 SLP133 P0000\ T02390211= 201707272051 METAR KLGA 272051Z 17009KT 10SM FEW015 BKN030 OVC044 24/21\ A2991 RMK AO2 RAB14E24 SLP127 P0000\ 60000 T02440211 58012= 201707272151 METAR KLGA 272151Z 18009KT 10SM BKN026 OVC045 24/22 A2989\ RMK AO2 SLP123 T02440217 VISNO R22\ SW $= 201707272251 METAR KLGA 272251Z 17006KT 10SM BKN031 OVC036 25/22 A2989\ RMK AO2 SLP120 T02500217 CHINO R22\ SW VISNO R22 SW $= 201707272351 METAR KLGA 272351Z 16005KT 10SM BKN026 BKN033 OVC043 24/22\ A2989 RMK AO2 SLP120 60000 T02440217\ 10250 20233 56007 CHINO R22 SW VISNO\ R22 SW $= 201707280051 METAR KLGA 280051Z 16005KT 10SM FEW026 SCT045 BKN150 BKN250\ 24/22 A2988 RMK AO2 SLP117 T02440217\ VISNO R22 SW $= 201707280151 METAR KLGA 280151Z 17004KT 10SM BKN038 OVC140 24/22 A2988\ RMK AO2 SLP118 T02440222 CHINO R22\ SW VISNO R22 SW $= 201707280251 METAR KLGA 280251Z 19007KT 10SM BKN036 BKN250 25/22 A2987\ RMK AO2 SLP115 T02500217 58005 VISNO\ R22 SW $= 201707280351 METAR KLGA 280351Z 22007KT 10SM FEW027 SCT037 SCT180 BKN250\ 24/22 A2986 RMK AO2 SLP112 T02440217\ VISNO R22 SW $= 201707280451 METAR KLGA 280451Z 21004KT 10SM SCT022 SCT027 OVC250 24/22\ A2986 RMK AO2 SLP112 T02390217 402560194\ VISNO R22 SW $= 201707280551 METAR KLGA 280551Z 00000KT 10SM SCT018 SCT250 24/22 A2985\ RMK AO2 SLP108 T02390217 10250 20239\ 58007 VISNO R22 SW $= 201707280651 METAR KLGA 280651Z 18004KT 10SM BKN018 23/21 A2984 RMK AO2\ SLP106 T02330211 VISNO R22 SW $= 201707280751 METAR KLGA 280751Z 00000KT 10SM SCT017 SCT022 SCT250 23/21\ A2983 RMK AO2 SLP103 T02330211 VISNO\ R22 SW $= 201707280851 METAR KLGA 280851Z 00000KT 10SM FEW010 SCT250 23/22 A2984\ RMK AO2 SLP105 T02330217 55003 VISNO\ R22 SW $= 201707280951 METAR KLGA 280951Z 06003KT 9SM SCT130 SCT250 22/22 A2985\ RMK AO2 SLP107 T02220217 VISNO R22\ SW $= 201707281051 METAR KLGA 281051Z 05007KT 7SM FEW020 SCT130 SCT250 22/22\ A2985 RMK AO2 SLP106 T02220217 VISNO\ R22 SW $= 201707281151 METAR KLGA 281151Z 05008KT 1/4SM R04/4000VP6000FT BR BKN002\ BKN130 BKN250 22/22 A2986 RMK AO2\ SFC VIS 3/4 SLP112 T02170217 10239\ 20217 53007 VISNO R22 SW $= 201707281251 METAR KLGA 281251Z 06008KT 2SM BR BKN004 BKN150 BKN250 23/21\ A2986 RMK AO2 SFC VIS 3 SLP110 T02280211\ VISNO R22 SW $= 201707281351 METAR KLGA 281351Z 06007KT 10SM FEW011 SCT150 BKN250 24/21\ A2985 RMK AO2 SLP108 T02390211 VISNO\ R22 SW $= 201707281451 METAR KLGA 281451Z 04006KT 10SM FEW020 SCT130 BKN250 26/21\ A2985 RMK AO2 SLP109 T02560211 55003= 201707281551 METAR KLGA 281551Z 06009KT 10SM FEW025 SCT130 BKN250 27/19\ A2985 RMK AO2 SLP109 T02670194= 201707281651 METAR KLGA 281651Z 05009KT 10SM FEW025 SCT110 BKN250 27/20\ A2984 RMK AO2 SLP104 T02720200= 201707281751 METAR KLGA 281751Z 04009KT 10SM FEW035TCU FEW080 BKN120 27/21\ A2983 RMK AO2 SLP100 TCU SE-S T02720206\ 10278 20217 58009= 201707281851 METAR KLGA 281851Z 06008KT 10SM SCT035TCU BKN110 BKN250 28/20\ A2981 RMK AO2 SLP096 TCU SW T02780200= 201707281951 METAR KLGA 281951Z 05007KT 10SM FEW037 SCT110 BKN250 28/19\ A2980 RMK AO2 SLP090 T02780189= 201707282051 METAR KLGA 282051Z 04009KT 10SM FEW038 FEW120 BKN250 28/20\ A2978 RMK AO2 SLP085 T02780200 58015= 201707282151 METAR KLGA 282151Z 05007KT 10SM FEW040 FEW120 OVC180 27/19\ A2977 RMK AO2 SLP082 T02720194 $= 201707282251 METAR KLGA 282251Z 05006KT 10SM FEW040 FEW120 OVC200 28/19\ A2977 RMK AO2 SLP081 T02780194= 201707282351 METAR KLGA 282351Z 10007KT 10SM FEW040 FEW130 OVC200 28/21\ A2979 RMK AO2 SLP087 T02780211 10289\ 20267 53002= 201707290051 METAR KLGA 290051Z 15007KT 10SM FEW040 SCT130 OVC200 26/21\ A2980 RMK AO2 SLP091 T02560211= 201707290151 METAR KLGA 290151Z 05008KT 10SM FEW025 BKN140 OVC240 25/22\ A2979 RMK AO2 SLP088 T02500217= 201707290251 METAR KLGA 290251Z 04005KT 10SM FEW025 OVC190 24/22 A2980\ RMK AO2 SLP089 T02440217 51003= 201707290351 METAR KLGA 290351Z 04010KT 10SM FEW048 BKN190 BKN250 24/18\ A2978 RMK AO2 SLP085 T02440183= 201707290451 METAR KLGA 290451Z 04009KT 10SM FEW050 FEW090 OVC190 24/17\ A2977 RMK AO2 SLP082 T02390172 402890217= 201707290551 METAR KLGA 290551Z 05012KT 10SM FEW085 BKN180 BKN250 23/17\ A2977 RMK AO2 SLP082 T02330172 10278\ 20233 56007= 201707290651 METAR KLGA 290651Z 04016KT 10SM FEW055 SCT095 BKN120 BKN180\ BKN250 23/16 A2976 RMK AO2 SLP076\ T02330156 $= 201707290751 METAR KLGA 290751Z 05020KT 10SM FEW060 SCT090 BKN120 BKN170\ BKN250 23/14 A2976 RMK AO2 SLP076\ T02280139 $= 201707290851 METAR KLGA 290851Z 04019G23KT 10SM FEW060 BKN150 BKN250 22/13\ A2976 RMK AO2 PK WND 05026/0819 SLP078\ T02220128 55004 $= 201707290951 METAR KLGA 290951Z 03015G22KT 10SM SCT060 OVC160 22/12 A2976\ RMK AO2 SLP079 T02170122 $= 201707291051 METAR KLGA 291051Z 04016G21KT 10SM FEW030 SCT070 OVC160 21/13\ A2976 RMK AO2 SLP077 T02110128 $= 201707291151 METAR KLGA 291151Z 03015KT 10SM FEW030 SCT055 BKN080 OVC160\ 21/12 A2978 RMK AO2 SLP085 T02110122\ 10239 20211 53007 $= 201707291251 METAR KLGA 291251Z 03015G23KT 10SM SCT026 SCT055 BKN080 OVC160\ 21/13 A2979 RMK AO2 SLP087 T02060128\ $= 201707291351 METAR KLGA 291351Z 03015KT 10SM SCT026 SCT060 BKN080 OVC150\ 20/13 A2979 RMK AO2 SLP088 SCT026\ V BKN T02000128 $= 201707291451 METAR KLGA 291451Z 04018G24KT 10SM SCT030 SCT060 BKN080 OVC150\ 21/13 A2981 RMK AO2 SLP094 T02060133\ 53008 $= 201707291551 METAR KLGA 291551Z 03016KT 10SM SCT029 SCT034 BKN070 BKN150\ 21/13 A2979 RMK AO2 SLP088 T02110128\ $= 201707291651 METAR KLGA 291651Z 03016G23KT 10SM BKN030 BKN070 OVC150 22/14\ A2980 RMK AO2 SLP091 T02220139 $= 201707291751 METAR KLGA 291751Z 04019G24KT 10SM BKN033 BKN080 OVC150 22/14\ A2981 RMK AO2 SLP093 T02220139 10222\ 20200 $= 201707291851 METAR KLGA 291851Z 04014KT 10SM BKN035 BKN090 OVC150 22/14\ A2981 RMK AO2 SLP093 T02220139 $= 201707291951 METAR KLGA 291951Z 04009KT 10SM OVC039 23/15 A2981 RMK AO2\ SLP093 T02280150 $= 201707292051 METAR KLGA 292051Z 06012KT 10SM OVC046 24/16 A2981 RMK AO2\ SLP093 T02390156 53000 $= 201707292151 METAR KLGA 292151Z 03011KT 10SM OVC050 24/14 A2981 RMK AO2\ SLP094 T02440144 $= 201707292251 METAR KLGA 292251Z 04012KT 10SM OVC060 24/14 A2982 RMK AO2\ SLP098 T02440144 $= 201707292351 METAR KLGA 292351Z 03014KT 10SM BKN060 24/14 A2984 RMK AO2\ SLP103 T02390139 10244 20222 53009\ $= 201707300051 METAR KLGA 300051Z 02010KT 10SM FEW075 SCT250 23/14 A2985\ RMK AO2 SLP108 T02280139 $= 201707300151 METAR KLGA 300151Z 02008KT 10SM FEW060 SCT250 22/14 A2987\ RMK AO2 SLP114 T02220139 $= 201707300251 METAR KLGA 300251Z 01008KT 10SM CLR 21/14 A2988 RMK AO2 SLP119\ T02110139 51016 $= 201707300351 METAR KLGA 300351Z 03010KT 10SM CLR 21/12 A2989 RMK AO2 SLP122\ T02110122 $= 201707300451 METAR KLGA 300451Z 01007KT 10SM CLR 21/12 A2989 RMK AO2 SLP122\ T02060117 402440200 $= 201707300551 METAR KLGA 300551Z 36009KT 10SM CLR 20/11 A2989 RMK AO2 SLP121\ T02000111 10239 20200 51003 $= 201707300651 METAR KLGA 300651Z 01007KT 10SM CLR 20/12 A2989 RMK AO2 SLP122\ T02000117 $= 201707300751 METAR KLGA 300751Z 36006KT 10SM CLR 19/13 A2990 RMK AO2 SLP125\ T01940133 $= 201707300851 METAR KLGA 300851Z 35010KT 10SM CLR 19/13 A2992 RMK AO2 SLP131\ T01940128 53009 $= 201707300951 METAR KLGA 300951Z 36006KT 10SM CLR 19/13 A2993 RMK AO2 SLP136\ T01890128 $= 201707301051 METAR KLGA 301051Z 36007KT 10SM FEW250 19/13 A2995 RMK AO2\ SLP142 T01890128 $= 201707301151 METAR KLGA 301151Z 04007KT 10SM FEW250 20/12 A2997 RMK AO2\ SLP149 T02000122 10200 20189 53018\ $= 201707301251 METAR KLGA 301251Z 03009KT 10SM FEW250 21/12 A2999 RMK AO2\ SLP155 T02110122 $= 201707301351 METAR KLGA 301351Z 36007KT 10SM FEW250 22/12 A3000 RMK AO2\ SLP158 T02220117 $= 201707301451 METAR KLGA 301451Z 01006KT 10SM FEW250 23/12 A3000 RMK AO2\ SLP159 T02330122 51010 $= 201707301551 METAR KLGA 301551Z 04004KT 10SM FEW250 24/12 A3001 RMK AO2\ SLP162 T02440122 $= 201707301651 METAR KLGA 301651Z VRB04KT 10SM SCT060 SCT250 25/12 A3002\ RMK AO2 SLP164 T02500117 $= 201707301751 METAR KLGA 301751Z VRB03KT 10SM FEW060 FEW250 26/12 A3002\ RMK AO2 SLP165 T02560122 10261 20200\ 51006 $= 201707301851 METAR KLGA 301851Z VRB04KT 10SM FEW060 FEW300 26/13 A3001\ RMK AO2 SLP163 T02610128 $= 201707301951 METAR KLGA 301951Z 31003KT 10SM FEW060 FEW300 27/11 A3001\ RMK AO2 SLP161 T02720111 $= 201707302051 METAR KLGA 302051Z 03006KT 10SM FEW060 FEW300 28/12 A3000\ RMK AO2 SLP160 T02780117 56005 $= 201707302151 METAR KLGA 302151Z 02007KT 10SM FEW060 FEW300 27/11 A3000\ RMK AO2 SLP160 T02720106 $= 201707302251 METAR KLGA 302251Z 04007KT 10SM FEW070 27/11 A3000 RMK AO2\ SLP160 T02720106 $= 201707302351 METAR KLGA 302351Z 01005KT 10SM FEW060 26/10 A3002 RMK AO2\ SLP165 T02610100 10278 20256 53005\ $= 201707310051 METAR KLGA 310051Z 16008KT 10SM FEW060 FEW210 25/13 A3003\ RMK AO2 SLP169 T02500128 $= 201707310151 METAR KLGA 310151Z 18007KT 10SM FEW045 FEW200 23/14 A3005\ RMK AO2 SLP175 T02330144 $= 201707310251 METAR KLGA 310251Z 20008KT 10SM CLR 24/13 A3006 RMK AO2 SLP178\ T02390133 51013 $= 201707310351 METAR KLGA 310351Z 20004KT 10SM CLR 23/13 A3006 RMK AO2 SLP179\ T02330133 $= 201707310451 METAR KLGA 310451Z 22009KT 10SM CLR 23/12 A3006 RMK AO2 SLP178\ T02280122 402780189 $= 201707310551 METAR KLGA 310551Z 23006KT 10SM CLR 22/13 A3005 RMK AO2 SLP176\ T02220128 10261 20222 58002 $= 201707310651 METAR KLGA 310651Z 23006KT 10SM CLR 22/12 A3005 RMK AO2 SLP176\ T02220122 $= 201707310751 METAR KLGA 310751Z 21003KT 10SM CLR 22/12 A3004 RMK AO2 SLP173\ T02170122 $= 201707310851 METAR KLGA 310851Z 00000KT 10SM CLR 21/13 A3004 RMK AO2 SLP171\ T02110133 58005 $= 201707310951 METAR KLGA 310951Z 28005KT 10SM CLR 22/13 A3005 RMK AO2 SLP177\ T02170133 $= 201707311051 METAR KLGA 311051Z 31005KT 10SM FEW250 21/14 A3006 RMK AO2\ SLP178 T02110139 $= 201707311151 METAR KLGA 311151Z 33005KT 10SM FEW250 22/14 A3006 RMK AO2\ SLP179 T02220144 10222 20211 51008\ $= 201707311251 METAR KLGA 311251Z 30005KT 10SM FEW250 23/15 A3007 RMK AO2\ SLP181 T02330150 $= 201707311351 METAR KLGA 311351Z 30004KT 10SM FEW250 26/15 A3007 RMK AO2\ SLP181 T02560150 $= 201707311451 METAR KLGA 311451Z 07004KT 10SM FEW250 27/16 A3007 RMK AO2\ SLP182 T02670161 52002 $= 201707311551 METAR KLGA 311551Z 33003KT 10SM FEW250 28/16 A3006 RMK AO2\ SLP181 T02830156 $= 201707311651 METAR KLGA 311651Z 00000KT 10SM FEW060 FEW250 29/14 A3005\ RMK AO2 SLP176 T02890144 $= 201707311751 METAR KLGA 311751Z 33003KT 10SM FEW060 FEW250 30/15 A3003\ RMK AO2 SLP169 T03000150 10300 20222\ 58013 $= 201707311851 METAR KLGA 311851Z 31008KT 10SM FEW060 FEW250 31/16 A3002\ RMK AO2 SLP165 T03060156 $= 201707311951 METAR KLGA 311951Z VRB04KT 10SM FEW060 SCT250 31/16 A3000\ RMK AO2 SLP158 T03110161 $= 201707312051 METAR KLGA 312051Z 05004KT 10SM FEW060 SCT250 31/16 A3000\ RMK AO2 SLP157 T03110161 56012 $= 201707312151 METAR KLGA 312151Z 16011KT 140V200 10SM FEW060 SCT250 29/17\ A3000 RMK AO2 SLP158 T02940172 $= 201707312251 METAR KLGA 312251Z 17009KT 10SM FEW065 SCT250 27/18 A3001\ RMK AO2 SLP161 T02720183 $= 201707312351 METAR KLGA 312351Z 18011KT 10SM SCT070 BKN250 27/17 A3002\ RMK AO2 SLP166 T02670167 10317 20267\ 53008=
