 201706010051 METAR KLGA 010051Z 19006KT 10SM FEW050 BKN250 19/16 A2992\ RMK AO2 SLP130 T01890156= 201706010151 METAR KLGA 010151Z 20006KT 10SM VCTS SCT070CB BKN250 19/16\ A2994 RMK AO2 SLP137 OCNL LTGIC NW\ TS NW MOV NE T01890161= 201706010251 METAR KLGA 010251Z 06009KT 10SM FEW050 SCT110 18/16 A2993\ RMK AO2 LTG DSNT W-NE SLP135 TSE15\ CONS LTGICCC DSNT NW-NE CB DSNT NW-NE\ MOV E T01780156 50005= 201706010351 METAR KLGA 010351Z 04009G20KT 10SM FEW010 SCT021 SCT033 18/16\ A2995 RMK AO2 LTG DSNT NW-NE SLP140\ T01780156= 201706010451 METAR KLGA 010451Z 05008KT 10SM SCT035 18/13 A2995 RMK AO2\ SLP143 T01780133 402560144= 201706010551 METAR KLGA 010551Z 01004KT 10SM FEW038 17/13 A2994 RMK AO2\ SLP138 T01670128 10206 20167 50003= 201706010651 METAR KLGA 010651Z 03003KT 10SM SCT110 BKN250 16/13 A2995\ RMK AO2 SLP141 T01610133= 201706010751 METAR KLGA 010751Z 05003KT 10SM -RA FEW025 SCT080 BKN120\ 16/13 A2994 RMK AO2 RAB39 CIG 085\ R22 SW SLP138 P0000 T01610133= 201706010851 METAR KLGA 010851Z 00000KT 10SM FEW100 FEW120 16/14 A2993\ RMK AO2 RAE0752 SLP136 P0000 60000\ T01610139 56006= 201706010951 METAR KLGA 010951Z 15003KT 10SM FEW120 SCT250 17/14 A2994\ RMK AO2 SLP138 T01670139= 201706011051 METAR KLGA 011051Z 00000KT 10SM FEW120 BKN250 17/14 A2995\ RMK AO2 SLP141 T01720144= 201706011151 METAR KLGA 011151Z 19004KT 10SM FEW050 SCT120 BKN250 18/15\ A2994 RMK AO2 SLP139 60000 T01780150\ 10178 20156 50004= 201706011251 METAR KLGA 011251Z VRB06KT 9SM FEW050 SCT090 BKN250 19/16\ A2995 RMK AO2 SLP142 T01940156= 201706011351 METAR KLGA 011351Z 18007KT 10SM FEW015 SCT100 BKN250 21/16\ A2994 RMK AO2 SLP137 T02110156= 201706011451 METAR KLGA 011451Z 23006KT 10SM FEW085 23/12 A2993 RMK AO2\ SLP134 T02280122 58005= 201706011551 METAR KLGA 011551Z 29005KT 10SM SCT085 24/13 A2992 RMK AO2\ SLP130 T02440128= 201706011651 METAR KLGA 011651Z 23007G16KT 10SM SCT060 BKN080 26/10 A2990\ RMK AO2 SLP124 T02560100= 201706011751 METAR KLGA 011751Z 30007KT 10SM SCT090 26/09 A2988 RMK AO2\ SLP118 T02560094 10267 20172 58016= 201706011851 METAR KLGA 011851Z 26014KT 10SM SCT080 SCT100 27/07 A2987\ RMK AO2 SLP114 T02720072= 201706011951 METAR KLGA 011951Z 31015G20KT 10SM FEW080 SCT100 27/07 A2986\ RMK AO2 SLP113 T02720072 $= 201706012051 METAR KLGA 012051Z 28012G19KT 10SM FEW080 SCT100 26/07 A2986\ RMK AO2 SLP112 T02610067 56006 $= 201706012151 METAR KLGA 012151Z 28013G20KT 10SM SCT090 26/07 A2987 RMK\ AO2 SLP114 T02610072 $= 201706012251 METAR KLGA 012251Z 29012KT 10SM SCT075 25/09 A2987 RMK AO2\ SLP116 T02500089 $= 201706012351 METAR KLGA 012351Z 28010KT 10SM FEW075 24/08 A2988 RMK AO2\ SLP117 T02440078 10278 20233 51005\ $= 201706020051 METAR KLGA 020051Z 26009KT 10SM FEW075 24/07 A2989 RMK AO2\ SLP122 T02440067 $= 201706020151 METAR KLGA 020151Z 25010KT 10SM FEW075 24/06 A2991 RMK AO2\ SLP130 T02390056 $= 201706020251 METAR KLGA 020251Z 24011KT 10SM FEW250 23/06 A2992 RMK AO2\ SLP132 T02330056 51016 $= 201706020351 METAR KLGA 020351Z 24010KT 10SM CLR 22/07 A2992 RMK AO2 SLP132\ T02220067 $= 201706020451 METAR KLGA 020451Z 33012G24KT 10SM FEW090 20/07 A2994 RMK\ AO2 WSHFT 0412 SLP139 T02000067 402780156\ $= 201706020551 METAR KLGA 020551Z 35008KT 10SM CLR 18/09 A2996 RMK AO2 SLP143\ T01830089 10250 20183 53011 $= 201706020651 METAR KLGA 020651Z 02006KT 10SM FEW090 17/09 A2996 RMK AO2\ SLP146 T01720089 $= 201706020751 METAR KLGA 020751Z 00000KT 10SM FEW250 17/09 A2997 RMK AO2\ SLP150 T01670089 $= 201706020851 METAR KLGA 020851Z 01003KT 10SM SCT250 17/07 A2997 RMK AO2\ SLP149 T01670072 50005 $= 201706020951 METAR KLGA 020951Z 00000KT 10SM FEW250 16/07 A2998 RMK AO2\ SLP151 T01610072 $= 201706021051 METAR KLGA 021051Z 00000KT 10SM FEW250 17/07 A2998 RMK AO2\ SLP151 T01720067 $= 201706021151 METAR KLGA 021151Z 00000KT 10SM FEW250 19/07 A2998 RMK AO2\ SLP152 T01890072 10189 20156 51003\ $= 201706021251 METAR KLGA 021251Z 21005KT 10SM SCT250 20/06 A2998 RMK AO2\ SLP153 T02000061 $= 201706021351 METAR KLGA 021351Z 23006KT 10SM FEW160 SCT250 22/05 A2997\ RMK AO2 SLP150 T02170050 $= 201706021451 METAR KLGA 021451Z 22008KT 10SM FEW070 FEW100 BKN250 22/04\ A2996 RMK AO2 SLP146 T02170044 58006\ $= 201706021551 METAR KLGA 021551Z 22011KT 10SM FEW070 FEW100 SCT250 23/03\ A2994 RMK AO2 SLP139 T02330033 $= 201706021651 METAR KLGA 021651Z 20012G16KT 10SM SCT085 SCT250 23/08 A2991\ RMK AO2 SLP129 T02280083 $= 201706021751 METAR KLGA 021751Z 22013G20KT 180V240 10SM SCT085 25/06 A2990\ RMK AO2 PK WND 25026/1736 SLP125\ T02500061 10256 20189 56021 $= 201706021851 METAR KLGA 021851Z 26010G22KT 230V290 10SM SCT085 BKN110\ 24/03 A2988 RMK AO2 SLP117 T02440033\ $= 201706021951 METAR KLGA 021951Z 35019G24KT 10SM SCT100 24/03 A2987 RMK\ AO2 LTG DSNT NE SLP113 T02440028\ $= 201706022051 METAR KLGA 022051Z 30011G16KT 10SM SCT095 24/04 A2987 RMK\ AO2 PK WND 31034/2016 WSHFT 1938\ RAB15E30 SLP115 P0000 60000 T02440039\ 55010 $= 201706022151 METAR KLGA 022151Z 30019G28KT 10SM CLR 24/02 A2987 RMK AO2\ PK WND 29028/2151 SLP115 T02390017\ $= 201706022251 METAR KLGA 022251Z 33016KT 10SM CLR 23/04 A2988 RMK AO2 PK\ WND 30028/2152 SLP119 T02280044= 201706022351 METAR KLGA 022351Z 33013G19KT 10SM CLR 22/04 A2991 RMK AO2\ SLP126 60000 T02170044 10261 20211\ 53012= 201706030051 METAR KLGA 030051Z 34013KT 10SM FEW200 21/04 A2993 RMK AO2\ SLP134 T02060044= 201706030151 METAR KLGA 030151Z 35007KT 10SM FEW200 19/05 A2995 RMK AO2\ SLP142 T01940050= 201706030251 METAR KLGA 030251Z 34013KT 10SM CLR 19/04 A2997 RMK AO2 SLP149\ T01890044 51022= 201706030351 METAR KLGA 030351Z 36006KT 10SM CLR 18/04 A2997 RMK AO2 SLP149\ T01780044= 201706030451 METAR KLGA 030451Z 34003KT 10SM CLR 17/04 A2997 RMK AO2 SLP148\ T01720044 402610156= 201706030551 METAR KLGA 030551Z 00000KT 10SM CLR 17/05 A2996 RMK AO2 VIS\ 1 R22 SW CIG 001 R22 SW SLP145 T01720050\ 10217 20167 58004= 201706030651 METAR KLGA 030651Z 28004KT 10SM CLR 17/04 A2996 RMK AO2 VIS\ 1/4 R22 SW SLP146 T01670039 CHINO\ R22 SW $= 201706030751 METAR KLGA 030751Z 31005KT 10SM SCT150 SCT200 17/06 A2996\ RMK AO2 VIS 1/4 R22 SW SLP145 T01670056\ $= 201706030851 METAR KLGA 030851Z 00000KT 10SM BKN180 16/06 A2995 RMK AO2\ VIS 1/2 R22 SW SLP142 T01610061 58003\ $= 201706030951 METAR KLGA 030951Z 23003KT 10SM BKN150 17/05 A2996 RMK AO2\ VIS 1 R22 SW SLP144 T01670050 $= 201706031051 METAR KLGA 031051Z 23004KT 10SM FEW060 FEW120 BKN200 BKN260\ 17/05 A2998 RMK AO2 SLP152 T01720050\ $= 201706031151 METAR KLGA 031151Z 27016G28KT 10SM -RA BKN065 OVC080 15/07\ A3000 RMK AO2 PK WND 26028/1145 RAB25\ SLP158 P0000 60000 T01500072 10178\ 20150 53016 CHINO R22 SW $= 201706031251 METAR KLGA 031251Z 24008KT 10SM FEW040 SCT080 BKN100 OVC250\ 16/07 A2997 RMK AO2 RAE13 SLP148\ P0000 T01610072 $= 201706031351 METAR KLGA 031351Z 27012KT 10SM FEW060 SCT100 BKN150 BKN250\ 17/08 A2997 RMK AO2 SLP149 T01670078\ $= 201706031451 METAR KLGA 031451Z 29012G18KT 10SM SCT060 SCT100 SCT150 BKN250\ 18/08 A2996 RMK AO2 SLP145 60000\ T01780083 56014 $= 201706031551 METAR KLGA 031551Z 33011G21KT 10SM BKN060 BKN150 BKN250 20/06\ A2995 RMK AO2 SLP141 T02000061 $= 201706031651 METAR KLGA 031651Z 35013G21KT 10SM SCT060 BKN075 BKN150 BKN250\ 19/05 A2995 RMK AO2 SLP140 T01940050\ CHINO R22 SW $= 201706031751 METAR KLGA 031751Z 30012G20KT 10SM FEW060 SCT070 BKN250 21/05\ A2994 RMK AO2 SLP137 60000 T02060050\ 10217 20150 56008 $= 201706031851 METAR KLGA 031851Z 32011G22KT 10SM FEW070 SCT085 22/04 A2993\ RMK AO2 PK WND 30026/1839 SLP135\ T02220039 $= 201706031951 METAR KLGA 031951Z 31015G22KT 10SM SCT080 23/04 A2993 RMK\ AO2 SLP133 T02280039 $= 201706032051 METAR KLGA 032051Z 29012KT 10SM SCT085 23/03 A2992 RMK AO2\ SLP132 T02280033 56005 $= 201706032151 METAR KLGA 032151Z 32014KT 10SM FEW085 FEW250 23/04 A2992\ RMK AO2 VIS 2 1/2 R22 SW SLP131 T02280044\ $= 201706032251 METAR KLGA 032251Z 31014KT 10SM FEW085 FEW250 23/06 A2993\ RMK AO2 SLP135 T02280056 $= 201706032351 METAR KLGA 032351Z 32014KT 10SM FEW085 FEW250 22/05 A2995\ RMK AO2 SLP141 T02220050 10233 20211\ 53009 $= 201706040051 METAR KLGA 040051Z 32012KT 10SM FEW085 FEW250 21/06 A2996\ RMK AO2 SLP145 T02110061 $= 201706040151 METAR KLGA 040151Z 32009KT 10SM FEW250 21/07 A2998 RMK AO2\ SLP151 T02060067 $= 201706040251 METAR KLGA 040251Z 32006KT 10SM FEW250 20/08 A2998 RMK AO2\ SLP150 T02000078 50009 $= 201706040351 METAR KLGA 040351Z 31009KT 10SM FEW250 19/07 A2999 RMK AO2\ SLP154 T01940067 $= 201706040451 METAR KLGA 040451Z 31006KT 10SM FEW250 19/06 A3000 RMK AO2\ SLP158 T01890061 402330150 $= 201706040551 METAR KLGA 040551Z 33007KT 10SM CLR 18/05 A3000 RMK AO2 SLP159\ T01830050 10222 20178 51008 CHINO\ R22 SW $= 201706040651 METAR KLGA 040651Z 36005KT 10SM CLR 17/05 A3001 RMK AO2 SLP161\ T01720050 CHINO R22 SW $= 201706040751 METAR KLGA 040751Z 00000KT 10SM CLR 17/06 A3001 RMK AO2 SLP160\ T01670061 CHINO R22 SW $= 201706040851 METAR KLGA 040851Z 30003KT 10SM CLR 16/07 A3001 RMK AO2 SLP162\ T01610067 51003 CHINO R22 SW $= 201706040951 METAR KLGA 040951Z 29003KT 10SM FEW250 16/06 A3001 RMK AO2\ SLP163 T01610056 $= 201706041051 METAR KLGA 041051Z 32005KT 10SM FEW090 FEW200 SCT250 17/06\ A3002 RMK AO2 SLP165 T01670061 $= 201706041151 METAR KLGA 041151Z 32003KT 10SM FEW075 FEW090 SCT190 SCT250\ 18/06 A3002 RMK AO2 SLP165 T01830061\ 10183 20161 50002 $= 201706041251 METAR KLGA 041251Z 00000KT 10SM FEW075 FEW090 SCT190 SCT250\ 20/07 A3002 RMK AO2 SLP165 T02000067\ $= 201706041351 METAR KLGA 041351Z 07004KT 10SM FEW075 SCT090 SCT170 BKN250\ 21/06 A3001 RMK AO2 SLP161 T02110061\ $= 201706041451 METAR KLGA 041451Z 19006KT 10SM FEW050 SCT075 SCT090 BKN170\ BKN250 21/06 A3000 RMK AO2 SLP158\ T02110056 58007 $= 201706041551 METAR KLGA 041551Z 20009KT 10SM FEW045 SCT080 BKN120 BKN170\ BKN250 21/06 A2999 RMK AO2 SLP154\ T02060061= 201706041651 METAR KLGA 041651Z 17010KT 10SM FEW045 SCT075 BKN110 BKN160\ BKN250 20/07 A2996 RMK AO2 SLP145\ T02000067= 201706041751 METAR KLGA 041751Z 20008KT 10SM -RA FEW040 BKN075 BKN090\ OVC160 18/08 A2998 RMK AO2 RAB16\ SLP152 P0000 60000 T01830083 10217\ 20183 55005= 201706041851 METAR KLGA 041851Z 12007KT 10SM -RA FEW080 OVC095 18/09 A2996\ RMK AO2 SLP146 P0000 T01830094= 201706041951 METAR KLGA 041951Z 14006KT 10SM -RA FEW040 OVC085 18/09 A2994\ RMK AO2 SLP138 P0000 T01780094= 201706042051 METAR KLGA 042051Z VRB05KT 10SM -RA FEW040 OVC100 18/11 A2990\ RMK AO2 SLP123 P0001 60001 T01830106\ 58029= 201706042151 METAR KLGA 042151Z 17009KT 10SM -RA FEW040 OVC100 18/10 A2987\ RMK AO2 SLP116 P0000 T01780100= 201706042251 METAR KLGA 042251Z 17006KT 10SM OVC085 19/13 A2987 RMK AO2\ RAE35 SLP114 P0000 T01890128= 201706042351 METAR KLGA 042351Z 16005KT 10SM OVC080 18/13 A2988 RMK AO2\ SLP118 60001 T01830133 10189 20178\ 55005= 201706050051 METAR KLGA 050051Z 05008KT 10SM SCT090 OVC150 17/13 A2986\ RMK AO2 SLP112 T01670128= 201706050151 METAR KLGA 050151Z 05008KT 10SM SCT085 BKN140 16/13 A2986\ RMK AO2 SLP111 T01610128= 201706050251 METAR KLGA 050251Z 02007KT 10SM FEW085 BKN130 BKN200 16/13\ A2984 RMK AO2 SLP106 T01610133 56012= 201706050351 METAR KLGA 050351Z 04006KT 10SM SCT095 BKN130 OVC250 16/14\ A2982 RMK AO2 SLP097 T01610139= 201706050451 METAR KLGA 050451Z 02004KT 8SM -RA FEW060 BKN080 OVC100 15/13\ A2983 RMK AO2 RAB27 SLP100 P0002\ T01500133 402170150= 201706050551 METAR KLGA 050551Z 04009KT 10SM BKN100 15/14 A2979 RMK AO2\ RAE22 SLP088 P0002 60004 T01500139\ 10183 20150 58018= 201706050651 METAR KLGA 050651Z 07005KT 10SM OVC006 15/14 A2979 RMK AO2\ LTG DSNT SE-SW SLP089 T01500139= 201706050751 METAR KLGA 050751Z 03005KT 7SM OVC005 16/14 A2976 RMK AO2\ LTG DSNT SE-W RAB0653E34 SLP076 P0001\ T01560144= 201706050851 METAR KLGA 050851Z 05008KT 7SM -TSRA BKN005 BKN050CB OVC075\ 16/14 A2974 RMK AO2 LTG DSNT SE AND\ S RAB0754E04B10 TSB31 SLP069 FRQ\ LTGICCCCA SE-SW-W TS SE-SW-W MOV\ E P0000 60001 T01560144 58019= 201706050951 METAR KLGA 050951Z 03006KT 10SM OVC005 16/14 A2974 RMK AO2\ LTG DSNT SE RAE0854B11E30 TSE0854\ SLP071 P0000 T01560144= 201706051051 METAR KLGA 051051Z 04007KT 9SM OVC005 16/14 A2976 RMK AO2\ RAB02E20 SLP076 P0000 T01560144= 201706051151 METAR KLGA 051151Z 06006KT 4SM BR OVC005 16/14 A2976 RMK\ AO2 SLP076 60001 70006 T01560144\ 10156 20150 51007= 201706051251 METAR KLGA 051251Z 06009KT 3SM BR OVC005 16/14 A2977 RMK\ AO2 SLP080 T01610144= 201706051351 METAR KLGA 051351Z 05010KT 3SM BR OVC004 17/15 A2977 RMK\ AO2 SLP081 T01670150= 201706051451 METAR KLGA 051451Z 04009KT 3SM BR OVC004 17/15 A2977 RMK\ AO2 SLP081 T01720150 50005= 201706051551 METAR KLGA 051551Z 05010KT 2 1/2SM BR OVC005 17/15 A2977\ RMK AO2 SFC VIS 3 SLP080 T01720150= 201706051651 METAR KLGA 051651Z 05013KT 3SM BR SCT005 OVC012 17/15 A2976\ RMK AO2 SFC VIS 4 SLP076 T01720150= 201706051751 METAR KLGA 051751Z 05010KT 3SM BR OVC008 17/15 A2976 RMK\ AO2 SFC VIS 4 SLP078 T01720150 10183\ 20156 55003= 201706051851 METAR KLGA 051851Z 04009KT 3SM BR OVC009 17/15 A2975 RMK\ AO2 SFC VIS 4 SLP074 T01720150= 201706051951 METAR KLGA 051951Z 04009KT 10SM SCT009 BKN020 OVC026 18/15\ A2974 RMK AO2 SLP072 T01780150= 201706052051 METAR KLGA 052051Z 04012KT 10SM OVC015 18/16 A2973 RMK AO2\ SLP067 T01780156 58007= 201706052151 METAR KLGA 052151Z 03009G18KT 10SM OVC013 18/16 A2972 RMK\ AO2 SLP064 T01830156= 201706052251 METAR KLGA 052251Z 04007KT 10SM OVC013 18/16 A2973 RMK AO2\ SLP066 T01780156= 201706052351 METAR KLGA 052351Z 13009KT 8SM BR OVC008 17/16 A2974 RMK\ AO2 SLP072 T01720156 10194 20172\ 53005= 201706060051 METAR KLGA 060051Z 06008KT 5SM BR OVC006 17/16 A2973 RMK\ AO2 SLP068 T01720156= 201706060151 METAR KLGA 060151Z 06007KT 5SM BR OVC006 17/15 A2972 RMK\ AO2 SLP065 T01720150= 201706060251 METAR KLGA 060251Z 05013KT 1/2SM R04/P6000FT BR OVC002 17/15\ A2973 RMK AO2 SFC VIS 2 SLP066 T01670150\ 55006= 201706060351 METAR KLGA 060351Z 06013KT 7SM OVC005 16/14 A2973 RMK AO2\ SLP067 T01610144= 201706060451 METAR KLGA 060451Z 05018KT 6SM BR OVC005 15/13 A2972 RMK\ AO2 SLP064 T01500133 401940150= 201706060551 METAR KLGA 060551Z 07013KT 9SM OVC006 14/13 A2971 RMK AO2\ SLP059 T01440133 10178 20144 58008= 201706060651 METAR KLGA 060651Z 05016KT 9SM -DZ OVC007 14/13 A2971 RMK\ AO2 DZB06 SLP059 P0000 T01390128= 201706060751 METAR KLGA 060751Z 06013KT 10SM -DZ OVC009 14/12 A2969 RMK\ AO2 SLP055 P0000 T01390122= 201706060851 METAR KLGA 060851Z 02009KT 10SM OVC010 14/12 A2969 RMK AO2\ DZE47 SLP054 P0000 60000 T01390122\ 56005= 201706060951 METAR KLGA 060951Z 03006KT 10SM OVC012 14/12 A2971 RMK AO2\ SLP060 T01390117= 201706061051 METAR KLGA 061051Z 03012KT 10SM -RA BKN011 OVC016 13/12 A2972\ RMK AO2 RAB37 SLP063 P0000 T01330117= 201706061151 METAR KLGA 061151Z 05015KT 10SM -RA OVC012 14/12 A2973 RMK\ AO2 RAE02B21 SLP068 P0000 60000 T01390117\ 10144 20133 51014= 201706061251 METAR KLGA 061251Z 05015KT 10SM -RA OVC014 14/11 A2974 RMK\ AO2 SLP072 P0002 T01390111= 201706061351 METAR KLGA 061351Z 04011KT 10SM OVC012 13/11 A2975 RMK AO2\ RAE1259 SLP073 P0000 T01330111= 201706061451 METAR KLGA 061451Z 06013KT 10SM OVC014 14/11 A2976 RMK AO2\ SLP076 60002 T01440106 51008= 201706061551 METAR KLGA 061551Z 06012KT 8SM OVC016 13/11 A2977 RMK AO2\ SLP081 T01330106= 201706061651 METAR KLGA 061651Z 04012KT 2SM BR SCT007 BKN016 OVC022 13/11\ A2978 RMK AO2 SFC VIS 2 1/2 RAB11E46\ SLP083 P0001 T01280111= 201706061751 METAR KLGA 061751Z 04008KT 2 1/2SM -RA BR SCT007 BKN015 OVC026\ 13/11 A2979 RMK AO2 SFC VIS 4 RAB10\ SLP086 P0000 60003 T01280111 10150\ 20128 51010 $= 201706061851 METAR KLGA 061851Z 06009KT 7SM FEW011 BKN025 OVC035 14/12\ A2979 RMK AO2 RAE04 SLP088 P0000\ T01390117 $= 201706061951 METAR KLGA 061951Z 05009KT 10SM OVC032 14/11 A2980 RMK AO2\ SLP092 T01390106 $= 201706062051 METAR KLGA 062051Z 06012KT 10SM OVC029 14/10 A2981 RMK AO2\ SLP093 60000 T01440100 51007 $= 201706062151 METAR KLGA 062151Z 05011KT 10SM OVC024 14/09 A2982 RMK AO2\ SLP098 T01440094 $= 201706062251 METAR KLGA 062251Z 07013KT 10SM OVC021 14/10 A2984 RMK AO2\ SLP105 T01390100 $= 201706062351 METAR KLGA 062351Z 06013KT 9SM OVC015 13/10 A2987 RMK AO2\ SLP116 60000 T01280100 10150 20128\ 53022 $= 201706070051 METAR KLGA 070051Z 06014KT 10SM SCT010 OVC018 13/10 A2989\ RMK AO2 SLP121 T01280100 $= 201706070151 METAR KLGA 070151Z 03010KT 10SM OVC019 12/09 A2991 RMK AO2\ SLP127 T01220089 $= 201706070251 METAR KLGA 070251Z 05012KT 10SM BKN023 OVC041 12/08 A2993\ RMK AO2 SLP134 T01220078 53018 $= 201706070351 METAR KLGA 070351Z 03009KT 10SM OVC021 12/07 A2992 RMK AO2\ SLP133 T01170072 $= 201706070451 METAR KLGA 070451Z 02009KT 10SM SCT020 SCT080 11/07 A2993\ RMK AO2 SLP134 T01110072 401500111\ $= 201706070551 METAR KLGA 070551Z 02011KT 10SM OVC019 12/08 A2993 RMK AO2\ SLP135 T01170078 10133 20111 53001\ $= 201706070651 METAR KLGA 070651Z 03009KT 10SM OVC019 12/08 A2993 RMK AO2\ SLP133 T01170078 $= 201706070751 METAR KLGA 070751Z 02007KT 10SM BKN022 OVC028 12/08 A2992\ RMK AO2 SLP133 T01170078 $= 201706070851 METAR KLGA 070851Z 02007KT 10SM OVC030 12/08 A2993 RMK AO2\ SLP135 T01170078 55000 $= 201706070951 METAR KLGA 070951Z 02005KT 10SM FEW018 BKN034 12/08 A2994\ RMK AO2 SLP138 T01170078 $= 201706071051 METAR KLGA 071051Z 01005KT 10SM FEW018 SCT037 BKN047 12/08\ A2996 RMK AO2 SLP144 T01220083 $= 201706071151 METAR KLGA 071151Z 02006KT 10SM SCT018 OVC050 13/08 A2998\ RMK AO2 SLP151 70003 T01280083 10133\ 20117 53016 $= 201706071251 METAR KLGA 071251Z 03007KT 10SM FEW018 BKN055 14/08 A2999\ RMK AO2 SLP155 T01440083 $= 201706071351 METAR KLGA 071351Z VRB05KT 10SM SCT026 BKN060 16/08 A2999\ RMK AO2 SLP156 T01610083= 201706071451 METAR KLGA 071451Z 05006KT 10SM SCT028 BKN050 BKN150 17/09\ A2999 RMK AO2 SLP156 T01670094 51005= 201706071551 METAR KLGA 071551Z 06008KT 10SM BKN032 OVC045 16/08 A2999\ RMK AO2 SLP155 T01610083= 201706071651 METAR KLGA 071651Z 05004KT 10SM SCT036 BKN055 17/09 A2998\ RMK AO2 SLP152 T01720094= 201706071751 METAR KLGA 071751Z 05006KT 10SM SCT038 BKN060 BKN150 19/09\ A2998 RMK AO2 SLP151 T01890089 10189\ 20128 58005= 201706071851 METAR KLGA 071851Z 06008KT 10SM SCT060 BKN150 19/08 A2998\ RMK AO2 SLP151 T01940083= 201706071951 METAR KLGA 071951Z 09007KT 10SM SCT060 BKN150 21/08 A2998\ RMK AO2 SLP152 T02060078= 201706072051 METAR KLGA 072051Z 06007KT 10SM BKN060 20/07 A2999 RMK AO2\ SLP155 T02000072 53004= 201706072151 METAR KLGA 072151Z 16008KT 10SM SCT065 19/09 A2999 RMK AO2\ SLP155 T01940089= 201706072251 METAR KLGA 072251Z 18007KT 10SM CLR 19/09 A2999 RMK AO2 SLP156\ T01940094= 201706072351 METAR KLGA 072351Z 00000KT 10SM CLR 20/09 A2999 RMK AO2 SLP157\ T02000089 10211 20183 53002= 201706080051 METAR KLGA 080051Z 24005KT 10SM CLR 19/09 A3001 RMK AO2 SLP160\ T01890094= 201706080151 METAR KLGA 080151Z 23004KT 10SM CLR 19/09 A3002 RMK AO2 SLP164\ T01890094= 201706080251 METAR KLGA 080251Z 22005KT 10SM FEW250 18/09 A3002 RMK AO2\ SLP164 T01830094 51008= 201706080351 METAR KLGA 080351Z 21004KT 10SM FEW250 18/09 A3002 RMK AO2\ SLP164 T01780094= 201706080451 METAR KLGA 080451Z 22004KT 10SM FEW250 17/10 A3001 RMK AO2\ SLP163 T01720100 402110111= 201706080551 METAR KLGA 080551Z 28003KT 10SM FEW250 17/11 A3001 RMK AO2\ SLP160 T01720106 10200 20167 58004= 201706080651 METAR KLGA 080651Z 30003KT 10SM CLR 17/10 A3001 RMK AO2 SLP161\ T01670100= 201706080751 METAR KLGA 080751Z 00000KT 9SM CLR 16/11 A2999 RMK AO2 SLP156\ T01560106= 201706080851 METAR KLGA 080851Z 00000KT 10SM FEW250 15/11 A2999 RMK AO2\ SLP156 T01500111 58005= 201706080951 METAR KLGA 080951Z 05004KT 10SM FEW250 14/12 A3000 RMK AO2\ SLP158 T01440122= 201706081051 METAR KLGA 081051Z 04003KT 10SM SCT250 16/11 A3001 RMK AO2\ SLP162 T01560111= 201706081151 METAR KLGA 081151Z 06009KT 10SM SCT250 17/11 A3002 RMK AO2\ SLP165 T01670106 10172 20144 53010= 201706081251 METAR KLGA 081251Z 04010G22KT 10SM BKN250 16/12 A3002 RMK\ AO2 SLP166 T01610122= 201706081351 METAR KLGA 081351Z 05010KT 10SM BKN250 17/13 A3002 RMK AO2\ SLP164 T01670128= 201706081451 METAR KLGA 081451Z 04010KT 10SM FEW028 BKN250 18/13 A3001\ RMK AO2 SLP163 T01780133 58002= 201706081551 METAR KLGA 081551Z 19008KT 10SM FEW025 BKN250 20/13 A3001\ RMK AO2 SLP162 T02000133= 201706081651 METAR KLGA 081651Z VRB06KT 10SM FEW027 OVC250 20/11 A3000\ RMK AO2 SLP157 T02000106= 201706081751 METAR KLGA 081751Z 11009KT 10SM FEW030 OVC210 21/06 A2997\ RMK AO2 SLP150 T02060061 10217 20161\ 58014= 201706081851 METAR KLGA 081851Z 14007KT 10SM FEW035 OVC200 19/05 A2996\ RMK AO2 SLP146 T01940050= 201706081951 METAR KLGA 081951Z 15007KT 10SM FEW035 BKN170 OVC250 19/07\ A2995 RMK AO2 SLP143 T01940072= 201706082051 METAR KLGA 082051Z 14008KT 10SM FEW035 SCT170 BKN200 BKN250\ 18/09 A2993 RMK AO2 SLP134 T01830089\ 58016= 201706082151 METAR KLGA 082151Z 12005KT 10SM SCT150 BKN200 BKN250 17/07\ A2990 RMK AO2 SLP125 T01720072= 201706082251 METAR KLGA 082251Z 07006KT 10SM BKN150 BKN200 BKN250 18/04\ A2988 RMK AO2 SLP119 T01780039= 201706082351 METAR KLGA 082351Z 04007KT 10SM BKN130 BKN200 BKN250 17/04\ A2986 RMK AO2 SLP112 T01670039 10206\ 20167 56022= 201706090051 METAR KLGA 090051Z 04005KT 10SM BKN140 BKN200 BKN250 16/05\ A2984 RMK AO2 SLP105 T01610050= 201706090151 METAR KLGA 090151Z 04005KT 10SM BKN150 16/06 A2984 RMK AO2\ SLP105 T01610061= 201706090251 METAR KLGA 090251Z 04008KT 10SM BKN150 BKN250 15/07 A2983\ RMK AO2 SLP101 T01500072 56011= 201706090351 METAR KLGA 090351Z 03005KT 10SM BKN150 BKN250 14/09 A2981\ RMK AO2 SLP096 T01440089= 201706090451 METAR KLGA 090451Z 01004KT 10SM SCT150 SCT250 14/10 A2979\ RMK AO2 SLP087 T01390100 402170139= 201706090551 METAR KLGA 090551Z 04003KT 10SM CLR 14/08 A2977 RMK AO2 SLP082\ T01390083 10167 20139 56019= 201706090651 METAR KLGA 090651Z 00000KT 10SM BKN150 14/09 A2975 RMK AO2\ SLP074 T01390089= 201706090751 METAR KLGA 090751Z 30006KT 10SM BKN150 14/09 A2973 RMK AO2\ SLP069 T01440094= 201706090851 METAR KLGA 090851Z 00000KT 10SM FEW150 14/08 A2973 RMK AO2\ SLP068 T01390083 56014= 201706090951 METAR KLGA 090951Z 18004KT 10SM FEW150 14/08 A2973 RMK AO2\ SLP068 T01390083= 201706091051 METAR KLGA 091051Z 23005KT 10SM SCT150 16/08 A2974 RMK AO2\ SLP071 T01560078= 201706091151 METAR KLGA 091151Z 23004KT 10SM BKN160 BKN250 17/07 A2974\ RMK AO2 SLP071 T01670067 10172 20133\ 53003= 201706091251 METAR KLGA 091251Z 26007KT 10SM SCT160 BKN250 18/06 A2975\ RMK AO2 SLP075 T01830061= 201706091351 METAR KLGA 091351Z 27005KT 10SM FEW160 BKN250 21/07 A2974\ RMK AO2 SLP072 T02060067= 201706091451 METAR KLGA 091451Z 30011KT 10SM FEW100 BKN250 22/09 A2975\ RMK AO2 SLP075 T02170089 51003= 201706091551 METAR KLGA 091551Z 29006KT 10SM FEW085 FEW120 BKN250 23/09\ A2975 RMK AO2 SLP075 T02330089= 201706091651 METAR KLGA 091651Z 31009KT 10SM FEW070 FEW120 SCT250 25/09\ A2974 RMK AO2 SLP072 T02500094= 201706091751 METAR KLGA 091751Z 30017G21KT 10SM FEW070 SCT250 26/09 A2974\ RMK AO2 SLP069 T02560094 10261 20167\ 58005= 201706091851 METAR KLGA 091851Z 32015KT 10SM FEW070 26/09 A2973 RMK AO2\ SLP068 T02560094= 201706091951 METAR KLGA 091951Z 31008KT 10SM SCT080 BKN100 26/09 A2973\ RMK AO2 SLP068 T02610094= 201706092051 METAR KLGA 092051Z 33010KT 10SM SCT080 BKN100 27/09 A2973\ RMK AO2 SLP066 T02670094 58003= 201706092151 METAR KLGA 092151Z 30014G21KT 10SM SCT100 27/07 A2973 RMK\ AO2 SLP067 T02720072= 201706092251 METAR KLGA 092251Z 27014KT 10SM SCT090 28/07 A2975 RMK AO2\ PK WND 31026/2158 SLP074 T02780072= 201706092351 METAR KLGA 092351Z 26011G18KT 10SM FEW090 27/08 A2978 RMK\ AO2 SLP083 T02720083 10283 20250\ 53017= 201706100051 METAR KLGA 100051Z 25009KT 10SM FEW080 27/08 A2979 RMK AO2\ SLP089 T02670083= 201706100151 METAR KLGA 100151Z 23006KT 10SM BKN095 26/09 A2983 RMK AO2\ SLP101 T02610089= 201706100251 METAR KLGA 100251Z 24008KT 10SM FEW095 25/10 A2986 RMK AO2\ SLP110 T02500100 53027= 201706100351 METAR KLGA 100351Z 24009KT 10SM FEW095 25/10 A2987 RMK AO2\ SLP114 T02500100= 201706100451 METAR KLGA 100451Z 22005KT 10SM FEW080 24/10 A2988 RMK AO2\ SLP119 T02390100 402830133= 201706100551 METAR KLGA 100551Z 00000KT 10SM FEW090 23/10 A2989 RMK AO2\ SLP121 T02280100 10272 20228 51012= 201706100651 METAR KLGA 100651Z 29003KT 10SM SCT250 22/11 A2990 RMK AO2\ SLP125 T02170106= 201706100751 METAR KLGA 100751Z 24003KT 10SM FEW090 FEW250 21/11 A2990\ RMK AO2 SLP126 T02110106= 201706100851 METAR KLGA 100851Z 00000KT 10SM FEW090 FEW250 20/11 A2991\ RMK AO2 SLP126 T02000106 51005= 201706100951 METAR KLGA 100951Z 00000KT 10SM FEW100 BKN250 20/11 A2992\ RMK AO2 SLP132 T02000111= 201706101051 METAR KLGA 101051Z 32003KT 10SM FEW100 FEW200 SCT250 22/11\ A2994 RMK AO2 SLP139 T02220106= 201706101151 METAR KLGA 101151Z 28007KT 10SM FEW100 SCT200 SCT250 23/11\ A2998 RMK AO2 SLP152 T02280111 10233\ 20194 53026= 201706101251 METAR KLGA 101251Z 31008KT 10SM SCT120 SCT200 BKN250 23/12\ A2999 RMK AO2 SLP156 T02330122= 201706101351 METAR KLGA 101351Z 30008KT 10SM BKN090 BKN110 BKN250 24/13\ A3000 RMK AO2 SLP159 T02390128= 201706101451 METAR KLGA 101451Z VRB04KT 10SM SCT100 SCT250 26/13 A2999\ RMK AO2 SLP156 T02610128 50004= 201706101551 METAR KLGA 101551Z 22010KT 10SM SCT110 SCT250 28/12 A2998\ RMK AO2 SLP152 T02830117= 201706101651 METAR KLGA 101651Z 23011G20KT 10SM FEW070 FEW110 FEW250 29/11\ A2999 RMK AO2 SLP154 T02890111= 201706101751 METAR KLGA 101751Z 20012G21KT 10SM FEW070 SCT110 SCT250 30/11\ A2998 RMK AO2 SLP152 T03000111 10300\ 20228 56005 $= 201706101851 METAR KLGA 101851Z 17016G22KT 10SM SCT070 SCT110 SCT250 29/13\ A2995 RMK AO2 SLP143 T02940133 $= 201706101951 METAR KLGA 101951Z 22013G23KT 10SM SCT075 BKN100 BKN250 31/12\ A2994 RMK AO2 SLP140 T03060117 $= 201706102051 METAR KLGA 102051Z 23015G23KT 10SM SCT080 BKN100 BKN250 31/12\ A2993 RMK AO2 WSHFT 1940 SLP137 T03110117\ 56015 $= 201706102151 METAR KLGA 102151Z 18009KT 10SM SCT080 BKN120 BKN250 28/16\ A2993 RMK AO2 SLP135 T02830156 $= 201706102251 METAR KLGA 102251Z 23013G20KT 10SM FEW080 SCT120 SCT250 31/12\ A2994 RMK AO2 SLP137 T03060122 $= 201706102351 METAR KLGA 102351Z 23011KT 10SM FEW075 SCT100 SCT250 29/12\ A2996 RMK AO2 SLP146 T02940122 10311\ 20283 53009 $= 201706110051 METAR KLGA 110051Z 18006KT 10SM FEW075 SCT095 BKN250 27/14\ A2998 RMK AO2 SLP152 T02720144 $= 201706110151 METAR KLGA 110151Z 20009KT 10SM FEW070 SCT090 SCT250 27/16\ A3001 RMK AO2 SLP162 T02670156 $= 201706110251 METAR KLGA 110251Z 21011KT 10SM FEW095 27/15 A3001 RMK AO2\ SLP163 T02670150 51017 $= 201706110351 METAR KLGA 110351Z 22011KT 10SM FEW250 27/14 A3001 RMK AO2\ SLP163 T02670144 $= 201706110451 METAR KLGA 110451Z 22011KT 10SM SCT250 26/14 A3002 RMK AO2\ SLP164 T02610144 403110194 $= 201706110551 METAR KLGA 110551Z 23007KT 10SM FEW250 25/15 A3002 RMK AO2\ SLP167 T02500150 10294 20250 53003\ $= 201706110651 METAR KLGA 110651Z 21007KT 10SM FEW250 24/15 A3002 RMK AO2\ SLP166 T02440150 $= 201706110751 METAR KLGA 110751Z 21006KT 10SM CLR 24/15 A3002 RMK AO2 SLP165\ T02440150 $= 201706110851 METAR KLGA 110851Z 21005KT 10SM CLR 24/15 A3003 RMK AO2 SLP169\ T02440150 53002 $= 201706110951 METAR KLGA 110951Z 21005KT 10SM CLR 24/16 A3004 RMK AO2 SLP172\ T02390156 $= 201706111051 METAR KLGA 111051Z 19006KT 10SM FEW220 FEW250 24/16 A3006\ RMK AO2 SLP179 T02440161 $= 201706111151 METAR KLGA 111151Z 24005KT 10SM FEW210 FEW250 26/16 A3006\ RMK AO2 SLP180 T02560161 10256 20239\ 51012 $= 201706111251 METAR KLGA 111251Z 32004KT 10SM FEW210 FEW250 27/16 A3007\ RMK AO2 SLP181 T02720161 $= 201706111351 METAR KLGA 111351Z 30007KT 10SM FEW210 SCT250 29/16 A3006\ RMK AO2 SLP178 T02890156 $= 201706111451 METAR KLGA 111451Z 27010KT 10SM SCT200 SCT250 31/15 A3005\ RMK AO2 SLP175 T03060150 58005 $= 201706111551 METAR KLGA 111551Z 28012KT 10SM SCT200 BKN250 32/14 A3004\ RMK AO2 SLP171 T03170144 $= 201706111651 METAR KLGA 111651Z 25013G18KT 10SM SCT200 BKN250 33/13 A3003\ RMK AO2 SLP169 T03280128 $= 201706111751 METAR KLGA 111751Z 25007G17KT 120V280 10SM FEW090 SCT200\ BKN250 33/13 A3001 RMK AO2 SLP162\ T03330133 10339 20256 58013= 201706111851 METAR KLGA 111851Z 22012G22KT 10SM FEW200 BKN250 34/14 A3000\ RMK AO2 SLP158 T03390139= 201706111951 METAR KLGA 111951Z 22013G23KT 10SM FEW200 BKN250 34/13 A2999\ RMK AO2 SLP155 T03440133= 201706112051 METAR KLGA 112051Z 25013G20KT 10SM FEW200 BKN250 34/13 A2998\ RMK AO2 SLP153 T03440133 56009= 201706112151 METAR KLGA 112151Z 24012G17KT 10SM FEW200 BKN250 34/14 A2997\ RMK AO2 SLP149 T03390139= 201706112251 METAR KLGA 112251Z 25013G21KT 10SM BKN250 33/13 A2997 RMK\ AO2 SLP148 T03330133= 201706112351 METAR KLGA 112351Z 26017G23KT 10SM SCT250 33/14 A2998 RMK\ AO2 SLP151 T03280139 10344 20328\ 55002= 201706120051 METAR KLGA 120051Z 24012KT 10SM SCT250 32/14 A2998 RMK AO2\ SLP151 T03220144= 201706120151 METAR KLGA 120151Z 24011G18KT 10SM SCT250 32/15 A2999 RMK\ AO2 SLP156 T03170150= 201706120251 METAR KLGA 120251Z 23010KT 10SM FEW250 31/15 A3000 RMK AO2\ SLP158 T03060150 53007= 201706120351 METAR KLGA 120351Z 23009KT 10SM FEW250 29/17 A3000 RMK AO2\ SLP157 T02890167= 201706120451 METAR KLGA 120451Z 24010G16KT 10SM FEW250 28/17 A2999 RMK\ AO2 SLP155 T02830167 403440239= 201706120551 METAR KLGA 120551Z 22008KT 10SM FEW250 28/17 A2999 RMK AO2\ SLP154 T02780167 10328 20278 56004= 201706120651 METAR KLGA 120651Z 23007KT 10SM CLR 27/17 A2998 RMK AO2 SLP153\ T02670167= 201706120751 METAR KLGA 120751Z 26008KT 10SM CLR 27/16 A2999 RMK AO2 SLP155\ T02670161= 201706120851 METAR KLGA 120851Z 28007KT 10SM CLR 26/16 A3000 RMK AO2 SLP160\ T02610156 53006= 201706120951 METAR KLGA 120951Z 30008KT 10SM CLR 26/16 A3002 RMK AO2 SLP164\ T02560156= 201706121051 METAR KLGA 121051Z 31007KT 10SM CLR 25/16 A3004 RMK AO2 SLP172\ T02500156= 201706121151 METAR KLGA 121151Z 30004KT 10SM CLR 27/15 A3004 RMK AO2 SLP174\ T02720150 10278 20244 51013= 201706121251 METAR KLGA 121251Z 28005KT 10SM CLR 28/15 A3004 RMK AO2 SLP172\ T02830150= 201706121351 METAR KLGA 121351Z 30005KT 10SM CLR 29/16 A3002 RMK AO2 SLP166\ T02940156= 201706121451 METAR KLGA 121451Z 28007KT 10SM CLR 31/16 A3001 RMK AO2 SLP161\ T03110156 58013 CHINO R22 SW= 201706121551 METAR KLGA 121551Z 30007KT 10SM CLR 32/16 A3000 RMK AO2 SLP159\ T03170156 CHINO R22 SW $= 201706121651 METAR KLGA 121651Z 29004KT 10SM FEW075 33/14 A2999 RMK AO2\ SLP155 T03280139= 201706121751 METAR KLGA 121751Z 24007G15KT 10SM FEW080 34/14 A2997 RMK\ AO2 SLP148 T03390144 10344 20272\ 58014= 201706121851 METAR KLGA 121851Z 32008KT 10SM FEW080 34/14 A2994 RMK AO2\ SLP138 T03390144 $= 201706121951 METAR KLGA 121951Z 25009G18KT 10SM FEW060 35/14 A2993 RMK\ AO2 SLP134 T03500139 $= 201706122051 METAR KLGA 122051Z 25010KT 10SM FEW060 35/14 A2991 RMK AO2\ SLP129 T03500139 56019 $= 201706122151 METAR KLGA 122151Z 26012KT 10SM FEW060 34/14 A2990 RMK AO2\ SLP126 T03440144 $= 201706122251 METAR KLGA 122251Z 27013G18KT 10SM FEW060 34/15 A2990 RMK\ AO2 SLP126 T03390150 $= 201706122351 METAR KLGA 122351Z 25011KT 10SM FEW060 33/15 A2991 RMK AO2\ SLP129 T03330150 10356 20328 55000\ $= 201706130051 METAR KLGA 130051Z 26011KT 10SM FEW060 FEW250 32/15 A2992\ RMK AO2 SLP130 T03220150 $= 201706130151 METAR KLGA 130151Z 24010KT 10SM FEW060 FEW250 32/16 A2993\ RMK AO2 SLP135 T03220156 $= 201706130251 METAR KLGA 130251Z 25011KT 10SM FEW250 32/16 A2993 RMK AO2\ SLP135 T03170156 51006 $= 201706130351 METAR KLGA 130351Z 26013KT 10SM FEW250 31/16 A2993 RMK AO2\ SLP134 T03110156 $= 201706130451 METAR KLGA 130451Z 26010KT 10SM FEW250 31/16 A2992 RMK AO2\ SLP133 T03060156 403560244 $= 201706130551 METAR KLGA 130551Z 25011KT 10SM FEW250 30/16 A2993 RMK AO2\ SLP134 T03000156 10333 20300 55002\ $= 201706130651 METAR KLGA 130651Z 26010KT 10SM FEW250 29/16 A2993 RMK AO2\ SLP135 T02890161 $= 201706130751 METAR KLGA 130751Z 26007KT 10SM BKN075 28/16 A2993 RMK AO2\ SLP134 T02830161 $= 201706130851 METAR KLGA 130851Z 27004KT 10SM FEW075 27/17 A2993 RMK AO2\ SLP133 T02720167 50000 $= 201706130951 METAR KLGA 130951Z 00000KT 10SM FEW075 SCT250 27/17 A2993\ RMK AO2 SLP135 T02720167 $= 201706131051 METAR KLGA 131051Z 29004KT 10SM FEW075 SCT250 28/17 A2994\ RMK AO2 SLP139 T02780167 $= 201706131151 METAR KLGA 131151Z 30003KT 10SM FEW075 SCT250 28/17 A2994\ RMK AO2 SLP137 T02830172 10294 20267\ 50003 $= 201706131251 METAR KLGA 131251Z 00000KT 10SM SCT250 30/17 A2994 RMK AO2\ SLP137 T03000172 $= 201706131351 METAR KLGA 131351Z 31006KT 10SM SCT250 29/18 A2992 RMK AO2\ SLP132 T02940178 $= 201706131451 METAR KLGA 131451Z 25013G18KT 10SM FEW075 SCT250 33/17 A2991\ RMK AO2 SLP128 T03330167 58009 $= 201706131551 METAR KLGA 131551Z 30008KT 10SM FEW075 SCT250 34/17 A2990\ RMK AO2 SLP125 T03390172= 201706131651 METAR KLGA 131651Z 25010G18KT 10SM FEW070 35/16 A2988 RMK\ AO2 SLP117 T03500156= 201706131751 METAR KLGA 131751Z 27013KT 10SM SCT075 36/14 A2987 RMK AO2\ SLP113 T03560144 10361 20278 58014= 201706131851 METAR KLGA 131851Z 28007G15KT 250V320 10SM CLR 36/14 A2984\ RMK AO2 SLP104 T03610144 $= 201706131951 METAR KLGA 131951Z 30009G16KT 10SM SCT075 SCT250 36/16 A2982\ RMK AO2 SLP099 T03610156 $= 201706132051 METAR KLGA 132051Z 25012G17KT 10SM SCT075 BKN250 38/16 A2981\ RMK AO2 SLP094 T03780156 56019 $= 201706132151 METAR KLGA 132151Z 26008KT 230V290 10SM BKN075 BKN250 37/16\ A2979 RMK AO2 SLP088 T03670156 $= 201706132251 METAR KLGA 132251Z 27013G18KT 10SM SCT075 BKN250 36/16 A2980\ RMK AO2 SLP090 T03610161 $= 201706132351 METAR KLGA 132351Z 26015G20KT 10SM SCT100 BKN250 34/15 A2981\ RMK AO2 SLP095 T03440150 10383 20344\ 53001 $= 201706140051 METAR KLGA 140051Z 02011KT 10SM SCT100 BKN250 30/19 A2983\ RMK AO2 SLP102 T03000194 $= 201706140151 METAR KLGA 140151Z 36003KT 10SM SCT100 BKN250 29/19 A2986\ RMK AO2 SLP112 T02940189 $= 201706140251 METAR KLGA 140251Z 06004KT 10SM FEW100 SCT220 OVC250 29/18\ A2986 RMK AO2 SLP110 T02890183 50015\ $= 201706140351 METAR KLGA 140351Z 32004KT 10SM BKN070 BKN100 OVC250 27/18\ A2987 RMK AO2 SLP116 T02720183 $= 201706140451 METAR KLGA 140451Z 04007KT 10SM SCT080 SCT090 BKN110 BKN250\ 27/20 A2987 RMK AO2 RAB0359E15 SLP114\ P0000 T02670200 403830267 $= 201706140551 METAR KLGA 140551Z 04008KT 10SM BKN075 BKN090 BKN110 BKN250\ 25/18 A2988 RMK AO2 SLP117 60000\ T02500183 10344 20250 51007 $= 201706140651 METAR KLGA 140651Z 02007KT 10SM BKN070 BKN085 OVC250 25/18\ A2988 RMK AO2 SLP117 T02500178 $= 201706140751 METAR KLGA 140751Z 05008KT 4SM VCTS RA FEW043 OVC060 23/18\ A2989 RMK AO2 VIS 2 R22 SW LTG DSNT\ E RAB11 TSE50 SLP121 P0020 T02280183\ $= 201706140851 METAR KLGA 140851Z 01010KT 9SM -RA BKN060 BKN075 BKN250 23/18\ A2991 RMK AO2 LTG DSNT E AND SE RAE02B44\ SLP126 P0001 60021 T02280183 51009\ $= 201706140951 METAR KLGA 140951Z 00000KT 5SM R04/5500VP6000FT -RA BKN050\ OVC070 23/19 A2993 RMK AO2 SLP136\ P0010 T02330194 $= 201706141051 METAR KLGA 141051Z 09005KT 10SM FEW027 OVC055 23/19 A2995\ RMK AO2 RAE06 SLP142 P0004 T02330189\ $= 201706141151 METAR KLGA 141151Z 11003KT 6SM R04/3500VP6000FT -RA FEW020\ SCT034 OVC047 22/19 A2998 RMK AO2\ RAB36 SLP152 P0013 60048 70048 T02220189\ 10256 20222 53025 $= 201706141251 METAR KLGA 141251Z 05007KT 10SM FEW023 OVC070 23/17 A2999\ RMK AO2 RAE09 SLP156 P0002 T02280172\ $= 201706141351 METAR KLGA 141351Z 06008KT 10SM FEW033 SCT070 SCT085 24/17\ A2999 RMK AO2 SLP156 T02440172= 201706141451 METAR KLGA 141451Z 07012KT 10SM FEW034 FEW080 26/14 A3000\ RMK AO2 SLP157 60002 T02560139 51005= 201706141551 METAR KLGA 141551Z 05009KT 10SM FEW035 SCT250 26/14 A3000\ RMK AO2 SLP157 T02610139= 201706141651 METAR KLGA 141651Z 09007KT 10SM FEW050 SCT250 27/14 A2999\ RMK AO2 SLP155 T02670139= 201706141751 METAR KLGA 141751Z 07006KT 10SM SCT055 BKN250 27/14 A2997\ RMK AO2 SLP150 60002 T02720144 10272\ 20222 58007= 201706141851 METAR KLGA 141851Z 22005KT 10SM SCT060 BKN250 27/15 A2996\ RMK AO2 SLP144 T02670150= 201706141951 METAR KLGA 141951Z 19011KT 10SM FEW050 BKN250 27/14 A2996\ RMK AO2 SLP146 T02670139= 201706142051 METAR KLGA 142051Z 17014KT 10SM FEW050 BKN250 27/12 A2997\ RMK AO2 SLP149 T02670117 55001= 201706142151 METAR KLGA 142151Z 17010KT 10SM FEW050 SCT250 26/11 A2996\ RMK AO2 SLP146 T02560106= 201706142251 METAR KLGA 142251Z 18011KT 10SM FEW050 BKN250 24/08 A2996\ RMK AO2 SLP146 T02440083= 201706142351 METAR KLGA 142351Z 18009KT 10SM CLR 23/08 A2998 RMK AO2 SLP150\ T02330083 10283 20233 53001= 201706150051 METAR KLGA 150051Z 18009KT 10SM BKN250 22/09 A2998 RMK AO2\ SLP153 T02220089= 201706150151 METAR KLGA 150151Z VRB06KT 10SM SCT250 22/10 A3001 RMK AO2\ SLP161 T02170100= 201706150251 METAR KLGA 150251Z 18005KT 10SM FEW250 21/09 A3003 RMK AO2\ SLP168 T02110094 53017= 201706150351 METAR KLGA 150351Z 19004KT 10SM FEW250 21/09 A3003 RMK AO2\ SLP168 T02110094= 201706150451 METAR KLGA 150451Z 18004KT 10SM FEW250 21/09 A3002 RMK AO2\ SLP166 T02110094 402830211= 201706150551 METAR KLGA 150551Z 13006KT 10SM FEW250 21/11 A3002 RMK AO2\ SLP167 T02110111 10233 20211 57001= 201706150651 METAR KLGA 150651Z 14006KT 10SM FEW250 19/13 A3002 RMK AO2\ SLP166 T01940128= 201706150751 METAR KLGA 150751Z 14007KT 10SM CLR 19/13 A3002 RMK AO2 SLP164\ T01890133= 201706150851 METAR KLGA 150851Z 13006KT 10SM FEW250 18/14 A3001 RMK AO2\ SLP163 T01830139 58004= 201706150951 METAR KLGA 150951Z 09006KT 10SM FEW250 18/14 A3003 RMK AO2\ SLP170 T01780139= 201706151051 METAR KLGA 151051Z 13005KT 10SM FEW110 FEW250 18/13 A3004\ RMK AO2 SLP172 T01830133= 201706151151 METAR KLGA 151151Z 10006KT 10SM FEW060 FEW110 SCT250 19/12\ A3005 RMK AO2 SLP174 70002 T01940122\ 10211 20178 51012= 201706151251 METAR KLGA 151251Z 00000KT 10SM BKN065 BKN120 BKN250 21/12\ A3005 RMK AO2 SLP176 T02060122= 201706151351 METAR KLGA 151351Z 19007KT 10SM BKN070 BKN250 23/08 A3006\ RMK AO2 SLP179 T02280078= 201706151451 METAR KLGA 151451Z 19009KT 10SM SCT070 BKN250 23/06 A3007\ RMK AO2 SLP181 T02330061 53007= 201706151551 METAR KLGA 151551Z 16014KT 10SM FEW065 FEW100 SCT250 24/08\ A3006 RMK AO2 SLP179 T02390078= 201706151651 METAR KLGA 151651Z 17014KT 10SM FEW070 SCT250 23/08 A3005\ RMK AO2 SLP176 T02330083= 201706151751 METAR KLGA 151751Z 16012KT 10SM SCT070 SCT250 24/08 A3005\ RMK AO2 SLP174 T02390078 10244 20194\ 58007= 201706151851 METAR KLGA 151851Z 19015G19KT 10SM FEW070 SCT250 24/06 A3003\ RMK AO2 SLP170 T02390061= 201706151951 METAR KLGA 151951Z 17011G21KT 10SM FEW070 BKN250 23/07 A3003\ RMK AO2 SLP168 T02330067= 201706152051 METAR KLGA 152051Z 16014G20KT 10SM FEW070 BKN250 23/08 A3002\ RMK AO2 SLP165 T02280083 56009= 201706152151 METAR KLGA 152151Z 18011G18KT 10SM FEW070 BKN250 23/08 A3002\ RMK AO2 SLP164 T02280083= 201706152251 METAR KLGA 152251Z 14008G17KT 110V190 10SM CLR 22/11 A3001\ RMK AO2 SLP162 T02170106= 201706152351 METAR KLGA 152351Z 13011KT 10SM FEW070 SCT250 21/11 A3002\ RMK AO2 SLP164 T02060111 10244 20206\ 55001= 201706160051 METAR KLGA 160051Z 14008KT 10SM FEW070 SCT250 19/12 A3002\ RMK AO2 SLP166 T01940117= 201706160151 METAR KLGA 160151Z 14007KT 10SM FEW070 SCT250 19/12 A3004\ RMK AO2 SLP171 T01940122= 201706160251 METAR KLGA 160251Z 13007KT 10SM SCT250 18/12 A3004 RMK AO2\ SLP170 T01830122 51006= 201706160351 METAR KLGA 160351Z 13007KT 10SM BKN250 18/13 A3003 RMK AO2\ SLP169 T01830128= 201706160451 METAR KLGA 160451Z 13007KT 10SM BKN250 18/13 A3004 RMK AO2\ SLP170 T01830133 402440178= 201706160551 METAR KLGA 160551Z 11008KT 10SM BKN250 18/14 A3002 RMK AO2\ SLP164 T01830139 10211 20178 58006= 201706160651 METAR KLGA 160651Z 13008KT 10SM BKN250 18/14 A3001 RMK AO2\ SLP161 T01780144= 201706160751 METAR KLGA 160751Z 10008KT 10SM SCT012 BKN250 17/14 A3000\ RMK AO2 SLP158 T01720144= 201706160851 METAR KLGA 160851Z 09007KT 10SM BKN060 BKN250 17/14 A2999\ RMK AO2 SLP156 T01720144 56008= 201706160951 METAR KLGA 160951Z 09008KT 10SM BKN012 OVC065 18/15 A3000\ RMK AO2 SLP157 T01780150= 201706161051 METAR KLGA 161051Z 10009KT 10SM BKN012 OVC250 18/15 A3000\ RMK AO2 SLP158 T01830150= 201706161151 METAR KLGA 161151Z 10011KT 10SM OVC015 19/15 A2999 RMK AO2\ SLP157 T01940150 10194 20172 50001= 201706161251 METAR KLGA 161251Z 12010G16KT 10SM OVC017 20/15 A2999 RMK\ AO2 SLP155 T02000150= 201706161351 METAR KLGA 161351Z 12010KT 10SM OVC014 21/16 A2998 RMK AO2\ SLP152 T02060161= 201706161451 METAR KLGA 161451Z 08011KT 10SM OVC012 19/16 A2998 RMK AO2\ SLP153 T01940161 55004= 201706161551 METAR KLGA 161551Z 08009KT 10SM OVC010 19/16 A2997 RMK AO2\ SLP148 T01940161= 201706161651 METAR KLGA 161651Z 05009KT 10SM OVC009 19/17 A2997 RMK AO2\ SLP147 T01890167= 201706161751 METAR KLGA 161751Z 05010KT 8SM -DZ OVC008 19/17 A2995 RMK\ AO2 RAB1654E05DZB46 SLP143 P0000\ 60000 T01890167 10211 20183 56010= 201706161851 METAR KLGA 161851Z 04008KT 5SM -DZ BR OVC006 18/17 A2995\ RMK AO2 SLP141 P0000 T01830172= 201706161951 METAR KLGA 161951Z 05012KT 6SM -DZ BR OVC005 18/17 A2993\ RMK AO2 SLP136 P0000 T01830167= 201706162051 METAR KLGA 162051Z 05011KT 7SM OVC004 18/17 A2993 RMK AO2\ DZE13 SLP133 P0000 60000 T01830167\ 58010= 201706162151 METAR KLGA 162151Z 04012KT 10SM OVC005 18/17 A2993 RMK AO2\ SLP133 T01830167= 201706162251 METAR KLGA 162251Z 05010KT 8SM OVC004 18/17 A2993 RMK AO2\ SLP136 T01780167= 201706162351 METAR KLGA 162351Z 04012KT 2SM BR OVC003 18/17 A2994 RMK\ AO2 SFC VIS 6 SLP137 60000 T01780167\ 10194 20178 51001= 201706170051 METAR KLGA 170051Z 04011KT 1SM R04/P6000FT BR OVC003 18/17\ A2993 RMK AO2 SFC VIS 5 SLP135 T01830167= 201706170151 METAR KLGA 170151Z 04011KT 1/2SM R04/P6000FT BR OVC002 18/17\ A2993 RMK AO2 SFC VIS 2 SLP134 T01830172= 201706170251 METAR KLGA 170251Z 04010KT 1/2SM R04/P6000FT BR OVC002 18/17\ A2992 RMK AO2 SFC VIS 2 SLP132 T01830172\ 57005= 201706170351 METAR KLGA 170351Z 05009KT 1/2SM R04/P6000FT BR OVC002 18/18\ A2994 RMK AO2 SFC VIS 1 SLP138 T01780178= 201706170451 METAR KLGA 170451Z 04005KT 1/2SM R04/P6000FT BR OVC003 18/18\ A2993 RMK AO2 SFC VIS 1 SLP135 T01780178\ 402110172= 201706170551 METAR KLGA 170551Z 04005KT 1/2SM R04/P6000FT BR OVC002 18/18\ A2992 RMK AO2 SFC VIS 1 SLP133 T01780178\ 10194 20178 50001= 201706170651 METAR KLGA 170651Z 05008KT 1/2SM R04/P6000FT BR OVC002 18/18\ A2991 RMK AO2 SFC VIS 1 SLP129 T01780178= 201706170751 METAR KLGA 170751Z 06006KT 1/2SM R04/P6000FT BR OVC002 18/18\ A2992 RMK AO2 SFC VIS 2 SLP131 T01780178= 201706170851 METAR KLGA 170851Z 04006KT 1SM R04/P6000FT BR OVC002 18/18\ A2992 RMK AO2 SFC VIS 3 SLP131 T01780178\ 56002= 201706170951 METAR KLGA 170951Z 05004KT 2SM BR OVC005 18/17 A2992 RMK\ AO2 SFC VIS 6 SLP131 T01830172= 201706171051 METAR KLGA 171051Z 04006KT 2SM BR OVC004 18/17 A2992 RMK\ AO2 SFC VIS 4 SLP133 T01830172= 201706171151 METAR KLGA 171151Z 07005KT 2SM BR OVC004 19/18 A2993 RMK\ AO2 SFC VIS 4 SLP134 T01890178 10189\ 20178 53004= 201706171251 METAR KLGA 171251Z 07006KT 5SM BR OVC006 19/18 A2995 RMK\ AO2 RAB41E50 SLP143 P0000 T01940178= 201706171351 METAR KLGA 171351Z 06006KT 5SM BR OVC007 19/18 A2995 RMK\ AO2 SLP141 T01940178= 201706171451 METAR KLGA 171451Z 04007KT 7SM BKN008 OVC013 21/18 A2995\ RMK AO2 SLP140 60000 T02060178 50006= 201706171551 METAR KLGA 171551Z 04007KT 7SM FEW008 BKN013 OVC027 21/18\ A2995 RMK AO2 SLP140 T02110183= 201706171651 METAR KLGA 171651Z 06004KT 1 1/2SM R04/4000VP6000FT -RA BR\ FEW008 BKN015 OVC035 21/19 A2994\ RMK AO2 SFC VIS 2 1/2 RAB05 SLP140\ P0019 T02060189= 201706171751 METAR KLGA 171751Z 11007KT 070V140 1 1/2SM R04/4500VP6000FT\ RA BR BKN005 BKN030 OVC055 22/20\ A2994 RMK AO2 SFC VIS 1 3/4 VIS 1\ R22 SW SLP137 P0058 60077 T02170200\ 10217 20189 58003= 201706171851 METAR KLGA 171851Z 15007KT 6SM BR SCT005 BKN021 OVC035 21/21\ A2994 RMK AO2 RAE40 SLP137 BKN005\ V SCT P0049 T02110206= 201706171951 METAR KLGA 171951Z 17009KT 10SM OVC009 22/21 A2993 RMK AO2\ SLP134 T02220206= 201706172051 METAR KLGA 172051Z 16009KT 8SM OVC010 23/20 A2992 RMK AO2\ SLP130 60049 T02280200 58007= 201706172151 METAR KLGA 172151Z 18007KT 10SM OVC010 23/20 A2990 RMK AO2\ SLP126 T02280200= 201706172251 METAR KLGA 172251Z 20007KT 10SM OVC008 22/19 A2991 RMK AO2\ SLP129 T02170194= 201706172351 METAR KLGA 172351Z 16006KT 10SM OVC008 22/20 A2992 RMK AO2\ SLP130 60049 T02220200 10233 20206\ 55000= 201706180051 METAR KLGA 180051Z 15006KT 6SM BR OVC007 22/20 A2992 RMK\ AO2 RAB2357E41 SLP131 P0000 T02170200= 201706180151 METAR KLGA 180151Z 15003KT 3SM BR OVC006 22/20 A2992 RMK\ AO2 SLP132 T02170200= 201706180251 METAR KLGA 180251Z 17004KT 1SM R04/P6000FT BR OVC003 21/20\ A2992 RMK AO2 SFC VIS 1 1/2 SLP131\ 60000 T02110200 50001= 201706180351 METAR KLGA 180351Z 17008KT 3/4SM R04/P6000FT BR OVC003 21/21\ A2992 RMK AO2 SFC VIS 1 1/2 SLP131\ T02110206= 201706180451 METAR KLGA 180451Z 13005KT 3/4SM R04/P6000FT BR OVC004 21/21\ A2990 RMK AO2 SFC VIS 2 SLP126 T02110206\ 402330178= 201706180551 METAR KLGA 180551Z 15006KT 3/4SM R04/P6000FT BR OVC004 21/21\ A2988 RMK AO2 SFC VIS 2 SLP118 60000\ T02110206 10222 20211 58013= 201706180651 METAR KLGA 180651Z 21003KT 3/4SM R04/P6000FT BR OVC002 21/21\ A2988 RMK AO2 SFC VIS 2 SLP118 T02110206= 201706180751 METAR KLGA 180751Z 14003KT 3/4SM R04/P6000FT BR OVC002 22/21\ A2987 RMK AO2 SFC VIS 2 SLP116 T02170206= 201706180851 METAR KLGA 180851Z 16006KT 1SM R04/5500VP6000FT BR OVC002\ 21/21 A2987 RMK AO2 SFC VIS 3 SLP116\ T02110206 57002= 201706180951 METAR KLGA 180951Z 18004KT 1/4SM R04/4000V5500FT FG OVC002\ 21/21 A2988 RMK AO2 SLP117 T02110211= 201706181051 METAR KLGA 181051Z 19004KT 3/4SM R04/P6000FT BR OVC003 22/21\ A2989 RMK AO2 SFC VIS 1 1/2 SLP120\ T02170211= 201706181151 METAR KLGA 181151Z 17005KT 3SM BR OVC005 23/22 A2989 RMK\ AO2 SFC VIS 4 SLP121 70126 T02280217\ 10228 20211 51005= 201706181251 METAR KLGA 181251Z 18008KT 6SM BR BKN007 24/22 A2990 RMK\ AO2 SLP123 T02390217= 201706181351 METAR KLGA 181351Z 16012KT 8SM SCT018 BKN028 BKN034 BKN250\ 24/22 A2990 RMK AO2 SLP123 T02440217= 201706181451 METAR KLGA 181451Z 17009KT 8SM -RA SCT011 BKN034 BKN070 BKN250\ 26/22 A2988 RMK AO2 RAB08 SLP119\ P0000 60000 T02610222 58002= 201706181551 METAR KLGA 181551Z 17017KT 9SM FEW018 SCT034 SCT045 BKN250\ 27/23 A2986 RMK AO2 RAE1459 SLP113\ P0000 T02720228= 201706181651 METAR KLGA 181651Z 17013G19KT 10SM FEW022 SCT034 SCT045 BKN250\ 28/22 A2985 RMK AO2 SLP107 T02830222= 201706181751 METAR KLGA 181751Z 18012KT 10SM FEW022TCU SCT150 BKN290 28/22\ A2983 RMK AO2 SLP102 TCU SW-W 60000\ T02830222 10289 20228 56017= 201706181851 METAR KLGA 181851Z 16017KT 10SM FEW020 SCT150 BKN250 28/22\ A2982 RMK AO2 SLP099 T02830217= 201706181951 METAR KLGA 181951Z 17020G27KT 10SM FEW020 SCT250 27/21 A2980\ RMK AO2 PK WND 18027/1948 SLP093\ T02720211= 201706182051 METAR KLGA 182051Z 17014G22KT 10SM FEW040 SCT250 28/22 A2978\ RMK AO2 PK WND 18028/1958 SLP085\ T02780217 58017= 201706182151 METAR KLGA 182151Z 17014KT 10SM FEW040 SCT250 28/22 A2977\ RMK AO2 SLP079 T02830217= 201706182251 METAR KLGA 182251Z 17010KT 10SM FEW070 SCT090 SCT250 27/21\ A2978 RMK AO2 SLP083 T02720211= 201706182351 METAR KLGA 182351Z 17012G18KT 10SM SCT100 BKN250 27/21 A2978\ RMK AO2 SLP086 T02670211 10289 20261\ 53001= 201706190051 METAR KLGA 190051Z 17009KT 10SM SCT100 BKN250 25/21 A2978\ RMK AO2 SLP086 T02500211= 201706190151 METAR KLGA 190151Z 18009KT 10SM SCT250 24/21 A2980 RMK AO2\ SLP091 T02390211= 201706190251 METAR KLGA 190251Z 18007KT 10SM FEW020 SCT250 24/21 A2982\ RMK AO2 SLP098 T02390211 53012= 201706190451 METAR KLGA 190451Z 17008KT 10SM FEW020 SCT250 24/21 A2982\ RMK AO2 SLP098 T02390211 402890211= 201706190551 METAR KLGA 190551Z 18007KT 10SM FEW020 BKN250 23/21 A2981\ RMK AO2 SLP095 T02330211 10272 20233\ 58003= 201706190651 METAR KLGA 190651Z 18008KT 10SM FEW020 BKN250 23/21 A2981\ RMK AO2 SLP094 T02330206= 201706190751 METAR KLGA 190751Z 18007KT 10SM FEW020 SCT250 23/21 A2981\ RMK AO2 SLP093 T02330206= 201706190851 METAR KLGA 190851Z 17008KT 10SM FEW150 SCT250 23/21 A2982\ RMK AO2 SLP096 T02280206 53002= 201706190951 METAR KLGA 190951Z 18009KT 10SM BKN060 BKN250 23/21 A2983\ RMK AO2 SLP100 T02280206= 201706191051 METAR KLGA 191051Z 18009KT 10SM FEW012 SCT060 24/21 A2983\ RMK AO2 SLP102 T02390211= 201706191151 METAR KLGA 191151Z 18011KT 10SM SCT016 SCT060 25/21 A2984\ RMK AO2 SLP105 T02500211 10256 20228\ 51008= 201706191251 METAR KLGA 191251Z 22010G22KT 10SM BKN019 28/22 A2984 RMK\ AO2 SLP104 T02780222= 201706191351 METAR KLGA 191351Z 21013G18KT 10SM BKN025 BKN031 29/22 A2983\ RMK AO2 SLP103 T02890222= 201706191451 METAR KLGA 191451Z 17011G16KT 10SM BKN028 BKN037 30/22 A2982\ RMK AO2 SLP098 T03000217 58007= 201706191551 METAR KLGA 191551Z 16014KT 10SM FEW036 SCT044 SCT060 29/21\ A2981 RMK AO2 LTG DSNT NW SLP094\ T02890211= 201706191651 METAR KLGA 191651Z 15016KT 10SM FEW040 SCT140 SCT250 29/21\ A2980 RMK AO2 LTG DSNT N AND NW SLP092\ T02940211= 201706191751 METAR KLGA 191751Z 17018KT 10SM FEW040 BKN160 BKN250 29/21\ A2979 RMK AO2 SLP086 T02890211 10300\ 20250 58012= 201706191851 METAR KLGA 191851Z 17014G22KT 10SM FEW040 BKN160 BKN250 30/22\ A2975 RMK AO2 SLP075 T03000217= 201706191951 METAR KLGA 191951Z 18016G24KT 10SM SCT055 BKN160 BKN250 29/21\ A2975 RMK AO2 PK WND 18026/1926 SLP075\ CB DSNT W-N MOV NE T02940211= 201706192051 METAR KLGA 192051Z 18014G25KT 10SM TS SCT055CB SCT090 BKN160\ BKN250 28/21 A2975 RMK AO2 LTG DSNT\ SW-N TSB24 SLP073 OCNL LTGICCG SW-NW\ TS SW-NW MOV NE T02830211 56014= 201706192151 METAR KLGA 192151Z 27007G27KT 5SM +TSRA BR SCT015 BKN029CB\ OVC060 23/21 A2981 RMK AO2 PK WND\ 19032/2113 WSHFT 2132 LTG DSNT ALQDS\ RAB2058 SLP093 FRQ LTGICCG OHD TS\ OHD MOV NE P0081 T02280206= 201706192251 METAR KLGA 192251Z 19010G17KT 1 1/2SM +TSRA FEW015 SCT040CB\ OVC060 23/20 A2983 RMK AO2 LTG DSNT\ ALQDS SLP099 OCNL LTGIC ALQDS-OHD\ TS ALQDS-OHD MOV NE P0022 T02280200= 201706192351 METAR KLGA 192351Z 21008KT 6SM -RA BR FEW020 SCT055 BKN110\ OVC140 22/20 A2984 RMK AO2 LTG DSNT\ E TSE48 SLP105 P0007 60110 T02220200\ 10306 20222 51033= 201706200051 METAR KLGA 200051Z 18008KT 10SM -RA FEW020 SCT060 BKN120\ 22/21 A2984 RMK AO2 LTG DSNT E SLP105\ P0008 T02220206= 201706200151 METAR KLGA 200151Z 18011KT 10SM -RA FEW015 SCT110 OVC130\ 22/20 A2987 RMK AO2 SLP114 P0002\ T02170200= 201706200251 METAR KLGA 200251Z 19012KT 10SM BKN009 OVC090 22/20 A2988\ RMK AO2 RAE09 SLP117 P0000 60010\ T02170200 53012= 201706200351 METAR KLGA 200351Z 18011KT 10SM BKN007 OVC012 21/20 A2988\ RMK AO2 SLP119 T02110200= 201706200451 METAR KLGA 200451Z 19007KT 10SM SCT009 BKN025 OVC060 22/21\ A2986 RMK AO2 RAB0357E32 SLP110 P0002\ T02170206 403060211= 201706200551 METAR KLGA 200551Z 18007KT 9SM -RA OVC007 21/21 A2984 RMK\ AO2 RAB02 SLP104 P0000 60012 T02110206\ 10222 20211 58013= 201706200651 METAR KLGA 200651Z 19007KT 10SM OVC007 22/21 A2985 RMK AO2\ RAE46 SLP106 P0001 T02170211= 201706200751 METAR KLGA 200751Z 20007KT 10SM -RA SCT016 BKN023 OVC120\ 23/21 A2983 RMK AO2 RAB12E24B46 SLP101\ P0000 T02280211= 201706200851 METAR KLGA 200851Z 22008KT 10SM BKN015 OVC022 23/21 A2984\ RMK AO2 RAE0756 SLP103 P0000 60001\ T02280211 55001= 201706200951 METAR KLGA 200951Z 21008KT 10SM BKN016 BKN023 BKN150 BKN250\ 23/21 A2984 RMK AO2 SLP106 T02280211= 201706201051 METAR KLGA 201051Z 24011G16KT 10SM FEW013 BKN020 BKN140 BKN250\ 23/21 A2986 RMK AO2 PRESRR SLP110\ T02330206= 201706201151 METAR KLGA 201151Z 26013G20KT 10SM FEW020 FEW140 SCT250 24/19\ A2987 RMK AO2 SLP115 60001 70123\ T02440189 10244 20211 53012= 201706201251 METAR KLGA 201251Z 27015G21KT 10SM FEW020 FEW110 FEW250 25/16\ A2988 RMK AO2 SLP118 T02500161= 201706201351 METAR KLGA 201351Z 27009KT 10SM FEW020 FEW120 FEW250 26/15\ A2989 RMK AO2 SLP120 T02610150= 201706201451 METAR KLGA 201451Z 26010G20KT 10SM FEW027 FEW250 27/13 A2990\ RMK AO2 SLP123 T02670133 52008= 201706201551 METAR KLGA 201551Z 26016G19KT 10SM FEW060 FEW250 28/12 A2990\ RMK AO2 SLP124 T02780117= 201706201651 METAR KLGA 201651Z 25012G17KT 10SM FEW060 FEW150 SCT250 28/12\ A2990 RMK AO2 PK WND 26026/1610 SLP125\ T02830117= 201706201751 METAR KLGA 201751Z 24011G22KT 10SM FEW065 SCT250 29/12 A2989\ RMK AO2 SLP121 T02890117 10294 20239\ 58003= 201706201851 METAR KLGA 201851Z 27016G24KT 10SM FEW065 SCT250 29/10 A2989\ RMK AO2 PK WND 28027/1834 SLP120\ T02940100= 201706201951 METAR KLGA 201951Z 24015G22KT 10SM FEW065 SCT250 29/10 A2990\ RMK AO2 PK WND 27028/1913 SLP124\ T02940100= 201706202051 METAR KLGA 202051Z 27013KT 10SM SCT070 SCT250 29/09 A2990\ RMK AO2 PK WND 28028/2019 SLP124\ T02940094 53003= 201706202151 METAR KLGA 202151Z 28013G21KT 10SM SCT080 SCT250 29/09 A2990\ RMK AO2 SLP124 T02940094= 201706202251 METAR KLGA 202251Z 27019G25KT 10SM FEW080 SCT250 29/09 A2991\ RMK AO2 PK WND 27028/2226 SLP128\ T02890094= 201706202351 METAR KLGA 202351Z 26011G18KT 10SM FEW080 SCT250 29/10 A2992\ RMK AO2 SLP133 T02890100 10300 20283\ 53008= 201706210051 METAR KLGA 210051Z 26007KT 10SM FEW080 SCT250 28/11 A2993\ RMK AO2 SLP135 T02780106= 201706210151 METAR KLGA 210151Z 25006KT 10SM FEW080 FEW250 28/11 A2994\ RMK AO2 SLP138 T02780111= 201706210251 METAR KLGA 210251Z 22005KT 10SM FEW080 FEW250 27/12 A2994\ RMK AO2 SLP138 T02720117 51005= 201706210351 METAR KLGA 210351Z 21011KT 10SM FEW085 FEW250 26/13 A2994\ RMK AO2 SLP138 T02610133= 201706210451 METAR KLGA 210451Z 22007KT 10SM FEW080 FEW250 25/16 A2993\ RMK AO2 SLP134 T02500161 403000211= 201706210551 METAR KLGA 210551Z 23009KT 10SM SCT110 SCT250 24/18 A2992\ RMK AO2 SLP132 T02440178 10289 20244\ 58006= 201706210651 METAR KLGA 210651Z 22008KT 10SM BKN100 24/18 A2991 RMK AO2\ SLP128 T02440183= 201706210751 METAR KLGA 210751Z 25008KT 10SM BKN100 24/17 A2991 RMK AO2\ SLP128 T02440172= 201706210851 METAR KLGA 210851Z 24005KT 10SM BKN110 24/17 A2991 RMK AO2\ SLP129 T02390167 55002= 201706210951 METAR KLGA 210951Z 21006KT 10SM SCT110 BKN220 24/16 A2992\ RMK AO2 SLP130 T02390156= 201706211051 METAR KLGA 211051Z 20004KT 10SM FEW060 FEW110 SCT220 24/16\ A2993 RMK AO2 SLP134 T02440156= 201706211151 METAR KLGA 211151Z VRB04KT 10SM FEW110 SCT250 26/14 A2993\ RMK AO2 SLP135 T02560139 10256 20239\ 52006= 201706211251 METAR KLGA 211251Z 29008KT 10SM FEW110 SCT170 BKN250 26/13\ A2993 RMK AO2 SLP135 T02610133= 201706211351 METAR KLGA 211351Z 31009KT 10SM BKN160 BKN250 26/13 A2992\ RMK AO2 SLP132 T02610128= 201706211451 METAR KLGA 211451Z 26009KT 10SM FEW070 SCT190 SCT250 28/13\ A2992 RMK AO2 SLP130 T02780128 58005= 201706211551 METAR KLGA 211551Z 28011KT 10SM FEW065 SCT190 SCT250 28/12\ A2992 RMK AO2 SLP131 T02830122= 201706211651 METAR KLGA 211651Z 31014KT 10SM FEW065 BKN120 BKN190 27/13\ A2990 RMK AO2 SLP126 T02720128= 201706211751 METAR KLGA 211751Z 26008G17KT 10SM FEW070 SCT110 BKN250 28/12\ A2988 RMK AO2 SLP120 T02830122 10289\ 20250 58011= 201706211851 METAR KLGA 211851Z 26013G23KT 10SM SCT070 SCT110 BKN250 29/11\ A2987 RMK AO2 SLP114 T02940111= 201706211951 METAR KLGA 211951Z 26013KT 10SM SCT070 BKN130 BKN250 29/12\ A2986 RMK AO2 SLP110 T02940117= 201706212051 METAR KLGA 212051Z 25014G24KT 10SM SCT070 SCT130 BKN250 29/12\ A2985 RMK AO2 SLP109 T02940117 56010= 201706212151 METAR KLGA 212151Z 34009KT 10SM FEW070 SCT130 BKN250 27/14\ A2985 RMK AO2 TSE2052 SLP109 T02720144= 201706212251 METAR KLGA 212251Z 27011G16KT 10SM FEW070 SCT130 BKN250 29/12\ A2986 RMK AO2 SLP110 T02940117= 201706212351 METAR KLGA 212351Z 26008KT 10SM SCT070 SCT130 SCT250 28/13\ A2986 RMK AO2 SLP112 T02830133 10306\ 20267 53003= 201706220051 METAR KLGA 220051Z 26010G18KT 220V300 10SM SCT080 SCT150\ 28/14 A2989 RMK AO2 SLP121 T02830139= 201706220151 METAR KLGA 220151Z 24006KT 10SM FEW080 FEW250 27/14 A2991\ RMK AO2 SLP130 T02670139= 201706220251 METAR KLGA 220251Z 30005KT 10SM FEW100 FEW250 25/15 A2992\ RMK AO2 SLP132 T02500150 51020= 201706220351 METAR KLGA 220351Z 29006KT 10SM FEW080 FEW250 24/16 A2994\ RMK AO2 SLP137 T02440156= 201706220451 METAR KLGA 220451Z 21007KT 10SM FEW070 FEW250 24/16 A2995\ RMK AO2 SLP142 T02390156 403060239= 201706220551 METAR KLGA 220551Z 31005KT 10SM FEW250 22/17 A2996 RMK AO2\ SLP144 T02220167 10289 20222 51012= 201706220651 METAR KLGA 220651Z 32005KT 10SM CLR 22/17 A2995 RMK AO2 SLP143\ T02170167= 201706220751 METAR KLGA 220751Z 01005KT 10SM CLR 22/14 A2996 RMK AO2 SLP146\ T02170144= 201706220851 METAR KLGA 220851Z 00000KT 10SM FEW070 21/14 A2998 RMK AO2\ SLP151 T02060144 53006= 201706220951 METAR KLGA 220951Z 07003KT 10SM FEW070 BKN250 20/14 A2999\ RMK AO2 SLP156 T02000139= 201706221051 METAR KLGA 221051Z 06003KT 10SM BKN250 21/13 A3001 RMK AO2\ SLP162 T02110133= 201706221151 METAR KLGA 221151Z 07005KT 10SM BKN250 22/13 A3002 RMK AO2\ SLP166 T02220128 10228 20200 51015= 201706221251 METAR KLGA 221251Z 05005KT 10SM BKN250 23/13 A3002 RMK AO2\ SLP166 T02330128= 201706221351 METAR KLGA 221351Z 04006KT 10SM SCT250 25/12 A3000 RMK AO2\ SLP160 T02500122= 201706221451 METAR KLGA 221451Z 03007KT 10SM BKN250 26/13 A2999 RMK AO2\ SLP154 T02560128 58012= 201706221551 METAR KLGA 221551Z 20007KT 160V220 10SM FEW150 SCT250 27/14\ A2998 RMK AO2 SLP153 T02720139= 201706221651 METAR KLGA 221651Z 19014KT 10SM FEW050 SCT150 SCT250 28/13\ A2997 RMK AO2 SLP150 T02780133= 201706221751 METAR KLGA 221751Z 16012G17KT 10SM FEW050 SCT150 SCT250 28/13\ A2996 RMK AO2 SLP146 T02830128 10283\ 20222 58008= 201706221851 METAR KLGA 221851Z 17010KT 120V190 10SM FEW060 SCT170 SCT250\ 27/14 A2995 RMK AO2 SLP141 T02720139= 201706221951 METAR KLGA 221951Z 18013G17KT 10SM FEW060 FEW170 SCT250 29/15\ A2993 RMK AO2 SLP134 T02890150= 201706222051 METAR KLGA 222051Z 18013G19KT 10SM FEW060 FEW170 BKN250 28/15\ A2992 RMK AO2 SLP133 T02780150 56013= 201706222151 METAR KLGA 222151Z 18015G22KT 10SM FEW060 FEW170 BKN250 27/13\ A2989 RMK AO2 SLP122 T02720128= 201706222251 METAR KLGA 222251Z 18012KT 10SM FEW060 FEW170 BKN250 27/18\ A2990 RMK AO2 SLP124 T02670178= 201706222351 METAR KLGA 222351Z 17008KT 10SM FEW060 SCT170 BKN260 26/19\ A2990 RMK AO2 SLP125 T02560194 10289\ 20256 55008= 201706230051 METAR KLGA 230051Z VRB06KT 10SM SCT170 BKN260 25/20 A2990\ RMK AO2 SLP125 T02500200= 201706230151 METAR KLGA 230151Z 18008KT 10SM SCT150 BKN250 25/21 A2990\ RMK AO2 SLP125 T02500206= 201706230251 METAR KLGA 230251Z 21008KT 10SM OVC250 27/21 A2990 RMK AO2\ SLP124 T02670211 58001= 201706230351 METAR KLGA 230351Z 22006KT 10SM SCT130 OVC250 28/22 A2990\ RMK AO2 SLP123 T02780217= 201706230451 METAR KLGA 230451Z 22008KT 10SM BKN150 OVC250 28/22 A2988\ RMK AO2 SLP118 T02780217 402890200= 201706230551 METAR KLGA 230551Z 20009KT 10SM BKN160 OVC250 27/22 A2986\ RMK AO2 SLP111 T02720217 10278 20244\ 58013= 201706230651 METAR KLGA 230651Z 22006KT 10SM BKN160 OVC250 27/22 A2984\ RMK AO2 SLP104 T02720217= 201706230751 METAR KLGA 230751Z 22007KT 10SM SCT170 OVC250 27/22 A2982\ RMK AO2 SLP099 T02670222= 201706230851 METAR KLGA 230851Z 22007KT 10SM SCT140 BKN250 27/22 A2982\ RMK AO2 SLP097 T02670222 56014= 201706230951 METAR KLGA 230951Z 20008KT 10SM BKN130 BKN250 26/22 A2982\ RMK AO2 SLP098 T02610222= 201706231051 METAR KLGA 231051Z 21006KT 10SM SCT140 BKN250 26/22 A2982\ RMK AO2 SLP098 T02610222= 201706231151 METAR KLGA 231151Z 21008KT 10SM SCT140 BKN250 27/22 A2981\ RMK AO2 SLP095 T02720222 10272 20261\ 58001= 201706231251 METAR KLGA 231251Z 20010KT 10SM SCT140 OVC250 27/23 A2980\ RMK AO2 SLP092 T02720228= 201706231351 METAR KLGA 231351Z 20009KT 10SM BKN170 OVC250 28/23 A2978\ RMK AO2 SLP084 T02830228= 201706231451 METAR KLGA 231451Z 21012G19KT 10SM FEW028 OVC130 27/23 A2977\ RMK AO2 SLP080 T02720233 58015= 201706231551 METAR KLGA 231551Z 19011G21KT 10SM SCT023 BKN028 OVC140 29/23\ A2975 RMK AO2 SLP075 T02890228= 201706231651 METAR KLGA 231651Z 22014G19KT 10SM SCT026 BKN036 BKN100 BKN140\ BKN250 29/22 A2972 RMK AO2 SLP065\ T02890222= 201706231751 METAR KLGA 231751Z 22016G26KT 10SM FEW027 SCT031 OVC038 27/22\ A2970 RMK AO2 PK WND 23026/1749 SLP058\ VCSH NW T02720222 10300 20272 58022= 201706231851 METAR KLGA 231851Z 22013G19KT 10SM OVC025 27/22 A2968 RMK\ AO2 RAB03E14B15E17 SLP052 P0000 T02720222= 201706231951 METAR KLGA 231951Z 23015G20KT 10SM SCT025 BKN033 BKN060 BKN250\ 29/22 A2967 RMK AO2 SLP047 T02890222= 201706232051 METAR KLGA 232051Z 22011KT 10SM SCT037 BKN048 BKN060 BKN250\ 29/22 A2965 RMK AO2 SLP041 60000\ T02940222 56017= 201706232151 METAR KLGA 232151Z 22012KT 10SM FEW041 BKN060 29/23 A2964\ RMK AO2 SLP038 T02940228= 201706232251 METAR KLGA 232251Z 18009KT 10SM -RA SCT038 BKN048 BKN140\ BKN250 28/23 A2963 RMK AO2 RAB51\ SLP033 P0000 T02780228= 201706232351 METAR KLGA 232351Z 18006KT 10SM -RA FEW035 SCT050 BKN070\ BKN250 27/22 A2963 RMK AO2 SLP034\ CB DSNT W MOV NE P0000 60000 T02670222\ 10306 20267 55007= 201706240051 METAR KLGA 240051Z 18008KT 7SM -RA SCT035 BKN046CB BKN075\ OVC140 25/23 A2963 RMK AO2 SLP034\ CB OHD-SW-NW MOV E P0001 T02500233= 201706240151 METAR KLGA 240151Z 21008KT 10SM FEW033 26/23 A2964 RMK AO2\ RAE05 SLP038 P0001 T02610233= 201706240251 METAR KLGA 240251Z 22010KT 10SM FEW070 SCT090 BKN140 BKN250\ 28/24 A2962 RMK AO2 RAB06E17B35E51\ SLP031 P0000 60002 T02780239 58003= 201706240351 METAR KLGA 240351Z 22009KT 10SM SCT033 SCT150 BKN250 28/23\ A2962 RMK AO2 SLP029 T02780233= 201706240451 METAR KLGA 240451Z 22008KT 10SM SCT031 BKN220 BKN250 28/23\ A2961 RMK AO2 SLP028 T02780233 403060250= 201706240551 METAR KLGA 240551Z 23011KT 10SM FEW022 FEW120 BKN130 26/23\ A2962 RMK AO2 PK WND 23026/0526 RAB20E46\ SLP029 P0002 60004 T02560233 10278\ 20250 55001= 201706240651 METAR KLGA 240651Z 25011G24KT 5SM -RA BR FEW036 BKN070 OVC090\ 24/22 A2961 RMK AO2 RAB33 SLP025\ P0004 T02440222= 201706240751 METAR KLGA 240751Z 23006KT 10SM OVC044 24/22 A2959 RMK AO2\ RAE27 SLP020 P0000 T02390222= 201706240851 METAR KLGA 240851Z 31008KT 10SM BKN038 OVC045 23/22 A2960\ RMK AO2 SLP023 60004 T02330217 55007= 201706240951 METAR KLGA 240951Z 00000KT 10SM -RA SCT038 BKN090 BKN110\ OVC250 23/22 A2958 RMK AO2 RAB0852E20B41\ SLP016 P0000 T02330222= 201706241051 METAR KLGA 241051Z 04003KT 2SM +RA BR SCT010 BKN022 OVC030\ 22/22 A2957 RMK AO2 CIG 017 R22 SW\ SLP012 P0030 T02220222= 201706241151 METAR KLGA 241151Z 31008KT 2 1/2SM VCTS RA BR FEW015 SCT037\ OVC070 22/22 A2959 RMK AO2 LTG DSNT\ S SLP019 P0058 60092 70096 T02170217\ 10256 20217 55004= 201706241251 METAR KLGA 241251Z 00000KT 6SM -RA BR FEW015 BKN075 OVC100\ 22/22 A2960 RMK AO2 SLP022 P0018\ T02220217= 201706241351 METAR KLGA 241351Z 30007KT 10SM FEW015 BKN100 25/22 A2962\ RMK AO2 RAE1256 SLP030 P0000 T02500222= 201706241451 METAR KLGA 241451Z 31009KT 10SM FEW020 SCT027 SCT100 BKN250\ 27/22 A2964 RMK AO2 SLP036 60018\ T02670217 53017= 201706241551 METAR KLGA 241551Z 31019G26KT 10SM FEW025 SCT043 SCT100 SCT250\ 28/17 A2967 RMK AO2 PK WND 31026/1548\ SLP048 T02830167= 201706241651 METAR KLGA 241651Z 32016G27KT 10SM FEW055 SCT250 28/13 A2970\ RMK AO2 PK WND 31028/1615 SLP058\ T02830133= 201706241751 METAR KLGA 241751Z 29019G26KT 10SM FEW065 FEW250 29/13 A2972\ RMK AO2 PK WND 28026/1717 SLP065\ 60018 T02940133 10294 20211 51029= 201706241851 METAR KLGA 241851Z 31016G24KT 10SM FEW065 FEW250 29/13 A2974\ RMK AO2 PK WND 29026/1826 SLP070\ T02940133= 201706241951 METAR KLGA 241951Z 29018G25KT 10SM FEW070 FEW250 30/12 A2976\ RMK AO2 SLP076 T03000117= 201706242051 METAR KLGA 242051Z 30018G23KT 10SM FEW150 BKN250 29/12 A2977\ RMK AO2 SLP082 T02940117 53017= 201706242151 METAR KLGA 242151Z 29011G23KT 10SM FEW150 BKN250 29/12 A2978\ RMK AO2 SLP086 T02940122= 201706242251 METAR KLGA 242251Z 27011KT 10SM FEW085 SCT250 29/12 A2979\ RMK AO2 SLP089 T02940122= 201706242351 METAR KLGA 242351Z 27013KT 10SM FEW085 SCT250 29/13 A2982\ RMK AO2 SLP096 T02940133 10300 20278\ 53014= 201706250051 METAR KLGA 250051Z 24010KT 10SM CLR 29/14 A2982 RMK AO2 SLP099\ T02890139= 201706250151 METAR KLGA 250151Z 24012G18KT 10SM CLR 28/16 A2986 RMK AO2\ SLP113 T02780156= 201706250251 METAR KLGA 250251Z 26009G16KT 10SM FEW250 28/15 A2988 RMK\ AO2 SLP117 T02780150 53021= 201706250351 METAR KLGA 250351Z 25012KT 10SM FEW250 28/14 A2988 RMK AO2\ SLP119 T02780144= 201706250451 METAR KLGA 250451Z 31007KT 10SM FEW250 24/17 A2991 RMK AO2\ WSHFT 0359 SLP127 T02390167 403000211= 201706250551 METAR KLGA 250551Z 31004KT 10SM FEW110 23/16 A2991 RMK AO2\ SLP127 T02280161 10294 20228 51010= 201706250651 METAR KLGA 250651Z 34007KT 10SM SCT075 OVC100 23/16 A2991\ RMK AO2 SLP128 T02280161= 201706250751 METAR KLGA 250751Z 34007KT 10SM FEW110 22/16 A2992 RMK AO2\ SLP130 T02220156= 201706250851 METAR KLGA 250851Z 31006KT 10SM CLR 21/17 A2993 RMK AO2 SLP136\ T02110167 53008= 201706250951 METAR KLGA 250951Z 32003KT 10SM FEW250 22/16 A2995 RMK AO2\ SLP142 T02170161= 201706251051 METAR KLGA 251051Z 00000KT 10SM FEW090 SCT250 23/16 A2997\ RMK AO2 SLP149 T02280161= 201706251151 METAR KLGA 251151Z 00000KT 10SM FEW029 SCT090 SCT110 BKN190\ BKN250 23/16 A2998 RMK AO2 SLP153\ 70018 T02280156 10233 20211 51017= 201706251251 METAR KLGA 251251Z 00000KT 10SM FEW042 SCT090 SCT110 BKN170\ BKN250 24/15 A2998 RMK AO2 SLP153\ T02440150= 201706251351 METAR KLGA 251351Z VRB04KT 10SM FEW049 SCT090 SCT110 BKN170\ BKN250 26/14 A2998 RMK AO2 SLP152\ T02610139= 201706251451 METAR KLGA 251451Z 27007KT 10SM FEW065 SCT100 SCT190 BKN250\ 28/11 A2998 RMK AO2 SLP151 T02780106\ 58001= 201706251551 METAR KLGA 251551Z 27006KT 10SM SCT060 SCT110 BKN190 BKN250\ 28/12 A2997 RMK AO2 SLP148 T02780117= 201706251651 METAR KLGA 251651Z 23009KT 10SM SCT060 SCT110 BKN190 BKN250\ 28/13 A2996 RMK AO2 SLP144 T02830133= 201706251751 METAR KLGA 251751Z 22010G17KT 180V250 10SM SCT060 SCT110\ BKN190 BKN250 29/13 A2993 RMK AO2\ SLP135 T02890128 10289 20228 58016= 201706251851 METAR KLGA 251851Z 19014KT 10SM SCT075 BKN090 BKN250 28/14\ A2992 RMK AO2 SLP132 T02780139= 201706251951 METAR KLGA 251951Z 35003KT 10SM BKN060 BKN080 BKN110 BKN250\ 24/16 A2994 RMK AO2 SLP137 T02440156= 201706252051 METAR KLGA 252051Z 18010KT 10SM FEW060 SCT085 SCT110 BKN250\ 27/13 A2992 RMK AO2 SLP132 T02670133\ 58003= 201706252151 METAR KLGA 252151Z 18008KT 10SM FEW070 SCT110 BKN250 26/15\ A2991 RMK AO2 SLP129 T02610150= 201706252251 METAR KLGA 252251Z 16009KT 10SM FEW065 FEW110 SCT250 26/16\ A2992 RMK AO2 SLP130 T02610156= 201706252351 METAR KLGA 252351Z 17007KT 10SM FEW065 FEW110 SCT250 25/17\ A2992 RMK AO2 SLP132 T02500172 10289\ 20244 55000= 201706260051 METAR KLGA 260051Z 18006KT 10SM FEW065 BKN110 BKN250 25/17\ A2993 RMK AO2 SLP134 T02500172= 201706260151 METAR KLGA 260151Z 11004KT 10SM BKN110 BKN250 25/18 A2993\ RMK AO2 SLP136 T02500178= 201706260251 METAR KLGA 260251Z 28009KT 10SM BKN110 26/12 A2994 RMK AO2\ SLP140 T02610117 53008= 201706260351 METAR KLGA 260351Z 30017G22KT 10SM BKN110 BKN250 26/11 A2995\ RMK AO2 SLP140 T02560111= 201706260451 METAR KLGA 260451Z 34012G20KT 10SM FEW110 22/12 A2998 RMK\ AO2 PK WND 28029/0410 SLP152 T02220117\ 402890211= 201706260551 METAR KLGA 260551Z 35009KT 10SM FEW100 21/11 A2998 RMK AO2\ SLP151 T02110111 10267 20211 50012= 201706260651 METAR KLGA 260651Z 34005KT 10SM FEW100 21/11 A2998 RMK AO2\ SLP150 T02060106= 201706260751 METAR KLGA 260751Z 33007KT 10SM FEW100 20/11 A2999 RMK AO2\ SLP155 T02000106= 201706260851 METAR KLGA 260851Z 31005KT 10SM CLR 19/12 A2999 RMK AO2 SLP156\ T01940117 53005= 201706260951 METAR KLGA 260951Z 31006KT 10SM CLR 19/11 A3001 RMK AO2 SLP161\ T01940111= 201706261051 METAR KLGA 261051Z 31006KT 10SM CLR 20/11 A3002 RMK AO2 SLP165\ T02000117= 201706261151 METAR KLGA 261151Z 31008KT 10SM CLR 21/12 A3003 RMK AO2 SLP168\ T02060117 10211 20194 51012= 201706261251 METAR KLGA 261251Z 32005KT 10SM CLR 22/12 A3003 RMK AO2 SLP169\ T02170117= 201706261351 METAR KLGA 261351Z 30008KT 10SM FEW075 23/11 A3003 RMK AO2\ SLP170 T02280106= 201706261451 METAR KLGA 261451Z 32010KT 10SM FEW075 24/11 A3003 RMK AO2\ SLP168 T02390106 58000= 201706261551 METAR KLGA 261551Z 31010G17KT 270V350 10SM SCT070 SCT250\ 24/09 A3002 RMK AO2 SLP165 T02440089= 201706261651 METAR KLGA 261651Z 29010G20KT 10SM SCT070 SCT250 26/08 A3001\ RMK AO2 SLP162 T02560078= 201706261751 METAR KLGA 261751Z 26009G16KT 10SM SCT080 SCT250 26/08 A3000\ RMK AO2 SLP157 T02610078 10267 20206\ 58011= 201706261851 METAR KLGA 261851Z 22013KT 10SM BKN075 BKN095 BKN250 26/08\ A2998 RMK AO2 SLP153 T02610078= 201706261951 METAR KLGA 261951Z 20013G23KT 10SM SCT080 SCT100 SCT250 26/10\ A2998 RMK AO2 SLP152 T02560100= 201706262051 METAR KLGA 262051Z 17013KT 10SM SCT080 SCT100 SCT250 25/11\ A2998 RMK AO2 SLP151 T02500106 56006= 201706262151 METAR KLGA 262151Z 18012G19KT 10SM SCT070 SCT095 SCT250 24/11\ A2998 RMK AO2 SLP150 T02440106= 201706262251 METAR KLGA 262251Z 17012KT 10SM FEW070 SCT095 SCT250 24/12\ A2997 RMK AO2 SLP150 T02390122= 201706262351 METAR KLGA 262351Z 18011KT 10SM FEW095 23/16 A2997 RMK AO2\ SLP148 T02330156 10272 20233 58003= 201706270051 METAR KLGA 270051Z 19009KT 10SM FEW095 FEW250 22/17 A2996\ RMK AO2 SLP146 T02220167= 201706270151 METAR KLGA 270151Z 18007KT 10SM CLR 22/16 A2997 RMK AO2 SLP149\ T02220161= 201706270251 METAR KLGA 270251Z 18007KT 10SM CLR 22/15 A2998 RMK AO2 SLP151\ T02220150 53003= 201706270351 METAR KLGA 270351Z 20005KT 10SM CLR 23/14 A2998 RMK AO2 SLP151\ T02280139= 201706270451 METAR KLGA 270451Z 23005KT 10SM CLR 23/11 A2997 RMK AO2 SLP149\ T02280106 402720194= 201706270551 METAR KLGA 270551Z 21007KT 10SM BKN110 23/11 A2996 RMK AO2\ SLP146 T02280106 10233 20222 58005= 201706270651 METAR KLGA 270651Z 33015G22KT 10SM BKN100 20/11 A2999 RMK\ AO2 WSHFT 0601 SLP154 T02000111= 201706270751 METAR KLGA 270751Z 05005KT 10SM BKN095 20/12 A2998 RMK AO2\ SLP150 T02000117= 201706270851 METAR KLGA 270851Z 35004KT 10SM -RA OVC080 19/13 A3000 RMK\ AO2 RAB38 SLP159 P0000 60000 T01890133\ 53013= 201706270951 METAR KLGA 270951Z 00000KT 5SM RA BKN070 OVC090 17/14 A3002\ RMK AO2 SLP167 P0006 T01720144= 201706271051 METAR KLGA 271051Z 07006KT 10SM FEW070 BKN090 BKN110 17/16\ A2999 RMK AO2 RAE49 SLP156 P0010\ T01720156= 201706271151 METAR KLGA 271151Z 05006KT 10SM BKN110 17/16 A3001 RMK AO2\ SLP161 60016 70016 T01720156 10233\ 20167 51002= 201706271251 METAR KLGA 271251Z 04005KT 10SM FEW070 SCT130 BKN250 18/16\ A3000 RMK AO2 SLP158 T01830156= 201706271351 METAR KLGA 271351Z VRB04KT 10SM SCT040 SCT090 BKN110 BKN250\ 20/15 A3000 RMK AO2 SLP159 T02000150= 201706271451 METAR KLGA 271451Z 04006KT 10SM FEW030 BKN045 BKN150 OVC250\ 21/16 A2999 RMK AO2 RAB12E22 SLP156\ P0000 60000 T02110161 57005= 201706271551 METAR KLGA 271551Z 22009KT 10SM FEW030 SCT045 BKN150 BKN250\ 23/16 A2998 RMK AO2 SLP153 T02280156= 201706271651 METAR KLGA 271651Z 20011KT 10SM SCT035 SCT050 BKN150 BKN250\ 23/15 A2997 RMK AO2 SLP147 T02330150= 201706271751 METAR KLGA 271751Z 26008G14KT 10SM SCT040 SCT150 SCT250 25/13\ A2994 RMK AO2 SLP139 60000 T02500133\ 10250 20172 58017= 201706271851 METAR KLGA 271851Z 21009KT 10SM FEW060 SCT070 SCT160 SCT250\ 26/12 A2992 RMK AO2 SLP131 T02560122= 201706271951 METAR KLGA 271951Z 24012G19KT 10SM FEW070 SCT085 SCT170 BKN250\ 26/12 A2992 RMK AO2 LTG DSNT S SLP133\ T02560117= 201706272051 METAR KLGA 272051Z 18012G21KT 10SM FEW055 SCT070 BKN090 BKN160\ BKN250 24/15 A2992 RMK AO2 SLP132\ T02390150 56007= 201706272151 METAR KLGA 272151Z 17009G17KT 10SM FEW050 FEW075 SCT120 BKN160\ BKN250 24/14 A2991 RMK AO2 SLP128\ T02390139= 201706272251 METAR KLGA 272251Z 28012G18KT 10SM FEW055 SCT110 SCT160 BKN250\ 24/11 A2993 RMK AO2 SLP134 TCU DSNT\ NE AND W T02440111= 201706272351 METAR KLGA 272351Z 30013G21KT 10SM FEW060 FEW120 SCT190 BKN250\ 23/11 A2994 RMK AO2 SLP139 T02330106\ 10261 20233 53008= 201706280051 METAR KLGA 280051Z 30010G15KT 10SM FEW060 FEW120 SCT190 BKN250\ 23/09 A2995 RMK AO2 SLP142 T02330094= 201706280151 METAR KLGA 280151Z 30011G18KT 10SM SCT110 BKN250 23/09 A2996\ RMK AO2 SLP147 T02280094= 201706280251 METAR KLGA 280251Z 34007KT 10SM FEW110 SCT250 21/12 A2999\ RMK AO2 SLP153 T02110122 53014= 201706280351 METAR KLGA 280351Z 34003KT 10SM FEW100 21/12 A3000 RMK AO2\ SLP159 T02060117= 201706280451 METAR KLGA 280451Z 32013KT 10SM CLR 20/11 A3002 RMK AO2 SLP164\ T02000111 402610167= 201706280551 METAR KLGA 280551Z 31010KT 10SM CLR 19/11 A3002 RMK AO2 SLP165\ T01940111 10239 20194 51012= 201706280651 METAR KLGA 280651Z 31010KT 10SM CLR 19/11 A3004 RMK AO2 SLP171\ T01890111= 201706280751 METAR KLGA 280751Z 30010KT 10SM CLR 18/11 A3005 RMK AO2 SLP175\ T01830111= 201706280851 METAR KLGA 280851Z 31010KT 10SM CLR 18/12 A3007 RMK AO2 SLP181\ T01780117 52015= 201706280951 METAR KLGA 280951Z 30010KT 10SM FEW250 18/11 A3007 RMK AO2\ SLP184 T01780111= 201706281051 METAR KLGA 281051Z 30010KT 10SM FEW250 18/11 A3008 RMK AO2\ SLP186 T01780111= 201706281151 METAR KLGA 281151Z 31011KT 10SM FEW250 18/12 A3009 RMK AO2\ SLP190 T01830122 10194 20178 53010= 201706281251 METAR KLGA 281251Z 31011KT 10SM CLR 20/12 A3011 RMK AO2 SLP196\ T02000122= 201706281351 METAR KLGA 281351Z 31009KT 10SM FEW250 21/11 A3011 RMK AO2\ SLP194 T02060111= 201706281451 METAR KLGA 281451Z 33008KT 10SM SCT250 22/11 A3011 RMK AO2\ SLP196 T02220106 51006= 201706281551 METAR KLGA 281551Z 29009G15KT 10SM FEW070 SCT250 23/09 A3012\ RMK AO2 SLP198 T02330094= 201706281651 METAR KLGA 281651Z 29015G21KT 10SM SCT070 SCT250 24/09 A3011\ RMK AO2 SLP197 T02390089= 201706281751 METAR KLGA 281751Z 30010G22KT 10SM FEW075 SCT250 25/09 A3011\ RMK AO2 SLP196 T02500094 10256 20183\ 58000= 201706281851 METAR KLGA 281851Z 31015G20KT 10SM SCT070 26/10 A3009 RMK\ AO2 SLP189 T02560100= 201706281951 METAR KLGA 281951Z 32012G17KT 10SM SCT070 26/09 A3009 RMK\ AO2 SLP187 T02610094= 201706282051 METAR KLGA 282051Z 30010G19KT 10SM SCT080 SCT250 27/09 A3007\ RMK AO2 WSHFT 2018 SLP183 T02670094\ 56013= 201706282151 METAR KLGA 282151Z 27007KT 10SM SCT090 SCT250 27/10 A3007\ RMK AO2 SLP183 T02670100= 201706282251 METAR KLGA 282251Z 28011KT 10SM SCT080 SCT250 27/09 A3008\ RMK AO2 SLP184 T02670094= 201706282351 METAR KLGA 282351Z 25007KT 10SM FEW080 BKN250 26/09 A3007\ RMK AO2 SLP183 T02610094 10272 20244\ 50000= 201706290051 METAR KLGA 290051Z 27010KT 10SM FEW090 BKN250 26/10 A3008\ RMK AO2 SLP186 T02560100= 201706290151 METAR KLGA 290151Z 25011KT 10SM BKN250 25/11 A3010 RMK AO2\ SLP191 T02500106= 201706290251 METAR KLGA 290251Z 23006KT 10SM BKN250 25/11 A3011 RMK AO2\ SLP194 T02500111 53011= 201706290351 METAR KLGA 290351Z 22007KT 10SM BKN250 24/11 A3011 RMK AO2\ SLP196 T02390111= 201706290451 METAR KLGA 290451Z 22010KT 10SM SCT250 23/12 A3012 RMK AO2\ SLP198 T02280117 402720178= 201706290551 METAR KLGA 290551Z 23009KT 10SM BKN250 22/12 A3013 RMK AO2\ SLP202 T02220122 10261 20222 53008= 201706290651 METAR KLGA 290651Z 22008KT 10SM BKN220 22/13 A3013 RMK AO2\ SLP203 T02170128= 201706290751 METAR KLGA 290751Z 23010G15KT 10SM BKN210 22/13 A3014 RMK\ AO2 SLP206 T02170133= 201706290851 METAR KLGA 290851Z 21007KT 10SM BKN210 22/13 A3015 RMK AO2\ SLP209 T02170133 53007= 201706290951 METAR KLGA 290951Z 21007KT 10SM SCT220 BKN250 21/14 A3015\ RMK AO2 SLP208 T02060144= 201706291051 METAR KLGA 291051Z 22011KT 10SM SCT170 BKN250 21/14 A3015\ RMK AO2 SLP210 T02110144= 201706291151 METAR KLGA 291151Z 23009KT 10SM SCT170 BKN250 22/15 A3015\ RMK AO2 SLP210 T02170150 10222 20206\ 53001= 201706291251 METAR KLGA 291251Z 21010KT 10SM SCT170 BKN250 24/16 A3014\ RMK AO2 SLP207 T02390156= 201706291351 METAR KLGA 291351Z 23012KT 10SM FEW170 BKN250 25/16 A3012\ RMK AO2 SLP199 T02500156= 201706291451 METAR KLGA 291451Z 23013G19KT 10SM FEW170 BKN250 26/15 A3012\ RMK AO2 SLP200 T02610150 55010= 201706291551 METAR KLGA 291551Z 22010G18KT 10SM FEW150 BKN250 27/16 A3010\ RMK AO2 SLP194 T02720161= 201706291651 METAR KLGA 291651Z 16015KT 10SM SCT050 SCT150 BKN250 28/17\ A3009 RMK AO2 SLP188 T02780167= 201706291751 METAR KLGA 291751Z 15015KT 10SM SCT050 SCT150 BKN250 28/17\ A3007 RMK AO2 SLP183 T02780172 10283\ 20217 56017= 201706291851 METAR KLGA 291851Z 15016KT 10SM SCT050 SCT150 BKN250 27/18\ A3006 RMK AO2 SLP180 T02720183= 201706291951 METAR KLGA 291951Z 16016G21KT 10SM SCT050 BKN250 27/19 A3004\ RMK AO2 SLP171 T02720189= 201706292051 METAR KLGA 292051Z 17015G22KT 10SM FEW055 BKN250 27/19 A3003\ RMK AO2 SLP168 T02670189 56016= 201706292151 METAR KLGA 292151Z 18015G24KT 10SM FEW060 26/19 A3002 RMK\ AO2 SLP165 T02610189= 201706292251 METAR KLGA 292251Z 18013G21KT 10SM FEW055 BKN250 26/19 A3002\ RMK AO2 SLP165 T02560189= 201706292351 METAR KLGA 292351Z 18012KT 10SM FEW070 BKN250 25/19 A3003\ RMK AO2 SLP167 T02500189 10278 20250\ 55000= 201706300051 METAR KLGA 300051Z 19010KT 10SM FEW070 BKN250 24/18 A3002\ RMK AO2 SLP165 T02440183= 201706300151 METAR KLGA 300151Z 21011G18KT 10SM FEW070 BKN250 26/18 A3003\ RMK AO2 SLP169 T02560178= 201706300251 METAR KLGA 300251Z 21015G22KT 10SM SCT220 BKN250 25/18 A3003\ RMK AO2 SLP168 T02500178 53001= 201706300351 METAR KLGA 300351Z 21013KT 10SM FEW220 BKN250 24/18 A3002\ RMK AO2 SLP167 T02440178= 201706300451 METAR KLGA 300451Z 22011G18KT 10SM OVC250 24/17 A3002 RMK\ AO2 SLP165 T02440167 402830206= 201706300551 METAR KLGA 300551Z 22012G20KT 10SM BKN090 OVC250 24/16 A3002\ RMK AO2 SLP165 T02440161 10256 20239\ 56003= 201706300651 METAR KLGA 300651Z 22012G19KT 10SM FEW090 BKN250 24/16 A3001\ RMK AO2 SLP161 T02390161= 201706300751 METAR KLGA 300751Z 20013KT 10SM BKN080 BKN250 24/17 A2999\ RMK AO2 SLP155 T02390167= 201706300851 METAR KLGA 300851Z 22010G16KT 10SM BKN085 BKN110 BKN250 24/17\ A2998 RMK AO2 SLP153 T02390172 56013= 201706300951 METAR KLGA 300951Z 22012KT 10SM SCT070 BKN110 BKN250 24/17\ A2999 RMK AO2 SLP155 T02440172= 201706301051 METAR KLGA 301051Z 21007KT 10SM FEW090 SCT110 24/18 A2999\ RMK AO2 SLP155 T02390178= 201706301151 METAR KLGA 301151Z 22009KT 10SM FEW070 SCT110 BKN250 25/18\ A3001 RMK AO2 SLP161 T02500178 10250\ 20239 53008= 201706301251 METAR KLGA 301251Z 22010KT 10SM SCT080 BKN250 26/18 A3000\ RMK AO2 SLP160 T02560183= 201706301351 METAR KLGA 301351Z 23008KT 10SM FEW070 BKN250 27/18 A3000\ RMK AO2 SLP159 T02720183= 201706301451 METAR KLGA 301451Z 20012KT 10SM FEW070 BKN250 28/18 A3000\ RMK AO2 SLP159 T02830183 55001= 201706301551 METAR KLGA 301551Z 22012KT 10SM FEW060 BKN100 BKN250 29/19\ A2999 RMK AO2 SLP156 T02890189= 201706301651 METAR KLGA 301651Z 18010KT 10SM FEW060 SCT130 BKN250 31/20\ A2997 RMK AO2 SLP149 T03110200= 201706301751 METAR KLGA 301751Z 16014KT 10SM FEW060 BKN250 31/21 A2995\ RMK AO2 SLP143 T03110206 10317 20250\ 58016= 201706301851 METAR KLGA 301851Z 16015KT 10SM FEW060 SCT250 31/21 A2993\ RMK AO2 SLP133 T03060211= 201706301951 METAR KLGA 301951Z 17014G21KT 10SM FEW060 SCT250 31/21 A2991\ RMK AO2 SLP128 T03110211= 201706302051 METAR KLGA 302051Z 17015G21KT 10SM FEW060 SCT250 31/22 A2989\ RMK AO2 SLP122 T03060217 56021= 201706302151 METAR KLGA 302151Z 18011G20KT 10SM FEW055 SCT250 31/22 A2987\ RMK AO2 SLP116 T03110217= 201706302251 METAR KLGA 302251Z 18012G19KT 10SM FEW055 SCT100 BKN250 29/21\ A2990 RMK AO2 SLP123 T02890211= 201706302351 METAR KLGA 302351Z 19013KT 10SM FEW055 SCT100 BKN250 28/21\ A2992 RMK AO2 LTG DSNT N AND NE SLP133\ T02830206 10317 20283 53011 $=
