 201704010051 METAR KLGA 010051Z 05016KT 3SM RA BR BKN007 OVC010 05/03\ A2977 RMK AO2 SLP079 P0020 T00500033= 201704010151 METAR KLGA 010151Z 05017KT 2SM RA BR BKN007 OVC015 05/03\ A2977 RMK AO2 SFC VIS 2 1/2 SLP080\ P0018 T00500028= 201704010251 METAR KLGA 010251Z 05023G27KT 3SM -RA BR FEW006 BKN017 OVC021\ 04/03 A2974 RMK AO2 PK WND 05029/0224\ SFC VIS 4 SLP069 P0007 60045 T00440028\ 58014= 201704010351 METAR KLGA 010351Z 06025G32KT 3SM OVC007 04/02 A2971 RMK\ AO2 PK WND 06032/0344 SFC VIS 7 RAE46\ SLP059 P0001 T00440022= 201704010451 METAR KLGA 010451Z 05025G33KT 3SM -DZ BR OVC007 04/02 A2969\ RMK AO2 PK WND 06033/0446 SFC VIS\ 5 DZB0352 SLP052 P0000 T00440022\ 400780044= 201704010551 METAR KLGA 010551Z 05025G34KT 6SM -DZ BR OVC009 04/02 A2967\ RMK AO2 PK WND 05037/0504 SLP047\ P0000 60046 T00440022 10056 20044\ 56022= 201704010651 METAR KLGA 010651Z 04025G31KT 6SM -DZ BR OVC007 04/02 A2967\ RMK AO2 PK WND 05036/0613 SLP045\ P0000 T00440022= 201704010751 METAR KLGA 010751Z 02018G25KT 3SM -RA BR OVC009 04/02 A2965\ RMK AO2 PK WND 03031/0713 DZE49RAB49\ SLP040 P0000 T00440022= 201704010851 METAR KLGA 010851Z 01012KT 4SM -RA BR OVC010 04/02 A2966\ RMK AO2 SLP043 P0001 60001 T00440022\ 55004= 201704010951 METAR KLGA 010951Z 36014KT 5SM -RA BR OVC010 04/02 A2968\ RMK AO2 SLP050 P0000 T00390022= 201704011051 METAR KLGA 011051Z 35013KT 10SM BKN013 OVC018 04/02 A2971\ RMK AO2 RAE15 SLP060 P0000 T00440017= 201704011151 METAR KLGA 011151Z 35015KT 10SM OVC013 04/02 A2973 RMK AO2\ SLP066 60001 70178 T00440017 10044\ 20039 51023= 201704011251 METAR KLGA 011251Z 35019G24KT 10SM SCT012 BKN018 OVC026 04/01\ A2975 RMK AO2 SLP074 T00440011= 201704011351 METAR KLGA 011351Z 34018G24KT 10SM SCT016 BKN030 OVC037 06/02\ A2977 RMK AO2 PK WND 35027/1313 SLP082\ T00560017= 201704011451 METAR KLGA 011451Z 34017G24KT 10SM BKN020 OVC028 06/01 A2980\ RMK AO2 PK WND 35027/1402 SLP090\ T00610011 52025= 201704011551 METAR KLGA 011551Z 36018G26KT 10SM BKN023 OVC031 07/01 A2981\ RMK AO2 PK WND 36027/1505 SLP094\ T00670011= 201704011651 METAR KLGA 011651Z 35018G29KT 10SM OVC025 07/01 A2983 RMK\ AO2 PK WND 36029/1642 SLP099 T00720006= 201704011751 METAR KLGA 011751Z 35016G22KT 10SM BKN024 OVC030 07/01 A2983\ RMK AO2 SLP100 T00720011 10078 20039\ 51010= 201704011851 METAR KLGA 011851Z 35016KT 10SM OVC027 07/01 A2985 RMK AO2\ SLP107 T00720006= 201704011951 METAR KLGA 011951Z 36016G23KT 10SM BKN026 OVC041 08/01 A2987\ RMK AO2 SLP114 T00780006= 201704012051 METAR KLGA 012051Z 01012KT 10SM SCT026 OVC042 08/02 A2990\ RMK AO2 SLP126 T00780017 53025= 201704012151 METAR KLGA 012151Z 36015G20KT 10SM FEW030 BKN055 08/01 A2993\ RMK AO2 SLP135 T00780011= 201704012251 METAR KLGA 012251Z 36011G17KT 10SM BKN050 OVC060 09/01 A2995\ RMK AO2 SLP141 T00890011= 201704012351 METAR KLGA 012351Z 35009KT 10SM SCT050 OVC080 08/01 A2998\ RMK AO2 SLP152 T00830011 10089 20072\ 53026= 201704020051 METAR KLGA 020051Z 36009KT 10SM SCT050 OVC080 08/01 A3000\ RMK AO2 SLP157 T00830011= 201704020151 METAR KLGA 020151Z 35008KT 10SM BKN041 OVC080 08/01 A3002\ RMK AO2 SLP165 T00830011= 201704020251 METAR KLGA 020251Z 36006KT 10SM BKN041 OVC090 08/01 A3003\ RMK AO2 SLP168 T00780011 51016= 201704020351 METAR KLGA 020351Z 35004KT 10SM BKN039 OVC090 08/02 A3004\ RMK AO2 SLP172 T00780017= 201704020451 METAR KLGA 020451Z 33007KT 10SM BKN032 BKN090 08/01 A3004\ RMK AO2 SLP172 T00780011 400890039= 201704020551 METAR KLGA 020551Z 32012KT 10SM BKN032 BKN090 08/01 A3004\ RMK AO2 SLP173 T00780011 10083 20078\ 51005= 201704020651 METAR KLGA 020651Z 30010KT 10SM BKN032 BKN090 07/01 A3005\ RMK AO2 SLP174 T00720006= 201704020751 METAR KLGA 020751Z 30011KT 10SM SCT039 07/00 A3005 RMK AO2\ SLP174 T00670000= 201704020851 METAR KLGA 020851Z 32011KT 10SM SCT039 07/00 A3007 RMK AO2\ SLP182 T00670000 53009= 201704020951 METAR KLGA 020951Z 31012KT 10SM FEW036 07/00 A3009 RMK AO2\ SLP188 T00670000= 201704021051 METAR KLGA 021051Z 32014KT 10SM FEW024 FEW210 06/00 A3012\ RMK AO2 SLP201 T00610000= 201704021151 METAR KLGA 021151Z 34008KT 10SM FEW027 07/00 A3014 RMK AO2\ SLP205 T00670000 10078 20061 51023= 201704021251 METAR KLGA 021251Z 31009KT 10SM FEW031 FEW090 08/01 A3014\ RMK AO2 SLP205 T00780006= 201704021351 METAR KLGA 021351Z 33009KT 10SM FEW038 FEW220 09/00 A3014\ RMK AO2 SLP205 T00940000= 201704021451 METAR KLGA 021451Z 30010KT 10SM FEW220 11/00 A3014 RMK AO2\ SLP206 T01060000 53001= 201704021551 METAR KLGA 021551Z 31009KT 10SM FEW055 FEW220 13/M01 A3012\ RMK AO2 SLP199 T01281006= 201704021651 METAR KLGA 021651Z 30011KT 10SM FEW065 14/M03 A3009 RMK AO2\ SLP190 T01391028= 201704021751 METAR KLGA 021751Z 00000KT 10SM FEW085 SCT250 15/M03 A3007\ RMK AO2 SLP181 T01501033 10156 20067\ 58024= 201704021851 METAR KLGA 021851Z 31009G17KT 10SM FEW085 SCT250 17/M03 A3004\ RMK AO2 SLP173 T01671033= 201704021951 METAR KLGA 021951Z 31013KT 10SM SCT095 BKN250 17/M04 A3003\ RMK AO2 SLP168 T01721039= 201704022051 METAR KLGA 022051Z 30015G21KT 10SM SCT085 SCT250 17/M03 A3004\ RMK AO2 SLP170 T01671033 55011= 201704022151 METAR KLGA 022151Z 32019KT 10SM FEW085 SCT250 16/M02 A3003\ RMK AO2 SLP168 T01611022= 201704022251 METAR KLGA 022251Z 33008KT 10SM SCT090 BKN250 16/M02 A3003\ RMK AO2 PK WND 31028/2152 SLP169\ T01561022= 201704022351 METAR KLGA 022351Z 33005KT 10SM FEW090 SCT250 15/M02 A3003\ RMK AO2 SLP170 T01501017 10172 20150\ 55000= 201704030051 METAR KLGA 030051Z 31006KT 10SM SCT080 SCT250 15/M02 A3005\ RMK AO2 SLP177 T01501017= 201704030151 METAR KLGA 030151Z 32009KT 10SM BKN250 13/00 A3008 RMK AO2\ SLP186 T01330000= 201704030251 METAR KLGA 030251Z 34006KT 10SM FEW250 14/M01 A3008 RMK AO2\ SLP187 T01391011 51017= 201704030351 METAR KLGA 030351Z 33008KT 10SM SCT250 13/M01 A3010 RMK AO2\ SLP191 T01331006= 201704030451 METAR KLGA 030451Z 35004KT 10SM SCT250 13/M01 A3009 RMK AO2\ SLP188 T01281011 401720061= 201704030551 METAR KLGA 030551Z 35004KT 10SM CLR 12/M01 A3008 RMK AO2\ SLP186 T01171011 10150 20117 58001= 201704030651 METAR KLGA 030651Z 30004KT 10SM SCT250 11/M01 A3009 RMK AO2\ SLP190 T01111006= 201704030751 METAR KLGA 030751Z 00000KT 10SM SCT250 11/00 A3008 RMK AO2\ SLP185 T01060000= 201704030851 METAR KLGA 030851Z 00000KT 10SM BKN250 09/01 A3007 RMK AO2\ SLP183 T00890006 58003= 201704030951 METAR KLGA 030951Z 24004KT 10SM BKN250 09/M01 A3009 RMK AO2\ SLP188 T00941006= 201704031051 METAR KLGA 031051Z 00000KT 10SM FEW150 BKN250 11/00 A3010\ RMK AO2 SLP194 T01110000= 201704031151 METAR KLGA 031151Z 00000KT 10SM SCT110 BKN250 12/01 A3013\ RMK AO2 SLP202 T01170006 10122 20089\ 53019= 201704031251 METAR KLGA 031251Z 05005KT 10SM FEW110 SCT140 BKN250 13/01\ A3012 RMK AO2 SLP199 T01330006= 201704031351 METAR KLGA 031351Z VRB05KT 10SM BKN120 BKN250 15/M01 A3011\ RMK AO2 SLP195 T01501006= 201704031451 METAR KLGA 031451Z 17007KT 10SM BKN130 BKN250 16/M01 A3011\ RMK AO2 SLP194 T01561006 56007= 201704031551 METAR KLGA 031551Z 16011KT 10SM SCT140 BKN250 17/M01 A3009\ RMK AO2 SLP189 T01671006= 201704031651 METAR KLGA 031651Z 18011KT 10SM FEW130 BKN250 17/00 A3007\ RMK AO2 SLP182 T01670000= 201704031751 METAR KLGA 031751Z 18013G17KT 10SM FEW140 BKN250 16/M01 A3006\ RMK AO2 SLP177 T01611011 10172 20111\ 56017= 201704031851 METAR KLGA 031851Z 17016KT 10SM FEW140 BKN250 16/M02 A3003\ RMK AO2 SLP169 T01611017= 201704031951 METAR KLGA 031951Z 16014KT 10SM FEW140 BKN250 16/M01 A3001\ RMK AO2 SLP162 T01611011= 201704032051 METAR KLGA 032051Z 16014G17KT 10SM FEW050 SCT200 BKN250 15/02\ A2999 RMK AO2 SLP153 T01500022 56024= 201704032151 METAR KLGA 032151Z 15011KT 10SM FEW080 SCT200 BKN250 14/02\ A2998 RMK AO2 SLP153 T01390017= 201704032251 METAR KLGA 032251Z 16011KT 10SM BKN065 BKN160 OVC250 13/02\ A2997 RMK AO2 SLP149 T01280017= 201704032351 METAR KLGA 032351Z 15013G17KT 10SM BKN055 BKN140 OVC250 12/02\ A2996 RMK AO2 SLP144 T01170017 10167\ 20117 58009= 201704040051 METAR KLGA 040051Z 16009KT 10SM BKN055 OVC140 12/02 A2995\ RMK AO2 SLP141 T01170022= 201704040151 METAR KLGA 040151Z 17011KT 10SM BKN055 OVC130 12/01 A2994\ RMK AO2 SLP140 T01170011= 201704040251 METAR KLGA 040251Z 16011KT 10SM FEW038 OVC055 12/M01 A2992\ RMK AO2 SLP131 T01171006 58013= 201704040351 METAR KLGA 040351Z 13008KT 9SM -RA FEW037 OVC050 11/03 A2988\ RMK AO2 RAB24 SLP117 P0000 T01110033= 201704040451 METAR KLGA 040451Z 13009G17KT 10SM -RA BKN027 BKN038 OVC049\ 12/06 A2983 RMK AO2 PRESFR SLP099\ P0002 T01170056 401720089= 201704040551 METAR KLGA 040551Z 13014G21KT 5SM RA BKN021 OVC036 11/07\ A2978 RMK AO2 SLP082 P0009 60011\ T01060067 10122 20106 58049= 201704040651 METAR KLGA 040651Z 12007G17KT 100V170 2SM +RA OVC012 11/08\ A2975 RMK AO2 SLP075 P0036 T01110083= 201704040751 METAR KLGA 040751Z 14009KT 1 1/2SM +RA BR BKN009 BKN013 OVC023\ 12/09 A2970 RMK AO2 SFC VIS 2 1/2\ SLP056 P0091 T01170094= 201704040851 METAR KLGA 040851Z 12008KT 9SM -RA OVC012 12/09 A2967 RMK\ AO2 SLP045 P0020 60147 T01170094\ 58037= 201704040951 METAR KLGA 040951Z 12007KT 6SM -RA BR OVC005 12/10 A2964\ RMK AO2 RAE23B40 SLP036 P0001 T01170100= 201704041051 METAR KLGA 041051Z 04008KT 1SM -RA BR OVC003 11/09 A2962\ RMK AO2 SFC VIS 2 RAE0953B15E26B45\ SLP031 P0000 T01060089= 201704041151 METAR KLGA 041151Z 05010KT 1/2SM -RA BR OVC002 09/08 A2961\ RMK AO2 SFC VIS 3/4 SLP028 P0001\ 60149 70160 T00940078 10122 20094\ 56008= 201704041251 METAR KLGA 041251Z 04011KT 1/2SM -RA BR OVC002 09/07 A2961\ RMK AO2 SFC VIS 1 SLP026 P0000 T00890072= 201704041351 METAR KLGA 041351Z 04012KT 1/2SM -RA BR OVC002 08/06 A2960\ RMK AO2 SFC VIS 1 SLP021 P0000 T00780061= 201704041451 METAR KLGA 041451Z 04015KT 1/2SM BR OVC002 08/06 A2960 RMK\ AO2 SFC VIS 1 3/4 RAE33 SLP022 P0001\ 60001 T00780061 55006= 201704041551 METAR KLGA 041551Z 04018KT 1/4SM -DZ BR OVC002 08/06 A2958\ RMK AO2 SFC VIS 1 RAB29E49DZB51 SLP016\ P0000 T00780061= 201704041651 METAR KLGA 041651Z 05018KT 1/4SM -DZ BR OVC002 08/07 A2957\ RMK AO2 SFC VIS 1 1/2 SLP013 P0000\ T00780067= 201704041751 METAR KLGA 041751Z 05018KT 1/2SM BR OVC002 08/06 A2960 RMK\ AO2 PK WND 04026/1705 SFC VIS 1 1/2\ DZE1657RAB1657E14 SLP021 P0000 60001\ T00780061 10094 20072 55001= 201704041851 METAR KLGA 041851Z 06011KT 2SM BR OVC002 08/07 A2960 RMK\ AO2 SFC VIS 4 SLP023 T00830067= 201704041951 METAR KLGA 041951Z 05008KT 5SM -RA BR OVC006 09/08 A2959\ RMK AO2 RAB21 SLP020 P0002 T00940078= 201704042051 METAR KLGA 042051Z 06009KT 10SM FEW009 OVC018 10/08 A2961\ RMK AO2 RAE1952 SLP026 P0000 60002\ T01000078 53003= 201704042151 METAR KLGA 042151Z 05009KT 10SM BKN008 OVC017 10/08 A2962\ RMK AO2 SLP028 T01000078= 201704042251 METAR KLGA 042251Z 06009KT 10SM OVC008 10/07 A2964 RMK AO2\ SLP036 T01000067= 201704042351 METAR KLGA 042351Z 05005KT 10SM OVC008 10/07 A2965 RMK AO2\ PRESRR SLP040 60002 T01000067 10106\ 20072 53014= 201704050051 METAR KLGA 050051Z 05010KT 10SM OVC009 10/07 A2969 RMK AO2\ LTG DSNT NE SLP054 T01000067= 201704050151 METAR KLGA 050151Z 03006KT 10SM OVC009 09/06 A2972 RMK AO2\ WSHFT 0047 SLP062 T00890061= 201704050251 METAR KLGA 050251Z 06007KT 10SM OVC009 09/06 A2973 RMK AO2\ SLP067 T00890056 51027= 201704050351 METAR KLGA 050351Z 07004KT 10SM OVC007 09/06 A2974 RMK AO2\ SLP072 T00890061= 201704050451 METAR KLGA 050451Z 08004KT 5SM BR OVC006 08/06 A2975 RMK\ AO2 SLP072 T00830061 401220072= 201704050551 METAR KLGA 050551Z 04005KT 2SM BR OVC004 08/06 A2975 RMK\ AO2 SFC VIS 4 SLP073 T00830061 10100\ 20083 51006= 201704050651 METAR KLGA 050651Z 06005KT 1/2SM BR OVC003 08/06 A2976 RMK\ AO2 SFC VIS 1 3/4 SLP076 T00780061= 201704050751 METAR KLGA 050751Z 07006KT 6SM BR OVC003 08/06 A2978 RMK\ AO2 SLP082 T00780061= 201704050851 METAR KLGA 050851Z 03004KT 6SM BR OVC005 08/06 A2979 RMK\ AO2 SLP086 T00780061 53013= 201704050951 METAR KLGA 050951Z 03004KT 1SM BR OVC005 08/06 A2981 RMK\ AO2 SFC VIS 3 SLP093 T00780061= 201704051051 METAR KLGA 051051Z 05004KT 1/2SM BR OVC003 08/07 A2986 RMK\ AO2 SFC VIS 3/4 SLP109 T00830067= 201704051151 METAR KLGA 051151Z 00000KT 1/2SM BR BKN003 BKN006 OVC050\ 09/08 A2988 RMK AO2 SFC VIS 1 SLP118\ 70003 T00940078 10094 20072 53032= 201704051251 METAR KLGA 051251Z 05007KT 1 1/4SM HZ SCT002 BKN007 OVC014\ 10/07 A2992 RMK AO2 SFC VIS 2 SLP130\ T01000072= 201704051351 METAR KLGA 051351Z 06006KT 2SM BR FEW007 SCT012 BKN041 11/08\ A2992 RMK AO2 SFC VIS 3 SLP132 T01060078= 201704051451 METAR KLGA 051451Z 00000KT 7SM FEW015 OVC035 12/07 A2993\ RMK AO2 SLP136 T01220067 51018= 201704051551 METAR KLGA 051551Z 08005KT 9SM OVC035 13/07 A2993 RMK AO2\ SLP136 T01330067= 201704051651 METAR KLGA 051651Z VRB04KT 10SM FEW030 OVC038 14/06 A2993\ RMK AO2 SLP136 T01390061= 201704051751 METAR KLGA 051751Z 13008KT 9SM BKN040 BKN250 14/07 A2994\ RMK AO2 SLP137 T01440072 10150 20089\ 53001= 201704051851 METAR KLGA 051851Z 32004KT 10SM SCT045 BKN250 16/04 A2992\ RMK AO2 SLP130 T01610044= 201704051951 METAR KLGA 051951Z 06009KT 10SM FEW050 SCT250 16/05 A2990\ RMK AO2 SLP126 T01610050= 201704052051 METAR KLGA 052051Z 05010KT 10SM FEW050 SCT250 16/05 A2991\ RMK AO2 SLP128 T01610050 55008= 201704052151 METAR KLGA 052151Z 05009KT 10SM FEW050 BKN250 15/06 A2994\ RMK AO2 SLP137 T01500056 $= 201704052251 METAR KLGA 052251Z 18010KT 10SM FEW050 OVC250 14/06 A2996\ RMK AO2 SLP144 T01390061 $= 201704052351 METAR KLGA 052351Z 16007KT 10SM OVC250 10/06 A2996 RMK AO2\ SLP143 T01000056 10172 20100 50015\ $= 201704060051 METAR KLGA 060051Z 13010KT 10SM FEW005 OVC250 09/06 A2997\ RMK AO2 SLP150 T00940056 $= 201704060151 METAR KLGA 060151Z 12009G16KT 10SM FEW005 OVC250 09/06 A2997\ RMK AO2 PRESFR SLP150 T00940056 $= 201704060251 METAR KLGA 060251Z 13014KT 10SM FEW005 OVC250 09/05 A2996\ RMK AO2 SLP144 T00940050 50001 $= 201704060351 METAR KLGA 060351Z 14010KT 10SM SCT012 OVC250 08/04 A2999\ RMK AO2 SLP156 T00830044 $= 201704060451 METAR KLGA 060451Z 13012KT 10SM OVC013 08/04 A2999 RMK AO2\ SLP153 T00830044 401720072 $= 201704060551 METAR KLGA 060551Z 11010KT 10SM OVC014 09/04 A2996 RMK AO2\ SLP146 T00890044 10100 20083 50002\ $= 201704060651 METAR KLGA 060651Z 11012KT 10SM BKN016 OVC090 09/04 A2994\ RMK AO2 SLP139 T00890039 $= 201704060751 METAR KLGA 060751Z 10012KT 10SM OVC015 08/04 A2993 RMK AO2\ SLP134 T00830039 $= 201704060851 METAR KLGA 060851Z 11012KT 10SM -RA OVC015 07/04 A2992 RMK\ AO2 RAB29 SLP131 P0000 60000 T00720039\ 56015 $= 201704060951 METAR KLGA 060951Z 09013KT 10SM OVC011 07/04 A2986 RMK AO2\ RAE0852B14E41 PRESFR SLP112 P0000\ T00720039 $= 201704061051 METAR KLGA 061051Z 08012KT 10SM -RA BKN010 OVC019 07/03 A2983\ RMK AO2 RAB0953 SLP102 P0002 T00670033\ $= 201704061151 METAR KLGA 061151Z 07012KT 2SM -RA OVC012 07/03 A2979 RMK\ AO2 SFC VIS 3 RAE12B33 PRESFR SLP087\ P0000 60002 70002 T00670033 10089\ 20061 56044 $= 201704061251 METAR KLGA 061251Z 07010G21KT 2SM -RA BR OVC009 06/04 A2975\ RMK AO2 RAE36B44 SLP074 P0002 T00610039\ $= 201704061351 METAR KLGA 061351Z 06011KT 2 1/2SM -RA OVC009 07/04 A2972\ RMK AO2 PK WND 07026/1336 RAE11B17\ SLP064 P0001 T00720039= 201704061451 METAR KLGA 061451Z 06014KT 2 1/2SM -RA BR OVC007 07/04 A2968\ RMK AO2 SLP050 P0003 60006 T00670044\ 56024= 201704061551 METAR KLGA 061551Z 06013KT 1SM -RA BR BKN005 OVC009 07/04\ A2964 RMK AO2 SFC VIS 1 1/2 SLP036\ P0004 T00670044 $= 201704061651 METAR KLGA 061651Z 05019KT 2SM -RA BR OVC005 06/04 A2957\ RMK AO2 SLP012 P0006 T00610044 $= 201704061751 METAR KLGA 061751Z 05019KT 1 1/2SM -RA BR OVC004 06/04 A2950\ RMK AO2 PK WND 05026/1726 RAE09B29\ PRESFR SLP988 P0001 60017 T00610044\ 10072 20061 58062 $= 201704061851 METAR KLGA 061851Z 05022G29KT 1 1/2SM VCTS -RA BR OVC004\ 06/04 A2940 RMK AO2 PK WND 05030/1833\ SFC VIS 2 1/2 LTG DSNT E AND SE AND\ W RAE19B46 SLP956 P0000 T00610044\ $= 201704061951 METAR KLGA 061951Z 05025G34KT 3/4SM +TSRA BR OVC002 06/04\ A2930 RMK AO2 PK WND 06034/1948 LTG\ DSNT ALQDS TSB44 PRESFR SLP920 P0008\ T00610044 $= 201704062051 METAR KLGA 062051Z 04017G23KT 3/4SM +TSRA BR BKN004 BKN011\ OVC027 07/06 A2923 RMK AO2 PK WND\ 05034/1954 LTG DSNT ALQDS TSE03B04\ PRESFR SLP898 OCNL LTGICCCCG OHD\ TS OHD MOV NE P0045 60053 T00720061\ 56090= 201704062151 METAR KLGA 062151Z 30003KT 8SM SCT008 SCT080 BKN110 09/07\ A2924 RMK AO2 RAE32 TSE20 SLP902\ FU PLUME W DRFTG W P0013 T00940072= 201704062251 METAR KLGA 062251Z 00000KT 10SM FEW008 SCT050 SCT080 SCT150\ 11/09 A2920 RMK AO2 SLP887 T01060094= 201704062351 METAR KLGA 062351Z 18008KT 10SM SCT005 BKN033 BKN046 12/09\ A2921 RMK AO2 SLP892 60066 T01170094\ 10122 20061 55006= 201704070051 METAR KLGA 070051Z 22012G18KT 10SM FEW008 FEW015 SCT032 12/08\ A2924 RMK AO2 SLP901 T01170078= 201704070151 METAR KLGA 070151Z 21012KT 10SM FEW008 SCT025 SCT042 12/06\ A2927 RMK AO2 SLP913 T01170061= 201704070251 METAR KLGA 070251Z 21011KT 10SM FEW025 FEW050 11/06 A2928\ RMK AO2 SLP914 T01110061 51022= 201704070351 METAR KLGA 070351Z 22012KT 10SM FEW025 FEW050 12/07 A2928\ RMK AO2 SLP916 T01170067= 201704070451 METAR KLGA 070451Z 24012G20KT 10SM FEW025 FEW095 12/07 A2928\ RMK AO2 SLP916 T01170067 401220061= 201704070551 METAR KLGA 070551Z 23016G24KT 10SM FEW025 BKN090 12/05 A2929\ RMK AO2 SLP920 T01170050 10122 20111\ 53006= 201704070651 METAR KLGA 070651Z 25010KT 10SM FEW090 11/03 A2929 RMK AO2\ SLP918 T01110028= 201704070751 METAR KLGA 070751Z 23010G18KT 10SM FEW040 10/02 A2931 RMK\ AO2 SLP925 T01000017= 201704070851 METAR KLGA 070851Z 23009KT 10SM SCT047 09/02 A2930 RMK AO2\ SLP921 T00940017 50002= 201704070951 METAR KLGA 070951Z 22012KT 10SM FEW050 09/01 A2930 RMK AO2\ SLP922 T00890011= 201704071051 METAR KLGA 071051Z 23012KT 10SM BKN055 09/01 A2932 RMK AO2\ SLP927 T00890011= 201704071151 METAR KLGA 071151Z 25015G21KT 10SM BKN050 09/01 A2933 RMK\ AO2 SLP931 70083 T00890006 10117\ 20089 53009= 201704071251 METAR KLGA 071251Z 24012G20KT 10SM FEW048 BKN060 09/01 A2934\ RMK AO2 SLP935 T00890006= 201704071351 METAR KLGA 071351Z 24013G22KT 10SM BKN037 OVC055 09/00 A2935\ RMK AO2 SLP940 T00890000= 201704071451 METAR KLGA 071451Z 23015G19KT 10SM -RA SCT026 BKN032 OVC060\ 08/02 A2937 RMK AO2 PK WND 23026/1355\ RAB50 SLP944 P0000 60000 T00830017\ 51013= 201704071551 METAR KLGA 071551Z 23014G23KT 10SM BKN026 OVC038 09/02 A2937\ RMK AO2 RAE00 SLP944 P0000 T00890017= 201704071651 METAR KLGA 071651Z 27015G23KT 10SM -RA SCT022 BKN028 OVC037\ 08/03 A2938 RMK AO2 RAB1559E03B23\ SLP947 P0000 T00830028= 201704071751 METAR KLGA 071751Z 27010G16KT 10SM BKN032 OVC039 09/01 A2938\ RMK AO2 RAE1655 SLP949 P0000 60000\ T00890006 10094 20078 53005= 201704071851 METAR KLGA 071851Z 26012KT 10SM SCT046 SCT055 OVC070 11/01\ A2938 RMK AO2 RAB15E38 SLP948 P0000\ T01060011= 201704071951 METAR KLGA 071951Z 28010G18KT 10SM FEW045 BKN060 OVC070 11/01\ A2939 RMK AO2 PK WND 27027/1927 RAB08E40\ SLP952 P0000 T01060006= 201704072051 METAR KLGA 072051Z 29018G27KT 10SM SCT045 OVC070 11/M01 A2942\ RMK AO2 PK WND 30027/2049 RAB03E12\ SLP961 P0000 60000 T01061006 53012= 201704072151 METAR KLGA 072151Z 29022G28KT 10SM FEW035 OVC075 10/M02 A2946\ RMK AO2 PK WND 29031/2136 SLP976\ T01001017= 201704072251 METAR KLGA 072251Z 31026G37KT 10SM SCT065 OVC085 08/M02 A2951\ RMK AO2 PK WND 30037/2246 PRESRR\ SLP992 T00831022= 201704072351 METAR KLGA 072351Z 31014G26KT 10SM FEW038 SCT045 BKN090 07/M01\ A2954 RMK AO2 PK WND 31034/2324 SLP004\ 60000 T00721011 10106 20072 51043= 201704080051 METAR KLGA 080051Z 31021G35KT 10SM FEW042 SCT055 OVC100 07/M03\ A2959 RMK AO2 PK WND 32035/0047 SLP019\ T00721028= 201704080151 METAR KLGA 080151Z 29017G26KT 10SM BKN044 BKN080 BKN100 07/M03\ A2963 RMK AO2 PK WND 31033/0052 SLP032\ T00671028= 201704080251 METAR KLGA 080251Z 29016G25KT 10SM SCT044 BKN080 OVC110 07/M03\ A2964 RMK AO2 PK WND 29033/0231 SLP037\ T00671033 51033= 201704080351 METAR KLGA 080351Z 29019G30KT 10SM BKN075 BKN120 07/M03 A2966\ RMK AO2 PK WND 29032/0333 SLP043\ T00671033= 201704080451 METAR KLGA 080451Z 28012G23KT 10SM OVC043 06/M03 A2968 RMK\ AO2 PK WND 29031/0354 SLP051 T00611028\ 401170061= 201704080551 METAR KLGA 080551Z 27018G29KT 10SM OVC055 06/M03 A2969 RMK\ AO2 PK WND 27029/0548 SLP053 T00611028\ 10078 20061 51016= 201704080651 METAR KLGA 080651Z 29013G21KT 10SM OVC040 06/M02 A2970 RMK\ AO2 PK WND 27030/0605 SLP055 T00611022= 201704080751 METAR KLGA 080751Z 30018G24KT 10SM OVC046 06/M03 A2970 RMK\ AO2 PK WND 28029/0718 SLP058 T00611033= 201704080851 METAR KLGA 080851Z 30014KT 10SM OVC049 06/M03 A2971 RMK AO2\ SLP062 T00611033 53009= 201704080951 METAR KLGA 080951Z 30013G21KT 10SM BKN050 07/M04 A2973 RMK\ AO2 SLP067 T00671044= 201704081051 METAR KLGA 081051Z 30016G21KT 10SM BKN055 06/M06 A2976 RMK\ AO2 SLP078 T00611056= 201704081151 METAR KLGA 081151Z 31012KT 10SM SCT055 06/M05 A2978 RMK AO2\ PK WND 31030/1055 SLP084 T00611050\ 10067 20056 53023= 201704081251 METAR KLGA 081251Z 31015G18KT 10SM SCT049 BKN250 06/M04 A2980\ RMK AO2 SLP089 T00611044= 201704081351 METAR KLGA 081351Z 30014G23KT 10SM SCT050 BKN250 07/M06 A2981\ RMK AO2 SLP093 T00721056= 201704081451 METAR KLGA 081451Z 31020G25KT 10SM FEW050 SCT250 08/M05 A2982\ RMK AO2 SLP097 T00831050 51013= 201704081551 METAR KLGA 081551Z 32018G26KT 10SM FEW050 FEW250 09/M04 A2982\ RMK AO2 PK WND 32026/1509 SLP098\ T00941044= 201704081651 METAR KLGA 081651Z 32017KT 10SM FEW050 11/M04 A2981 RMK AO2\ PK WND 30027/1639 SLP095 T01061044= 201704081751 METAR KLGA 081751Z 30016G21KT 10SM FEW070 12/M05 A2982 RMK\ AO2 SLP096 T01171050 10122 20056\ 58001= 201704081851 METAR KLGA 081851Z 32017G25KT 10SM FEW070 13/M05 A2981 RMK\ AO2 PK WND 32026/1814 SLP093 T01281050= 201704081951 METAR KLGA 081951Z 31018G26KT 10SM FEW070 SCT250 14/M06 A2980\ RMK AO2 PK WND 31030/1933 SLP090\ T01391056= 201704082051 METAR KLGA 082051Z 31015G27KT 10SM FEW070 SCT250 14/M05 A2980\ RMK AO2 PK WND 32028/2045 SLP092\ T01391050 55003= 201704082151 METAR KLGA 082151Z 31015G23KT 10SM FEW070 SCT250 14/M04 A2982\ RMK AO2 PK WND 31027/2101 SLP097\ T01391039= 201704082251 METAR KLGA 082251Z 32016KT 10SM SCT250 14/M07 A2985 RMK AO2\ SLP107 T01391067= 201704082351 METAR KLGA 082351Z 34015G24KT 10SM CLR 13/M07 A2989 RMK AO2\ SLP120 T01281072 10144 20117 53028= 201704090051 METAR KLGA 090051Z 31013KT 10SM CLR 12/M04 A2993 RMK AO2\ SLP136 T01171044= 201704090151 METAR KLGA 090151Z 33008KT 10SM CLR 12/M06 A2997 RMK AO2\ SLP147 T01171056= 201704090251 METAR KLGA 090251Z 33011KT 10SM CLR 11/M06 A3000 RMK AO2\ SLP157 T01061061 51037= 201704090351 METAR KLGA 090351Z 34011KT 10SM CLR 10/M06 A3002 RMK AO2\ SLP165 T01001061= 201704090451 METAR KLGA 090451Z 31011KT 10SM CLR 09/M05 A3003 RMK AO2\ SLP170 T00941050 401440056= 201704090551 METAR KLGA 090551Z 31008KT 10SM CLR 09/M04 A3005 RMK AO2\ SLP175 T00891039 10128 20089 51018= 201704090651 METAR KLGA 090651Z 30006KT 10SM CLR 09/M04 A3006 RMK AO2\ SLP178 T00891039= 201704090751 METAR KLGA 090751Z 30008KT 10SM CLR 09/M04 A3007 RMK AO2\ SLP181 T00891044= 201704090851 METAR KLGA 090851Z 31005KT 10SM FEW250 08/M03 A3008 RMK AO2\ SLP185 T00831033 53010= 201704090951 METAR KLGA 090951Z 00000KT 10SM SCT250 08/M05 A3010 RMK AO2\ SLP192 T00781050= 201704091051 METAR KLGA 091051Z 00000KT 10SM FEW120 FEW190 SCT250 08/M04\ A3013 RMK AO2 SLP203 ACSL NE T00831039= 201704091151 METAR KLGA 091151Z 29007KT 10SM FEW110 FEW170 SCT250 11/M06\ A3015 RMK AO2 SLP210 T01061056 10106\ 20078 51025= 201704091251 METAR KLGA 091251Z 32005KT 10SM FEW110 FEW160 SCT250 12/M03\ A3015 RMK AO2 SLP210 T01171033= 201704091351 METAR KLGA 091351Z 31007KT 10SM FEW110 FEW160 FEW250 12/M03\ A3017 RMK AO2 SLP216 T01221028= 201704091451 METAR KLGA 091451Z 32004KT 10SM FEW160 FEW250 14/M03 A3017\ RMK AO2 SLP215 T01391033 50005= 201704091551 METAR KLGA 091551Z 27007KT 10SM FEW160 FEW250 17/M06 A3016\ RMK AO2 SLP213 T01671056= 201704091651 METAR KLGA 091651Z VRB05KT 10SM FEW090 FEW250 17/M04 A3016\ RMK AO2 SLP212 T01721044= 201704091751 METAR KLGA 091751Z 23011G17KT 10SM FEW090 SCT250 18/M04 A3014\ RMK AO2 SLP207 T01831039 10189 20106\ 58008= 201704091851 METAR KLGA 091851Z 23014G21KT 10SM FEW090 SCT250 19/M04 A3013\ RMK AO2 SLP201 T01941039= 201704091951 METAR KLGA 091951Z 17013KT 10SM FEW100 BKN250 18/M03 A3013\ RMK AO2 WSHFT 1852 SLP202 T01781028= 201704092051 METAR KLGA 092051Z 17016G21KT 10SM SCT250 16/M03 A3012 RMK\ AO2 SLP198 T01611028 56009= 201704092151 METAR KLGA 092151Z 17014KT 10SM BKN250 15/M01 A3012 RMK AO2\ SLP197 T01501011= 201704092251 METAR KLGA 092251Z 17013KT 10SM BKN250 13/01 A3012 RMK AO2\ SLP198 T01280011= 201704092351 METAR KLGA 092351Z 17011KT 10SM BKN250 12/02 A3012 RMK AO2\ SLP200 T01170022 10200 20117 53002= 201704100051 METAR KLGA 100051Z 16007KT 10SM BKN250 12/03 A3015 RMK AO2\ SLP208 T01220033= 201704100151 METAR KLGA 100151Z 18006KT 10SM BKN250 13/03 A3016 RMK AO2\ SLP212 T01280033= 201704100251 METAR KLGA 100251Z 21010KT 10SM BKN250 15/M01 A3016 RMK AO2\ SLP213 T01501006 51013= 201704100351 METAR KLGA 100351Z 22007KT 10SM BKN250 14/M02 A3016 RMK AO2\ SLP213 T01441017= 201704100451 METAR KLGA 100451Z 20005KT 10SM BKN250 14/M02 A3017 RMK AO2\ SLP217 T01441022 402000078= 201704100551 METAR KLGA 100551Z 21005KT 10SM BKN250 13/M01 A3018 RMK AO2\ SLP218 T01331011 10150 20117 53005= 201704100651 METAR KLGA 100651Z 22007KT 10SM BKN250 13/00 A3017 RMK AO2\ SLP216 T01330000= 201704100751 METAR KLGA 100751Z 21005KT 10SM SCT250 13/01 A3018 RMK AO2\ SLP218 T01280006= 201704100851 METAR KLGA 100851Z 20005KT 10SM BKN250 12/01 A3019 RMK AO2\ SLP222 T01220011 53004= 201704100951 METAR KLGA 100951Z 18006KT 10SM SCT250 12/02 A3019 RMK AO2\ SLP224 T01170017= 201704101051 METAR KLGA 101051Z 19005KT 10SM BKN250 11/02 A3021 RMK AO2\ SLP229 T01110022= 201704101151 METAR KLGA 101151Z 19007KT 10SM BKN250 13/02 A3021 RMK AO2\ SLP230 T01280022 10133 20111 51007= 201704101251 METAR KLGA 101251Z 19005KT 10SM BKN250 14/02 A3021 RMK AO2\ SLP229 T01440022= 201704101351 METAR KLGA 101351Z 20008KT 10SM BKN250 17/02 A3020 RMK AO2\ SLP227 T01720017= 201704101451 METAR KLGA 101451Z 22008KT 10SM BKN250 21/02 A3018 RMK AO2\ SLP220 T02060017 58009= 201704101551 METAR KLGA 101551Z 18011KT 10SM BKN250 21/04 A3017 RMK AO2\ SLP217 T02060039= 201704101651 METAR KLGA 101651Z 17009KT 10SM BKN250 21/04 A3016 RMK AO2\ SLP212 T02110044= 201704101751 METAR KLGA 101751Z 17009KT 10SM BKN250 21/06 A3013 RMK AO2\ SLP203 T02110061 10217 20128 58017= 201704101851 METAR KLGA 101851Z 18011KT 10SM BKN250 22/07 A3011 RMK AO2\ SLP196 T02220067= 201704101951 METAR KLGA 101951Z 16009KT 10SM BKN250 23/07 A3008 RMK AO2\ SLP187 T02280067= 201704102051 METAR KLGA 102051Z 18009KT 10SM BKN250 22/07 A3008 RMK AO2\ SLP185 T02220067 56018= 201704102151 METAR KLGA 102151Z 16010KT 10SM BKN250 21/07 A3007 RMK AO2\ SLP183 T02060072= 201704102251 METAR KLGA 102251Z 18008KT 10SM BKN250 21/07 A3007 RMK AO2\ SLP182 T02060072= 201704102351 METAR KLGA 102351Z 19009KT 10SM BKN250 19/07 A3008 RMK AO2\ SLP186 T01940072 10228 20194 53001= 201704110051 METAR KLGA 110051Z 20009KT 10SM BKN250 19/07 A3011 RMK AO2\ SLP194 T01940072= 201704110151 METAR KLGA 110151Z 19009KT 10SM BKN250 19/07 A3013 RMK AO2\ SLP201 T01890072= 201704110251 METAR KLGA 110251Z 19008KT 10SM FEW250 18/07 A3013 RMK AO2\ SLP201 T01830072 51016= 201704110351 METAR KLGA 110351Z 21008KT 10SM SCT250 18/07 A3012 RMK AO2\ SLP201 T01780072= 201704110451 METAR KLGA 110451Z 19008KT 10SM BKN250 17/07 A3012 RMK AO2\ SLP200 T01720072 402280111= 201704110551 METAR KLGA 110551Z 18005KT 10SM BKN250 17/07 A3012 RMK AO2\ SLP198 T01670072 10200 20167 58004= 201704110651 METAR KLGA 110651Z 17005KT 10SM BKN250 15/07 A3010 RMK AO2\ SLP193 T01500072= 201704110751 METAR KLGA 110751Z 18007KT 10SM FEW250 14/07 A3010 RMK AO2\ SLP191 T01440072= 201704110851 METAR KLGA 110851Z 18005KT 10SM BKN250 14/07 A3010 RMK AO2\ SLP192 T01440072 55005= 201704110951 METAR KLGA 110951Z 17004KT 10SM SCT250 15/07 A3011 RMK AO2\ SLP197 T01500072= 201704111051 METAR KLGA 111051Z 19008KT 10SM SCT250 16/08 A3012 RMK AO2\ SLP199 T01610078= 201704111151 METAR KLGA 111151Z 17008KT 10SM SCT250 17/08 A3013 RMK AO2\ SLP204 T01670083 10167 20139 53012= 201704111251 METAR KLGA 111251Z 21010KT 10SM BKN250 19/08 A3014 RMK AO2\ SLP206 T01940078= 201704111351 METAR KLGA 111351Z 23007KT 10SM BKN250 21/08 A3014 RMK AO2\ SLP207 T02060083= 201704111451 METAR KLGA 111451Z VRB06KT 10SM BKN250 23/08 A3013 RMK AO2\ SLP204 T02280083 50000= 201704111551 METAR KLGA 111551Z 18003KT 10SM SCT250 24/09 A3012 RMK AO2\ SLP199 T02440094= 201704111651 METAR KLGA 111651Z 17009KT 10SM SCT250 25/09 A3011 RMK AO2\ SLP197 T02500094= 201704111751 METAR KLGA 111751Z 18011KT 10SM BKN250 25/09 A3009 RMK AO2\ SLP191 T02500094 10256 20167 58014= 201704111851 METAR KLGA 111851Z 17014KT 10SM BKN250 24/11 A3009 RMK AO2\ SLP188 T02440106= 201704111951 METAR KLGA 111951Z 18010KT 10SM BKN250 23/11 A3008 RMK AO2\ SLP186 T02330111= 201704112051 METAR KLGA 112051Z 17010KT 10SM BKN250 24/11 A3006 RMK AO2\ SLP180 T02390106 58010= 201704112151 METAR KLGA 112151Z 16010KT 10SM BKN250 23/11 A3007 RMK AO2\ SLP181 T02330106= 201704112251 METAR KLGA 112251Z 16008KT 10SM BKN250 21/11 A3006 RMK AO2\ SLP177 T02110106= 201704112351 METAR KLGA 112351Z 17006KT 10SM BKN250 19/10 A3006 RMK AO2\ SLP178 T01890100 10250 20189 58002= 201704120051 METAR KLGA 120051Z 18004KT 10SM BKN250 18/11 A3007 RMK AO2\ SLP183 T01830106= 201704120151 METAR KLGA 120151Z 17005KT 10SM SCT250 17/11 A3008 RMK AO2\ SLP187 T01720106= 201704120251 METAR KLGA 120251Z 17004KT 10SM FEW250 17/10 A3008 RMK AO2\ SLP187 T01670100 51009= 201704120351 METAR KLGA 120351Z 13005KT 10SM SCT250 16/10 A3010 RMK AO2\ SLP192 T01560100= 201704120451 METAR KLGA 120451Z 33003KT 10SM SCT250 14/09 A3010 RMK AO2\ SLP192 T01440089 402560139= 201704120551 METAR KLGA 120551Z 08006KT 10SM FEW250 14/09 A3010 RMK AO2\ SLP191 T01440094 10189 20133 50004= 201704120651 METAR KLGA 120651Z 09003KT 10SM BKN240 14/09 A3008 RMK AO2\ SLP185 T01390094= 201704120751 METAR KLGA 120751Z 05003KT 10SM BKN240 13/09 A3008 RMK AO2\ SLP185 T01280089= 201704120851 METAR KLGA 120851Z 05005KT 10SM BKN250 13/09 A3008 RMK AO2\ SLP186 T01280089 55005= 201704120951 METAR KLGA 120951Z 09005KT 10SM SCT250 13/09 A3010 RMK AO2\ SLP192 T01330094= 201704121051 METAR KLGA 121051Z 04004KT 10SM BKN250 13/09 A3010 RMK AO2\ SLP193 T01280094= 201704121151 METAR KLGA 121151Z 00000KT 10SM BKN250 15/11 A3012 RMK AO2\ SLP198 T01500106 10150 20122 51011= 201704121251 METAR KLGA 121251Z 00000KT 10SM BKN090 BKN140 BKN250 17/11\ A3012 RMK AO2 SLP200 T01720106= 201704121351 METAR KLGA 121351Z VRB03KT 9SM BKN100 21/11 A3013 RMK AO2\ SLP203 T02060111= 201704121451 METAR KLGA 121451Z 33007KT 10SM FEW050 BKN070 BKN100 OVC250\ 22/11 A3016 RMK AO2 SLP211 T02170111\ 53014= 201704121551 METAR KLGA 121551Z 31008KT 8SM -RA BKN050 BKN070 OVC250 17/12\ A3017 RMK AO2 RAB41 SLP217 T01720122\ PNO $= 201704121651 METAR KLGA 121651Z 32008KT 10SM BKN070 OVC150 17/12 A3018\ RMK AO2 RAE16 SLP219 P0002 T01720122\ $= 201704121751 METAR KLGA 121751Z 06003KT 10SM FEW050 SCT070 BKN080 19/14\ A3014 RMK AO2 RAB1656E20 SLP205 P0001\ 60003 T01890139 10222 20144 58006\ $= 201704121851 METAR KLGA 121851Z 00000KT 10SM FEW050 SCT070 BKN250 21/13\ A3012 RMK AO2 SLP200 T02110133 $= 201704121951 METAR KLGA 121951Z VRB04KT 10SM FEW070 SCT150 OVC250 22/12\ A3011 RMK AO2 SLP196 T02220117 $= 201704122051 METAR KLGA 122051Z 26007KT 10SM FEW070 SCT150 BKN250 24/10\ A3011 RMK AO2 SLP195 T02390100 56011\ $= 201704122151 METAR KLGA 122151Z 23007KT 10SM FEW070 SCT150 BKN250 24/10\ A3011 RMK AO2 SLP195 T02440100 $= 201704122251 METAR KLGA 122251Z 26004KT 10SM FEW080 BKN250 24/06 A3011\ RMK AO2 SLP196 T02440061 $= 201704122351 METAR KLGA 122351Z 01008KT 10SM CLR 21/08 A3014 RMK AO2 SLP207\ T02110078 10250 20189 53013 $= 201704130051 METAR KLGA 130051Z 00000KT 10SM FEW050 FEW250 22/06 A3018\ RMK AO2 SLP220 T02170056 $= 201704130151 METAR KLGA 130151Z 13005KT 10SM FEW250 17/09 A3020 RMK AO2\ SLP227 T01720094 $= 201704130251 METAR KLGA 130251Z 03004KT 10SM FEW040 FEW250 15/09 A3022\ RMK AO2 SLP232 T01500094 51024 $= 201704130351 METAR KLGA 130351Z 35011KT 10SM FEW250 18/07 A3024 RMK AO2\ SLP240 T01780072 $= 201704130451 METAR KLGA 130451Z 01008KT 10SM CLR 15/07 A3027 RMK AO2 SLP251\ T01500067 402500122 $= 201704130551 METAR KLGA 130551Z 36009KT 10SM FEW250 14/05 A3029 RMK AO2\ SLP255 T01390050 10217 20133 51024\ $= 201704130651 METAR KLGA 130651Z 31013KT 10SM FEW250 13/02 A3029 RMK AO2\ SLP257 T01280022 $= 201704130751 METAR KLGA 130751Z 33017G22KT 10SM SCT250 11/01 A3030 RMK\ AO2 SLP261 T01110006 $= 201704130851 METAR KLGA 130851Z 33010G20KT 10SM FEW250 11/01 A3031 RMK\ AO2 SLP264 T01060006 53009 $= 201704130951 METAR KLGA 130951Z 33012KT 10SM FEW250 11/01 A3032 RMK AO2\ SLP266 T01060006 $= 201704131051 METAR KLGA 131051Z 33014G19KT 10SM BKN250 11/01 A3034 RMK\ AO2 SLP272 T01060006 $= 201704131151 METAR KLGA 131151Z 33014KT 10SM BKN250 11/00 A3036 RMK AO2\ SLP279 70003 T01060000 10139 20100\ 53015 $= 201704131251 METAR KLGA 131251Z 33009KT 10SM BKN250 11/00 A3035 RMK AO2\ SLP277 T01060000 $= 201704131351 METAR KLGA 131351Z 32011G19KT 10SM BKN240 11/00 A3035 RMK\ AO2 SLP278 T01110000= 201704131451 METAR KLGA 131451Z 33012KT 10SM BKN230 12/M02 A3036 RMK AO2\ SLP279 T01221017 53001= 201704131551 METAR KLGA 131551Z 34014KT 10SM BKN250 13/M02 A3034 RMK AO2\ SLP275 T01331017= 201704131651 METAR KLGA 131651Z 30013KT 10SM SCT250 14/M01 A3033 RMK AO2\ SLP270 T01391011= 201704131751 METAR KLGA 131751Z 31011KT 10SM FEW250 16/M01 A3032 RMK AO2\ SLP267 T01561011 10156 20100 56013= 201704131851 METAR KLGA 131851Z 33007KT 10SM SCT250 17/M01 A3031 RMK AO2\ SLP264 T01671011= 201704131951 METAR KLGA 131951Z 31007KT 10SM BKN250 18/M02 A3029 RMK AO2\ SLP256 T01781017= 201704132051 METAR KLGA 132051Z 32011KT 10SM BKN250 18/M02 A3029 RMK AO2\ SLP256 T01831022 55010= 201704132151 METAR KLGA 132151Z 34009KT 10SM BKN250 18/M02 A3029 RMK AO2\ SLP257 T01781022= 201704132251 METAR KLGA 132251Z 34007KT 10SM BKN250 18/M02 A3030 RMK AO2\ SLP259 T01781022= 201704132351 METAR KLGA 132351Z 33012KT 10SM FEW150 BKN250 17/M03 A3031\ RMK AO2 SLP265 T01721028 10189 20156\ 53008= 201704140051 METAR KLGA 140051Z 33012KT 10SM FEW110 BKN250 16/M03 A3033\ RMK AO2 SLP271 T01561033= 201704140151 METAR KLGA 140151Z 33008KT 10SM BKN120 OVC250 15/M03 A3033\ RMK AO2 SLP272 T01501028= 201704140251 METAR KLGA 140251Z 34007KT 10SM FEW130 BKN250 14/M03 A3035\ RMK AO2 SLP277 T01441033 51012= 201704140351 METAR KLGA 140351Z 34009KT 10SM SCT250 14/M03 A3036 RMK AO2\ SLP281 T01391028= 201704140451 METAR KLGA 140451Z 36004KT 10SM SCT250 13/M02 A3035 RMK AO2\ SLP278 T01281022 401890100= 201704140551 METAR KLGA 140551Z 01004KT 10SM FEW250 12/M02 A3035 RMK AO2\ SLP278 T01171017 10167 20117 51001= 201704140651 METAR KLGA 140651Z 36004KT 10SM FEW250 12/M02 A3036 RMK AO2\ SLP279 T01171022= 201704140751 METAR KLGA 140751Z 36005KT 10SM FEW250 11/M02 A3036 RMK AO2\ SLP280 T01111017= 201704140851 METAR KLGA 140851Z 01004KT 10SM SCT250 11/M01 A3037 RMK AO2\ SLP282 T01061011 53004= 201704140951 METAR KLGA 140951Z 36006KT 10SM BKN130 11/M03 A3038 RMK AO2\ SLP286 T01111028= 201704141051 METAR KLGA 141051Z 36004KT 10SM BKN130 11/M02 A3039 RMK AO2\ SLP289 T01061022= 201704141151 METAR KLGA 141151Z 04005KT 10SM BKN100 BKN250 11/M02 A3040\ RMK AO2 SLP295 T01111022 10122 20100\ 53013= 201704141251 METAR KLGA 141251Z 06006KT 10SM BKN095 BKN250 12/M02 A3040\ RMK AO2 SLP295 T01171022= 201704141351 METAR KLGA 141351Z 05007KT 10SM OVC095 12/M02 A3042 RMK AO2\ SLP300 T01171017= 201704141451 METAR KLGA 141451Z 04006KT 10SM BKN095 BKN250 13/M02 A3041\ RMK AO2 SLP298 T01281022 50004= 201704141551 METAR KLGA 141551Z 04007KT 10SM SCT095 BKN140 14/M01 A3041\ RMK AO2 SLP297 T01441011 $= 201704141651 METAR KLGA 141651Z 05010KT 10SM FEW090 SCT140 16/M02 A3040\ RMK AO2 SLP292 T01561017 $= 201704141751 METAR KLGA 141751Z 04009KT 10SM FEW075 FEW100 SCT140 SCT250\ 17/M02 A3038 RMK AO2 SLP287 T01671017\ 10167 20111 58012 $= 201704141851 METAR KLGA 141851Z 06006KT 10SM FEW015 FEW080 SCT100 SCT250\ 18/M05 A3036 RMK AO2 SLP281 FU FEW015\ FU PLUME NW DRFTG SW T01781050 $= 201704141951 METAR KLGA 141951Z 10SM FEW090 FEW150 SCT250 18/M05 A3034\ RMK AO2 SLP273 T01831050 $= 201704142051 METAR KLGA 142051Z 18010KT 10SM FEW080 FEW250 18/M02 A3033\ RMK AO2 SLP269 T01781017 56017 $= 201704142151 METAR KLGA 142151Z 19010KT 10SM FEW075 FEW250 17/M02 A3033\ RMK AO2 SLP269 T01721017= 201704142251 METAR KLGA 142251Z 18012KT 10SM FEW070 FEW250 16/M02 A3033\ RMK AO2 SLP271 T01561017= 201704142351 METAR KLGA 142351Z 19012KT 10SM FEW220 FEW250 14/00 A3034\ RMK AO2 SLP274 T01390000 10189 20139\ 53005= 201704150051 METAR KLGA 150051Z 18009KT 10SM FEW220 FEW250 13/00 A3037\ RMK AO2 SLP284 T01330000= 201704150151 METAR KLGA 150151Z 18005KT 10SM FEW250 13/00 A3038 RMK AO2\ SLP288 T01330000= 201704150251 METAR KLGA 150251Z 20005KT 10SM FEW250 13/M01 A3039 RMK AO2\ SLP290 T01331006 51016= 201704150351 METAR KLGA 150351Z 21007KT 10SM FEW250 13/00 A3039 RMK AO2\ SLP291 T01330000= 201704150451 METAR KLGA 150451Z 21005KT 10SM FEW250 13/01 A3040 RMK AO2\ SLP293 T01330006 401890100= 201704150551 METAR KLGA 150551Z 22005KT 10SM FEW250 12/01 A3040 RMK AO2\ SLP292 T01220006 10139 20122 50002= 201704150651 METAR KLGA 150651Z 22006KT 10SM FEW250 12/00 A3039 RMK AO2\ SLP291 T01220000= 201704150751 METAR KLGA 150751Z 20006KT 10SM FEW250 12/01 A3038 RMK AO2\ SLP289 T01170006= 201704150851 METAR KLGA 150851Z 21005KT 10SM CLR 12/01 A3038 RMK AO2 SLP287\ T01170006 58005= 201704150951 METAR KLGA 150951Z 22004KT 10SM FEW250 12/01 A3038 RMK AO2\ SLP286 T01170011= 201704151051 METAR KLGA 151051Z 19004KT 10SM FEW090 FEW250 12/01 A3037\ RMK AO2 SLP285 T01170011= 201704151151 METAR KLGA 151151Z 18007KT 10SM FEW090 FEW250 12/02 A3039\ RMK AO2 SLP291 T01220022 10122 20111\ 53004= 201704151251 METAR KLGA 151251Z 17006KT 10SM FEW085 SCT250 13/02 A3039\ RMK AO2 SLP290 T01330022= 201704151351 METAR KLGA 151351Z 17007KT 10SM SCT085 SCT250 15/02 A3038\ RMK AO2 SLP287 T01500022= 201704151451 METAR KLGA 151451Z 18012KT 10SM BKN080 BKN250 16/03 A3037\ RMK AO2 SLP283 T01560033 58007= 201704151551 METAR KLGA 151551Z 18011KT 10SM BKN075 BKN250 16/03 A3034\ RMK AO2 SLP274 T01610033= 201704151651 METAR KLGA 151651Z 18011KT 10SM BKN055 BKN070 BKN250 15/03\ A3033 RMK AO2 SLP270 T01500028= 201704151751 METAR KLGA 151751Z 17010KT 10SM OVC050 15/04 A3030 RMK AO2\ SLP261 T01500044 10172 20122 56022= 201704151851 METAR KLGA 151851Z 17014KT 10SM BKN080 17/06 A3026 RMK AO2\ SLP245 T01720056= 201704151951 METAR KLGA 151951Z 17016G21KT 10SM BKN049 BKN060 17/07 A3022\ RMK AO2 SLP234 T01670067= 201704152051 METAR KLGA 152051Z 18016G20KT 10SM FEW040 BKN060 OVC250 16/08\ A3020 RMK AO2 SLP225 T01610078 56036= 201704152151 METAR KLGA 152151Z 18011KT 10SM OVC031 17/09 A3018 RMK AO2\ SLP220 T01670094= 201704152251 METAR KLGA 152251Z 18008KT 10SM BKN029 OVC037 16/09 A3018\ RMK AO2 SLP218 T01560094= 201704152351 METAR KLGA 152351Z 17011KT 10SM OVC036 15/09 A3015 RMK AO2\ SLP211 T01500094 10172 20150 58015= 201704160051 METAR KLGA 160051Z 17008KT 10SM SCT120 15/10 A3014 RMK AO2\ SLP207 T01500100= 201704160151 METAR KLGA 160151Z 18009KT 10SM CLR 15/11 A3013 RMK AO2 SLP203\ T01500106= 201704160251 METAR KLGA 160251Z 17009KT 10SM FEW040 SCT130 OVC170 15/11\ A3010 RMK AO2 PRESFR SLP191 T01500111\ 58020= 201704160351 METAR KLGA 160351Z 18005KT 10SM BKN110 15/11 A3009 RMK AO2\ SLP188 T01500111= 201704160451 METAR KLGA 160451Z 19005KT 10SM FEW110 BKN170 16/12 A3006\ RMK AO2 SLP178 T01560117 401720111= 201704160551 METAR KLGA 160551Z 20007KT 10SM FEW100 BKN180 17/13 A3004\ RMK AO2 SLP171 T01670133 10167 20144\ 58020= 201704160651 METAR KLGA 160651Z 22004KT 10SM BKN150 17/13 A3002 RMK AO2\ SLP165 T01670133= 201704160751 METAR KLGA 160751Z 22007KT 10SM BKN150 17/14 A3000 RMK AO2\ SLP158 T01720139= 201704160851 METAR KLGA 160851Z 22008KT 10SM BKN150 18/14 A2999 RMK AO2\ SLP154 T01830144 56017= 201704160951 METAR KLGA 160951Z 23008KT 10SM FEW100 18/14 A2998 RMK AO2\ SLP152 T01830139= 201704161051 METAR KLGA 161051Z 23006KT 10SM FEW018 FEW090 SCT150 BKN250\ 18/14 A2999 RMK AO2 SLP155 T01830139= 201704161151 METAR KLGA 161151Z 21004KT 10SM FEW020 FEW090 SCT130 BKN250\ 19/14 A2999 RMK AO2 SLP154 T01940144\ 10200 20167 56000= 201704161251 METAR KLGA 161251Z 22009KT 10SM FEW029 FEW090 SCT120 BKN250\ 21/14 A2998 RMK AO2 SLP150 ACC S-SE\ T02110139= 201704161351 METAR KLGA 161351Z 25010KT 10SM FEW038 SCT090 SCT120 BKN250\ 23/14 A2996 RMK AO2 SLP146 T02330139= 201704161451 METAR KLGA 161451Z 24010KT 10SM FEW049 SCT100 SCT120 BKN250\ 26/13 A2995 RMK AO2 SLP140 ACC E-SE\ AND SW T02560133 58014= 201704161551 METAR KLGA 161551Z 27017G22KT 10SM FEW070 SCT090 SCT120 BKN250\ 28/11 A2992 RMK AO2 SLP132 T02830111= 201704161651 METAR KLGA 161651Z 25015G19KT 10SM FEW080 FEW095 SCT170 SCT250\ 29/10 A2988 RMK AO2 SLP118 T02940100= 201704161751 METAR KLGA 161751Z 25014G25KT 10SM FEW085 SCT220 SCT250 31/10\ A2984 RMK AO2 PK WND 26027/1721 SLP106\ T03110100 10311 20200 58034= 201704161851 METAR KLGA 161851Z 23018G22KT 10SM FEW085 SCT220 SCT250 31/10\ A2983 RMK AO2 PK WND 24028/1814 SLP100\ T03060100= 201704161951 METAR KLGA 161951Z 24013G22KT 10SM SCT050 BKN130 OVC250 30/10\ A2980 RMK AO2 SLP090 T03000100= 201704162051 METAR KLGA 162051Z 27014G39KT 8SM -RA FEW075 BKN100 BKN120\ 26/14 A2980 RMK AO2 PK WND 26039/2046\ RAB47 SLP092 P0000 60000 T02610139\ 55014= 201704162151 METAR KLGA 162151Z 24007KT 10SM FEW040 FEW080 SCT120 SCT250\ 28/12 A2978 RMK AO2 RAE00 SLP084\ P0000 T02830122= 201704162251 METAR KLGA 162251Z 22010KT 10SM FEW090 SCT250 28/13 A2976\ RMK AO2 SLP077 T02830128= 201704162351 METAR KLGA 162351Z 24015G22KT 10SM FEW060 SCT090 SCT130 BKN250\ 29/10 A2977 RMK AO2 PK WND 24026/2313\ SLP080 60000 T02890100 10311 20256\ 55012= 201704170051 METAR KLGA 170051Z 25016G29KT 10SM SCT095 SCT130 BKN250 28/10\ A2980 RMK AO2 PK WND 25029/0042 SLP091\ T02830100= 201704170151 METAR KLGA 170151Z 31016G26KT 10SM BKN080 OVC100 21/13 A2987\ RMK AO2 PK WND 32032/0116 WSHFT 0049\ SLP114 T02110133= 201704170251 METAR KLGA 170251Z 29013KT 10SM -RA OVC085 22/13 A2985 RMK\ AO2 PK WND 29030/0232 RAB0155E04B34\ SLP107 P0000 60000 T02220128 50027= 201704170351 METAR KLGA 170351Z 27015G21KT 10SM SCT120 23/12 A2984 RMK\ AO2 RAE0252 SLP105 P0000 T02330122= 201704170451 METAR KLGA 170451Z 27012KT 10SM BKN120 23/13 A2985 RMK AO2\ SLP109 T02280133 403110156= 201704170551 METAR KLGA 170551Z 26011KT 10SM FEW080 BKN150 22/14 A2985\ RMK AO2 SLP108 60000 T02170139 10289\ 20206 53001= 201704170651 METAR KLGA 170651Z 27012KT 10SM CLR 22/14 A2984 RMK AO2 SLP106\ T02170139= 201704170751 METAR KLGA 170751Z 25007G16KT 10SM CLR 21/14 A2984 RMK AO2\ SLP106 T02110139= 201704170851 METAR KLGA 170851Z 26010KT 10SM SCT140 SCT200 21/14 A2985\ RMK AO2 SLP108 T02110144 55000= 201704170951 METAR KLGA 170951Z 28009KT 10SM SCT140 SCT200 20/14 A2987\ RMK AO2 SLP115 T02000139= 201704171051 METAR KLGA 171051Z 31009KT 10SM BKN220 21/14 A2990 RMK AO2\ SLP126 T02060139= 201704171151 METAR KLGA 171151Z 30011KT 10SM BKN110 BKN220 20/13 A2991\ RMK AO2 SLP129 T02000128 10217 20189\ 51021= 201704171251 METAR KLGA 171251Z 32009KT 10SM BKN120 BKN220 18/11 A2993\ RMK AO2 SLP135 T01830106= 201704171351 METAR KLGA 171351Z 33010KT 10SM BKN120 OVC210 18/07 A2995\ RMK AO2 SLP140 T01780072= 201704171451 METAR KLGA 171451Z 31011KT 10SM -RA SCT070 BKN100 OVC200\ 19/06 A2997 RMK AO2 RAB45 SLP147\ P0000 60000 T01890061 53018= 201704171551 METAR KLGA 171551Z 31011KT 10SM FEW060 SCT100 BKN150 BKN250\ 21/03 A2996 RMK AO2 RAE1459 SLP146\ ACSL W P0000 T02060033= 201704171651 METAR KLGA 171651Z 33009KT 10SM FEW070 OVC160 21/03 A2995\ RMK AO2 SLP142 T02110033= 201704171751 METAR KLGA 171751Z 32014KT 10SM FEW070 BKN140 OVC200 21/03\ A2994 RMK AO2 SLP139 60000 T02060033\ 10217 20178 58008= 201704171851 METAR KLGA 171851Z 31011KT 10SM BKN140 BKN250 22/01 A2994\ RMK AO2 SLP138 T02170011= 201704171951 METAR KLGA 171951Z 34017G22KT 10SM SCT140 BKN250 22/M02 A2995\ RMK AO2 SLP142 T02221022= 201704172051 METAR KLGA 172051Z 32016G23KT 10SM SCT160 BKN250 22/M02 A2996\ RMK AO2 SLP146 T02221022 53007= 201704172151 METAR KLGA 172151Z 30013G23KT 10SM CLR 22/M01 A2997 RMK AO2\ SLP150 T02171011= 201704172251 METAR KLGA 172251Z 35016KT 10SM SCT170 SCT250 21/M03 A3001\ RMK AO2 PK WND 35028/2214 SLP161\ T02111028= 201704172351 METAR KLGA 172351Z 35014G22KT 10SM FEW170 SCT250 19/M03 A3005\ RMK AO2 SLP176 T01941028 10228 20194\ 53030= 201704180051 METAR KLGA 180051Z 34014G22KT 10SM FEW170 SCT250 19/M02 A3008\ RMK AO2 SLP185 T01891022= 201704180151 METAR KLGA 180151Z 34016G21KT 10SM BKN230 18/M03 A3011 RMK\ AO2 SLP194 T01831028= 201704180251 METAR KLGA 180251Z 34012G20KT 10SM BKN240 17/M03 A3013 RMK\ AO2 SLP203 T01721028 51027= 201704180351 METAR KLGA 180351Z 35012KT 10SM BKN250 16/M03 A3015 RMK AO2\ SLP208 T01611028= 201704180451 METAR KLGA 180451Z 36014G21KT 10SM BKN250 16/M02 A3016 RMK\ AO2 SLP213 T01561022 402280156= 201704180551 METAR KLGA 180551Z 36012KT 10SM BKN250 14/M02 A3017 RMK AO2\ SLP215 T01441017 10194 20144 51012= 201704180651 METAR KLGA 180651Z 35006KT 10SM BKN250 14/M01 A3018 RMK AO2\ SLP220 T01391006= 201704180751 METAR KLGA 180751Z 36012G17KT 10SM SCT250 13/M01 A3021 RMK\ AO2 SLP228 T01331006= 201704180851 METAR KLGA 180851Z 35010KT 10SM FEW250 13/M01 A3023 RMK AO2\ SLP237 T01281006 53022= 201704180951 METAR KLGA 180951Z 02010KT 10SM FEW250 12/01 A3027 RMK AO2\ SLP250 T01220006= 201704181051 METAR KLGA 181051Z 02007KT 10SM FEW050 FEW250 11/02 A3031\ RMK AO2 SLP263 T01110017= 201704181151 METAR KLGA 181151Z 03008KT 10SM FEW250 12/02 A3033 RMK AO2\ SLP269 T01220017 10144 20106 51032= 201704181251 METAR KLGA 181251Z 04006KT 10SM FEW250 13/02 A3035 RMK AO2\ SLP276 T01330017= 201704181351 METAR KLGA 181351Z 06007KT 10SM CLR 14/02 A3036 RMK AO2 SLP281\ T01390017= 201704181451 METAR KLGA 181451Z 05004KT 10SM FEW050 14/01 A3037 RMK AO2\ SLP285 T01440011 51016 $= 201704181551 METAR KLGA 181551Z VRB04KT 10SM FEW065 16/01 A3037 RMK AO2\ SLP283 T01560006 $= 201704181651 METAR KLGA 181651Z VRB03KT 10SM FEW065 17/00 A3037 RMK AO2\ SLP282 T01670000= 201704181751 METAR KLGA 181751Z 08005KT 10SM FEW065 FEW250 17/M02 A3036\ RMK AO2 SLP281 T01721017 10178 20122\ 56004= 201704181851 METAR KLGA 181851Z 16015KT 10SM FEW070 FEW250 17/03 A3036\ RMK AO2 SLP279 T01670028= 201704181951 METAR KLGA 181951Z 15010KT 10SM FEW070 FEW250 17/01 A3036\ RMK AO2 SLP280 T01670011= 201704182051 METAR KLGA 182051Z 19017G21KT 10SM FEW070 FEW250 16/03 A3038\ RMK AO2 SLP285 T01610028 53004= 201704182151 METAR KLGA 182151Z 16014KT 10SM CLR 14/03 A3039 RMK AO2 SLP290\ T01390028= 201704182251 METAR KLGA 182251Z 18014KT 10SM FEW250 13/02 A3041 RMK AO2\ SLP297 T01280017= 201704182351 METAR KLGA 182351Z 16015KT 10SM FEW250 12/03 A3044 RMK AO2\ SLP307 T01170033 10183 20117 53022= 201704190051 METAR KLGA 190051Z 14013KT 10SM FEW250 12/03 A3047 RMK AO2\ SLP317 T01170033= 201704190151 METAR KLGA 190151Z 12010KT 10SM FEW250 11/03 A3050 RMK AO2\ SLP327 T01110028= 201704190251 METAR KLGA 190251Z 12012KT 10SM FEW040 FEW250 11/04 A3051\ RMK AO2 SLP330 T01060044 51022= 201704190351 METAR KLGA 190351Z 13014KT 10SM BKN019 10/04 A3050 RMK AO2\ SLP328 T01000044= 201704190451 METAR KLGA 190451Z 13010KT 10SM SCT019 09/04 A3052 RMK AO2\ SLP336 T00940039 401830094= 201704190551 METAR KLGA 190551Z 11007KT 10SM FEW019 09/04 A3052 RMK AO2\ SLP335 T00940039 10117 20089 50007= 201704190651 METAR KLGA 190651Z 13010KT 10SM FEW019 09/03 A3051 RMK AO2\ SLP331 T00890033= 201704190751 METAR KLGA 190751Z 12008KT 10SM SCT022 09/03 A3052 RMK AO2\ SLP334 T00890033= 201704190851 METAR KLGA 190851Z 13006KT 10SM SCT020 08/03 A3053 RMK AO2\ SLP338 T00830028 53003= 201704190951 METAR KLGA 190951Z 13010KT 10SM BKN250 08/03 A3052 RMK AO2\ SLP334 T00830028= 201704191051 METAR KLGA 191051Z 13009KT 10SM SCT020 SCT100 BKN250 08/02\ A3052 RMK AO2 SLP334 T00780022= 201704191151 METAR KLGA 191151Z 12012KT 10SM BKN021 08/02 A3053 RMK AO2\ SLP339 T00830022 10094 20078 53001= 201704191251 METAR KLGA 191251Z 13011KT 10SM BKN025 09/02 A3052 RMK AO2\ SLP334 T00890022= 201704191351 METAR KLGA 191351Z 16009KT 10SM BKN023 09/03 A3052 RMK AO2\ SLP333 T00940028= 201704191451 METAR KLGA 191451Z 15011G17KT 10SM BKN023 OVC140 10/03 A3050\ RMK AO2 SLP327 T01000028 58012= 201704191551 METAR KLGA 191551Z VRB06G16KT 10SM SCT025 BKN070 BKN140 11/03\ A3048 RMK AO2 SLP321 T01110028= 201704191651 METAR KLGA 191651Z 16014KT 10SM BKN027 BKN070 12/03 A3044\ RMK AO2 SLP308 T01220033= 201704191751 METAR KLGA 191751Z 16013KT 10SM BKN026 BKN070 BKN145 12/04\ A3042 RMK AO2 SLP301 T01170039 10122\ 20083 58025= 201704191851 METAR KLGA 191851Z 15014KT 10SM BKN025 BKN070 OVC140 12/04\ A3039 RMK AO2 SLP292 T01220039= 201704191951 METAR KLGA 191951Z 17013G21KT 10SM BKN025 BKN075 OVC110 11/04\ A3037 RMK AO2 SLP283 T01110039= 201704192051 METAR KLGA 192051Z 15011KT 10SM BKN022 OVC060 10/04 A3036\ RMK AO2 RAB10E21 SLP280 P0000 60000\ T01000039 56022= 201704192151 METAR KLGA 192151Z 15009KT 10SM SCT021 OVC060 11/04 A3035\ RMK AO2 SLP278 T01060044= 201704192251 METAR KLGA 192251Z 15012KT 10SM BKN020 OVC055 10/04 A3032\ RMK AO2 SLP267 T01000044= 201704192351 METAR KLGA 192351Z 17011KT 10SM -RA SCT020 OVC045 10/05 A3031\ RMK AO2 RAB51 SLP262 P0000 60000\ T01000050 10122 20100 58018= 201704200051 METAR KLGA 200051Z 17007KT 10SM SCT018 OVC037 10/06 A3029\ RMK AO2 RAE16 CIG 017 R22 SW SLP257\ P0000 T01000056= 201704200151 METAR KLGA 200151Z 17008KT 10SM FEW015 OVC029 11/07 A3029\ RMK AO2 RAB32E46 SLP255 P0000 T01060067= 201704200251 METAR KLGA 200251Z 16007KT 10SM FEW014 BKN023 OVC036 11/07\ A3025 RMK AO2 RAB02E15 SLP242 P0000\ 60000 T01060067 58020= 201704200351 METAR KLGA 200351Z 18007KT 10SM OVC023 11/07 A3023 RMK AO2\ SLP235 T01110067= 201704200451 METAR KLGA 200451Z 17005KT 10SM SCT019 OVC031 11/07 A3021\ RMK AO2 SLP228 T01110067 401220078= 201704200551 METAR KLGA 200551Z 19004KT 10SM OVC031 11/07 A3018 RMK AO2\ SLP219 60000 T01110067 10111 20100\ 58022= 201704200651 METAR KLGA 200651Z 00000KT 10SM OVC030 11/07 A3016 RMK AO2\ SLP212 T01110072= 201704200751 METAR KLGA 200751Z 06007KT 10SM -RA OVC023 10/08 A3014 RMK\ AO2 RAB45 SLP205 P0000 T01000078= 201704200851 METAR KLGA 200851Z 05006KT 9SM OVC024 10/08 A3012 RMK AO2\ RAE33 SLP198 P0005 60005 T01000078\ 57022 $= 201704200951 METAR KLGA 200951Z 05006KT 9SM SCT021 BKN041 BKN085 10/08\ A3010 RMK AO2 SLP191 T01000083 $= 201704201051 METAR KLGA 201051Z 02005KT 4SM RA BR BKN018 OVC075 10/08\ A3012 RMK AO2 RAB45 SLP199 P0001\ T01000083 $= 201704201151 METAR KLGA 201151Z 05005KT 2SM RA BR BKN007 BKN015 OVC030\ 10/08 A3013 RMK AO2 SLP204 P0013\ 60019 70019 T01000083 10111 20094\ 53006 $= 201704201251 METAR KLGA 201251Z 06006KT 2 1/2SM BR SCT010 BKN018 OVC085\ 10/08 A3012 RMK AO2 SFC VIS 4 RAE48\ SLP199 P0005 T01000083 $= 201704201351 METAR KLGA 201351Z 07006KT 7SM BKN014 BKN043 OVC060 11/09\ A3012 RMK AO2 SLP200 T01060089 $= 201704201451 METAR KLGA 201451Z 05007KT 6SM HZ BKN008 OVC035 12/09 A3012\ RMK AO2 SLP200 60005 T01170089 56003= 201704201551 METAR KLGA 201551Z 05007KT 8SM FEW010 OVC027 12/09 A3011\ RMK AO2 SLP196 T01220089= 201704201651 METAR KLGA 201651Z 06007KT 8SM FEW029 OVC034 13/09 A3009\ RMK AO2 SLP189 T01330089= 201704201751 METAR KLGA 201751Z 06007KT 10SM FEW030 SCT080 SCT140 16/10\ A3008 RMK AO2 SLP185 60005 T01560100\ 10156 20100 56016= 201704201851 METAR KLGA 201851Z 05008G18KT 10SM FEW030 BKN250 17/10 A3006\ RMK AO2 SLP179 T01720100= 201704201951 METAR KLGA 201951Z 04007KT 10SM SCT036 BKN250 18/10 A3005\ RMK AO2 SLP174 T01780100= 201704202051 METAR KLGA 202051Z 05008KT 10SM SCT035 SCT250 18/10 A3003\ RMK AO2 SLP168 T01830100 58016= 201704202151 METAR KLGA 202151Z 13010KT 090V160 10SM BKN036 BKN250 19/10\ A3002 RMK AO2 SLP165 T01890100= 201704202251 METAR KLGA 202251Z 16008KT 10SM OVC034 17/11 A3003 RMK AO2\ SLP168 T01720106= 201704202351 METAR KLGA 202351Z 12009KT 10SM BKN034 OVC250 16/10 A3004\ RMK AO2 SLP172 T01560100 10189 20156\ 53004= 201704210051 METAR KLGA 210051Z 15011KT 10SM SCT034 BKN075 OVC250 14/09\ A3005 RMK AO2 SLP174 T01440094= 201704210151 METAR KLGA 210151Z 13013KT 10SM BKN049 OVC060 14/09 A3005\ RMK AO2 SLP175 T01440089= 201704210251 METAR KLGA 210251Z 12009KT 10SM OVC049 13/08 A3004 RMK AO2\ SLP172 T01330083 50000= 201704210351 METAR KLGA 210351Z 11014KT 10SM OVC044 13/09 A3003 RMK AO2\ SLP169 T01280089= 201704210451 METAR KLGA 210451Z 12011KT 10SM BKN013 OVC043 12/08 A3003\ RMK AO2 SLP170 T01220083 401890094= 201704210551 METAR KLGA 210551Z 11009KT 5SM -RA FEW010 OVC040 12/09 A3001\ RMK AO2 RAB0455 SLP163 P0021 60021\ T01170089 10167 20117 58009= 201704210651 METAR KLGA 210651Z 09010KT 10SM BKN008 OVC013 11/09 A2999\ RMK AO2 RAE14 SLP155 P0001 T01110089= 201704210751 METAR KLGA 210751Z 10010KT 10SM OVC009 11/08 A2998 RMK AO2\ RAB27E50 SLP152 P0000 T01060083= 201704210851 METAR KLGA 210851Z 11010KT 10SM OVC006 11/09 A2996 RMK AO2\ SLP146 60001 T01060089 56018= 201704210951 METAR KLGA 210951Z 05006KT 10SM OVC008 11/08 A2997 RMK AO2\ SLP150 T01060083= 201704211051 METAR KLGA 211051Z 03009KT 1 1/2SM -RA BR OVC006 10/08 A3001\ RMK AO2 SFC VIS 2 RAB30 SLP162 P0001\ T01000083= 201704211151 METAR KLGA 211151Z 05014KT 2SM -RA BR BKN004 OVC021 09/08\ A3000 RMK AO2 SFC VIS 4 SLP158 P0002\ 60004 70030 T00940078 10117 20094\ 50013= 201704211251 METAR KLGA 211251Z 06008KT 9SM -RA SCT006 OVC015 10/08 A2998\ RMK AO2 RAE02B20 SLP151 P0002 T01000083= 201704211351 METAR KLGA 211351Z 05008KT 10SM SCT006 OVC013 11/08 A2997\ RMK AO2 RAE03 SLP147 P0000 T01060083= 201704211451 METAR KLGA 211451Z 04012KT 6SM BR BKN005 OVC013 10/08 A2995\ RMK AO2 SLP141 60002 T01000083 56017= 201704211551 METAR KLGA 211551Z 05013KT 10SM OVC005 11/08 A2993 RMK AO2\ SLP135 T01060083= 201704211651 METAR KLGA 211651Z 05014KT 10SM OVC005 11/08 A2993 RMK AO2\ SLP134 T01110083= 201704211751 METAR KLGA 211751Z 04012KT 10SM OVC004 11/08 A2994 RMK AO2\ SLP137 60002 T01060083 10117 20094\ 55004= 201704211851 METAR KLGA 211851Z 04012KT 9SM OVC004 11/08 A2992 RMK AO2\ SLP131 T01060083= 201704211951 METAR KLGA 211951Z 04014KT 6SM BR OVC003 10/08 A2990 RMK\ AO2 SLP125 T01000083= 201704212051 METAR KLGA 212051Z 04014KT 1/4SM BR OVC002 10/08 A2989 RMK\ AO2 SFC VIS 1 1/2 SLP121 T01000083\ 56016= 201704212151 METAR KLGA 212151Z 04016KT 1/4SM FG OVC002 10/08 A2989 RMK\ AO2 SFC VIS 1/2 SLP123 T01000083= 201704212251 METAR KLGA 212251Z 05016KT 1/4SM BR OVC002 10/08 A2990 RMK\ AO2 SFC VIS 1 SLP123 T01000083= 201704212351 METAR KLGA 212351Z 05015KT 1/4SM BR OVC002 09/08 A2990 RMK\ AO2 SFC VIS 2 SLP124 T00940078 10111\ 20094 51003= 201704220051 METAR KLGA 220051Z 04016KT 1/4SM BR OVC002 09/08 A2992 RMK\ AO2 SFC VIS 1 SLP133 T00940078= 201704220151 METAR KLGA 220151Z 05014KT 1/4SM BR OVC002 09/08 A2993 RMK\ AO2 SFC VIS 1 SLP135 T00940083= 201704220251 METAR KLGA 220251Z 04009KT 1/4SM BR OVC002 09/08 A2993 RMK\ AO2 SFC VIS 2 SLP135 T00890078 50010= 201704220351 METAR KLGA 220351Z 06010KT 1SM BR OVC003 09/08 A2994 RMK\ AO2 SFC VIS 3 SLP137 T00940083 $= 201704220451 METAR KLGA 220451Z 05009KT 2SM BR OVC004 09/08 A2994 RMK\ AO2 SFC VIS 5 SLP136 T00940083 401220089= 201704220551 METAR KLGA 220551Z 02008KT 8SM OVC004 09/08 A2993 RMK AO2\ SLP134 T00940083 10100 20089 58001= 201704220651 METAR KLGA 220651Z 03007KT 10SM OVC005 10/08 A2993 RMK AO2\ SLP135 T01000083= 201704220751 METAR KLGA 220751Z 06005KT 1/4SM BR OVC003 10/09 A2989 RMK\ AO2 SFC VIS 1 1/2 SLP121 T01000089= 201704220851 METAR KLGA 220851Z 04003KT 2SM BR OVC005 10/09 A2989 RMK\ AO2 SFC VIS 5 SLP122 T01000089 57012= 201704220951 METAR KLGA 220951Z 02004KT 10SM OVC008 11/09 A2991 RMK AO2\ PRESRR SLP129 T01060094= 201704221051 METAR KLGA 221051Z 04008KT 10SM OVC012 11/09 A2990 RMK AO2\ SLP124 T01110089= 201704221151 METAR KLGA 221151Z 04008KT 10SM SCT012 OVC090 12/08 A2991\ RMK AO2 CIG 012 R22 SW SLP128 70002\ T01170083 10117 20094 51005= 201704221251 METAR KLGA 221251Z 08005KT 10SM FEW014 OVC080 12/09 A2993\ RMK AO2 RAB23E44 SLP134 P0000 T01170089= 201704221351 METAR KLGA 221351Z 07006KT 10SM OVC080 12/09 A2993 RMK AO2\ RAB1258E41 SLP136 P0000 T01170089= 201704221451 METAR KLGA 221451Z 05006KT 10SM BKN038 OVC075 12/09 A2994\ RMK AO2 SLP137 60000 T01220089 53004= 201704221551 METAR KLGA 221551Z 06010KT 10SM OVC070 13/08 A2993 RMK AO2\ SLP135 T01280083= 201704221651 METAR KLGA 221651Z 07007KT 7SM -RA BKN015 OVC070 12/09 A2992\ RMK AO2 RAB06 SLP131 BKN V SCT P0002\ T01220089= 201704221751 METAR KLGA 221751Z 05005KT 10SM SCT020 OVC070 12/09 A2992\ RMK AO2 RAE25 SLP131 P0001 60003\ T01170089 10133 20111 56007= 201704221851 METAR KLGA 221851Z 00000KT 9SM -RA BKN023 BKN055 OVC070 12/10\ A2992 RMK AO2 RAB1752 SLP133 P0001\ T01220100= 201704221951 METAR KLGA 221951Z 00000KT 7SM -RA FEW023 BKN040 OVC070 13/09\ A2992 RMK AO2 SLP131 P0001 T01280094= 201704222051 METAR KLGA 222051Z 02003KT 10SM -RA SCT014 BKN025 OVC036\ 13/10 A2993 RMK AO2 SLP136 P0002\ 60004 T01280100 53005= 201704222151 METAR KLGA 222151Z 36005KT 10SM -RA FEW013 SCT025 OVC035\ 13/09 A2994 RMK AO2 RAE01B27 SLP137\ P0000 T01280094= 201704222251 METAR KLGA 222251Z 03004KT 10SM BKN045 OVC110 13/09 A2994\ RMK AO2 RAE22 SLP138 P0000 T01280089= 201704222351 METAR KLGA 222351Z 33003KT 10SM FEW025 SCT045 OVC110 13/08\ A2996 RMK AO2 SLP145 60004 T01280083\ 10128 20117 53009= 201704230051 METAR KLGA 230051Z 32005KT 10SM BKN050 OVC110 13/07 A2996\ RMK AO2 SLP145 T01280072 $= 201704230151 METAR KLGA 230151Z 36013G21KT 10SM FEW027 BKN039 OVC110 12/05\ A2998 RMK AO2 SLP153 T01220050 $= 201704230251 METAR KLGA 230251Z 36009KT 10SM FEW027 BKN042 OVC150 12/04\ A2999 RMK AO2 SLP153 T01220039 53008\ $= 201704230351 METAR KLGA 230351Z 35006KT 10SM BKN044 BKN150 12/03 A3000\ RMK AO2 SLP160 T01170033 $= 201704230451 METAR KLGA 230451Z 35011KT 10SM BKN049 BKN150 11/03 A3002\ RMK AO2 SLP166 T01110033 401330094\ $= 201704230551 METAR KLGA 230551Z 35007KT 10SM CLR 11/03 A3002 RMK AO2 SLP166\ T01060033 10128 20106 50012 $= 201704230651 METAR KLGA 230651Z 32003KT 10SM SCT250 10/03 A3003 RMK AO2\ SLP169 T01000033 $= 201704230751 METAR KLGA 230751Z 02007KT 10SM SCT250 09/03 A3003 RMK AO2\ SLP169 T00940033 $= 201704230851 METAR KLGA 230851Z 01010KT 10SM SCT250 09/02 A3005 RMK AO2\ SLP175 T00940017 53010 $= 201704230951 METAR KLGA 230951Z 36006KT 10SM BKN250 09/02 A3007 RMK AO2\ SLP181 T00890017 $= 201704231051 METAR KLGA 231051Z 02005KT 10SM FEW090 SCT190 SCT250 09/02\ A3010 RMK AO2 SLP192 T00890022 $= 201704231151 METAR KLGA 231151Z 04005KT 10SM FEW090 SCT190 SCT250 11/02\ A3012 RMK AO2 SLP199 70007 T01060017\ 10106 20089 53024 $= 201704231251 METAR KLGA 231251Z 06006KT 10SM FEW090 SCT190 SCT250 11/02\ A3013 RMK AO2 SLP201 T01110022 $= 201704231351 METAR KLGA 231351Z 06009KT 10SM FEW010 FEW090 SCT190 SCT250\ 12/02 A3012 RMK AO2 SLP200 FU FEW010\ FU PLUME NW DRFTG SW T01220017 $= 201704231451 METAR KLGA 231451Z 05005KT 10SM FEW120 FEW190 SCT250 13/02\ A3013 RMK AO2 SLP202 T01280017 51003\ $= 201704231551 METAR KLGA 231551Z 31003KT 10SM FEW100 FEW190 SCT250 15/03\ A3012 RMK AO2 SLP200 T01500028 $= 201704231651 METAR KLGA 231651Z 05003KT 10SM FEW170 SCT250 16/02 A3012\ RMK AO2 SLP199 T01610022 $= 201704231751 METAR KLGA 231751Z VRB03KT 10SM FEW170 SCT250 17/01 A3009\ RMK AO2 SLP190 T01720006 10178 20100\ 58012 $= 201704231851 METAR KLGA 231851Z 16008KT 110V230 10SM FEW200 SCT250 18/01\ A3007 RMK AO2 SLP183 T01780011 $= 201704231951 METAR KLGA 231951Z 18010KT 10SM SCT180 OVC250 17/03 A3006\ RMK AO2 SLP178 T01720028 $= 201704232051 METAR KLGA 232051Z 17011KT 10SM SCT180 OVC250 16/04 A3006\ RMK AO2 SLP180 T01560044 55010 $= 201704232151 METAR KLGA 232151Z 18009KT 10SM SCT180 BKN250 14/05 A3008\ RMK AO2 SLP184 T01390050 $= 201704232251 METAR KLGA 232251Z 17012KT 10SM CLR 13/05 A3008 RMK AO2 SLP185\ T01280050 $= 201704232351 METAR KLGA 232351Z 17013KT 10SM FEW200 BKN250 12/06 A3010\ RMK AO2 SLP191 T01170056 10183 20117\ 53011 $= 201704240051 METAR KLGA 240051Z 17009KT 10SM FEW200 OVC250 11/06 A3011\ RMK AO2 SLP196 T01110056 $= 201704240151 METAR KLGA 240151Z 19010KT 10SM FEW200 OVC250 11/06 A3012\ RMK AO2 SLP201 T01110056 $= 201704240251 METAR KLGA 240251Z 19008KT 10SM BKN250 12/07 A3013 RMK AO2\ SLP202 T01170067 51011 $= 201704240351 METAR KLGA 240351Z 21005KT 10SM BKN250 12/06 A3013 RMK AO2\ SLP201 T01170056 $= 201704240451 METAR KLGA 240451Z 21006KT 10SM BKN250 12/04 A3013 RMK AO2\ SLP203 T01170044 401830089 $= 201704240551 METAR KLGA 240551Z 20003KT 10SM BKN250 11/04 A3012 RMK AO2\ SLP199 T01110044 10117 20111 58003\ $= 201704240651 METAR KLGA 240651Z 16003KT 10SM BKN250 11/05 A3010 RMK AO2\ SLP194 T01060050 $= 201704240751 METAR KLGA 240751Z 00000KT 10SM BKN250 10/06 A3011 RMK AO2\ SLP195 T01000056 $= 201704240851 METAR KLGA 240851Z 08003KT 10SM BKN250 09/06 A3012 RMK AO2\ SLP200 T00940061 53001 $= 201704240951 METAR KLGA 240951Z 04004KT 10SM FEW170 SCT250 09/07 A3012\ RMK AO2 SLP201 T00890067 $= 201704241051 METAR KLGA 241051Z 08005KT 9SM BKN190 BKN250 09/08 A3015\ RMK AO2 SLP208 T00940078 $= 201704241151 METAR KLGA 241151Z 16004KT 10SM BKN200 BKN250 11/08 A3017\ RMK AO2 SLP216 T01060078 10111 20089\ 53016 $= 201704241251 METAR KLGA 241251Z VRB04KT 10SM BKN170 BKN250 12/07 A3017\ RMK AO2 SLP216 T01170067 $= 201704241351 METAR KLGA 241351Z 05005KT 10SM OVC160 13/07 A3018 RMK AO2\ SLP218 T01280067 $= 201704241451 METAR KLGA 241451Z 03005KT 10SM OVC160 13/06 A3017 RMK AO2\ SLP217 T01330061 50002= 201704241551 METAR KLGA 241551Z 04007KT 10SM OVC150 13/07 A3017 RMK AO2\ SLP216 T01280072= 201704241651 METAR KLGA 241651Z 06007KT 10SM BKN130 OVC250 14/07 A3016\ RMK AO2 SLP213 T01390072= 201704241751 METAR KLGA 241751Z 05006KT 10SM BKN110 OVC140 14/07 A3015\ RMK AO2 SLP208 T01390067 10139 20106\ 58009= 201704241851 METAR KLGA 241851Z 05009KT 10SM FEW070 OVC100 14/06 A3015\ RMK AO2 SLP209 T01390061= 201704241951 METAR KLGA 241951Z 05008KT 10SM FEW070 OVC100 13/06 A3013\ RMK AO2 SLP204 T01330061= 201704242051 METAR KLGA 242051Z 04007KT 10SM FEW070 OVC095 14/06 A3014\ RMK AO2 SLP206 T01390061 55002= 201704242151 METAR KLGA 242151Z 04007KT 10SM FEW070 BKN095 14/06 A3013\ RMK AO2 SLP203 T01440061= 201704242251 METAR KLGA 242251Z 06006KT 10SM OVC085 14/07 A3013 RMK AO2\ RAB40E50 SLP203 P0000 T01440067= 201704242351 METAR KLGA 242351Z 06007KT 10SM OVC085 13/07 A3012 RMK AO2\ SLP200 60000 T01280067 10150 20128\ 56006= 201704250051 METAR KLGA 250051Z 04008KT 10SM FEW055 BKN100 11/08 A3013\ RMK AO2 SLP202 T01110078= 201704250151 METAR KLGA 250151Z 05008KT 10SM FEW075 FEW100 OVC120 12/08\ A3014 RMK AO2 SLP205 T01170078= 201704250251 METAR KLGA 250251Z 04010KT 10SM FEW075 OVC095 11/07 A3013\ RMK AO2 SLP204 T01110072 50003= 201704250351 METAR KLGA 250351Z 05009KT 10SM OVC060 11/08 A3013 RMK AO2\ RAB17E37 SLP202 P0000 T01060078= 201704250451 METAR KLGA 250451Z 05011KT 10SM OVC060 11/08 A3012 RMK AO2\ SLP199 T01060078 401500089= 201704250551 METAR KLGA 250551Z 05014KT 10SM SCT014 OVC055 10/08 A3010\ RMK AO2 SLP194 60000 T01000078 10128\ 20100 58010= 201704250651 METAR KLGA 250651Z 05014KT 10SM OVC041 10/08 A3009 RMK AO2\ RAB0553E06 SLP188 P0000 T01000078= 201704250751 METAR KLGA 250751Z 05014KT 10SM -RA BKN006 OVC031 10/08 A3008\ RMK AO2 RAB26 SLP186 P0000 T01000083= 201704250851 METAR KLGA 250851Z 05018KT 10SM SCT005 OVC028 10/08 A3008\ RMK AO2 RAE51 SLP185 P0001 60001\ T01000083 56003= 201704250951 METAR KLGA 250951Z 05017KT 10SM BKN018 OVC032 10/09 A3006\ RMK AO2 RAB0853E35 SLP180 P0000 T01000089= 201704251051 METAR KLGA 251051Z 05015KT 10SM BKN007 OVC011 11/09 A3008\ RMK AO2 RAB0953E38 SLP186 P0005 T01110089= 201704251151 METAR KLGA 251151Z 06013KT 10SM SCT007 BKN012 OVC020 11/09\ A3010 RMK AO2 RAB1059E35 SLP192 P0001\ 60007 70007 T01060089 10117 20100\ 53007= 201704251251 METAR KLGA 251251Z 06017G27KT 9SM OVC008 12/09 A3009 RMK\ AO2 PK WND 06027/1242 SLP189 T01170094= 201704251351 METAR KLGA 251351Z 06020G27KT 9SM OVC008 12/09 A3010 RMK\ AO2 PK WND 06029/1319 SLP192 T01170094= 201704251451 METAR KLGA 251451Z 06018G25KT 10SM -RA OVC009 12/10 A3010\ RMK AO2 PK WND 06026/1429 RAB1359\ SLP191 P0001 60001 T01220100 56001= 201704251551 METAR KLGA 251551Z 06025G30KT 10SM OVC009 13/11 A3007 RMK\ AO2 PK WND 06031/1540 RAE36 SLP182\ P0000 T01330106= 201704251651 METAR KLGA 251651Z 07021G26KT 10SM OVC009 14/11 A3006 RMK\ AO2 PK WND 07032/1555 SLP178 T01390106= 201704251751 METAR KLGA 251751Z 05022KT 10SM FEW008 BKN011 OVC024 13/11\ A3002 RMK AO2 PK WND 06027/1751 RAB1656E12\ SLP165 P0000 60001 T01280106 10139\ 20106 58026= 201704251851 METAR KLGA 251851Z 06019KT 10SM BKN006 OVC008 12/11 A3000\ RMK AO2 PK WND 06028/1755 RAB16E31\ SLP159 P0000 T01220106= 201704251951 METAR KLGA 251951Z 06026G32KT 10SM -RA OVC008 13/11 A2997\ RMK AO2 PK WND 07033/1922 RAB08 SLP149\ P0000 T01280106= 201704252051 METAR KLGA 252051Z 06020G31KT 4SM -RA BR OVC008 12/11 A2995\ RMK AO2 PK WND 06034/1959 SLP141\ P0002 60002 T01220106 58024= 201704252151 METAR KLGA 252151Z 06022G32KT 3SM -RA BR OVC009 12/11 A2993\ RMK AO2 PK WND 06033/2108 SLP134\ P0005 T01220106= 201704252251 METAR KLGA 252251Z 06021G31KT 2 1/2SM RA BR BKN009 OVC016\ 12/10 A2991 RMK AO2 PK WND 06031/2243\ SLP129 P0006 T01170100= 201704252351 METAR KLGA 252351Z 05024G30KT 2SM -RA BR BKN009 OVC021 12/10\ A2989 RMK AO2 PK WND 05032/2328 SFC\ VIS 4 SLP122 P0007 60020 T01170100\ 10133 20117 58013= 201704260051 METAR KLGA 260051Z 06020KT 2SM RA BR OVC008 11/10 A2989 RMK\ AO2 PK WND 05030/0011 SFC VIS 3 SLP122\ P0003 T01110100= 201704260151 METAR KLGA 260151Z 05017KT 2SM RA BR BKN006 OVC016 11/10\ A2988 RMK AO2 SFC VIS 2 1/2 SLP119\ P0024 T01110100= 201704260251 METAR KLGA 260251Z 06012KT 6SM -RA BR OVC005 12/10 A2989\ RMK AO2 SLP120 P0006 60033 T01170100\ 57002= 201704260351 METAR KLGA 260351Z 04015KT 6SM -RA BR OVC005 11/10 A2986\ RMK AO2 SLP110 P0003 T01110100= 201704260451 METAR KLGA 260451Z 05022G28KT 2SM BR OVC003 12/10 A2981 RMK\ AO2 PK WND 04028/0450 SFC VIS 4 RAE13\ SLP093 P0000 T01170100 401390100= 201704260551 METAR KLGA 260551Z 05019KT 3SM BR OVC003 12/11 A2980 RMK\ AO2 PK WND 05026/0533 SFC VIS 6 SLP089\ 60036 T01170106 10117 20111 56030= 201704260651 METAR KLGA 260651Z 05018KT 3SM BR OVC004 12/11 A2978 RMK\ AO2 SFC VIS 4 SLP085 T01220106= 201704260751 METAR KLGA 260751Z 03014KT 1SM -DZ BR OVC004 12/11 A2976\ RMK AO2 SFC VIS 2 DZB0652 SLP078\ P0000 T01170106= 201704260851 METAR KLGA 260851Z 05009KT 1/2SM -RA BR OVC004 12/11 A2975\ RMK AO2 SFC VIS 3/4 DZE04RAB04E08B29\ SLP075 P0002 60002 T01170111 56014= 201704260951 METAR KLGA 260951Z 04009KT 2SM -RA BR SCT006 OVC009 12/11\ A2975 RMK AO2 SFC VIS 4 RAE17B38DZB21E38\ SLP074 P0009 T01220111= 201704261051 METAR KLGA 261051Z 03008KT 2 1/2SM -RA BR OVC006 12/11 A2975\ RMK AO2 SFC VIS 4 SLP074 P0001 T01220111= 201704261151 METAR KLGA 261151Z 06006KT 3SM -RA BR OVC006 13/12 A2975\ RMK AO2 SLP074 P0004 60016 70073\ T01280117 10133 20117 56001= 201704261251 METAR KLGA 261251Z 05009KT 4SM -RA BR SCT004 BKN006 OVC008\ 13/11 A2976 RMK AO2 SLP076 P0001\ T01280111= 201704261351 METAR KLGA 261351Z 05012KT 3SM BR BKN004 OVC006 13/12 A2975\ RMK AO2 SFC VIS 4 RAE43 SLP075 P0001\ T01330117= 201704261451 METAR KLGA 261451Z 06011KT 10SM SCT004 OVC008 13/11 A2977\ RMK AO2 SLP080 60002 T01330111 53005= 201704261551 METAR KLGA 261551Z 05012KT 8SM -RA FEW007 OVC009 14/12 A2977\ RMK AO2 RAB07 SLP081 P0010 T01390117= 201704261651 METAR KLGA 261651Z 05008KT 10SM OVC007 14/12 A2977 RMK AO2\ RAE05 SLP081 P0000 T01440117= 201704261751 METAR KLGA 261751Z 04009KT 9SM OVC006 14/12 A2977 RMK AO2\ SLP082 60012 T01440122 10156 20122\ 51002= 201704261851 METAR KLGA 261851Z 04009KT 10SM OVC006 15/13 A2977 RMK AO2\ SLP082 T01500128= 201704261951 METAR KLGA 261951Z 06010G20KT 2SM BR BKN005 OVC012 16/13\ A2976 RMK AO2 SFC VIS 4 SLP078 T01560133= 201704262051 METAR KLGA 262051Z 04006KT 4SM BR BKN007 OVC014 15/13 A2976\ RMK AO2 SLP076 T01500133 58006= 201704262151 METAR KLGA 262151Z 03004KT 5SM BR OVC010 15/13 A2977 RMK\ AO2 SLP082 T01500133= 201704262251 METAR KLGA 262251Z 33004KT 5SM BR OVC010 14/13 A2979 RMK\ AO2 SLP089 T01440128= 201704262351 METAR KLGA 262351Z 03004KT 3SM BR OVC016 16/14 A2980 RMK\ AO2 SFC VIS 5 SLP090 T01560139 10167\ 20139 51008= 201704270051 METAR KLGA 270051Z 06004KT 3SM BR OVC016 16/14 A2980 RMK\ AO2 SFC VIS 6 SLP092 T01610139= 201704270151 METAR KLGA 270151Z 11005KT 10SM OVC014 16/13 A2983 RMK AO2\ SLP101 T01610133= 201704270251 METAR KLGA 270251Z 00000KT 6SM BR OVC012 14/13 A2984 RMK\ AO2 SLP105 T01440128 53015= 201704270351 METAR KLGA 270351Z 06004KT 2SM BR OVC016 14/13 A2984 RMK\ AO2 SFC VIS 2 1/2 VIS 1 R22 SW SLP104\ T01440133= 201704270451 METAR KLGA 270451Z 00000KT 1SM -DZ BR OVC013 13/13 A2984\ RMK AO2 TWR VIS 2 DZB48 SLP105 P0000\ T01330128 401670117= 201704270551 METAR KLGA 270551Z 00000KT 1/2SM -DZ FG SCT008 BKN011 OVC017\ 14/14 A2984 RMK AO2 SLP105 P0000\ 60000 T01440139 10167 20133 51001= 201704270651 METAR KLGA 270651Z 00000KT 1/2SM -DZ BR OVC009 14/13 A2984\ RMK AO2 SFC VIS 1 SLP106 P0000 T01440133= 201704270751 METAR KLGA 270751Z 00000KT 1/2SM -DZ BR OVC007 14/13 A2985\ RMK AO2 SFC VIS 3 SLP107 P0000 T01390133= 201704270851 METAR KLGA 270851Z 00000KT 1/2SM -DZ BR OVC006 14/13 A2985\ RMK AO2 SFC VIS 1 1/4 SLP109 P0001\ 60001 T01440133 53003= 201704270951 METAR KLGA 270951Z 00000KT 1/2SM -DZ FG VV005 14/13 A2986\ RMK AO2 SLP112 P0000 T01390133= 201704271051 METAR KLGA 271051Z 00000KT 1SM BR SCT004 BKN009 OVC021 15/14\ A2989 RMK AO2 SFC VIS 2 1/2 DZE37\ SLP120 P0000 T01500144= 201704271151 METAR KLGA 271151Z 00000KT 1 1/2SM BR BCFG SCT005 SCT010\ OVC021 16/14 A2990 RMK AO2 SFC VIS\ 3 SLP126 60001 70013 T01560144 10161\ 20133 53015= 201704271251 METAR KLGA 271251Z 18009KT 2 1/2SM BR FEW006 SCT008 OVC020\ 16/14 A2992 RMK AO2 SFC VIS 4 SLP130\ T01610144= 201704271351 METAR KLGA 271351Z 20007KT 2 1/2SM BR FEW006 OVC020 17/14\ A2992 RMK AO2 SFC VIS 4 SLP131 T01670144= 201704271451 METAR KLGA 271451Z 17007KT 7SM FEW011 OVC024 18/14 A2991\ RMK AO2 SLP127 T01830144 50001= 201704271551 METAR KLGA 271551Z 16007KT 10SM OVC027 19/13 A2990 RMK AO2\ CIG 021 R22 SW SLP126 T01940133= 201704271651 METAR KLGA 271651Z 16008KT 10SM BKN023 OVC037 20/14 A2990\ RMK AO2 SLP124 T02000139= 201704271751 METAR KLGA 271751Z 17007KT 10SM OVC028 20/14 A2990 RMK AO2\ SLP124 T02000139 10206 20150 56003= 201704271851 METAR KLGA 271851Z 17009KT 10SM FEW028 BKN055 OVC250 20/14\ A2989 RMK AO2 SLP122 T02000139= 201704271951 METAR KLGA 271951Z 17013KT 10SM FEW026 SCT060 OVC250 21/14\ A2987 RMK AO2 SLP116 T02060139= 201704272051 METAR KLGA 272051Z 15015KT 10SM BKN019 OVC250 19/14 A2987\ RMK AO2 SLP113 T01940139 58010= 201704272151 METAR KLGA 272151Z 14011KT 10SM OVC016 18/13 A2988 RMK AO2\ SLP119 T01830133= 201704272251 METAR KLGA 272251Z 14009KT 10SM OVC013 18/14 A2988 RMK AO2\ SLP118 T01780139= 201704272351 METAR KLGA 272351Z 13010KT 1 1/2SM BCFG OVC007 17/14 A2988\ RMK AO2 SFC VIS 3 SLP118 T01720144\ 10206 20167 51005= 201704280051 METAR KLGA 280051Z 14009G14KT 090V150 1SM BR OVC004 17/15\ A2989 RMK AO2 SFC VIS 3 SLP120 T01720150= 201704280151 METAR KLGA 280151Z 16007KT 2SM BR OVC003 15/14 A2990 RMK\ AO2 SFC VIS 5 SLP126 T01500139= 201704280251 METAR KLGA 280251Z 15007KT 2SM BR OVC003 14/13 A2989 RMK\ AO2 SFC VIS 5 SLP122 T01440133 50004= 201704280351 METAR KLGA 280351Z 12004KT 2 1/2SM BR OVC005 15/13 A2988\ RMK AO2 SFC VIS 5 SLP119 T01500133= 201704280451 METAR KLGA 280451Z 12005KT 2 1/2SM BR OVC005 15/13 A2987\ RMK AO2 SFC VIS 4 SLP114 T01500133\ 402060133= 201704280551 METAR KLGA 280551Z 00000KT 1/4SM BR OVC003 15/14 A2988 RMK\ AO2 SFC VIS 1 1/2 SLP116 T01500139\ 10178 20144 56003= 201704280651 METAR KLGA 280651Z 11004KT 1/4SM BR OVC002 15/14 A2986 RMK\ AO2 SFC VIS 2 SLP111 T01500139= 201704280751 METAR KLGA 280751Z 03006KT 1/4SM FG VV002 13/12 A2987 RMK\ AO2 SFC VIS 1/2 RAB09E18 SLP115 P0000\ T01280122= 201704280851 METAR KLGA 280851Z 06003KT 1/4SM FG VV002 13/13 A2989 RMK\ AO2 SFC VIS 1/2 RAB0752E12 SLP122\ P0000 60000 T01330128 53006= 201704280951 METAR KLGA 280951Z 04004KT 1/4SM FG VV002 13/13 A2991 RMK\ AO2 TWR VIS 1/4 SLP129 T01330128= 201704281051 METAR KLGA 281051Z 05007KT 1SM BR BKN005 OVC070 13/13 A2992\ RMK AO2 SFC VIS 1 3/4 VIS 3/4 R22\ SW RAB0955E05 SLP131 P0000 T01330128= 201704281151 METAR KLGA 281151Z 08004KT 1SM BR OVC004 14/14 A2996 RMK\ AO2 SFC VIS 2 1/2 SLP146 60000 T01440139\ 10150 20128 53023= 201704281251 METAR KLGA 281251Z 04004KT 2SM BR BKN006 OVC100 16/14 A2997\ RMK AO2 SFC VIS 3 SLP148 T01610139= 201704281351 METAR KLGA 281351Z VRB04KT 3SM HZ SCT070 BKN140 19/16 A2998\ RMK AO2 SFC VIS 4 SLP151 T01890156= 201704281451 METAR KLGA 281451Z VRB05KT 5SM HZ FEW140 FEW250 22/16 A2998\ RMK AO2 SLP152 T02220156 51007= 201704281551 METAR KLGA 281551Z 03004KT 6SM HZ FEW035 FEW250 23/16 A2998\ RMK AO2 SLP152 T02330161= 201704281651 METAR KLGA 281651Z 7SM FEW040 26/16 A2999 RMK AO2 SLP154\ T02560161= 201704281751 METAR KLGA 281751Z VRB05KT 10SM FEW040 FEW250 28/14 A2998\ RMK AO2 SLP150 T02780139 10283 20144\ 58002= 201704281851 METAR KLGA 281851Z 20009G19KT 10SM FEW040 FEW250 29/11 A2996\ RMK AO2 SLP145 T02890106= 201704281951 METAR KLGA 281951Z 18012KT 10SM FEW040 FEW250 28/14 A2997\ RMK AO2 SLP149 T02780139= 201704282051 METAR KLGA 282051Z 17015KT 10SM FEW040 FEW250 27/13 A2996\ RMK AO2 SLP146 T02720133 56004= 201704282151 METAR KLGA 282151Z 16010G21KT 10SM FEW050 FEW250 27/13 A2997\ RMK AO2 SLP147 T02670128= 201704282251 METAR KLGA 282251Z 17010KT 10SM FEW050 BKN250 26/12 A2997\ RMK AO2 SLP149 T02560122= 201704282351 METAR KLGA 282351Z 18009KT 10SM FEW050 BKN250 25/12 A2999\ RMK AO2 SLP154 T02500117 10294 20250\ 53008= 201704290051 METAR KLGA 290051Z 20005KT 10SM BKN250 25/10 A3001 RMK AO2\ SLP161 T02500100= 201704290151 METAR KLGA 290151Z 19006KT 10SM BKN250 26/07 A3003 RMK AO2\ SLP169 T02560067= 201704290251 METAR KLGA 290251Z 21009KT 10SM SCT220 24/07 A3003 RMK AO2\ SLP168 T02390072 50014= 201704290351 METAR KLGA 290351Z 20005KT 10SM BKN190 23/08 A3003 RMK AO2\ SLP168 T02330078= 201704290451 METAR KLGA 290451Z 22008KT 10SM BKN220 OVC250 23/11 A3005\ RMK AO2 SLP175 T02330111 402940128= 201704290551 METAR KLGA 290551Z 23008KT 10SM FEW130 BKN160 OVC250 23/13\ A3002 RMK AO2 SLP165 T02330128 10256\ 20228 58003= 201704290651 METAR KLGA 290651Z 20004KT 10SM FEW090 FEW110 23/14 A3001\ RMK AO2 RAB35E45 SLP163 P0000 T02280139= 201704290751 METAR KLGA 290751Z 19004KT 10SM SCT065 BKN110 22/15 A3001\ RMK AO2 RAB29E49 SLP162 P0000 T02220150= 201704290851 METAR KLGA 290851Z 00000KT 10SM -RA BKN120 OVC130 21/16 A2998\ RMK AO2 LTG DSNT SE-W RAB40 PRESFR\ SLP150 P0000 60000 T02060161 58015= 201704290951 METAR KLGA 290951Z 16008KT 10SM -TSRA SCT050CB BKN075 BKN100\ OVC130 21/17 A2996 RMK AO2 LTG DSNT\ E-SW TSB05 SLP144 OCNL LTGICCC OHD\ E-S TS OHD-E-S MOV E P0006 T02060172= 201704291051 METAR KLGA 291051Z 09003KT 9SM FEW050 FEW100 SCT130 SCT150\ BKN240 20/18 A2997 RMK AO2 RAE00\ TSE22 SLP149 CB DSNT E P0000 T02000178= 201704291151 METAR KLGA 291151Z 11004KT 7SM FEW050 SCT100 SCT150 BKN230\ 19/17 A2997 RMK AO2 SLP147 60006\ 70006 T01940172 10233 20183 56003= 201704291251 METAR KLGA 291251Z 19008KT 8SM FEW050 FEW150 SCT230 21/18\ A3001 RMK AO2 SLP160 T02110178= 201704291351 METAR KLGA 291351Z 22009KT 10SM FEW150 BKN250 24/18 A3002\ RMK AO2 SLP164 T02390178= 201704291451 METAR KLGA 291451Z 26010G17KT 10SM FEW035 FEW080 SCT150 BKN250\ 26/18 A2999 RMK AO2 PRESFR SLP154\ T02610178 50007= 201704291551 METAR KLGA 291551Z 27014G21KT 10SM FEW050 FEW080 SCT200 BKN250\ 27/15 A2997 RMK AO2 PK WND 29026/1529\ SLP150 T02720150= 201704291651 METAR KLGA 291651Z 28013G21KT 10SM FEW049 FEW080 SCT200 BKN250\ 28/16 A2994 RMK AO2 SLP139 T02830156= 201704291751 METAR KLGA 291751Z 27010KT 10SM FEW048 FEW080 SCT200 BKN250\ 29/16 A2993 RMK AO2 SLP135 T02940156\ 10294 20194 56019= 201704291851 METAR KLGA 291851Z 26013G22KT 10SM FEW050 SCT180 BKN250 31/15\ A2995 RMK AO2 SLP142 T03060150= 201704291951 METAR KLGA 291951Z 26018G25KT 10SM FEW050 SCT180 BKN250 31/14\ A2995 RMK AO2 PK WND 25027/1928 SLP141\ T03060144= 201704292051 METAR KLGA 292051Z 29022G35KT 10SM FEW050 SCT180 BKN250 29/13\ A2997 RMK AO2 PK WND 27038/2017 SLP147\ T02940133 51012= 201704292151 METAR KLGA 292151Z 27011G26KT 10SM FEW050 SCT200 BKN250 29/14\ A2997 RMK AO2 PK WND 29031/2108 SLP147\ T02890139= 201704292251 METAR KLGA 292251Z 28010G19KT 10SM FEW050 SCT200 BKN250 28/14\ A2996 RMK AO2 SLP145 T02830139= 201704292351 METAR KLGA 292351Z 29011G18KT 10SM FEW050 SCT200 BKN250 27/13\ A2999 RMK AO2 PK WND 30026/2315 SLP157\ T02720133 10311 20272 53009= 201704300051 METAR KLGA 300051Z 32012KT 10SM FEW200 BKN250 23/13 A3003\ RMK AO2 SLP170 T02330128= 201704300151 METAR KLGA 300151Z 33012G20KT 10SM SCT065 BKN250 24/13 A3007\ RMK AO2 SLP183 T02440133= 201704300251 METAR KLGA 300251Z 35014G18KT 10SM OVC075 23/13 A3008 RMK\ AO2 SLP187 T02280128 51030= 201704300351 METAR KLGA 300351Z 34014KT 10SM OVC070 22/12 A3011 RMK AO2\ SLP195 T02170122= 201704300451 METAR KLGA 300451Z 32008KT 10SM OVC070 20/11 A3011 RMK AO2\ SLP197 T02000106 403110183= 201704300551 METAR KLGA 300551Z 33009KT 10SM OVC065 20/08 A3011 RMK AO2\ SLP197 T02000083 10272 20200 50010= 201704300651 METAR KLGA 300651Z 33007KT 10SM OVC060 19/08 A3013 RMK AO2\ SLP203 T01890078= 201704300751 METAR KLGA 300751Z 02005KT 10SM SCT060 BKN250 18/07 A3014\ RMK AO2 SLP205 T01830072= 201704300851 METAR KLGA 300851Z 02007KT 10SM BKN060 BKN250 18/08 A3015\ RMK AO2 SLP209 T01780078 51012= 201704300951 METAR KLGA 300951Z 06009KT 10SM SCT060 SCT250 16/06 A3018\ RMK AO2 SLP219 T01610056= 201704301051 METAR KLGA 301051Z 04010KT 10SM BKN055 BKN250 16/04 A3021\ RMK AO2 SLP229 T01560039= 201704301151 METAR KLGA 301151Z 05009KT 10SM OVC050 16/03 A3023 RMK AO2\ SLP236 T01560033 10200 20156 51027= 201704301251 METAR KLGA 301251Z 05010KT 10SM SCT048 OVC060 16/03 A3024\ RMK AO2 SLP240 T01560033= 201704301351 METAR KLGA 301351Z 04010KT 10SM BKN045 BKN060 OVC070 16/04\ A3024 RMK AO2 SLP241 T01560044= 201704301451 METAR KLGA 301451Z 05012KT 10SM OVC045 16/06 A3023 RMK AO2\ SLP235 T01560056 58001= 201704301551 METAR KLGA 301551Z 03008KT 10SM BKN046 18/06 A3023 RMK AO2\ SLP235 T01830056= 201704301651 METAR KLGA 301651Z 14011G18KT 10SM OVC045 18/05 A3025 RMK\ AO2 WSHFT 1629 SLP243 T01780050= 201704301751 METAR KLGA 301751Z 13013KT 10SM OVC045 16/04 A3024 RMK AO2\ WSHFT 1638 SLP240 T01610039 10183\ 20150 50004= 201704301851 METAR KLGA 301851Z 13009KT 10SM BKN045 OVC100 16/04 A3023\ RMK AO2 SLP237 T01610044= 201704301951 METAR KLGA 301951Z 13011KT 10SM BKN043 OVC100 16/03 A3022\ RMK AO2 SLP232 T01560033= 201704302051 METAR KLGA 302051Z 11013KT 10SM BKN041 OVC100 15/04 A3021\ RMK AO2 SLP229 T01500039 57010= 201704302151 METAR KLGA 302151Z 09009KT 10SM FEW030 BKN038 BKN100 14/04\ A3022 RMK AO2 SLP234 T01440044= 201704302251 METAR KLGA 302251Z 11012KT 10SM FEW025 BKN031 OVC070 14/04\ A3021 RMK AO2 SLP229 T01390044= 201704302351 METAR KLGA 302351Z 12011KT 10SM FEW020 BKN025 OVC070 13/04\ A3019 RMK AO2 SLP221 T01330039 10167\ 20133 58008=
