 201712010051 METAR KLGA 010051Z 18008KT 10SM FEW035 BKN090 BKN250 11/07\ A3005 RMK AO2 SLP175 T01110072= 201712010151 METAR KLGA 010151Z 18009KT 10SM BKN022 OVC095 12/08 A3004\ RMK AO2 SLP173 T01170083= 201712010251 METAR KLGA 010251Z 22005KT 10SM OVC016 12/09 A3005 RMK AO2\ SLP174 T01170089 55005= 201712010351 METAR KLGA 010351Z 21008KT 10SM -RA FEW016 OVC047 12/07 A3004\ RMK AO2 RAB18 SLP171 P0000 T01170072= 201712010451 METAR KLGA 010451Z 20008KT 10SM -RA FEW038 OVC060 11/07 A3001\ RMK AO2 SLP162 P0002 T01060072 401220044= 201712010551 METAR KLGA 010551Z 20004KT 10SM BKN031 OVC040 11/07 A3001\ RMK AO2 RAE05 SLP161 P0000 60002\ T01060072 10122 20094 56013= 201712010651 METAR KLGA 010651Z 23006KT 10SM BKN021 OVC044 11/07 A3001\ RMK AO2 SLP163 T01060072= 201712010751 METAR KLGA 010751Z 27008KT 10SM OVC046 11/07 A3002 RMK AO2\ RAB0659E09 SLP164 P0000 T01060067= 201712010851 METAR KLGA 010851Z 31011KT 10SM BKN055 09/06 A3002 RMK AO2\ SLP164 60000 T00940061 51003= 201712010951 METAR KLGA 010951Z 31011KT 10SM FEW055 SCT250 09/06 A3005\ RMK AO2 SLP176 T00890056= 201712011051 METAR KLGA 011051Z 32008KT 10SM FEW055 FEW250 09/04 A3008\ RMK AO2 SLP184 T00890039= 201712011151 METAR KLGA 011151Z 33010KT 10SM FEW055 08/03 A3012 RMK AO2\ SLP198 60000 70002 T00830028 10106\ 20083 53034= 201712011251 METAR KLGA 011251Z 33009KT 10SM FEW055 09/02 A3015 RMK AO2\ SLP208 T00890017= 201712011351 METAR KLGA 011351Z 33012KT 10SM FEW250 09/02 A3016 RMK AO2\ SLP213 T00940022= 201712011451 METAR KLGA 011451Z 32014KT 10SM FEW026 FEW250 10/01 A3017\ RMK AO2 SLP217 T01000011 51019= 201712011551 METAR KLGA 011551Z 31013KT 10SM FEW028 11/01 A3017 RMK AO2\ SLP217 T01060006= 201712011651 METAR KLGA 011651Z 35009KT 10SM FEW046 11/M01 A3017 RMK AO2\ SLP215 T01061006= 201712011751 METAR KLGA 011751Z 33013KT 10SM FEW048 11/00 A3016 RMK AO2\ SLP213 T01110000 10111 20083 58003= 201712011851 METAR KLGA 011851Z 33009KT 10SM FEW050 11/M01 A3016 RMK AO2\ SLP212 T01111006= 201712011951 METAR KLGA 011951Z 32011KT 10SM FEW050 FEW250 11/00 A3017\ RMK AO2 SLP216 T01110000= 201712012051 METAR KLGA 012051Z 32011KT 10SM CLR 10/00 A3019 RMK AO2 SLP224\ T01000000 53011= 201712012151 METAR KLGA 012151Z 30009KT 10SM FEW050 FEW250 10/M01 A3021\ RMK AO2 SLP231 T01001006= 201712012251 METAR KLGA 012251Z 32014KT 10SM FEW050 FEW250 09/M01 A3024\ RMK AO2 SLP239 T00891006= 201712012351 METAR KLGA 012351Z 34012G16KT 10SM FEW250 08/M01 A3024 RMK\ AO2 SLP241 T00831006 10117 20083\ 51017= 201712020051 METAR KLGA 020051Z 34008KT 10SM FEW250 08/M01 A3026 RMK AO2\ SLP247 T00831006= 201712020151 METAR KLGA 020151Z 02005KT 10SM FEW250 08/00 A3027 RMK AO2\ SLP251 T00780000= 201712020251 METAR KLGA 020251Z 03005KT 10SM FEW250 07/M01 A3028 RMK AO2\ SLP253 T00721011 51013= 201712020351 METAR KLGA 020351Z 03008KT 10SM FEW250 07/M01 A3029 RMK AO2\ SLP258 T00671011= 201712020451 METAR KLGA 020451Z 04006KT 10SM FEW250 06/M01 A3028 RMK AO2\ SLP254 T00611011 401170061= 201712020551 METAR KLGA 020551Z 04007KT 10SM FEW250 06/M01 A3027 RMK AO2\ SLP251 T00611011 10083 20061 58002= 201712020651 METAR KLGA 020651Z 02005KT 10SM FEW250 06/M02 A3029 RMK AO2\ SLP258 T00561017= 201712020751 METAR KLGA 020751Z 02006KT 10SM SCT250 06/M02 A3031 RMK AO2\ SLP262 T00561017= 201712020851 METAR KLGA 020851Z 01003KT 10SM SCT250 06/M02 A3030 RMK AO2\ SLP261 T00561022 50010= 201712020951 METAR KLGA 020951Z 02005KT 10SM FEW200 SCT250 05/M01 A3030\ RMK AO2 SLP258 T00501011= 201712021051 METAR KLGA 021051Z 01003KT 10SM SCT250 05/M02 A3030 RMK AO2\ SLP260 T00501017= 201712021151 METAR KLGA 021151Z 01004KT 10SM FEW230 BKN260 04/M01 A3031\ RMK AO2 SLP264 T00441011 10061 20044\ 53003= 201712021251 METAR KLGA 021251Z 02005KT 10SM FEW230 SCT250 05/M01 A3032\ RMK AO2 SLP267 T00501011= 201712021351 METAR KLGA 021351Z 08004KT 10SM FEW200 BKN260 06/M02 A3032\ RMK AO2 SLP265 T00561017= 201712021451 METAR KLGA 021451Z 02003KT 10SM FEW200 BKN260 07/M01 A3032\ RMK AO2 SLP265 T00721006 51001= 201712021551 METAR KLGA 021551Z 05005KT 10SM FEW030 FEW200 BKN260 07/M01\ A3030 RMK AO2 SLP260 T00721006= 201712021651 METAR KLGA 021651Z 06005KT 10SM FEW035 SCT200 BKN260 08/M02\ A3027 RMK AO2 SLP249 T00781017= 201712021751 METAR KLGA 021751Z 07006KT 10SM FEW040 SCT200 BKN260 08/M01\ A3025 RMK AO2 SLP242 T00831011 10089\ 20044 58024= 201712021851 METAR KLGA 021851Z 06004KT 10SM FEW040 SCT200 BKN260 08/M01\ A3023 RMK AO2 SLP238 T00831011= 201712021951 METAR KLGA 021951Z 04006KT 10SM FEW040 SCT200 BKN250 08/M01\ A3023 RMK AO2 SLP237 T00831006= 201712022051 METAR KLGA 022051Z 05006KT 10SM FEW050 SCT200 OVC250 08/M01\ A3024 RMK AO2 SLP240 T00831011 55002= 201712022151 METAR KLGA 022151Z 07005KT 10SM FEW050 SCT200 BKN250 08/M01\ A3024 RMK AO2 SLP239 T00781006= 201712022251 METAR KLGA 022251Z 12006KT 10SM FEW050 BKN250 08/M01 A3025\ RMK AO2 SLP242 T00781011= 201712022351 METAR KLGA 022351Z 13006KT 10SM BKN170 OVC250 08/M01 A3024\ RMK AO2 SLP239 T00781006 10089 20078\ 58000= 201712030051 METAR KLGA 030051Z 13005KT 10SM BKN170 OVC250 07/00 A3023\ RMK AO2 SLP237 T00720000= 201712030151 METAR KLGA 030151Z 14005KT 10SM SCT150 BKN250 07/00 A3023\ RMK AO2 SLP234 T00720000= 201712030251 METAR KLGA 030251Z 13004KT 10SM CLR 07/00 A3023 RMK AO2 SLP237\ T00670000 55002= 201712030351 METAR KLGA 030351Z 10006KT 10SM SCT070 BKN100 07/01 A3024\ RMK AO2 SLP239 T00670011= 201712030451 METAR KLGA 030451Z 00000KT 10SM BKN110 07/01 A3024 RMK AO2\ SLP240 T00670011 400890044= 201712030551 METAR KLGA 030551Z 00000KT 10SM SCT120 BKN250 06/01 A3022\ RMK AO2 SLP232 T00610006 10078 20061\ 58004= 201712030651 METAR KLGA 030651Z 11003KT 10SM FEW040 SCT120 BKN250 06/01\ A3020 RMK AO2 SLP227 T00610006= 201712030751 METAR KLGA 030751Z 06004KT 10SM FEW040 SCT120 BKN250 06/01\ A3020 RMK AO2 SLP226 T00610011= 201712030851 METAR KLGA 030851Z 03004KT 10SM OVC039 07/03 A3021 RMK AO2\ SLP228 T00670028 55004= 201712030951 METAR KLGA 030951Z 07003KT 10SM OVC039 06/03 A3020 RMK AO2\ SLP226 T00610028= 201712031051 METAR KLGA 031051Z 06004KT 10SM OVC038 07/03 A3021 RMK AO2\ SLP230 T00670033= 201712031151 METAR KLGA 031151Z 07006KT 10SM FEW018 BKN040 OVC130 07/02\ A3021 RMK AO2 SLP228 T00670022 10067\ 20056 52001= 201712031251 METAR KLGA 031251Z 06006KT 10SM FEW020 BKN039 OVC130 07/02\ A3021 RMK AO2 SLP228 T00720022= 201712031351 METAR KLGA 031351Z 04004KT 10SM FEW018 BKN039 OVC130 07/03\ A3023 RMK AO2 SLP236 T00720028= 201712031451 METAR KLGA 031451Z 05007KT 10SM FEW018 BKN043 BKN130 BKN200\ 08/03 A3023 RMK AO2 SLP236 T00780033\ 52007= 201712031551 METAR KLGA 031551Z 04007KT 10SM FEW018 BKN044 BKN110 BKN200\ 08/03 A3021 RMK AO2 SLP231 T00780033= 201712031651 METAR KLGA 031651Z 05006KT 10SM FEW024 BKN044 OVC130 08/02\ A3020 RMK AO2 SLP225 T00830022= 201712031751 METAR KLGA 031751Z 05005KT 10SM FEW022 BKN036 OVC100 08/03\ A3018 RMK AO2 SLP218 T00830028 10089\ 20067 58018= 201712031851 METAR KLGA 031851Z 05004KT 10SM FEW020 BKN028 OVC034 09/03\ A3017 RMK AO2 SLP217 T00890028= 201712031951 METAR KLGA 031951Z 05007KT 10SM -RA BKN025 OVC032 09/03 A3019\ RMK AO2 RAB42 SLP222 P0000 T00890033= 201712032051 METAR KLGA 032051Z 06008KT 10SM OVC027 08/04 A3019 RMK AO2\ RAE19 SLP224 P0000 60000 T00830044\ 53006= 201712032151 METAR KLGA 032151Z 05008KT 10SM BKN025 OVC031 08/04 A3021\ RMK AO2 RAB38E48 SLP228 P0000 T00830044= 201712032251 METAR KLGA 032251Z 05007KT 10SM OVC026 09/04 A3023 RMK AO2\ SLP235 T00890044= 201712032351 METAR KLGA 032351Z 04005KT 10SM BKN029 BKN040 08/04 A3024\ RMK AO2 SLP238 60000 T00830044 10089\ 20083 51014= 201712040051 METAR KLGA 040051Z 04005KT 10SM FEW030 OVC045 08/04 A3024\ RMK AO2 SLP241 T00830044= 201712040151 METAR KLGA 040151Z 05005KT 10SM BKN045 08/04 A3026 RMK AO2\ SLP247 T00830039= 201712040251 METAR KLGA 040251Z 04004KT 10SM FEW039 08/04 A3027 RMK AO2\ SLP250 T00780039 53012= 201712040351 METAR KLGA 040351Z 07003KT 10SM FEW039 SCT250 07/04 A3028\ RMK AO2 SLP254 T00670039= 201712040451 METAR KLGA 040451Z 00000KT 10SM FEW030 FEW250 07/04 A3030\ RMK AO2 SLP258 T00720039 400890056= 201712040551 METAR KLGA 040551Z 00000KT 10SM FEW020 07/03 A3030 RMK AO2\ SLP260 T00670033 10089 20067 51009= 201712040651 METAR KLGA 040651Z 05003KT 10SM FEW020 06/03 A3031 RMK AO2\ SLP262 T00610033= 201712040751 METAR KLGA 040751Z 02004KT 10SM CLR 06/03 A3033 RMK AO2 SLP269\ T00610033= 201712040851 METAR KLGA 040851Z 00000KT 10SM CLR 05/03 A3034 RMK AO2 SLP275\ T00500028 53015= 201712040951 METAR KLGA 040951Z 04003KT 10SM CLR 06/03 A3035 RMK AO2 SLP275\ T00560028= 201712041051 METAR KLGA 041051Z 05004KT 10SM FEW005 FEW250 05/03 A3036\ RMK AO2 SLP281 T00500028= 201712041151 METAR KLGA 041151Z 06003KT 10SM SCT250 05/02 A3039 RMK AO2\ SLP291 T00500022 10067 20044 53016= 201712041251 METAR KLGA 041251Z 05005KT 10SM FEW006 BKN250 06/03 A3041\ RMK AO2 SLP298 T00560028= 201712041351 METAR KLGA 041351Z 04004KT 10SM FEW007 BKN250 07/04 A3043\ RMK AO2 SLP305 T00670039= 201712041451 METAR KLGA 041451Z 06006KT 10SM FEW010 FEW250 08/04 A3045\ RMK AO2 SLP311 T00780044 51020= 201712041551 METAR KLGA 041551Z 06008KT 10SM FEW012 FEW250 08/04 A3045\ RMK AO2 SLP309 T00830044= 201712041651 METAR KLGA 041651Z 04007KT 10SM FEW014 SCT250 09/04 A3044\ RMK AO2 SLP307 T00890044= 201712041751 METAR KLGA 041751Z 05008KT 10SM FEW019 09/04 A3042 RMK AO2\ SLP301 T00940044 10094 20050 58010= 201712041851 METAR KLGA 041851Z 06009KT 10SM FEW025 SCT250 09/04 A3040\ RMK AO2 SLP295 T00940044= 201712041951 METAR KLGA 041951Z 05008KT 10SM FEW025 BKN250 09/04 A3041\ RMK AO2 SLP296 T00940044= 201712042051 METAR KLGA 042051Z 14008KT 10SM BKN030 BKN250 10/03 A3042\ RMK AO2 SLP300 T01000028 55001= 201712042151 METAR KLGA 042151Z 14008KT 10SM SCT030 BKN250 09/04 A3041\ RMK AO2 SLP296 T00940039= 201712042251 METAR KLGA 042251Z 13010KT 10SM BKN031 BKN250 09/04 A3040\ RMK AO2 SLP293 T00940039= 201712042351 METAR KLGA 042351Z 12007KT 10SM BKN035 BKN250 10/04 A3041\ RMK AO2 SLP297 T01000039 10111 20089\ 55004= 201712050051 METAR KLGA 050051Z 13008KT 10SM OVC039 10/04 A3041 RMK AO2\ SLP297 T01000039= 201712050151 METAR KLGA 050151Z 15008G15KT 10SM BKN035 10/04 A3041 RMK\ AO2 SLP297 T01000039= 201712050251 METAR KLGA 050251Z 16009KT 10SM BKN035 10/04 A3041 RMK AO2\ SLP297 T01000039 52000= 201712050351 METAR KLGA 050351Z 16011KT 10SM FEW040 BKN160 OVC250 10/04\ A3041 RMK AO2 SLP296 T01000044= 201712050451 METAR KLGA 050451Z 16008KT 10SM FEW029 SCT036 BKN160 OVC250\ 10/04 A3039 RMK AO2 SLP289 T01000039\ 401110044= 201712050551 METAR KLGA 050551Z 16010KT 10SM FEW035 BKN140 10/04 A3036\ RMK AO2 SLP281 T01000039 10111 20100\ 58016= 201712050651 METAR KLGA 050651Z 16010KT 10SM FEW040 FEW120 BKN140 11/04\ A3036 RMK AO2 SLP279 T01060044= 201712050751 METAR KLGA 050751Z 17010KT 10SM FEW040 BKN120 11/05 A3034\ RMK AO2 SLP272 T01060050= 201712050851 METAR KLGA 050851Z 17008KT 10SM FEW039 BKN250 11/06 A3032\ RMK AO2 SLP266 T01060056 58016= 201712050951 METAR KLGA 050951Z 16010KT 10SM FEW035 BKN210 BKN250 11/06\ A3029 RMK AO2 SLP257 T01110056= 201712051051 METAR KLGA 051051Z 16012G18KT 10SM SCT028 BKN210 OVC250 11/07\ A3027 RMK AO2 SLP250 T01110067= 201712051151 METAR KLGA 051151Z 16012G19KT 10SM OVC026 12/07 A3026 RMK\ AO2 SLP248 T01170072 10122 20100\ 56018= 201712051251 METAR KLGA 051251Z 16013G19KT 10SM -RA BKN022 BKN044 OVC050\ 12/08 A3025 RMK AO2 RAB49 SLP244\ P0000 T01220083= 201712051351 METAR KLGA 051351Z 16015G23KT 10SM FEW014 BKN023 OVC040 12/09\ A3023 RMK AO2 RAE50 SLP235 P0000\ T01220089= 201712051451 METAR KLGA 051451Z 16012G21KT 10SM BKN014 BKN023 OVC040 13/09\ A3020 RMK AO2 SLP225 60000 T01280094\ 58022= 201712051551 METAR KLGA 051551Z 16017G25KT 10SM FEW014 BKN025 BKN060 OVC150\ 14/11 A3015 RMK AO2 RAB07E25 SLP208\ P0000 T01390106= 201712051651 METAR KLGA 051651Z 18012G27KT 10SM FEW012 OVC016 15/11 A3013\ RMK AO2 PK WND 17029/1603 SLP201\ T01500111= 201712051751 METAR KLGA 051751Z 17015G23KT 10SM FEW012 SCT023 BKN075 OVC170\ 14/12 A3007 RMK AO2 SLP182 60000\ T01440117 10150 20117 58044= 201712051851 METAR KLGA 051851Z 17018G27KT 10SM FEW023 SCT039 BKN065 OVC250\ 16/12 A3003 RMK AO2 PK WND 17027/1835\ SLP167 T01560117= 201712051951 METAR KLGA 051951Z 17011G18KT 10SM FEW039 OVC065 15/12 A3001\ RMK AO2 PK WND 18026/1854 SLP162\ T01500122= 201712052051 METAR KLGA 052051Z 17011KT 10SM FEW036 SCT046 OVC070 15/12\ A2999 RMK AO2 RAB13E44 SLP155 P0000\ 60000 T01500122 56027= 201712052151 METAR KLGA 052151Z 17016G20KT 10SM OVC065 14/12 A2997 RMK\ AO2 SLP150 T01440122= 201712052251 METAR KLGA 052251Z 17009KT 10SM OVC007 14/13 A2995 RMK AO2\ SLP141 T01440128= 201712052351 METAR KLGA 052351Z 18010KT 9SM OVC003 14/13 A2992 RMK AO2\ RAB29E39 SLP131 P0000 60000 T01390128\ 10156 20139 58024= 201712060051 METAR KLGA 060051Z 23007KT 2SM RA BR OVC006 14/13 A2991 RMK\ AO2 SFC VIS 4 RAB04E37B45 SLP128\ P0000 T01440133= 201712060151 METAR KLGA 060151Z 19007KT 2SM RA BR FEW006 BKN014 OVC022\ 14/13 A2988 RMK AO2 SFC VIS 2 1/2\ SLP119 P0027 T01440133= 201712060251 METAR KLGA 060251Z 23014G20KT 5SM -RA BR FEW008 BKN018 OVC044\ 14/13 A2986 RMK AO2 SLP113 P0030\ 60057 T01440133 58018= 201712060351 METAR KLGA 060351Z 21011KT 7SM -RA SCT018 SCT055 OVC070 15/13\ A2984 RMK AO2 SLP104 P0009 T01500133= 201712060451 METAR KLGA 060451Z 21008KT 10SM SCT013 SCT046 OVC110 15/13\ A2980 RMK AO2 RAE32 SLP090 P0003\ T01500133 401560100= 201712060551 METAR KLGA 060551Z 23009KT 10SM OVC014 14/13 A2980 RMK AO2\ SLP091 60069 T01440128 10150 20139\ 55013= 201712060651 METAR KLGA 060651Z 22009KT 10SM FEW014 BKN065 BKN100 OVC130\ 14/13 A2980 RMK AO2 SLP090 T01440128= 201712060751 METAR KLGA 060751Z 24009KT 10SM SCT018 SCT022 OVC065 14/13\ A2980 RMK AO2 SLP092 T01440128= 201712060851 METAR KLGA 060851Z 29019G28KT 10SM FEW028 OVC035 11/06 A2985\ RMK AO2 PK WND 29035/0825 RAB33E48\ SLP108 P0000 60000 T01060056 53017= 201712060951 METAR KLGA 060951Z 29016G21KT 10SM FEW034 OVC044 11/02 A2986\ RMK AO2 PK WND 29031/0855 SLP112\ T01060022= 201712061051 METAR KLGA 061051Z 27016G20KT 10SM BKN060 BKN085 11/M01 A2990\ RMK AO2 PK WND 28026/1033 SLP124\ T01061011= 201712061151 METAR KLGA 061151Z 25013KT 10SM OVC075 09/M05 A2993 RMK AO2\ SLP133 60000 70069 T00941050 10150\ 20094 53025= 201712061251 METAR KLGA 061251Z 28012G24KT 10SM BKN085 08/M05 A2996 RMK\ AO2 SLP145 T00831050= 201712061351 METAR KLGA 061351Z 29015KT 10SM FEW080 BKN200 OVC250 07/M07\ A2998 RMK AO2 SLP153 T00671067= 201712061451 METAR KLGA 061451Z 28016G23KT 10SM FEW085 BKN210 06/M07 A3000\ RMK AO2 SLP160 T00561067 51027= 201712061551 METAR KLGA 061551Z 28011G21KT 10SM BKN240 06/M08 A3000 RMK\ AO2 SLP160 T00561078= 201712061651 METAR KLGA 061651Z 27011KT 10SM BKN240 05/M09 A2999 RMK AO2\ SLP155 T00501089= 201712061751 METAR KLGA 061751Z 27012KT 10SM SCT250 06/M08 A2996 RMK AO2\ SLP146 T00561083 10094 20050 58014= 201712061851 METAR KLGA 061851Z 29011KT 10SM BKN250 06/M09 A2994 RMK AO2\ SLP138 T00611089= 201712061951 METAR KLGA 061951Z 24010KT 10SM BKN250 07/M09 A2996 RMK AO2\ SLP145 T00671089= 201712062051 METAR KLGA 062051Z 26011KT 10SM BKN250 07/M09 A2996 RMK AO2\ SLP145 T00721094 55001= 201712062151 METAR KLGA 062151Z 27014KT 10SM FEW150 BKN250 07/M09 A2998\ RMK AO2 SLP152 T00671089= 201712062251 METAR KLGA 062251Z 26012KT 10SM FEW150 BKN250 07/M08 A2999\ RMK AO2 SLP155 T00671083= 201712062351 METAR KLGA 062351Z 27011KT 10SM FEW150 BKN250 06/M08 A3000\ RMK AO2 SLP159 T00611078 10072 20056\ 51014= 201712070051 METAR KLGA 070051Z 23010KT 10SM FEW150 BKN250 06/M08 A3000\ RMK AO2 SLP160 T00611078= 201712070151 METAR KLGA 070151Z 24011KT 10SM BKN250 06/M08 A3001 RMK AO2\ SLP162 T00561083= 201712070251 METAR KLGA 070251Z 26008KT 10SM BKN250 06/M08 A3001 RMK AO2\ SLP162 T00561078 51003= 201712070351 METAR KLGA 070351Z 23007G17KT 10SM BKN250 06/M07 A3000 RMK\ AO2 SLP159 T00561072= 201712070451 METAR KLGA 070451Z 24012G19KT 10SM SCT070 BKN250 06/M07 A2999\ RMK AO2 SLP155 T00561072 401500050= 201712070551 METAR KLGA 070551Z 23013KT 10SM BKN070 BKN250 06/M07 A2999\ RMK AO2 SLP154 T00561067 10067 20056\ 56007= 201712070651 METAR KLGA 070651Z 25013KT 10SM FEW070 BKN250 06/M06 A2999\ RMK AO2 SLP154 T00611061= 201712070751 METAR KLGA 070751Z 24011KT 10SM FEW070 BKN250 06/M06 A2999\ RMK AO2 SLP153 T00561061= 201712070851 METAR KLGA 070851Z 25012G17KT 10SM SCT250 06/M06 A2998 RMK\ AO2 SLP151 T00561061 58003= 201712070951 METAR KLGA 070951Z 26016G23KT 10SM SCT250 05/M06 A2998 RMK\ AO2 SLP151 T00501061= 201712071051 METAR KLGA 071051Z 26014KT 10SM FEW250 04/M06 A2999 RMK AO2\ SLP155 T00441061= 201712071151 METAR KLGA 071151Z 26013G22KT 10SM FEW070 FEW250 04/M06 A3000\ RMK AO2 SLP159 T00441056 10061 20044\ 53008= 201712071251 METAR KLGA 071251Z 26013KT 10SM FEW250 04/M06 A3002 RMK AO2\ SLP164 T00441056= 201712071351 METAR KLGA 071351Z 26014G20KT 10SM CLR 05/M06 A3002 RMK AO2\ SLP165 T00501061= 201712071451 METAR KLGA 071451Z 26015KT 10SM FEW120 FEW250 06/M08 A3003\ RMK AO2 SLP169 T00561083 51010= 201712071551 METAR KLGA 071551Z 27015G23KT 10SM FEW250 07/M08 A3002 RMK\ AO2 SLP166 T00671083= 201712071651 METAR KLGA 071651Z 26022G29KT 10SM FEW250 07/M08 A2999 RMK\ AO2 PK WND 26029/1651 SLP154 T00721078= 201712071751 METAR KLGA 071751Z 27015G28KT 10SM FEW060 FEW250 07/M08 A2996\ RMK AO2 PK WND 25028/1744 SLP146\ T00721078 10078 20044 58024= 201712071851 METAR KLGA 071851Z 27019G29KT 10SM FEW060 FEW250 07/M08 A2995\ RMK AO2 PK WND 26029/1845 SLP143\ T00721083= 201712071951 METAR KLGA 071951Z 27017G24KT 10SM FEW060 FEW250 07/M08 A2995\ RMK AO2 SLP143 T00721078= 201712072051 METAR KLGA 072051Z 26013KT 10SM FEW060 SCT250 07/M09 A2996\ RMK AO2 SLP146 T00721089 53000= 201712072151 METAR KLGA 072151Z 24008KT 10SM FEW060 SCT250 07/M09 A2997\ RMK AO2 SLP147 T00721089= 201712072251 METAR KLGA 072251Z 23014G21KT 10SM FEW060 SCT250 06/M07 A2997\ RMK AO2 SLP149 T00611072= 201712072351 METAR KLGA 072351Z 24010KT 10SM FEW055 FEW085 SCT250 06/M07\ A3000 RMK AO2 SLP157 T00611067 10078\ 20061 53012= 201712080051 METAR KLGA 080051Z 24011KT 10SM SCT080 SCT100 SCT250 06/M07\ A3000 RMK AO2 SLP159 T00611067= 201712080151 METAR KLGA 080151Z 25012G20KT 10SM BKN065 BKN090 07/M06 A3001\ RMK AO2 SLP161 T00671061= 201712080251 METAR KLGA 080251Z 26010KT 10SM SCT075 BKN095 06/M06 A3002\ RMK AO2 SLP163 T00611056 53006= 201712080351 METAR KLGA 080351Z 26012G20KT 10SM SCT050 SCT090 BKN250 06/M04\ A3003 RMK AO2 SLP170 T00561039= 201712080451 METAR KLGA 080451Z 26011KT 10SM SCT045 SCT070 BKN250 05/M04\ A3003 RMK AO2 SLP170 T00501044 400780044= 201712080551 METAR KLGA 080551Z 27008KT 10SM FEW055 BKN250 04/M04 A3002\ RMK AO2 SLP165 T00441044 10067 20044\ 5002= 201712080651 METAR KLGA 080651Z 26010KT 10SM SCT250 04/M04 A3004 RMK AO2\ SLP171 T00441044= 201712080751 METAR KLGA 080751Z 28011KT 10SM FEW040 BKN250 04/M06 A3005\ RMK AO2 SLP175 T00391056= 201712080851 METAR KLGA 080851Z 30011KT 10SM FEW050 BKN250 03/M07 A3005\ RMK AO2 SLP174 T00331067 50009= 201712080951 METAR KLGA 080951Z 29011KT 10SM BKN180 BKN250 03/M08 A3007\ RMK AO2 SLP182 T00281078= 201712081051 METAR KLGA 081051Z 28006KT 10SM BKN180 BKN250 03/M08 A3007\ RMK AO2 SLP181 T00281078= 201712081151 METAR KLGA 081151Z 30009KT 10SM BKN220 BKN270 02/M07 A3007\ RMK AO2 SLP180 T00221072 10044 20022\ 50006= 201712081251 METAR KLGA 081251Z 31007KT 10SM BKN150 BKN220 OVC270 02/M07\ A3008 RMK AO2 SLP186 T00221072= 201712081351 METAR KLGA 081351Z 30009KT 10SM SCT150 BKN210 OVC250 02/M08\ A3010 RMK AO2 SLP191 T00221083= 201712081451 METAR KLGA 081451Z 30008KT 10SM SCT110 BKN140 OVC220 02/M08\ A3011 RMK AO2 SLP194 T00221083 51014= 201712081551 METAR KLGA 081551Z 32005KT 10SM FEW110 BKN130 OVC220 03/M09\ A3008 RMK AO2 SLP187 T00281089= 201712081651 METAR KLGA 081651Z 32005KT 10SM FEW100 BKN130 OVC240 03/M08\ A3006 RMK AO2 SLP180 T00331083= 201712081751 METAR KLGA 081751Z 28006KT 10SM FEW110 BKN160 OVC250 04/M09\ A3005 RMK AO2 SLP176 T00391089 10039\ 20022 56019= 201712081851 METAR KLGA 081851Z 30005KT 10SM FEW100 BKN130 OVC220 04/M09\ A3004 RMK AO2 SLP171 T00391094= 201712081951 METAR KLGA 081951Z 24008KT 10SM FEW110 BKN130 OVC220 04/M09\ A3002 RMK AO2 SLP166 T00391094= 201712082051 METAR KLGA 082051Z 21007KT 10SM FEW110 BKN130 OVC200 04/M09\ A3004 RMK AO2 SLP171 T00391094 55005= 201712082151 METAR KLGA 082151Z 22010KT 10SM BKN120 OVC200 04/M09 A3003\ RMK AO2 SLP169 T00391094= 201712082251 METAR KLGA 082251Z 24008KT 10SM BKN120 OVC180 03/M09 A3003\ RMK AO2 SLP168 T00331089= 201712082351 METAR KLGA 082351Z 25006KT 10SM OVC110 03/M09 A3002 RMK AO2\ SLP165 T00331089 10039 20033 58005= 201712090051 METAR KLGA 090051Z 27006KT 10SM OVC120 03/M08 A3001 RMK AO2\ SLP161 T00331083= 201712090151 METAR KLGA 090151Z 30010KT 10SM OVC120 03/M08 A2998 RMK AO2\ SLP152 T00281083= 201712090251 METAR KLGA 090251Z 29008KT 10SM OVC110 03/M08 A2999 RMK AO2\ SLP153 T00281078 55012= 201712090351 METAR KLGA 090351Z 29007KT 10SM OVC120 03/M08 A2999 RMK AO2\ SLP156 T00281083= 201712090451 METAR KLGA 090451Z 31005KT 10SM BKN110 OVC130 03/M08 A2995\ RMK AO2 SLP142 T00281083 400500022= 201712090551 METAR KLGA 090551Z 30007KT 10SM OVC095 03/M09 A2997 RMK AO2\ SLP148 T00281089 10033 20028 55005= 201712090651 METAR KLGA 090651Z 31004KT 10SM OVC100 03/M08 A2997 RMK AO2\ SLP147 T00281083= 201712090751 METAR KLGA 090751Z 32005KT 10SM OVC100 03/M08 A2996 RMK AO2\ SLP146 T00281083= 201712090851 METAR KLGA 090851Z 33005KT 10SM OVC090 03/M08 A2997 RMK AO2\ SLP147 T00281083 55001= 201712090951 METAR KLGA 090951Z 34003KT 10SM OVC100 03/M09 A2995 RMK AO2\ SLP141 T00281094= 201712091051 METAR KLGA 091051Z 02005KT 10SM OVC080 03/M09 A2993 RMK AO2\ SLP136 T00281089= 201712091151 METAR KLGA 091151Z 02007KT 10SM OVC075 02/M09 A2996 RMK AO2\ SLP143 T00221089 10028 20022 55003= 201712091251 METAR KLGA 091251Z 02007KT 10SM BKN060 OVC075 02/M08 A2995\ RMK AO2 SLP140 T00221078= 201712091351 METAR KLGA 091351Z 02008KT 10SM -SN OVC060 02/M07 A2993 RMK\ AO2 SNB50 SLP134 P0000 T00221072= 201712091451 METAR KLGA 091451Z 02006KT 1 1/2SM R04/5500VP6000FT -SN OVC027\ 01/M05 A2994 RMK AO2 SFC VIS 3 SNE03B42\ SLP138 P0000 60000 T00111050 55005= 201712091551 METAR KLGA 091551Z 02007KT 1 1/2SM R04/5500VP6000FT -SN BR\ OVC018 M01/M03 A2992 RMK AO2 PRESFR\ SLP132 P0002 T10061028= 201712091651 METAR KLGA 091651Z 02005KT 3/4SM R04/3000V3500FT -SN BR BKN006\ OVC012 00/M02 A2987 RMK AO2 SLP115\ SNINCR 1/1 P0004 T00001017= 201712091751 METAR KLGA 091751Z 01005KT 1SM R04/3500V4500FT -SN BR SCT006\ OVC011 00/M02 A2983 RMK AO2 CIG 004\ R22 SW SLP101 931014 4/001 P0005\ 60011 T00001017 10022 21006 58038= 201712091851 METAR KLGA 091851Z 36007KT 1/2SM R04/3500V5000FT -SN BR BKN005\ OVC009 00/M01 A2979 RMK AO2 SFC VIS\ 3/4 SLP086 SNINCR 1/2 P0006 T00001011\ $= 201712091951 METAR KLGA 091951Z 36008KT 1/2SM R04/P6000FT -SN BR SCT008\ OVC022 01/M01 A2977 RMK AO2 SFC VIS\ 1 3/4 CIG 011 R22 SW SLP079 P0003\ T00061011 $= 201712092051 METAR KLGA 092051Z 36010KT 1/2SM R04/4000V5000FT -SN BR BKN006\ OVC011 00/M01 A2973 RMK AO2 SFC VIS\ 1 PRESFR SLP069 SNINCR 1/3 P0006\ 60015 T00001011 56032 $= 201712092151 METAR KLGA 092151Z 36011KT 3/4SM R04/P6000FT -SN BR SCT007\ BKN015 OVC023 00/M01 A2974 RMK AO2\ SFC VIS 3 SLP069 P0002 T00001011\ $= 201712092251 METAR KLGA 092251Z 36010KT 2SM -SN BR SCT009 BKN014 OVC020\ 01/M01 A2972 RMK AO2 SFC VIS 3 SLP062\ SNINCR 1/4 P0002 T00061011 $= 201712092351 METAR KLGA 092351Z 34009KT 2SM -SN BR SCT011 OVC019 01/M01\ A2972 RMK AO2 SFC VIS 4 SLP064 931030\ 4/004 P0001 60020 T00061011 10006\ 20000 55004 $= 201712100051 METAR KLGA 100051Z 32008KT 5SM -SN BR FEW007 BKN011 OVC022\ 01/M01 A2972 RMK AO2 SLP065 P0001\ T00061006 $= 201712100151 METAR KLGA 100151Z 35007KT 4SM -SN BR BKN009 OVC014 01/M01\ A2972 RMK AO2 SLP062 P0002 T00061011\ $= 201712100250 METAR KLGA 100250Z 33010KT 2 1/2SM -SN BR BKN010 BKN017 OVC022\ 01/M01 A2973 RMK AO2 SLP066 P0000\ 60003 T00061011 53002 $= 201712100351 METAR KLGA 100351Z 34009KT 6SM BR SCT010 BKN044 OVC060 01/M01\ A2972 RMK AO2 SNE45 SLP065 P0000\ T00061011 $= 201712100451 METAR KLGA 100451Z 32011KT 10SM FEW010 SCT029 OVC075 01/M02\ A2972 RMK AO2 SLP064 T00061017 400281006\ $= 201712100551 METAR KLGA 100551Z 31006KT 10SM FEW030 BKN090 OVC120 01/M02\ A2972 RMK AO2 SLP063 931002 4/004\ 60003 T00061017 10006 20006 56003\ $= 201712100651 METAR KLGA 100651Z 30009KT 10SM FEW015 BKN060 BKN080 OVC130\ 01/M02 A2973 RMK AO2 SLP065 T00061017\ $= 201712100751 METAR KLGA 100751Z 28010KT 10SM BKN049 BKN090 01/M02 A2975\ RMK AO2 SLP073 T00111022 $= 201712100851 METAR KLGA 100851Z 29013KT 10SM FEW049 SCT100 01/M04 A2975\ RMK AO2 SLP074 T00061039 51011 $= 201712100951 METAR KLGA 100951Z 29012KT 10SM FEW050 SCT100 01/M04 A2977\ RMK AO2 SLP081 T00061044 $= 201712101051 METAR KLGA 101051Z 30014G20KT 10SM FEW100 BKN150 00/M06 A2981\ RMK AO2 SLP093 T00001056 $= 201712101151 METAR KLGA 101151Z 30013G20KT 10SM FEW024 BKN090 BKN160 00/M06\ A2985 RMK AO2 SLP108 4/004 70034\ T00001061 10011 20000 53034 $= 201712101251 METAR KLGA 101251Z 28010KT 10SM FEW024 SCT090 BKN160 00/M06\ A2988 RMK AO2 SLP119 ACSL SE-S AND\ NW-N T00001061 $= 201712101351 METAR KLGA 101351Z 25012KT 10SM FEW031 FEW090 FEW160 01/M07\ A2990 RMK AO2 SLP126 T00061072 $= 201712101451 METAR KLGA 101451Z 26012G22KT 10SM FEW090 FEW160 01/M06 A2992\ RMK AO2 SLP132 T00111061 51023 $= 201712101551 METAR KLGA 101551Z 26010G17KT 10SM CLR 03/M05 A2991 RMK AO2\ SLP129 T00281050 $= 201712101651 METAR KLGA 101651Z 26013KT 10SM FEW033 03/M04 A2991 RMK AO2\ SLP129 T00331044 $= 201712101751 METAR KLGA 101751Z 26010KT 10SM FEW038 04/M05 A2991 RMK AO2\ SLP127 4/003 933002 T00391050 10039\ 20000 56004 $= 201712101851 METAR KLGA 101851Z 27012KT 10SM FEW039 04/M04 A2991 RMK AO2\ SLP127 T00441044 $= 201712101951 METAR KLGA 101951Z 26016G20KT 10SM BKN050 04/M06 A2992 RMK\ AO2 SLP132 T00441056 $= 201712102051 METAR KLGA 102051Z 25013G20KT 10SM BKN055 04/M06 A2995 RMK\ AO2 SLP140 T00391056 53012 $= 201712102151 METAR KLGA 102151Z 26008G27KT 10SM BKN055 04/M06 A2996 RMK\ AO2 PK WND 29027/2146 SLP145 T00391056\ $= 201712102251 METAR KLGA 102251Z 26014G24KT 10SM FEW040 SCT060 03/M06 A2998\ RMK AO2 SLP153 T00331061 $= 201712102351 METAR KLGA 102351Z 23011KT 10SM SCT055 03/M07 A2999 RMK AO2\ SLP155 4/002 T00331067 10044 20033\ 51015 $= 201712110051 METAR KLGA 110051Z 22011KT 10SM SCT046 BKN150 03/M06 A3000\ RMK AO2 SLP159 T00281056 $= 201712110151 METAR KLGA 110151Z 24011G19KT 10SM FEW046 BKN150 03/M06 A3001\ RMK AO2 SLP160 T00281056 $= 201712110251 METAR KLGA 110251Z 24012KT 10SM FEW050 OVC150 03/M07 A3001\ RMK AO2 SLP161 T00281067 51007 $= 201712110351 METAR KLGA 110351Z 24009KT 10SM FEW050 SCT090 OVC110 03/M07\ A3001 RMK AO2 SLP163 T00281067 $= 201712110451 METAR KLGA 110451Z 23010KT 10SM OVC110 03/M06 A3001 RMK AO2\ SLP163 T00281061 400440000 $= 201712110551 METAR KLGA 110551Z 24011G16KT 10SM BKN090 OVC110 03/M06 A3000\ RMK AO2 SLP159 4/002 T00281061 10033\ 20028 58002 $= 201712110651 METAR KLGA 110651Z 24012KT 10SM OVC100 03/M06 A2999 RMK AO2\ SLP156 T00281061 $= 201712110751 METAR KLGA 110751Z 23009KT 10SM OVC095 03/M06 A2998 RMK AO2\ SLP152 T00281061 $= 201712110851 METAR KLGA 110851Z 25009KT 10SM OVC095 03/M06 A2999 RMK AO2\ SLP154 T00281061 55005 $= 201712110951 METAR KLGA 110951Z 25010KT 10SM FEW038 BKN060 OVC070 02/M06\ A3000 RMK AO2 SLP157 T00221056 $= 201712111051 METAR KLGA 111051Z 24009KT 10SM BKN055 OVC070 02/M05 A3001\ RMK AO2 SLP161 T00171050 $= 201712111151 METAR KLGA 111151Z 22008KT 10SM FEW019 BKN070 BKN140 02/M04\ A3001 RMK AO2 SLP163 4/001 T00171044\ 10028 20017 51009 $= 201712111251 METAR KLGA 111251Z 23010KT 10SM FEW025 BKN070 BKN170 02/M04\ A3002 RMK AO2 SLP166 T00171039 $= 201712111351 METAR KLGA 111351Z 23011G17KT 10SM FEW022 FEW070 02/M03 A3003\ RMK AO2 SLP170 T00221033 $= 201712111451 METAR KLGA 111451Z 27013KT 10SM FEW014 FEW070 03/M05 A3003\ RMK AO2 SLP169 T00331050 50006 $= 201712111551 METAR KLGA 111551Z 27009KT 10SM FEW032 04/M05 A3004 RMK AO2\ SLP171 T00391050 $= 201712111651 METAR KLGA 111651Z 30009KT 10SM FEW038 04/M05 A3001 RMK AO2\ SLP163 T00441050 $= 201712111751 METAR KLGA 111751Z 28007KT 10SM FEW040 SCT250 05/M06 A2999\ RMK AO2 SLP156 T00501061 10050 20017\ 58013 $= 201712111851 METAR KLGA 111851Z 29006G14KT 10SM FEW048 SCT250 06/M06 A2998\ RMK AO2 SLP153 T00561061 $= 201712111951 METAR KLGA 111951Z 28009KT 10SM FEW050 SCT250 06/M07 A2999\ RMK AO2 SLP156 T00561072 $= 201712112051 METAR KLGA 112051Z 29008KT 10SM FEW050 OVC250 05/M06 A2999\ RMK AO2 SLP155 T00501061 56001 $= 201712112151 METAR KLGA 112151Z 28005KT 10SM FEW050 BKN250 05/M07 A3000\ RMK AO2 SLP157 T00501067 $= 201712112251 METAR KLGA 112251Z 22006KT 10SM FEW050 BKN250 04/M07 A3001\ RMK AO2 SLP161 T00441067 $= 201712112351 METAR KLGA 112351Z 22005KT 10SM SCT150 SCT250 04/M06 A3001\ RMK AO2 SLP160 T00441061 10061 20044\ 50005 $= 201712120051 METAR KLGA 120051Z 23006KT 10SM BKN110 04/M06 A3002 RMK AO2\ SLP164 T00391056 $= 201712120151 METAR KLGA 120151Z 21004KT 10SM BKN095 04/M06 A2999 RMK AO2\ SLP154 T00441061 $= 201712120251 METAR KLGA 120251Z 20006KT 10SM BKN080 04/M06 A2998 RMK AO2\ SLP153 T00441061 58008 $= 201712120351 METAR KLGA 120351Z 17004KT 10SM OVC085 04/M06 A2996 RMK AO2\ SLP145 T00441056 $= 201712120451 METAR KLGA 120451Z 18006KT 10SM BKN080 BKN100 OVC110 04/M05\ A2994 RMK AO2 SLP139 T00441050 400610017\ $= 201712120551 METAR KLGA 120551Z 16008KT 10SM SCT080 OVC090 05/M03 A2991\ RMK AO2 SLP127 T00501033 10050 20039\ 58026 $= 201712120651 METAR KLGA 120651Z 10006KT 10SM SCT035 SCT080 OVC140 04/M03\ A2987 RMK AO2 SLP116 T00391028 $= 201712120751 METAR KLGA 120751Z 10007KT 10SM SCT034 BKN075 OVC130 04/M02\ A2983 RMK AO2 SLP102 T00391017 $= 201712120851 METAR KLGA 120851Z 17007KT 10SM SCT034 OVC085 07/01 A2979\ RMK AO2 SLP088 T00670006 58039 $= 201712120951 METAR KLGA 120951Z 18009G14KT 10SM SCT033 BKN042 OVC075 07/02\ A2976 RMK AO2 SLP076 T00720022 $= 201712121051 METAR KLGA 121051Z 17012KT 10SM SCT031 BKN040 OVC049 08/03\ A2972 RMK AO2 SLP062 T00830028 $= 201712121151 METAR KLGA 121151Z 16014G19KT 10SM FEW025 BKN080 OVC095 09/03\ A2967 RMK AO2 SLP047 T00890033 10089\ 20039 58041 $= 201712121251 METAR KLGA 121251Z 18011G16KT 10SM FEW025 SCT040 OVC060 09/04\ A2964 RMK AO2 SLP037 T00940044 $= 201712121351 METAR KLGA 121351Z 17010KT 10SM FEW025 OVC080 10/04 A2961\ RMK AO2 SLP025 T01000039 $= 201712121451 METAR KLGA 121451Z 17010G20KT 10SM FEW028 BKN033 OVC065 11/04\ A2957 RMK AO2 SLP013 T01060044 58034\ $= 201712121551 METAR KLGA 121551Z 18012G21KT 10SM BKN026 BKN035 OVC060 11/06\ A2953 RMK AO2 SLP998 T01060056 $= 201712121651 METAR KLGA 121651Z 21016G23KT 10SM SCT024 BKN041 OVC055 11/03\ A2948 RMK AO2 SLP983 T01060033 $= 201712121751 METAR KLGA 121751Z 27011KT 10SM FEW025 BKN038 OVC046 09/02\ A2945 RMK AO2 SLP973 T00890022 10106\ 20089 56040 $= 201712121851 METAR KLGA 121851Z 29011KT 10SM -RA SCT028 BKN038 BKN055\ OVC150 08/02 A2943 RMK AO2 RAB34\ SLP966 P0000 T00830017= 201712121951 METAR KLGA 121951Z 30008KT 10SM FEW026 SCT044 OVC055 07/02\ A2943 RMK AO2 RAE32 SLP965 P0000\ T00720017= 201712122051 METAR KLGA 122051Z 29010KT 10SM FEW025 SCT060 BKN100 OVC150\ 07/01 A2941 RMK AO2 SLP960 60000\ T00720011 56013= 201712122151 METAR KLGA 122151Z 29017G20KT 10SM FEW030 SCT055 BKN100 OVC150\ 07/01 A2942 RMK AO2 SLP961 T00720006= 201712122251 METAR KLGA 122251Z 29016G25KT 10SM FEW027 SCT036 OVC047 06/01\ A2944 RMK AO2 RAB26E48 CIG 034 R22\ SW SLP968 P0000 T00610006= 201712122351 METAR KLGA 122351Z 30015G23KT 10SM FEW110 06/00 A2944 RMK\ AO2 SLP969 60000 T00560000 10089\ 20056 52009= 201712130051 METAR KLGA 130051Z 31022G31KT 9SM -SN FEW019 BKN031 OVC040\ 03/M02 A2947 RMK AO2 PK WND 30038/0029\ RAB30E34SNB34 SLP980 P0000 T00281017= 201712130151 METAR KLGA 130151Z 31021G26KT 10SM FEW060 BKN110 02/M04 A2944\ RMK AO2 PK WND 32033/0108 SNE02 SLP968\ P0000 T00221039= 201712130251 METAR KLGA 130251Z 31020G27KT 10SM FEW060 SCT110 02/M05 A2942\ RMK AO2 PK WND 32032/0159 SLP962\ 60000 T00171050 58007= 201712130351 METAR KLGA 130351Z 30019KT 10SM SCT045 01/M08 A2945 RMK AO2\ PK WND 32030/0318 SLP972 T00111083= 201712130451 METAR KLGA 130451Z 31020G27KT 10SM BKN050 00/M09 A2946 RMK\ AO2 PK WND 32027/0447 SLP977 T00001094\ 401060000= 201712130551 METAR KLGA 130551Z 31018KT 10SM BKN055 M01/M10 A2948 RMK\ AO2 SLP984 931000 60000 T10111100\ 10056 21011 51022= 201712130651 METAR KLGA 130651Z 30025G30KT 10SM SCT050 M03/M14 A2951 RMK\ AO2 PK WND 30033/0632 SLP994 T10281144= 201712130751 METAR KLGA 130751Z 29022G29KT 10SM FEW050 M04/M15 A2952 RMK\ AO2 PK WND 32032/0653 SLP997 T10391150= 201712130851 METAR KLGA 130851Z 29019G30KT 10SM FEW050 M04/M16 A2950 RMK\ AO2 PK WND 29034/0815 SLP990 T10441156\ 50006= 201712130951 METAR KLGA 130951Z 29024G33KT 10SM FEW050 M05/M15 A2950 RMK\ AO2 PK WND 28036/0900 SLP989 T10501150= 201712131051 METAR KLGA 131051Z 26019G31KT 10SM FEW050 M06/M14 A2951 RMK\ AO2 PK WND 28032/1015 SLP991 T10561144= 201712131151 METAR KLGA 131151Z 28022G27KT 10SM FEW045 M06/M14 A2953 RMK\ AO2 PK WND 27031/1116 SLP998 T10561139\ 11011 21056 53008= 201712131251 METAR KLGA 131251Z 28016G27KT 10SM SCT044 M06/M14 A2954 RMK\ AO2 PK WND 28032/1159 SLP003 T10561139= 201712131351 METAR KLGA 131351Z 28016G32KT 10SM SCT047 SCT250 M05/M13\ A2956 RMK AO2 PK WND 29034/1316 SLP009\ T10501133= 201712131451 METAR KLGA 131451Z 27022G33KT 10SM BKN045 BKN250 M04/M13\ A2956 RMK AO2 PK WND 27033/1445 SLP010\ T10391133 51012= 201712131551 METAR KLGA 131551Z 28028G36KT 10SM FEW028 SCT042 BKN250 M03/M12\ A2955 RMK AO2 PK WND 29036/1550 SLP007\ T10331117= 201712131651 METAR KLGA 131651Z 30020G36KT 10SM FEW032 BKN055 BKN250 M02/M13\ A2955 RMK AO2 PK WND 28037/1557 SLP005\ T10221128= 201712131751 METAR KLGA 131751Z 29020G35KT 10SM FEW055 FEW250 M01/M14\ A2954 RMK AO2 PK WND 28035/1747 SLP001\ T10111139 11006 21056 58008= 201712131851 METAR KLGA 131851Z 30030G38KT 10SM FEW055 FEW250 00/M14 A2956\ RMK AO2 PK WND 30041/1841 SLP008\ T00001144= 201712131951 METAR KLGA 131951Z 29021G30KT 10SM FEW055 01/M16 A2957 RMK\ AO2 PK WND 29038/1910 SLP014 T00061156= 201712132051 METAR KLGA 132051Z 30024G34KT 10SM FEW055 00/M14 A2959 RMK\ AO2 PK WND 29035/2007 SLP021 T00001144\ 52019= 201712132151 METAR KLGA 132151Z 25019G26KT 10SM CLR M01/M14 A2963 RMK\ AO2 PK WND 29031/2100 PRESRR SLP032\ T10061144= 201712132251 METAR KLGA 132251Z 26017G24KT 10SM CLR M01/M14 A2965 RMK\ AO2 PK WND 29027/2228 SLP040 T10111139= 201712132351 METAR KLGA 132351Z 27016G26KT 10SM BKN250 M02/M14 A2966 RMK\ AO2 PK WND 28026/2345 SLP045 T10171139\ 10006 21017 51024= 201712140051 METAR KLGA 140051Z 26017G23KT 10SM SCT250 M02/M14 A2968 RMK\ AO2 PK WND 27028/0039 SLP049 T10171139= 201712140151 METAR KLGA 140151Z 26015G21KT 10SM SCT120 OVC250 M02/M14\ A2966 RMK AO2 PK WND 26027/0054 SLP045\ T10221139= 201712140251 METAR KLGA 140251Z 26014KT 10SM SCT120 OVC250 M02/M14 A2968\ RMK AO2 SLP048 T10221144 51004= 201712140351 METAR KLGA 140351Z 27013KT 10SM OVC070 M02/M15 A2967 RMK\ AO2 SLP047 T10221150= 201712140451 METAR KLGA 140451Z 25011KT 10SM OVC048 M02/M12 A2968 RMK\ AO2 SLP052 T10221122 400061056= 201712140551 METAR KLGA 140551Z 20004KT 3SM -SN OVC026 M04/M07 A2965 RMK\ AO2 SFC VIS 3 VIS 2 1/2 R22 SW SNB0456\ PRESFR SLP040 931001 P0000 60000\ T10391072 11017 21039 58008= 201712140651 METAR KLGA 140651Z 14004KT 3/4SM R04/P6000FT -SN OVC014 M04/M07\ A2962 RMK AO2 SFC VIS 1 1/2 SLP030\ P0002 T10391067 $= 201712140751 METAR KLGA 140751Z 10004KT 1/2SM R04/P6000FT -SN BR FEW009\ OVC025 M04/M06 A2960 RMK AO2 SFC\ VIS 2 1/2 SLP022 P0002 T10391061\ $= 201712140851 METAR KLGA 140851Z 07005KT 10SM FEW014 SCT027 OVC070 M04/M06\ A2956 RMK AO2 SNE13 CIG 027 R22 SW\ SLP008 P0000 60004 T10391061 58023\ $= 201712140951 METAR KLGA 140951Z 06006KT 10SM SCT009 OVC017 M03/M05 A2953\ RMK AO2 SLP000 T10281050 $= 201712141051 METAR KLGA 141051Z 02005KT 10SM FEW011 FEW018 OVC070 M03/M05\ A2954 RMK AO2 SLP004 T10281050 $= 201712141151 METAR KLGA 141151Z VRB05KT 2SM -SN BR SCT007 BKN012 OVC020\ M02/M04 A2957 RMK AO2 SNB08 SLP014\ 931008 4/001 P0001 60005 70005 T10221044\ 11022 21044 53015 $= 201712141251 METAR KLGA 141251Z 01007KT 1 1/2SM -SN BR FEW007 FEW010 OVC014\ M03/M04 A2959 RMK AO2 SLP020 P0001\ T10281044 $= 201712141351 METAR KLGA 141351Z 01011KT 9SM BKN016 BKN024 OVC045 M02/M05\ A2964 RMK AO2 SNE48 SLP036 P0001\ T10221050 $= 201712141451 METAR KLGA 141451Z 02010KT 10SM FEW010 BKN014 OVC026 M02/M06\ A2970 RMK AO2 SLP055 60002 T10221056\ 53041 $= 201712141551 METAR KLGA 141551Z 35013G17KT 10SM BKN020 BKN250 M02/M06\ A2972 RMK AO2 SLP065 T10171061 $= 201712141651 METAR KLGA 141651Z 32015KT 10SM SCT023 M01/M07 A2975 RMK\ AO2 SLP072 T10111072 $= 201712141751 METAR KLGA 141751Z 32015KT 10SM FEW035 00/M08 A2976 RMK AO2\ SLP078 931003 4/001 60002 T00001083\ 10000 21028 51023= 201712141851 METAR KLGA 141851Z 31017G25KT 10SM SCT043 01/M08 A2980 RMK\ AO2 SLP090 T00061083= 201712141951 METAR KLGA 141951Z 32017G25KT 10SM SCT046 00/M10 A2986 RMK\ AO2 SLP110 T00001100= 201712142051 METAR KLGA 142051Z 32019G28KT 10SM FEW046 M01/M11 A2989 RMK\ AO2 PK WND 32028/2049 SLP120 T10061106\ 51042= 201712142151 METAR KLGA 142151Z 32014G22KT 10SM FEW046 M01/M12 A2993 RMK\ AO2 PK WND 32026/2053 PRESRR SLP135\ T10111117= 201712142251 METAR KLGA 142251Z 32012KT 10SM FEW046 FEW250 M02/M12 A2997\ RMK AO2 SLP148 T10171122 $= 201712142351 METAR KLGA 142351Z 32012KT 10SM FEW046 SCT250 M02/M11 A3000\ RMK AO2 SLP160 4/001 T10221111 10006\ 21022 51039 $= 201712150051 METAR KLGA 150051Z 30014KT 10SM FEW046 SCT250 M02/M12 A3004\ RMK AO2 SLP172 T10221122 $= 201712150151 METAR KLGA 150151Z 33014KT 10SM FEW140 SCT250 M03/M13 A3007\ RMK AO2 SLP180 T10281128 $= 201712150251 METAR KLGA 150251Z 31012KT 10SM FEW140 SCT250 M03/M13 A3009\ RMK AO2 SLP188 T10331133 51028 $= 201712150351 METAR KLGA 150351Z 33008KT 10SM BKN250 M04/M13 A3009 RMK\ AO2 SLP189 T10391133 $= 201712150451 METAR KLGA 150451Z 32013KT 10SM SCT250 M04/M13 A3009 RMK\ AO2 SLP189 T10391128 400061044 $= 201712150551 METAR KLGA 150551Z 31010KT 10SM FEW250 M04/M14 A3010 RMK\ AO2 SLP192 4/001 T10441139 11017\ 21050 53004 $= 201712150651 METAR KLGA 150651Z 30010KT 10SM FEW250 M05/M14 A3011 RMK\ AO2 SLP197 T10501139 $= 201712150751 METAR KLGA 150751Z 30007KT 10SM BKN250 M05/M14 A3011 RMK\ AO2 SLP197 T10501139 $= 201712150851 METAR KLGA 150851Z 35008KT 10SM BKN250 M05/M13 A3010 RMK\ AO2 SLP191 T10501133 58001 $= 201712150951 METAR KLGA 150951Z 33007KT 10SM BKN250 M05/M13 A3009 RMK\ AO2 SLP190 T10501133 $= 201712151051 METAR KLGA 151051Z 34004KT 10SM BKN250 M05/M13 A3010 RMK\ AO2 SLP192 T10501133 $= 201712151151 METAR KLGA 151151Z 00000KT 10SM SCT140 BKN200 M05/M13 A3011\ RMK AO2 SLP197 4/001 70002 T10501128\ 11044 21050 53006 $= 201712151251 METAR KLGA 151251Z 36003KT 10SM BKN120 OVC200 M04/M13 A3011\ RMK AO2 SLP196 T10441128 $= 201712151351 METAR KLGA 151351Z 00000KT 10SM OVC130 M04/M12 A3012 RMK\ AO2 SLP199 T10391122 $= 201712151451 METAR KLGA 151451Z 28003KT 10SM FEW120 OVC150 M03/M12 A3012\ RMK AO2 SLP198 T10331122 52001 $= 201712151551 METAR KLGA 151551Z 33005KT 10SM FEW065 OVC140 M03/M11 A3009\ RMK AO2 SLP189 T10281106 $= 201712151651 METAR KLGA 151651Z 00000KT 10SM FEW075 OVC140 M02/M11 A3004\ RMK AO2 SLP172 T10221106= 201712151751 METAR KLGA 151751Z 19004KT 10SM BKN050 OVC140 M02/M11 A3000\ RMK AO2 SLP159 T10171111 11017 21050\ 58039= 201712151851 METAR KLGA 151851Z 21006KT 10SM FEW050 OVC060 M02/M13 A2996\ RMK AO2 SLP146 T10171133= 201712151951 METAR KLGA 151951Z 00000KT 5SM -SN OVC028 M02/M09 A2994 RMK\ AO2 SNB09 SLP137 P0000 T10221089= 201712152051 METAR KLGA 152051Z 34007KT 1SM R04/5000V5500FT -SN SCT005\ OVC011 M03/M06 A2991 RMK AO2 SLP129\ P0001 60001 T10331061 56030= 201712152151 METAR KLGA 152151Z VRB04KT 1/2SM R04/4500V5500FT SN FZFG\ BKN007 OVC014 M04/M06 A2993 RMK AO2\ SLP134 P0005 T10391056 $= 201712152251 METAR KLGA 152251Z VRB04KT 3/4SM R04/P6000FT -SN BR BKN007\ OVC013 M04/M06 A2992 RMK AO2 SFC\ VIS 1 SLP132 P0005 T10391056 $= 201712152351 METAR KLGA 152351Z 32006KT 1 1/2SM -SN SCT010 BKN025 OVC030\ M03/M06 A2991 RMK AO2 SFC VIS 2 SLP129\ 931012 4/001 P0001 60012 T10331061\ 11011 21039 58000 $= 201712160051 METAR KLGA 160051Z 26006KT 2SM -SN BR FEW009 BKN012 OVC060\ M03/M06 A2991 RMK AO2 SFC VIS 3 SLP127\ P0001 T10331056 $= 201712160151 METAR KLGA 160151Z 27009KT 10SM FEW013 SCT030 BKN080 M03/M07\ A2991 RMK AO2 SNE20 SLP128 P0000\ T10281072 $= 201712160251 METAR KLGA 160251Z 26011KT 10SM FEW021 SCT080 M03/M08 A2992\ RMK AO2 SLP132 60001 T10331078 53003\ $= 201712160351 METAR KLGA 160351Z 26011KT 10SM FEW110 M03/M08 A2991 RMK\ AO2 SLP128 T10331083 $= 201712160451 METAR KLGA 160451Z 26013KT 10SM FEW080 SCT250 M04/M08 A2990\ RMK AO2 SLP126 T10391078 410111050\ $= 201712160551 METAR KLGA 160551Z 26012G17KT 10SM FEW250 M03/M08 A2991 RMK\ AO2 SLP127 931002 4/001 60001 T10331078\ 11022 21039 55002 $= 201712160651 METAR KLGA 160651Z 27016G23KT 10SM CLR M03/M08 A2992 RMK\ AO2 SLP131 T10331078 $= 201712160751 METAR KLGA 160751Z 27014G22KT 10SM FEW250 M03/M08 A2994 RMK\ AO2 SLP139 T10281078 $= 201712160851 METAR KLGA 160851Z 27018G24KT 10SM FEW250 M03/M08 A2996 RMK\ AO2 PK WND 28026/0757 SLP143 T10281083\ 51017 $= 201712160951 METAR KLGA 160951Z 26016G23KT 10SM FEW250 M02/M09 A2997 RMK\ AO2 PK WND 27026/0854 SLP148 T10221089\ $= 201712161051 METAR KLGA 161051Z 26013G21KT 10SM FEW250 M02/M09 A2999 RMK\ AO2 SLP154 T10221089 $= 201712161151 METAR KLGA 161151Z 24011KT 10SM FEW040 SCT250 M02/M09 A3001\ RMK AO2 SLP161 4/001 70013 T10171089\ 11017 21033 53018 $= 201712161251 METAR KLGA 161251Z 24014KT 10SM FEW040 SCT250 M02/M09 A3004\ RMK AO2 SLP171 T10171089 $= 201712161351 METAR KLGA 161351Z 24014G22KT 10SM FEW040 BKN110 BKN250 M01/M08\ A3006 RMK AO2 SLP179 T10111083 $= 201712161451 METAR KLGA 161451Z 24015G20KT 10SM FEW050 SCT100 BKN250 01/M08\ A3007 RMK AO2 SLP181 T00061083 51020\ $= 201712161551 METAR KLGA 161551Z 24015G23KT 10SM BKN046 BKN250 01/M08 A3005\ RMK AO2 SLP175 T00061078 $= 201712161651 METAR KLGA 161651Z 24016G21KT 10SM BKN050 BKN065 BKN250 02/M07\ A3002 RMK AO2 SLP164 T00221067 $= 201712161751 METAR KLGA 161751Z 25014G19KT 10SM FEW050 SCT070 BKN250 03/M06\ A2998 RMK AO2 PK WND 25026/1729 SLP152\ 4/001 T00331061 10033 21022 58029\ $= 201712161851 METAR KLGA 161851Z 25014KT 10SM FEW030 BKN048 BKN070 BKN250\ 03/M06 A2998 RMK AO2 SLP151 T00331056\ $= 201712161951 METAR KLGA 161951Z 25014G25KT 10SM FEW030 BKN045 BKN075 BKN250\ 03/M05 A2999 RMK AO2 SLP153 T00331050\ $= 201712162051 METAR KLGA 162051Z 25014G19KT 10SM BKN045 BKN070 OVC250 04/M04\ A3000 RMK AO2 SLP158 T00391044 53005\ $= 201712162151 METAR KLGA 162151Z 27014G20KT 10SM OVC049 04/M04 A3002 RMK\ AO2 SLP165 T00391044 $= 201712162251 METAR KLGA 162251Z 27010G23KT 10SM SCT047 OVC055 04/M04 A3005\ RMK AO2 SLP176 T00441044 $= 201712162351 METAR KLGA 162351Z 32010KT 10SM OVC042 04/M04 A3009 RMK AO2\ SLP187 T00441039 10044 20028 53030\ $= 201712170051 METAR KLGA 170051Z 33008KT 10SM OVC038 04/M03 A3013 RMK AO2\ SLP204 T00391033 $= 201712170151 METAR KLGA 170151Z 31009KT 10SM OVC035 03/M03 A3015 RMK AO2\ SLP211 T00331033 $= 201712170251 METAR KLGA 170251Z 33008KT 10SM BKN035 OVC080 03/M04 A3018\ RMK AO2 SLP218 T00281044 51030 $= 201712170351 METAR KLGA 170351Z 01009KT 10SM BKN034 OVC044 02/M05 A3020\ RMK AO2 SLP225 T00221050 $= 201712170451 METAR KLGA 170451Z 34007KT 10SM FEW032 OVC045 02/M07 A3020\ RMK AO2 SLP225 T00171067 400441039\ $= 201712170551 METAR KLGA 170551Z 34008KT 10SM BKN032 OVC041 02/M07 A3021\ RMK AO2 SLP228 T00171067 10044 20017\ 51011 $= 201712170651 METAR KLGA 170651Z 33006KT 10SM FEW035 OVC060 02/M07 A3023\ RMK AO2 SLP236 T00171067 $= 201712170751 METAR KLGA 170751Z 35005KT 10SM SCT038 OVC049 02/M06 A3025\ RMK AO2 CIG 038 R22 SW SLP242 T00171061\ $= 201712170851 METAR KLGA 170851Z 34005KT 10SM OVC035 01/M06 A3025 RMK AO2\ SLP244 T00111061 51016 $= 201712170951 METAR KLGA 170951Z 35006KT 10SM OVC037 01/M06 A3027 RMK AO2\ SLP248 T00111061 $= 201712171051 METAR KLGA 171051Z 02007KT 10SM FEW041 OVC070 01/M06 A3025\ RMK AO2 SLP242 T00111056 $= 201712171151 METAR KLGA 171151Z 02006KT 10SM BKN065 BKN230 01/M06 A3027\ RMK AO2 SLP251 T00111061 10017 20011\ 53006 $= 201712171251 METAR KLGA 171251Z 03004KT 10SM SCT043 BKN060 BKN230 01/M07\ A3029 RMK AO2 SLP255 T00111067 $= 201712171351 METAR KLGA 171351Z 04004KT 10SM BKN041 BKN060 OVC190 01/M06\ A3029 RMK AO2 SLP257 T00111061 $= 201712171451 METAR KLGA 171451Z 03004KT 10SM FEW015 BKN042 BKN060 OVC140\ 02/M06 A3031 RMK AO2 SLP262 T00171061\ 53012 $= 201712171551 METAR KLGA 171551Z 06004KT 10SM BKN045 BKN060 OVC100 02/M06\ A3029 RMK AO2 SLP256 T00171061 $= 201712171651 METAR KLGA 171651Z 07004KT 10SM BKN046 BKN060 OVC100 02/M06\ A3028 RMK AO2 SLP253 T00171061 $= 201712171751 METAR KLGA 171751Z 00000KT 10SM BKN048 BKN060 OVC100 02/M06\ A3026 RMK AO2 SLP246 T00221056 10022\ 20006 58016 $= 201712171851 METAR KLGA 171851Z 04005KT 10SM FEW015 FEW048 BKN100 OVC250\ 02/M05 A3024 RMK AO2 SLP239 T00221050\ $= 201712171951 METAR KLGA 171951Z 05005KT 10SM FEW015 SCT050 BKN130 OVC250\ 03/M04 A3023 RMK AO2 SLP237 T00281044\ $= 201712172051 METAR KLGA 172051Z 06005KT 10SM FEW050 BKN130 OVC250 02/M04\ A3024 RMK AO2 SLP240 T00221039 55006\ $= 201712172151 METAR KLGA 172151Z 06006KT 10SM FEW050 SCT130 OVC250 02/M04\ A3024 RMK AO2 SLP240 T00221039 $= 201712172251 METAR KLGA 172251Z 06006KT 10SM FEW130 BKN250 02/M04 A3025\ RMK AO2 SLP243 T00221039 $= 201712172351 METAR KLGA 172351Z 06006KT 10SM SCT130 OVC250 02/M04 A3027\ RMK AO2 SLP249 T00221039 10028 20022\ 53009 $= 201712180051 METAR KLGA 180051Z 08006KT 10SM CLR 02/M04 A3027 RMK AO2\ SLP248 T00221039 $= 201712180151 METAR KLGA 180151Z 06006KT 10SM OVC020 02/M04 A3025 RMK AO2\ SLP244 T00171039 $= 201712180251 METAR KLGA 180251Z 08006KT 10SM OVC019 02/M04 A3024 RMK AO2\ SLP239 T00171039 58010 $= 201712180351 METAR KLGA 180351Z 08007KT 10SM OVC019 02/M04 A3022 RMK AO2\ SLP231 T00171044 $= 201712180451 METAR KLGA 180451Z 09006KT 10SM OVC019 02/M04 A3020 RMK AO2\ SLP227 T00171044 400280006 $= 201712180551 METAR KLGA 180551Z 08006KT 10SM OVC019 02/M04 A3019 RMK AO2\ SLP223 T00171044 10022 20017 56016\ $= 201712180651 METAR KLGA 180651Z 08006KT 10SM OVC019 02/M05 A3019 RMK AO2\ SLP223 T00171050 $= 201712180751 METAR KLGA 180751Z 09006KT 10SM -RA BKN018 OVC027 02/M04\ A3018 RMK AO2 UPB17E29RAB29 SLP220\ P0000 T00171039 $= 201712180851 METAR KLGA 180851Z 07007KT 10SM -RA FEW020 BKN041 OVC060\ 02/M02 A3015 RMK AO2 SLP208 P0002\ 60002 T00171022 58015 $= 201712180951 METAR KLGA 180951Z 05008KT 10SM FEW020 BKN045 OVC060 02/M02\ A3014 RMK AO2 RAE0853 SLP207 P0000\ T00171017 $= 201712181051 METAR KLGA 181051Z 05008KT 10SM BKN013 OVC050 02/M01 A3014\ RMK AO2 SLP204 T00221011 $= 201712181151 METAR KLGA 181151Z 05005KT 10SM OVC011 02/M01 A3013 RMK AO2\ SLP203 60002 70002 T00221011 10028\ 20011 56005 $= 201712181251 METAR KLGA 181251Z 05007KT 10SM OVC011 03/M01 A3012 RMK AO2\ SLP199 T00281006 $= 201712181351 METAR KLGA 181351Z 04007KT 10SM BKN011 OVC047 03/M01 A3011\ RMK AO2 SLP197 T00281006 $= 201712181451 METAR KLGA 181451Z 04007KT 10SM OVC011 04/00 A3011 RMK AO2\ SLP195 T00390000 56008 $= 201712181551 METAR KLGA 181551Z VRB04KT 10SM OVC011 04/00 A3009 RMK AO2\ SLP188 T00390000 $= 201712181651 METAR KLGA 181651Z 05004KT 10SM OVC009 04/01 A3004 RMK AO2\ SLP173 T00440006 $= 201712181751 METAR KLGA 181751Z 05004KT 10SM FEW009 BKN070 06/02 A3001\ RMK AO2 SLP163 T00560017 10061 20022\ 58032 $= 201712181851 METAR KLGA 181851Z 05005KT 10SM BKN070 07/01 A2997 RMK AO2\ SLP149 T00670011 $= 201712181951 METAR KLGA 181951Z 00000KT 10SM BKN070 BKN250 07/02 A2997\ RMK AO2 SLP148 T00670017 $= 201712182051 METAR KLGA 182051Z 29005KT 10SM OVC070 08/01 A2996 RMK AO2\ SLP146 T00780011 56017 $= 201712182151 METAR KLGA 182151Z 22003KT 10SM BKN070 OVC250 08/01 A2996\ RMK AO2 SLP145 T00780011 $= 201712182251 METAR KLGA 182251Z 23006KT 10SM BKN095 BKN250 08/02 A2997\ RMK AO2 SLP147 T00830017= 201712182351 METAR KLGA 182351Z 22007KT 10SM BKN095 BKN250 08/01 A2996\ RMK AO2 SLP146 T00830011 10083 20056\ 58001= 201712190051 METAR KLGA 190051Z 22007KT 10SM BKN060 BKN100 OVC250 08/01\ A2996 RMK AO2 SLP144 T00830011= 201712190151 METAR KLGA 190151Z 23006KT 10SM OVC050 08/01 A2996 RMK AO2\ SLP144 T00830011= 201712190251 METAR KLGA 190251Z 24006KT 10SM FEW032 OVC080 08/02 A2994\ RMK AO2 SLP139 T00830017 58006= 201712190351 METAR KLGA 190351Z 25010KT 10SM BKN070 OVC250 08/02 A2994\ RMK AO2 SLP139 T00780017= 201712190451 METAR KLGA 190451Z 23008KT 210V270 10SM BKN065 BKN250 08/02\ A2992 RMK AO2 SLP131 T00830022 400890011= 201712190551 METAR KLGA 190551Z 27014G20KT 10SM OVC065 09/03 A2992 RMK\ AO2 SLP132 T00890028 10089 20078\ 55007= 201712190651 METAR KLGA 190651Z 26011G20KT 10SM OVC070 09/03 A2992 RMK\ AO2 SLP131 T00890028= 201712190751 METAR KLGA 190751Z 27011KT 10SM OVC070 09/03 A2992 RMK AO2\ SLP132 T00890028= 201712190851 METAR KLGA 190851Z 26007G15KT 10SM OVC075 09/03 A2991 RMK\ AO2 SLP129 T00890028 58003= 201712190951 METAR KLGA 190951Z 23009KT 10SM OVC075 08/03 A2990 RMK AO2\ SLP125 T00830028= 201712191051 METAR KLGA 191051Z 23008KT 10SM BKN075 08/02 A2991 RMK AO2\ SLP127 T00830022= 201712191151 METAR KLGA 191151Z 25011G16KT 10SM BKN065 09/02 A2991 RMK\ AO2 SLP128 T00890022 10089 20083\ 55001= 201712191251 METAR KLGA 191251Z 25010KT 10SM BKN060 10/03 A2991 RMK AO2\ SLP126 T01000028= 201712191351 METAR KLGA 191351Z 25009G18KT 10SM BKN060 10/03 A2992 RMK\ AO2 SLP130 T01000028= 201712191451 METAR KLGA 191451Z 26012G20KT 10SM BKN060 BKN250 11/03 A2991\ RMK AO2 SLP127 T01110028 58001= 201712191551 METAR KLGA 191551Z 27016G23KT 10SM SCT060 BKN250 12/03 A2988\ RMK AO2 SLP119 T01170028= 201712191651 METAR KLGA 191651Z 26016KT 10SM FEW042 BKN060 BKN250 12/03\ A2984 RMK AO2 PK WND 25030/1616 SLP104\ T01170028= 201712191751 METAR KLGA 191751Z 26015G25KT 10SM FEW045 SCT055 BKN250 13/02\ A2980 RMK AO2 PK WND 26027/1729 SLP092\ T01280022 10128 20089 58035= 201712191851 METAR KLGA 191851Z 26016G26KT 10SM FEW050 BKN230 13/01 A2978\ RMK AO2 PK WND 27026/1848 SLP083\ T01280011= 201712191951 METAR KLGA 191951Z 26014KT 10SM FEW050 BKN250 13/01 A2977\ RMK AO2 SLP082 T01330011= 201712192051 METAR KLGA 192051Z 24014KT 10SM FEW050 BKN250 13/01 A2976\ RMK AO2 SLP077 T01330011 56015= 201712192151 METAR KLGA 192151Z 25014G19KT 10SM FEW050 BKN250 13/01 A2974\ RMK AO2 SLP072 T01280011= 201712192251 METAR KLGA 192251Z 23011KT 10SM FEW050 BKN250 13/01 A2976\ RMK AO2 SLP076 T01280011= 201712192351 METAR KLGA 192351Z 23011G18KT 10SM FEW200 BKN250 12/02 A2976\ RMK AO2 SLP077 T01220022 10133 20122\ 55000= 201712200051 METAR KLGA 200051Z 24012G20KT 10SM FEW200 SCT250 12/01 A2975\ RMK AO2 SLP072 T01220011= 201712200151 METAR KLGA 200151Z 23012KT 10SM FEW200 SCT250 11/02 A2974\ RMK AO2 SLP070 T01110017= 201712200251 METAR KLGA 200251Z 23013G19KT 10SM FEW200 SCT250 11/02 A2973\ RMK AO2 SLP067 T01110017 56010= 201712200351 METAR KLGA 200351Z 23013KT 10SM FEW250 11/01 A2972 RMK AO2\ SLP063 T01060011= 201712200451 METAR KLGA 200451Z 24013G23KT 10SM FEW040 FEW250 11/01 A2971\ RMK AO2 SLP060 T01110006 401330078= 201712200551 METAR KLGA 200551Z 24014G21KT 10SM FEW040 FEW250 11/01 A2971\ RMK AO2 SLP059 T01110006 10122 20106\ 56007= 201712200651 METAR KLGA 200651Z 25014KT 10SM BKN060 11/01 A2972 RMK AO2\ SLP064 T01110011= 201712200751 METAR KLGA 200751Z 29009G19KT 10SM SCT047 BKN060 OVC070 11/01\ A2975 RMK AO2 SLP073 T01110011= 201712200851 METAR KLGA 200851Z 31012KT 10SM FEW065 SCT250 09/00 A2976\ RMK AO2 SLP079 T00940000 53019= 201712200951 METAR KLGA 200951Z 31013KT 10SM FEW060 SCT250 09/M01 A2978\ RMK AO2 SLP085 T00941011= 201712201051 METAR KLGA 201051Z 30018G26KT 10SM FEW060 FEW250 09/M04 A2981\ RMK AO2 PK WND 31026/1046 SLP095\ T00891044= 201712201151 METAR KLGA 201151Z 31020G27KT 10SM FEW060 FEW250 07/M04 A2985\ RMK AO2 PK WND 30028/1139 SLP107\ T00721044 10111 20072 53028= 201712201251 METAR KLGA 201251Z 30020G28KT 10SM FEW060 BKN250 07/M07 A2988\ RMK AO2 PK WND 28028/1244 SLP119\ T00671067= 201712201351 METAR KLGA 201351Z 30015G26KT 10SM FEW060 BKN250 07/M08 A2990\ RMK AO2 PK WND 29028/1256 SLP126\ T00671078= 201712201451 METAR KLGA 201451Z 29018G25KT 10SM SCT065 BKN250 07/M08 A2993\ RMK AO2 PK WND 30027/1417 SLP134\ T00671078 51027= 201712201551 METAR KLGA 201551Z 29013KT 10SM BKN065 BKN250 07/M07 A2992\ RMK AO2 PK WND 27026/1507 SLP132\ T00721067= 201712201651 METAR KLGA 201651Z 30017G22KT 10SM FEW060 BKN250 07/M06 A2990\ RMK AO2 SLP123 T00721056= 201712201751 METAR KLGA 201751Z 32012G19KT 10SM FEW055 BKN250 07/M06 A2989\ RMK AO2 PK WND 29026/1654 SLP121\ T00671056 10072 20067 58014= 201712201851 METAR KLGA 201851Z 31016G23KT 10SM FEW060 BKN220 07/M07 A2989\ RMK AO2 PK WND 33029/1840 SLP121\ T00671067= 201712201951 METAR KLGA 201951Z 32012KT 10SM FEW060 BKN220 07/M07 A2990\ RMK AO2 SLP126 T00671072= 201712202051 METAR KLGA 202051Z 31016KT 10SM FEW060 SCT150 BKN250 07/M07\ A2992 RMK AO2 SLP132 T00671072 53011= 201712202151 METAR KLGA 202151Z 30015G21KT 10SM FEW055 BKN250 06/M08 A2995\ RMK AO2 SLP142 T00611078= 201712202251 METAR KLGA 202251Z 32015G20KT 10SM FEW055 BKN250 05/M08 A2998\ RMK AO2 SLP153 T00501083= 201712202351 METAR KLGA 202351Z 34014KT 10SM FEW055 BKN250 04/M08 A2999\ RMK AO2 SLP156 T00441083 10072 20044\ 51025= 201712210051 METAR KLGA 210051Z 34014G23KT 10SM BKN250 04/M08 A3001 RMK\ AO2 SLP162 T00391083= 201712210151 METAR KLGA 210151Z 33015KT 10SM SCT250 03/M08 A3002 RMK AO2\ SLP166 T00331078= 201712210251 METAR KLGA 210251Z 33011KT 10SM FEW250 03/M08 A3003 RMK AO2\ SLP170 T00281078 51013= 201712210351 METAR KLGA 210351Z 31011KT 10SM SCT250 03/M07 A3004 RMK AO2\ SLP172 T00281072= 201712210451 METAR KLGA 210451Z 32012KT 10SM FEW250 02/M07 A3004 RMK AO2\ SLP172 T00221072 401170022= 201712210551 METAR KLGA 210551Z 34006KT 10SM FEW250 02/M07 A3005 RMK AO2\ SLP175 T00221072 10044 20022 53005= 201712210651 METAR KLGA 210651Z 33010KT 10SM FEW250 02/M08 A3006 RMK AO2\ SLP178 T00171078= 201712210751 METAR KLGA 210751Z 32008KT 10SM FEW250 02/M07 A3007 RMK AO2\ SLP183 T00171072 $= 201712210851 METAR KLGA 210851Z 31008KT 10SM FEW160 FEW250 02/M08 A3008\ RMK AO2 SLP185 T00171083 51010 $= 201712210951 METAR KLGA 210951Z 33009KT 10SM CLR 02/M07 A3009 RMK AO2\ SLP190 T00171072 $= 201712211051 METAR KLGA 211051Z 31007KT 10SM BKN150 OVC250 02/M08 A3011\ RMK AO2 SLP196 T00171078 $= 201712211151 METAR KLGA 211151Z 34008KT 10SM BKN160 BKN250 01/M08 A3012\ RMK AO2 SLP200 T00111078 10022 20011\ 51015 $= 201712211251 METAR KLGA 211251Z 35007KT 10SM FEW100 SCT160 01/M07 A3018\ RMK AO2 SLP218 T00111072 $= 201712211351 METAR KLGA 211351Z 05007KT 10SM FEW100 SCT150 02/M08 A3018\ RMK AO2 SLP220 T00171078 $= 201712211451 METAR KLGA 211451Z 06009KT 10SM FEW040 SCT150 SCT250 02/M08\ A3021 RMK AO2 SLP230 T00221078 51030\ $= 201712211551 METAR KLGA 211551Z 34008KT 10SM FEW150 03/M07 A3021 RMK AO2\ SLP230 T00331072 $= 201712211651 METAR KLGA 211651Z 32009KT 10SM FEW250 03/M08 A3021 RMK AO2\ SLP229 T00331078 $= 201712211751 METAR KLGA 211751Z 31007KT 10SM FEW250 04/M08 A3018 RMK AO2\ SLP220 T00391083 10044 20011 58010= 201712211851 METAR KLGA 211851Z 31006KT 10SM FEW250 04/M08 A3018 RMK AO2\ SLP220 T00441078= 201712211951 METAR KLGA 211951Z 34008KT 10SM FEW250 05/M08 A3019 RMK AO2\ SLP221 T00501083= 201712212051 METAR KLGA 212051Z 30011KT 10SM FEW190 04/M08 A3022 RMK AO2\ PRESRR SLP232 T00441078 53012= 201712212151 METAR KLGA 212151Z 31008KT 10SM BKN210 04/M07 A3023 RMK AO2\ SLP235 T00441072= 201712212251 METAR KLGA 212251Z 34008KT 10SM BKN200 BKN250 04/M08 A3024\ RMK AO2 SLP241 T00441083= 201712212351 METAR KLGA 212351Z 35007KT 10SM BKN090 BKN190 BKN260 04/M08\ A3027 RMK AO2 SLP249 T00391083 10050\ 20039 53017= 201712220051 METAR KLGA 220051Z 35006KT 10SM FEW090 BKN170 BKN250 04/M09\ A3026 RMK AO2 SLP246 T00391089= 201712220151 METAR KLGA 220151Z 36006KT 10SM BKN140 BKN220 04/M09 A3028\ RMK AO2 SLP252 T00391089= 201712220251 METAR KLGA 220251Z 01004KT 10SM SCT130 BKN190 BKN250 03/M08\ A3028 RMK AO2 SLP253 T00331083 53004= 201712220351 METAR KLGA 220351Z 02005KT 10SM OVC100 03/M09 A3028 RMK AO2\ SLP254 T00331089= 201712220451 METAR KLGA 220451Z 03006KT 10SM SCT100 OVC200 03/M08 A3028\ RMK AO2 SLP253 T00331078 400500011= 201712220551 METAR KLGA 220551Z 11008KT 10SM BKN190 02/M08 A3027 RMK AO2\ SLP249 T00221078 10044 20022 58004= 201712220651 METAR KLGA 220651Z 10008KT 10SM OVC130 02/M08 A3029 RMK AO2\ SLP257 T00221083= 201712220751 METAR KLGA 220751Z 10006KT 10SM OVC130 02/M08 A3030 RMK AO2\ SLP259 T00221078= 201712220851 METAR KLGA 220851Z 06007KT 10SM BKN130 OVC190 02/M08 A3030\ RMK AO2 SLP258 T00221078 50009= 201712220951 METAR KLGA 220951Z 07010KT 10SM OVC070 02/M07 A3028 RMK AO2\ SLP255 T00221072= 201712221051 METAR KLGA 221051Z 08007KT 10SM BKN036 OVC065 02/M08 A3029\ RMK AO2 SLP256 T00221078= 201712221151 METAR KLGA 221151Z 06006KT 10SM FEW032 OVC060 02/M08 A3030\ RMK AO2 SLP259 T00221078 10028 20022\ 53001= 201712221251 METAR KLGA 221251Z 06007G16KT 10SM BKN060 OVC070 03/M07 A3028\ RMK AO2 SLP254 T00331072= 201712221351 METAR KLGA 221351Z 05008KT 10SM OVC060 03/M07 A3028 RMK AO2\ SLP253 T00281067= 201712221451 METAR KLGA 221451Z 05007KT 10SM SCT027 BKN031 OVC060 03/M05\ A3028 RMK AO2 SLP252 T00331050 56007\ $= 201712221551 METAR KLGA 221551Z 05007KT 10SM BKN026 OVC035 04/M04 A3026\ RMK AO2 SLP245 T00391039 $= 201712221651 METAR KLGA 221651Z 07008KT 10SM BKN023 BKN028 OVC060 04/M03\ A3022 RMK AO2 PRESFR SLP231 T00441033\ $= 201712221751 METAR KLGA 221751Z 10007KT 10SM FEW020 BKN025 OVC070 06/M02\ A3016 RMK AO2 SLP213 T00561022 10056\ 20022 58039 $= 201712221851 METAR KLGA 221851Z VRB04KT 10SM BKN019 OVC023 07/00 A3015\ RMK AO2 SLP210 T00720000 $= 201712221951 METAR KLGA 221951Z 17005KT 10SM BKN017 BKN023 OVC060 09/05\ A3014 RMK AO2 SLP207 T00940050 $= 201712222051 METAR KLGA 222051Z 16006KT 10SM FEW015 BKN021 OVC060 10/06\ A3013 RMK AO2 SLP201 T01000061 58012\ $= 201712222151 METAR KLGA 222151Z VRB03KT 10SM FEW036 OVC048 10/06 A3014\ RMK AO2 SLP206 T01000061 $= 201712222251 METAR KLGA 222251Z VRB03KT 10SM BKN042 OVC050 11/06 A3014\ RMK AO2 SLP204 T01060061 $= 201712222351 METAR KLGA 222351Z 05010KT 10SM OVC048 07/04 A3014 RMK AO2\ SLP207 T00670044 10106 20056 51006\ $= 201712230051 METAR KLGA 230051Z 05010KT 10SM FEW020 SCT045 BKN080 06/03\ A3014 RMK AO2 SLP207 T00560033 $= 201712230151 METAR KLGA 230151Z 04012KT 10SM FEW050 SCT075 BKN170 05/03\ A3015 RMK AO2 SLP207 T00500028 $= 201712230251 METAR KLGA 230251Z 04012KT 10SM BKN006 OVC050 04/03 A3015\ RMK AO2 SLP209 T00440028 53002 $= 201712230351 METAR KLGA 230351Z 05009KT 9SM OVC005 04/02 A3016 RMK AO2\ SLP212 T00390022 $= 201712230451 METAR KLGA 230451Z 05008KT 1SM R04/P6000FT BR OVC004 03/02\ A3014 RMK AO2 SFC VIS 3 SLP205 T00330022\ 401060022 $= 201712230551 METAR KLGA 230551Z 05009KT 1SM R04/P6000FT BR OVC004 04/02\ A3011 RMK AO2 SFC VIS 3 PRESFR SLP196\ T00390022 10067 20033 58013 $= 201712230651 METAR KLGA 230651Z 06007KT 1SM R04/P6000FT BR OVC004 03/02\ A3011 RMK AO2 SFC VIS 4 SLP197 T00330022\ $= 201712230751 METAR KLGA 230751Z 06006KT 1SM R04/P6000FT BR OVC004 03/02\ A3011 RMK AO2 SFC VIS 3 SLP194 T00330022\ $= 201712230851 METAR KLGA 230851Z 07009KT 1SM R04/P6000FT BR OVC005 04/02\ A3009 RMK AO2 SFC VIS 4 SLP188 T00390022\ 58008 $= 201712230951 METAR KLGA 230951Z 06008KT 1SM R04/P6000FT -RA BR OVC006\ 03/02 A3007 RMK AO2 SFC VIS 4 RAB09\ SLP182 P0001 T00330022 $= 201712231051 METAR KLGA 231051Z 06008KT 1SM R04/P6000FT -RA BR OVC004\ 03/02 A3006 RMK AO2 SFC VIS 3 SLP179\ P0002 T00330022 $= 201712231151 METAR KLGA 231151Z 05007KT 1SM R04/P6000FT -RA BR OVC004\ 03/02 A3005 RMK AO2 SFC VIS 4 SLP174\ P0002 60005 70005 T00330022 10039\ 20033 56014 $= 201712231251 METAR KLGA 231251Z 05011KT 2SM -RA BR OVC005 04/03 A3001\ RMK AO2 SFC VIS 4 SLP163 P0001 T00390028\ $= 201712231351 METAR KLGA 231351Z 05011KT 1 1/2SM -RA BR OVC004 04/03 A2997\ RMK AO2 SFC VIS 3 SLP147 P0004 T00440033\ $= 201712231451 METAR KLGA 231451Z 04011KT 1SM R04/6000VP6000FT RA BR BKN004\ OVC008 04/03 A2995 RMK AO2 SFC VIS\ 2 PRESFR SLP142 P0008 60013 T00440033\ 56032 $= 201712231551 METAR KLGA 231551Z 05014KT 1 1/2SM R04/6000VP6000FT RA BR\ OVC004 04/03 A2988 RMK AO2 SFC VIS\ 2 1/2 PRESFR SLP118 P0004 T00440033\ $= 201712231651 METAR KLGA 231651Z 05007KT 3SM -RA BR OVC004 04/03 A2982\ RMK AO2 SFC VIS 4 SLP096 P0008 T00440033\ $= 201712231751 METAR KLGA 231751Z 06010KT 2 1/2SM RA BR OVC004 04/03 A2974\ RMK AO2 SFC VIS 4 SLP072 P0011 60036\ T00440033 10050 20033 58070 $= 201712231851 METAR KLGA 231851Z 00000KT 6SM BR OVC004 06/06 A2968 RMK\ AO2 RAE37 SLP048 P0003 T00610056\ $= 201712231951 METAR KLGA 231951Z 00000KT 6SM BR BKN006 OVC014 07/07 A2965\ RMK AO2 SLP038 T00720067 $= 201712232051 METAR KLGA 232051Z 00000KT 6SM BR BKN018 OVC024 10/08 A2964\ RMK AO2 SLP036 60003 T01000083 56035\ $= 201712232151 METAR KLGA 232151Z 24003KT 5SM BR OVC029 12/10 A2965 RMK\ AO2 SLP040 T01170100 $= 201712232251 METAR KLGA 232251Z 00000KT 10SM -RA OVC027 11/09 A2967 RMK\ AO2 RAB37 SLP046 P0001 T01110094\ $= 201712232351 METAR KLGA 232351Z 31008KT 4SM -RA BR BKN009 OVC015 08/06\ A2974 RMK AO2 SLP070 P0006 60010\ T00780061 10117 20044 51031 $= 201712240051 METAR KLGA 240051Z 32009KT 10SM OVC035 08/07 A2975 RMK AO2\ RAE35 SLP073 P0003 T00830072 $= 201712240151 METAR KLGA 240151Z 31009KT 10SM -RA FEW018 OVC043 08/05 A2979\ RMK AO2 RAB47 SLP088 P0000 T00780050\ $= 201712240251 METAR KLGA 240251Z 32008KT 10SM -RA FEW043 OVC055 07/04 A2985\ RMK AO2 RAE03B45 SLP108 P0000 60003\ T00720044 53038 $= 201712240351 METAR KLGA 240351Z 30014KT 10SM SCT060 07/03 A2991 RMK AO2\ RAE06 SLP129 P0000 T00670033 $= 201712240451 METAR KLGA 240451Z 32016G23KT 10SM FEW060 06/01 A2994 RMK\ AO2 PK WND 31027/0425 SLP138 T00560011\ 401170033 $= 201712240551 METAR KLGA 240551Z 32013G18KT 10SM FEW040 05/01 A2998 RMK\ AO2 SLP153 60003 T00500006 10083\ 20050 51045 $= 201712240651 METAR KLGA 240651Z 31012G20KT 10SM FEW040 04/00 A3004 RMK\ AO2 SLP170 T00440000 $= 201712240751 METAR KLGA 240751Z 33013KT 10SM FEW024 SCT250 04/M01 A3006\ RMK AO2 SLP179 T00391006 $= 201712240851 METAR KLGA 240851Z 32010G19KT 10SM FEW024 SCT250 04/M02 A3012\ RMK AO2 SLP198 T00391017 53045 $= 201712240951 METAR KLGA 240951Z 33010KT 10SM FEW040 BKN250 04/M02 A3013\ RMK AO2 SLP202 T00391022 $= 201712241051 METAR KLGA 241051Z 33007KT 10SM FEW040 BKN250 04/M02 A3015\ RMK AO2 SLP209 T00391022 $= 201712241151 METAR KLGA 241151Z 34008KT 10SM FEW024 SCT090 BKN190 BKN250\ 03/M02 A3017 RMK AO2 SLP214 70049\ T00331022 10050 20033 53017 $= 201712241251 METAR KLGA 241251Z 35006KT 10SM FEW024 SCT090 BKN190 BKN250\ 03/M03 A3018 RMK AO2 SLP220 T00331028\ $= 201712241351 METAR KLGA 241351Z 01011KT 10SM FEW022 SCT090 BKN190 BKN250\ 03/M03 A3022 RMK AO2 SLP233 T00331028\ $= 201712241451 METAR KLGA 241451Z 03011KT 10SM FEW026 SCT090 BKN190 BKN250\ 03/M03 A3023 RMK AO2 SLP236 T00331033\ 51022 $= 201712241551 METAR KLGA 241551Z 02010KT 10SM FEW026 SCT090 BKN190 BKN250\ 03/M03 A3022 RMK AO2 SLP233 T00331033\ $= 201712241651 METAR KLGA 241651Z 06011KT 10SM FEW029 SCT085 BKN170 BKN250\ 04/M04 A3020 RMK AO2 SLP225 T00391039\ $= 201712241751 METAR KLGA 241751Z 06009KT 10SM FEW031 SCT080 BKN170 BKN250\ 04/M04 A3018 RMK AO2 SLP218 T00391039\ 10039 20028 58018= 201712241851 METAR KLGA 241851Z 06009KT 10SM FEW029 SCT080 BKN170 BKN250\ 04/M04 A3017 RMK AO2 SLP215 T00391039= 201712241951 METAR KLGA 241951Z 09010KT 10SM FEW030 SCT100 BKN170 BKN250\ 04/M03 A3015 RMK AO2 SLP208 T00391033= 201712242051 METAR KLGA 242051Z 06011KT 10SM FEW030 SCT100 SCT170 OVC250\ 04/M04 A3013 RMK AO2 SLP202 T00391039\ 58017= 201712242151 METAR KLGA 242151Z 09012KT 10SM BKN170 OVC250 03/M04 A3012\ RMK AO2 SLP200 T00331039= 201712242251 METAR KLGA 242251Z 07010KT 10SM FEW032 OVC095 03/M03 A3010\ RMK AO2 SLP194 T00331033= 201712242351 METAR KLGA 242351Z 06012KT 10SM OVC030 03/M03 A3009 RMK AO2\ SLP188 T00331028 10044 20033 58014= 201712250051 METAR KLGA 250051Z 08010KT 10SM OVC026 03/M03 A3006 RMK AO2\ SLP179 T00331028= 201712250151 METAR KLGA 250151Z 07014KT 10SM -RA OVC023 04/M02 A3001 RMK\ AO2 RAB51 SLP163 P0000 T00391022= 201712250251 METAR KLGA 250251Z 07014KT 10SM OVC022 03/M01 A2998 RMK AO2\ RAE37 SLP150 P0000 60000 T00281006\ 58038= 201712250351 METAR KLGA 250351Z 06015KT 10SM OVC016 02/00 A2992 RMK AO2\ PRESFR SLP131 SNB04E45RAB04E45 P0000\ T00220000= 201712250451 METAR KLGA 250451Z 06011KT 8SM -RA OVC008 03/01 A2986 RMK\ AO2 SLP109 RAB45 P0001 T00280011\ 400500022= 201712250551 METAR KLGA 250551Z 05014KT 8SM -RA OVC006 03/02 A2980 RMK\ AO2 SLP091 931000 P0002 60003 T00280017\ 10039 20022 56060= 201712250651 METAR KLGA 250651Z 06014KT 6SM -RA BR OVC006 03/02 A2975\ RMK AO2 SLP072 P0002 T00280017= 201712250751 METAR KLGA 250751Z 05011KT 9SM OVC006 03/03 A2969 RMK AO2\ RAE47 PRESFR SLP054 P0002 T00330028= 201712250851 METAR KLGA 250851Z 36007KT 6SM -RA BR BKN006 OVC017 04/03\ A2968 RMK AO2 RAB0757 SLP049 P0004\ 60008 T00390028 56042= 201712250951 METAR KLGA 250951Z 36004KT 9SM -RA BKN006 BKN015 OVC032 03/03\ A2965 RMK AO2 PRESRR SLP040 P0003\ T00330028= 201712251051 METAR KLGA 251051Z 30010KT 5SM -SN BR OVC007 01/01 A2967\ RMK AO2 RAE41SNB41 SLP047 P0006 T00110006= 201712251151 METAR KLGA 251151Z 29013KT 10SM UP BKN007 BKN019 OVC033 02/01\ A2969 RMK AO2 SLP053 RAB43SNE35 931000\ P0003 60020 70023 T00170006 10039\ 20011 52013= 201712251251 METAR KLGA 251251Z 26015G22KT 10SM FEW017 BKN050 BKN095 03/00\ A2970 RMK AO2 SLP057 RAE25 P0000\ T00280000= 201712251351 METAR KLGA 251351Z 26022G33KT 10SM FEW017 SCT050 SCT100 03/M02\ A2974 RMK AO2 PK WND 26033/1343 SLP069\ FEW V SCT T00281022= 201712251451 METAR KLGA 251451Z 27027G37KT 10SM FEW017 SCT050 03/M06 A2979\ RMK AO2 PK WND 26040/1413 SLP088\ 60000 T00281061 53035= 201712251551 METAR KLGA 251551Z 27022G35KT 10SM BKN047 03/M08 A2983 RMK\ AO2 PK WND 27048/1458 SLP101 T00281078= 201712251651 METAR KLGA 251651Z 28023G33KT 10SM BKN050 02/M09 A2985 RMK\ AO2 PK WND 28038/1629 SLP108 T00221094= 201712251751 METAR KLGA 251751Z 26021G33KT 10SM BKN060 02/M10 A2988 RMK\ AO2 PK WND 27036/1703 SLP118 60000\ T00171100 10028 20017 51030= 201712251851 METAR KLGA 251851Z 27019G28KT 10SM BKN060 02/M12 A2990 RMK\ AO2 PK WND 29034/1832 SLP125 T00171117= 201712251951 METAR KLGA 251951Z 27021G29KT 10SM FEW060 02/M11 A2994 RMK\ AO2 PK WND 26034/1902 SLP138 T00171111= 201712252051 METAR KLGA 252051Z 26017G24KT 10SM SCT065 BKN250 02/M12 A2997\ RMK AO2 PK WND 26028/2030 SLP148\ T00171122 53030= 201712252151 METAR KLGA 252151Z 25016G27KT 10SM BKN070 BKN250 01/M12 A3003\ RMK AO2 PK WND 24029/2116 SLP167\ T00061122= 201712252251 METAR KLGA 252251Z 26020G30KT 10SM FEW070 SCT250 01/M12 A3008\ RMK AO2 PK WND 26030/2158 PRESRR\ SLP185 T00061122= 201712252351 METAR KLGA 252351Z 26023G29KT 10SM FEW070 FEW250 00/M13 A3012\ RMK AO2 PK WND 28032/2332 SLP200\ T00001128 10022 20000 51052= 201712260051 METAR KLGA 260051Z 25020G28KT 10SM FEW060 M01/M13 A3016 RMK\ AO2 PK WND 27030/0024 SLP212 T10111128= 201712260151 METAR KLGA 260151Z 26017G26KT 10SM FEW060 M02/M13 A3019 RMK\ AO2 PK WND 25029/0126 SLP224 T10171128= 201712260251 METAR KLGA 260251Z 27017G27KT 10SM SCT250 M02/M13 A3021 RMK\ AO2 PK WND 28029/0241 SLP228 T10171133\ 51028= 201712260351 METAR KLGA 260351Z 27021G25KT 10SM BKN250 M02/M14 A3024 RMK\ AO2 PK WND 26031/0335 SLP238 T10221139= 201712260451 METAR KLGA 260451Z 29017G22KT 10SM BKN250 M02/M14 A3024 RMK\ AO2 PK WND 27030/0414 SLP239 T10221139\ 400391022= 201712260551 METAR KLGA 260551Z 28018G23KT 10SM BKN250 M02/M14 A3024 RMK\ AO2 PK WND 26026/0526 SLP241 T10221139\ 10000 21022 51012= 201712260651 METAR KLGA 260651Z 27015G20KT 10SM BKN250 M03/M15 A3025 RMK\ AO2 PK WND 27029/0555 SLP244 T10281150= 201712260751 METAR KLGA 260751Z 27018G28KT 10SM FEW060 BKN250 M03/M18\ A3028 RMK AO2 PK WND 28029/0708 SLP254\ T10281178= 201712260851 METAR KLGA 260851Z 29017G23KT 10SM FEW060 OVC250 M03/M17\ A3028 RMK AO2 PK WND 25026/0819 SLP254\ T10331167 51013= 201712260951 METAR KLGA 260951Z 28015G22KT 10SM FEW060 BKN250 M03/M16\ A3029 RMK AO2 PK WND 30031/0857 SLP257\ T10331161= 201712261051 METAR KLGA 261051Z 29014G25KT 10SM OVC250 M03/M17 A3032 RMK\ AO2 SLP265 T10331167= 201712261151 METAR KLGA 261151Z 26014G25KT 10SM BKN190 M04/M17 A3036 RMK\ AO2 SLP280 T10391167 11022 21039\ 53027= 201712261251 METAR KLGA 261251Z 26020G26KT 10SM FEW200 M04/M17 A3039 RMK\ AO2 PK WND 26026/1250 SLP291 T10441172= 201712261351 METAR KLGA 261351Z 26014G21KT 10SM FEW050 SCT250 M04/M18\ A3041 RMK AO2 SLP296 T10441178= 201712261451 METAR KLGA 261451Z 26018G23KT 10SM FEW050 BKN170 BKN250 M04/M18\ A3042 RMK AO2 SLP301 T10391178 51021= 201712261551 METAR KLGA 261551Z 28014G22KT 10SM FEW050 BKN170 M03/M17\ A3042 RMK AO2 SLP299 T10331172= 201712261651 METAR KLGA 261651Z 29015G25KT 10SM FEW045 BKN160 BKN250 M04/M17\ A3039 RMK AO2 SLP289 T10391172= 201712261751 METAR KLGA 261751Z 30016G21KT 10SM FEW045 FEW150 M03/M16\ A3038 RMK AO2 SLP285 T10331161 11033\ 21044 58016= 201712261851 METAR KLGA 261851Z 25013G22KT 10SM FEW045 FEW150 M03/M17\ A3037 RMK AO2 SLP282 T10281172= 201712261951 METAR KLGA 261951Z 25014KT 10SM FEW045 FEW150 M02/M17 A3037\ RMK AO2 SLP284 T10221172= 201712262051 METAR KLGA 262051Z 29013G18KT 10SM FEW045 FEW250 M02/M16\ A3037 RMK AO2 SLP285 T10221161 55001= 201712262151 METAR KLGA 262151Z 25013G20KT 10SM FEW045 FEW250 M03/M17\ A3040 RMK AO2 SLP294 T10281172= 201712262251 METAR KLGA 262251Z 26017G23KT 10SM FEW045 FEW250 M03/M17\ A3043 RMK AO2 SLP303 T10281172= 201712262351 METAR KLGA 262351Z 28010KT 10SM FEW045 SCT150 BKN250 M03/M16\ A3043 RMK AO2 SLP305 T10331161 11022\ 21033 51020= 201712270051 METAR KLGA 270051Z 29008KT 10SM FEW250 M03/M16 A3043 RMK\ AO2 SLP303 T10331156= 201712270151 METAR KLGA 270151Z 30007KT 10SM SCT250 M03/M15 A3044 RMK\ AO2 SLP307 T10331150= 201712270251 METAR KLGA 270251Z 29008KT 10SM FEW150 SCT250 M03/M16 A3044\ RMK AO2 SLP308 T10331156 53003= 201712270351 METAR KLGA 270351Z 27012KT 10SM FEW250 M04/M16 A3045 RMK\ AO2 SLP311 T10391161= 201712270451 METAR KLGA 270451Z 29009KT 10SM FEW150 FEW250 M04/M15 A3046\ RMK AO2 SLP313 T10441150 410171044= 201712270551 METAR KLGA 270551Z 33012KT 10SM BKN140 M05/M14 A3046 RMK\ AO2 SLP314 T10501144 11028 21050\ 51006= 201712270651 METAR KLGA 270651Z 33009KT 10SM BKN110 M06/M14 A3047 RMK\ AO2 SLP315 T10561144= 201712270751 METAR KLGA 270751Z 33010KT 10SM BKN110 M06/M15 A3048 RMK\ AO2 SLP320 T10611150= 201712270851 METAR KLGA 270851Z 31012KT 10SM OVC110 M06/M15 A3048 RMK\ AO2 SLP320 T10611150 51007= 201712270951 METAR KLGA 270951Z 31009KT 10SM OVC110 M06/M16 A3049 RMK\ AO2 SLP323 T10611156= 201712271051 METAR KLGA 271051Z 31011KT 10SM OVC110 M06/M14 A3050 RMK\ AO2 SLP327 T10611144= 201712271151 METAR KLGA 271151Z 30010KT 10SM OVC110 M07/M16 A3051 RMK\ AO2 SLP329 T10671156 11050 21067\ 51008= 201712271251 METAR KLGA 271251Z 31011KT 10SM BKN100 M07/M16 A3051 RMK\ AO2 SLP331 T10671156= 201712271351 METAR KLGA 271351Z 32011KT 10SM FEW045 FEW065 BKN095 M07/M15\ A3051 RMK AO2 SLP331 T10671150= 201712271451 METAR KLGA 271451Z 33008KT 10SM FEW050 SCT085 BKN250 M07/M16\ A3052 RMK AO2 SLP336 T10671156 53006= 201712271551 METAR KLGA 271551Z 30006KT 10SM FEW010 FEW050 FEW250 M06/M16\ A3051 RMK AO2 SLP331 T10611161= 201712271651 METAR KLGA 271651Z 33012KT 10SM FEW050 FEW250 M06/M16 A3048\ RMK AO2 SLP321 T10561156= 201712271751 METAR KLGA 271751Z 31013KT 10SM FEW050 FEW250 M04/M17 A3045\ RMK AO2 SLP310 T10441167 11044 21072\ 58026= 201712271851 METAR KLGA 271851Z 30013KT 10SM FEW050 FEW250 M05/M17 A3042\ RMK AO2 SLP302 T10501172= 201712271951 METAR KLGA 271951Z 31010G18KT 10SM FEW050 FEW250 M04/M17\ A3042 RMK AO2 SLP302 T10441167= 201712272051 METAR KLGA 272051Z 32014KT 10SM FEW050 FEW250 M04/M17 A3043\ RMK AO2 SLP303 T10391167 55007= 201712272151 METAR KLGA 272151Z 32014KT 10SM FEW060 FEW250 M04/M17 A3045\ RMK AO2 SLP309 T10441172= 201712272251 METAR KLGA 272251Z 32013KT 10SM FEW060 M05/M17 A3047 RMK\ AO2 SLP317 T10501167= 201712272351 METAR KLGA 272351Z 31015KT 10SM CLR M06/M16 A3049 RMK AO2\ SLP325 T10561161 11039 21056 53023= 201712280051 METAR KLGA 280051Z 33014KT 10SM FEW060 M06/M16 A3050 RMK\ AO2 SLP326 T10611161= 201712280151 METAR KLGA 280151Z 32013KT 10SM FEW060 M07/M17 A3050 RMK\ AO2 SLP329 T10671167= 201712280251 METAR KLGA 280251Z 30014KT 10SM FEW060 M07/M18 A3050 RMK\ AO2 SLP329 T10721178 51003= 201712280351 METAR KLGA 280351Z 30013G21KT 10SM CLR M07/M17 A3051 RMK\ AO2 PK WND 33028/0328 SLP329 T10721172= 201712280451 METAR KLGA 280451Z 30016G22KT 10SM CLR M08/M17 A3049 RMK\ AO2 SLP325 T10781167 410391078= 201712280551 METAR KLGA 280551Z 31016G23KT 10SM FEW250 M08/M17 A3049 RMK\ AO2 PK WND 30026/0538 SLP322 T10831167\ 11056 21083 58006= 201712280651 METAR KLGA 280651Z 31013G23KT 10SM FEW050 FEW250 M08/M17\ A3050 RMK AO2 SLP326 T10831167= 201712280751 METAR KLGA 280751Z 30013G21KT 10SM FEW050 FEW250 M09/M16\ A3051 RMK AO2 SLP330 T10891161= 201712280851 METAR KLGA 280851Z 31014G21KT 10SM FEW050 FEW250 M09/M16\ A3051 RMK AO2 SLP329 T10891161 50006= 201712280951 METAR KLGA 280951Z 31013G20KT 10SM FEW050 FEW250 M09/M17\ A3051 RMK AO2 SLP331 T10941167= 201712281051 METAR KLGA 281051Z 33012G22KT 10SM FEW050 M09/M17 A3052 RMK\ AO2 SLP333 T10941167= 201712281151 METAR KLGA 281151Z 30016G23KT 10SM FEW050 M09/M17 A3054 RMK\ AO2 SLP342 T10941172 11083 21094\ 53013= 201712281251 METAR KLGA 281251Z 30016G22KT 10SM FEW050 FEW250 M10/M18\ A3055 RMK AO2 SLP345 T11001178= 201712281351 METAR KLGA 281351Z 31021G25KT 10SM FEW050 FEW250 M09/M17\ A3057 RMK AO2 PK WND 32027/1332 SLP350\ T10941172= 201712281451 METAR KLGA 281451Z 33017G25KT 10SM FEW050 FEW250 M09/M19\ A3057 RMK AO2 PK WND 32029/1355 SLP352\ T10941189 51010= 201712281551 METAR KLGA 281551Z 31019KT 10SM FEW050 FEW250 M09/M18 A3056\ RMK AO2 SLP348 T10941183= 201712281651 METAR KLGA 281651Z 31017G27KT 10SM FEW050 FEW250 M09/M20\ A3054 RMK AO2 PK WND 31027/1644 SLP339\ T10891200= 201712281751 METAR KLGA 281751Z 31017G25KT 10SM FEW050 FEW250 M08/M20\ A3049 RMK AO2 PK WND 32029/1709 SLP325\ T10831200 11083 21100 58027= 201712281851 METAR KLGA 281851Z 32015G23KT 10SM FEW050 FEW250 M08/M19\ A3047 RMK AO2 PK WND 32027/1835 SLP318\ T10781189= 201712281951 METAR KLGA 281951Z 31017G24KT 10SM FEW045 FEW250 M07/M18\ A3047 RMK AO2 PK WND 31029/1932 SLP317\ T10721178= 201712282051 METAR KLGA 282051Z 31018G24KT 10SM FEW050 FEW250 M07/M18\ A3049 RMK AO2 PK WND 32029/2021 SLP323\ T10721178 55002= 201712282151 METAR KLGA 282151Z 30012KT 10SM FEW050 FEW250 M08/M18 A3050\ RMK AO2 SLP326 T10781183= 201712282251 METAR KLGA 282251Z 30014G25KT 10SM FEW050 FEW250 M08/M18\ A3049 RMK AO2 PK WND 30026/2236 SLP325\ T10781183= 201712282351 METAR KLGA 282351Z 31018G25KT 10SM FEW050 FEW250 M09/M18\ A3050 RMK AO2 PK WND 31029/2338 SLP327\ T10891183 11072 21089 51004= 201712290051 METAR KLGA 290051Z 31018G24KT 10SM FEW250 M09/M18 A3050 RMK\ AO2 PK WND 32032/0024 SLP327 T10891178= 201712290151 METAR KLGA 290151Z 32017G25KT 10SM FEW250 M10/M18 A3049 RMK\ AO2 PK WND 30031/0111 SLP323 T11001183= 201712290251 METAR KLGA 290251Z 31016KT 10SM FEW250 M10/M18 A3045 RMK\ AO2 PK WND 31028/0223 SLP311 T11001178\ 58016= 201712290351 METAR KLGA 290351Z 32012G17KT 10SM FEW250 M11/M18 A3043 RMK\ AO2 SLP304 T11061183= 201712290451 METAR KLGA 290451Z 31013KT 10SM FEW250 M11/M18 A3043 RMK\ AO2 SLP304 T11111183 410721111= 201712290551 METAR KLGA 290551Z 30015KT 10SM BKN180 M11/M18 A3041 RMK\ AO2 SLP297 T11111178 11083 21111\ 56014= 201712290651 METAR KLGA 290651Z 30012KT 10SM BKN150 M11/M18 A3041 RMK\ AO2 SLP295 T11111178= 201712290751 METAR KLGA 290751Z 31014KT 10SM BKN160 M11/M18 A3039 RMK\ AO2 SLP292 T11111178= 201712290851 METAR KLGA 290851Z 32010KT 10SM SCT120 M11/M18 A3038 RMK\ AO2 SLP287 T11111178 58010= 201712290951 METAR KLGA 290951Z 33009KT 10SM OVC100 M11/M17 A3033 RMK\ AO2 PRESFR SLP269 T11111172= 201712291051 METAR KLGA 291051Z 33009KT 10SM BKN100 BKN150 M11/M17 A3034\ RMK AO2 SLP272 T11111172= 201712291151 METAR KLGA 291151Z 33007KT 10SM BKN080 BKN150 M11/M17 A3033\ RMK AO2 SLP269 T11111172 11106 21111\ 56018= 201712291251 METAR KLGA 291251Z 32009KT 300V360 10SM SCT080 BKN130 M11/M17\ A3032 RMK AO2 SLP266 T11061167= 201712291351 METAR KLGA 291351Z 32010KT 10SM FEW030 SCT100 BKN130 M10/M17\ A3032 RMK AO2 SLP265 T11001167= 201712291451 METAR KLGA 291451Z 26009KT 10SM FEW030 SCT095 M09/M17 A3031\ RMK AO2 SLP264 T10941172 56005= 201712291551 METAR KLGA 291551Z 29008KT 10SM FEW035 FEW130 SCT250 M08/M17\ A3030 RMK AO2 SLP259 T10831172= 201712291651 METAR KLGA 291651Z 29008KT 10SM FEW045 SCT140 BKN250 M07/M16\ A3026 RMK AO2 SLP245 T10721161= 201712291751 METAR KLGA 291751Z 30012G18KT 10SM FEW050 SCT100 BKN140 M07/M16\ A3022 RMK AO2 SLP233 T10671161 11067\ 21111 58032= 201712291851 METAR KLGA 291851Z 29012KT 10SM FEW044 SCT095 BKN120 M06/M16\ A3021 RMK AO2 SLP228 T10611156= 201712291951 METAR KLGA 291951Z 30008G17KT 10SM SCT040 SCT120 M06/M15\ A3021 RMK AO2 SLP228 T10611150= 201712292051 METAR KLGA 292051Z 29014KT 10SM SCT043 M06/M14 A3023 RMK\ AO2 SLP234 T10611139 53002= 201712292151 METAR KLGA 292151Z 30016KT 10SM FEW045 M06/M15 A3024 RMK\ AO2 SLP239 T10611150= 201712292251 METAR KLGA 292251Z 29012G21KT 10SM FEW045 M06/M15 A3025 RMK\ AO2 SLP243 T10611150= 201712292351 METAR KLGA 292351Z 31015KT 10SM FEW045 M07/M15 A3026 RMK\ AO2 SLP247 T10671150 11056 21067\ 51013= 201712300051 METAR KLGA 300051Z 31012KT 10SM FEW045 M07/M15 A3028 RMK\ AO2 SLP252 T10671150= 201712300151 METAR KLGA 300151Z 31014KT 10SM FEW045 M07/M16 A3028 RMK\ AO2 SLP253 T10721161= 201712300251 METAR KLGA 300251Z 31014KT 10SM FEW250 M07/M16 A3026 RMK\ AO2 SLP247 T10721156 58001= 201712300351 METAR KLGA 300351Z 29012KT 10SM FEW250 M08/M16 A3027 RMK\ AO2 SLP249 T10781156= 201712300451 METAR KLGA 300451Z 30010KT 10SM BKN170 BKN250 M08/M15 A3025\ RMK AO2 SLP244 T10781150 410561111= 201712300551 METAR KLGA 300551Z 29006KT 10SM BKN160 BKN250 M08/M15 A3024\ RMK AO2 SLP240 T10781150 11067 21078\ 58006= 201712300651 METAR KLGA 300651Z 30007KT 10SM SCT150 BKN250 M08/M15 A3021\ RMK AO2 SLP229 T10781150= 201712300751 METAR KLGA 300751Z 30003KT 10SM SCT170 BKN250 M07/M16 A3020\ RMK AO2 SLP225 T10721156= 201712300851 METAR KLGA 300851Z 27006KT 10SM SCT120 BKN250 M07/M16 A3018\ RMK AO2 SLP219 T10671156 56021= 201712300951 METAR KLGA 300951Z 00000KT 10SM SCT100 BKN160 BKN250 M07/M15\ A3016 RMK AO2 SLP211 T10671150= 201712301051 METAR KLGA 301051Z 00000KT 10SM OVC070 M07/M14 A3015 RMK\ AO2 SLP207 T10671144= 201712301151 METAR KLGA 301151Z 00000KT 10SM OVC048 M06/M14 A3015 RMK\ AO2 SLP210 T10611139 11061 21078\ 55009= 201712301251 METAR KLGA 301251Z 25008KT 10SM OVC055 M06/M17 A3014 RMK\ AO2 SLP207 T10611167= 201712301351 METAR KLGA 301351Z 21013G18KT 10SM OVC055 M06/M17 A3013 RMK\ AO2 SLP204 T10611167= 201712301451 METAR KLGA 301451Z 22009KT 2SM -SN FEW025 BKN038 OVC047 M07/M11\ A3011 RMK AO2 SFC VIS 3 SNB09 SLP195\ P0000 60000 T10671106 58015= 201712301551 METAR KLGA 301551Z 23009KT 2SM R04/6000VP6000FT -SN FEW017\ BKN028 OVC040 M07/M10 A3008 RMK AO2\ SLP185 P0000 T10671100= 201712301651 METAR KLGA 301651Z 24006KT 1 1/2SM R04/4000VP6000FT -SN BR\ FEW015 BKN020 OVC032 M07/M09 A3003\ RMK AO2 SLP169 P0001 T10671089= 201712301751 METAR KLGA 301751Z 24006KT 1SM R04/4000VP6000FT -SN BR BKN019\ BKN029 OVC035 M06/M08 A2997 RMK AO2\ TWR VIS 1 1/2 SLP148 931006 4/001\ P0001 60002 T10611083 11061 21067\ 58047 $= 201712301851 METAR KLGA 301851Z 22006KT 3SM -SN FEW016 BKN045 OVC055 M06/M08\ A2994 RMK AO2 SLP136 P0001 T10561083\ $= 201712301951 METAR KLGA 301951Z 20009KT 9SM SCT028 BKN033 OVC048 M05/M08\ A2991 RMK AO2 VIS 2 R22 SW SNE49\ CIG 027 R22 SW SLP128 P0000 T10501083\ $= 201712302051 METAR KLGA 302051Z 26010KT 10SM OVC021 M05/M09 A2992 RMK\ AO2 SLP130 60001 T10501094 55007\ $= 201712302151 METAR KLGA 302151Z 28008KT 10SM BKN022 BKN100 M05/M09 A2993\ RMK AO2 SLP134 T10501094 $= 201712302251 METAR KLGA 302251Z 25012KT 10SM FEW024 FEW130 M05/M10 A2995\ RMK AO2 SLP142 T10501100 $= 201712302351 METAR KLGA 302351Z 27012KT 10SM FEW130 M05/M10 A2997 RMK\ AO2 SLP148 931002 4/001 60001 T10501100\ 11044 21061 53019 $= 201712310051 METAR KLGA 310051Z 27012KT 10SM FEW025 M05/M10 A2998 RMK\ AO2 SLP153 T10501100 $= 201712310151 METAR KLGA 310151Z 29010G19KT 10SM CLR M05/M11 A3000 RMK\ AO2 SLP158 T10501106 $= 201712310251 METAR KLGA 310251Z 29015G20KT 7SM -SN FEW060 M05/M10 A3002\ RMK AO2 SNB48 SLP165 P0001 60001\ T10501100 53016 $= 201712310351 METAR KLGA 310351Z 30012KT 10SM FEW046 SCT075 M06/M10 A3003\ RMK AO2 SNE30 SLP169 P0027 T10561100\ $= 201712310451 METAR KLGA 310451Z 29015KT 10SM FEW043 M06/M11 A3005 RMK\ AO2 SLP174 P0017 T10561111 410441078\ $= 201712310551 METAR KLGA 310551Z 29017G23KT 10SM FEW025 FEW050 M06/M12\ A3006 RMK AO2 SLP179 931000 4/001\ 60045 T10611117 11050 21061 53015\ $= 201712310651 METAR KLGA 310651Z 30014G20KT 10SM FEW025 FEW050 M07/M13\ A3007 RMK AO2 SLP183 T10671128 $= 201712310751 METAR KLGA 310751Z 29016G27KT 10SM CLR M07/M14 A3010 RMK\ AO2 PK WND 30027/0743 SLP192 T10671139\ $= 201712310851 METAR KLGA 310851Z 30014G20KT 10SM CLR M07/M14 A3012 RMK\ AO2 SLP198 T10721139 53019 $= 201712310951 METAR KLGA 310951Z 31017KT 10SM CLR M07/M13 A3015 RMK AO2\ SLP208 T10721133 $= 201712311051 METAR KLGA 311051Z 31017G24KT 10SM FEW035 M08/M14 A3018 RMK\ AO2 PK WND 32027/1003 SLP221 T10781139\ $= 201712311151 METAR KLGA 311151Z 31015KT 10SM SCT035 M08/M16 A3021 RMK\ AO2 PK WND 32028/1100 SLP230 70048\ T10831156 11061 21083 51033 $= 201712311251 METAR KLGA 311251Z 32016G20KT 10SM FEW035 SCT250 M09/M17\ A3023 RMK AO2 PK WND 34027/1212 SLP237\ T10941167 $= 201712311351 METAR KLGA 311351Z 32018G26KT 10SM FEW035 BKN150 M09/M17\ A3025 RMK AO2 PK WND 32027/1300 PRESRR\ SLP244 T10941167 $= 201712311451 METAR KLGA 311451Z 31020G26KT 10SM FEW035 SCT150 SCT250 M09/M17\ A3028 RMK AO2 PK WND 32027/1426 SLP253\ T10941172 53023 $= 201712311551 METAR KLGA 311551Z 31020G27KT 10SM CLR M09/M17 A3027 RMK\ AO2 PK WND 31029/1533 SLP250 T10891172\ $= 201712311651 METAR KLGA 311651Z 31013G22KT 10SM FEW040 SCT150 BKN250 M09/M17\ A3024 RMK AO2 PK WND 30026/1557 SLP240\ T10891172 $= 201712311751 METAR KLGA 311751Z 32015G24KT 10SM FEW040 SCT150 OVC250 M09/M17\ A3022 RMK AO2 SLP232 T10891172 11083\ 21100 58021 $= 201712311851 METAR KLGA 311851Z 31018KT 10SM FEW040 FEW150 BKN250 M09/M18\ A3025 RMK AO2 SLP242 T10941178 $= 201712311951 METAR KLGA 311951Z 32020KT 10SM FEW034 SCT110 OVC250 M09/M18\ A3028 RMK AO2 PK WND 31027/1929 SLP253\ VIRGA NW T10941183 $= 201712312051 METAR KLGA 312051Z 32016G21KT 10SM FEW033 BKN095 BKN250 M10/M18\ A3029 RMK AO2 PK WND 32026/2000 SLP255\ VIRGA SW-W T11001183 51023 $= 201712312151 METAR KLGA 312151Z 31015G22KT 10SM FEW036 SCT095 SCT250 M10/M18\ A3029 RMK AO2 SLP256 T11001183 $= 201712312251 METAR KLGA 312251Z 31015G24KT 10SM FEW033 FEW095 FEW250 M11/M19\ A3030 RMK AO2 SLP260 T11061189 $= 201712312351 METAR KLGA 312351Z 32016KT 10SM FEW031 FEW095 M11/M18 A3031\ RMK AO2 SLP263 T11061183 11089 21106\ 53007 $=
