 201710010051 METAR KLGA 010051Z 01015G22KT 10SM FEW025 BKN060 13/09 A3030\ RMK AO2 SLP260 T01330094= 201710010151 METAR KLGA 010151Z 01007KT 10SM BKN037 BKN060 13/09 A3032\ RMK AO2 SLP266 T01330094= 201710010251 METAR KLGA 010251Z 01007KT 10SM SCT022 BKN060 13/09 A3034\ RMK AO2 SLP272 T01280094 51018= 201710010351 METAR KLGA 010351Z 03006KT 10SM BKN022 BKN044 13/09 A3034\ RMK AO2 SLP273 T01280089= 201710010451 METAR KLGA 010451Z 01008KT 10SM BKN023 13/09 A3034 RMK AO2\ SLP274 T01280089 401890128= 201710010551 METAR KLGA 010551Z 36008KT 10SM BKN021 13/09 A3035 RMK AO2\ SLP277 T01280094 10139 20128 53005= 201710010651 METAR KLGA 010651Z 34008KT 10SM BKN019 12/09 A3035 RMK AO2\ SLP276 T01220094= 201710010751 METAR KLGA 010751Z 35008KT 10SM BKN017 12/09 A3035 RMK AO2\ SLP276 T01170089= 201710010851 METAR KLGA 010851Z 36009KT 10SM BKN018 11/08 A3036 RMK AO2\ SLP280 T01110083 53003= 201710010951 METAR KLGA 010951Z 01004KT 10SM FEW020 11/08 A3037 RMK AO2\ SLP284 T01110078= 201710011051 METAR KLGA 011051Z VRB06KT 10SM FEW016 FEW050 FEW250 11/07\ A3038 RMK AO2 SLP285 T01110072= 201710011151 METAR KLGA 011151Z 01005KT 10SM FEW016 FEW040 FEW250 12/08\ A3039 RMK AO2 SLP289 T01170078 10128\ 20111 52009= 201710011251 METAR KLGA 011251Z 01007KT 10SM FEW022 FEW090 FEW170 13/07\ A3040 RMK AO2 SLP293 T01280072= 201710011351 METAR KLGA 011351Z 04006KT 10SM FEW031 FEW090 FEW170 14/06\ A3040 RMK AO2 SLP295 ACSL N T01440061= 201710011451 METAR KLGA 011451Z 06006KT 10SM FEW038 FEW190 16/07 A3040\ RMK AO2 SLP293 T01610067 50004= 201710011551 METAR KLGA 011551Z 06006KT 10SM FEW044 17/06 A3038 RMK AO2\ SLP287 T01670061= 201710011651 METAR KLGA 011651Z 02007KT 10SM FEW049 18/06 A3036 RMK AO2\ SLP280 T01780061= 201710011751 METAR KLGA 011751Z 33003KT 10SM FEW050 19/06 A3033 RMK AO2\ SLP271 T01890061 10194 20117 58022= 201710011851 METAR KLGA 011851Z VRB05KT 10SM FEW050 19/06 A3031 RMK AO2\ SLP263 T01890056= 201710011951 METAR KLGA 011951Z 00000KT 10SM FEW060 21/06 A3029 RMK AO2\ SLP257 T02060061= 201710012051 METAR KLGA 012051Z 31004KT 10SM CLR 21/05 A3028 RMK AO2 SLP252\ T02060050 56019= 201710012151 METAR KLGA 012151Z 33005KT 10SM CLR 21/05 A3027 RMK AO2 SLP251\ T02060050= 201710012251 METAR KLGA 012251Z 05007KT 10SM CLR 19/06 A3027 RMK AO2 SLP250\ T01940061= 201710012351 METAR KLGA 012351Z 01003KT 10SM CLR 19/07 A3028 RMK AO2 SLP253\ T01890072 10211 20183 53001= 201710020051 METAR KLGA 020051Z 36006KT 10SM CLR 19/06 A3030 RMK AO2 SLP259\ T01940061= 201710020151 METAR KLGA 020151Z 31004KT 10SM CLR 18/05 A3030 RMK AO2 SLP260\ T01830050= 201710020251 METAR KLGA 020251Z 29006KT 10SM CLR 18/05 A3030 RMK AO2 SLP260\ T01830050 51007= 201710020351 METAR KLGA 020351Z 29006KT 10SM CLR 17/06 A3030 RMK AO2 SLP261\ T01720056= 201710020451 METAR KLGA 020451Z 30006KT 10SM CLR 17/06 A3030 RMK AO2 SLP261\ T01670061 402110111= 201710020551 METAR KLGA 020551Z 29008KT 10SM CLR 16/07 A3030 RMK AO2 SLP261\ T01560067 10200 20156 53001= 201710020651 METAR KLGA 020651Z 33006KT 10SM CLR 16/06 A3031 RMK AO2 SLP263\ T01560061= 201710020751 METAR KLGA 020751Z 36004KT 10SM CLR 14/07 A3031 RMK AO2 SLP262\ T01440067= 201710020851 METAR KLGA 020851Z 36004KT 10SM CLR 14/08 A3032 RMK AO2 SLP267\ T01440083 53005= 201710020951 METAR KLGA 020951Z 02006KT 10SM CLR 14/09 A3034 RMK AO2 SLP273\ T01390089= 201710021051 METAR KLGA 021051Z 02005KT 10SM FEW250 13/07 A3036 RMK AO2\ SLP280 T01330072= 201710021151 METAR KLGA 021151Z 04005KT 10SM FEW250 14/08 A3039 RMK AO2\ SLP290 T01440078 10156 20133 53023= 201710021251 METAR KLGA 021251Z 01006KT 10SM CLR 15/07 A3040 RMK AO2 SLP294\ T01500072= 201710021351 METAR KLGA 021351Z 05008G17KT 10SM CLR 17/07 A3041 RMK AO2\ SLP298 T01670067= 201710021451 METAR KLGA 021451Z 04008KT 10SM CLR 18/06 A3042 RMK AO2 SLP302\ T01830061 51013= 201710021551 METAR KLGA 021551Z 05007KT 10SM CLR 19/06 A3042 RMK AO2 SLP300\ T01890061= 201710021651 METAR KLGA 021651Z VRB06KT 10SM CLR 20/04 A3040 RMK AO2 SLP294\ T02000044= 201710021751 METAR KLGA 021751Z 31003KT 10SM CLR 22/05 A3038 RMK AO2 SLP286\ T02220050 10222 20139 58016= 201710021851 METAR KLGA 021851Z 31003KT 10SM CLR 23/04 A3037 RMK AO2 SLP285\ T02280039= 201710021951 METAR KLGA 021951Z 00000KT 10SM CLR 23/03 A3037 RMK AO2 SLP284\ T02330033= 201710022051 METAR KLGA 022051Z 00000KT 10SM FEW250 23/02 A3039 RMK AO2\ SLP289 T02330017 53003= 201710022151 METAR KLGA 022151Z 00000KT 10SM FEW250 22/01 A3040 RMK AO2\ SLP294 T02220006= 201710022251 METAR KLGA 022251Z 18005KT 10SM FEW250 21/08 A3042 RMK AO2\ SLP300 T02060078= 201710022351 METAR KLGA 022351Z 16009KT 10SM FEW250 19/09 A3044 RMK AO2\ SLP306 T01890094 10233 20189 53017= 201710030051 METAR KLGA 030051Z 14009KT 10SM FEW250 18/09 A3047 RMK AO2\ SLP316 T01830094= 201710030151 METAR KLGA 030151Z 16003KT 10SM FEW250 18/10 A3049 RMK AO2\ SLP323 T01780100= 201710030251 METAR KLGA 030251Z 00000KT 10SM FEW250 17/11 A3050 RMK AO2\ SLP328 T01720106 51022= 201710030351 METAR KLGA 030351Z 15003KT 10SM CLR 17/11 A3050 RMK AO2 SLP329\ T01670106= 201710030551 METAR KLGA 030551Z 00000KT 10SM CLR 17/11 A3052 RMK AO2 SLP335\ T01670106 10189 20161 52007= 201710030651 METAR KLGA 030651Z 00000KT 10SM FEW250 16/11 A3053 RMK AO2\ SLP337 T01610106= 201710030751 METAR KLGA 030751Z 07004KT 10SM FEW250 16/10 A3053 RMK AO2\ SLP339 T01610100= 201710030851 METAR KLGA 030851Z 04004KT 10SM CLR 16/12 A3054 RMK AO2 SLP341\ T01560122 52006= 201710030951 METAR KLGA 030951Z 10004KT 10SM FEW250 15/13 A3055 RMK AO2\ SLP345 T01500128= 201710031051 METAR KLGA 031051Z 08004KT 10SM FEW045 FEW250 15/11 A3058\ RMK AO2 SLP355 T01500111= 201710031151 METAR KLGA 031151Z 07005KT 10SM FEW032 FEW250 16/12 A3060\ RMK AO2 SLP361 T01560117 10167 20150\ 53020= 201710031251 METAR KLGA 031251Z 11007KT 10SM FEW032 FEW250 17/12 A3061\ RMK AO2 SLP365 T01670117= 201710031351 METAR KLGA 031351Z 12009KT 090V160 10SM SCT028 BKN032 19/11\ A3063 RMK AO2 SLP370 T01890111= 201710031451 METAR KLGA 031451Z VRB03KT 10SM BKN036 19/10 A3063 RMK AO2\ SLP373 T01890100 51012= 201710031551 METAR KLGA 031551Z 11005KT 10SM SCT040 19/10 A3062 RMK AO2\ SLP370 T01940100= 201710031651 METAR KLGA 031651Z 17008KT 10SM FEW043 21/09 A3061 RMK AO2\ SLP364 T02060094= 201710031751 METAR KLGA 031751Z 16008G14KT 10SM FEW045 21/09 A3059 RMK\ AO2 SLP359 T02110089 10211 20156\ 58014= 201710031851 METAR KLGA 031851Z 16012G15KT 10SM FEW045 21/09 A3058 RMK\ AO2 SLP356 T02110089= 201710031951 METAR KLGA 031951Z 16007G16KT 130V190 10SM FEW045 20/08 A3057\ RMK AO2 SLP352 T02000078= 201710032051 METAR KLGA 032051Z 14007KT 10SM FEW045 19/07 A3057 RMK AO2\ SLP350 T01940072 56009= 201710032151 METAR KLGA 032151Z 16008KT 10SM FEW045 18/08 A3057 RMK AO2\ SLP351 T01830078= 201710032251 METAR KLGA 032251Z 15007KT 10SM FEW045 SCT250 17/08 A3057\ RMK AO2 SLP352 T01720078= 201710032351 METAR KLGA 032351Z 14008KT 10SM SCT250 17/09 A3057 RMK AO2\ SLP352 T01670089 10217 20167 50002= 201710040051 METAR KLGA 040051Z 15006KT 10SM SCT250 16/09 A3056 RMK AO2\ SLP349 T01610094= 201710040151 METAR KLGA 040151Z 17004KT 10SM SCT250 16/08 A3056 RMK AO2\ SLP348 T01610083= 201710040251 METAR KLGA 040251Z 19005KT 10SM FEW250 16/09 A3055 RMK AO2\ SLP344 T01610089 58008= 201710040351 METAR KLGA 040351Z 23003KT 10SM SCT250 16/10 A3054 RMK AO2\ SLP341 T01610100= 201710040451 METAR KLGA 040451Z 21003KT 10SM SCT250 16/10 A3052 RMK AO2\ SLP335 T01560100 402170150= 201710040551 METAR KLGA 040551Z 22005KT 10SM SCT250 16/10 A3051 RMK AO2\ SLP333 T01560100 10167 20156 57012= 201710040651 METAR KLGA 040651Z 23004KT 10SM FEW250 16/11 A3049 RMK AO2\ SLP325 T01560106= 201710040751 METAR KLGA 040751Z 22005KT 10SM FEW250 15/11 A3048 RMK AO2\ SLP320 T01500106= 201710040851 METAR KLGA 040851Z 21006KT 10SM FEW250 15/11 A3047 RMK AO2\ SLP317 T01500111 56016= 201710040951 METAR KLGA 040951Z 25004KT 10SM FEW250 15/11 A3046 RMK AO2\ SLP313 T01500111= 201710041051 METAR KLGA 041051Z 23003KT 10SM FEW250 14/11 A3045 RMK AO2\ SLP310 T01440111= 201710041151 METAR KLGA 041151Z 22005KT 10SM FEW250 15/11 A3045 RMK AO2\ SLP311 T01500111 10156 20144 55005= 201710041251 METAR KLGA 041251Z 23010KT 10SM FEW250 17/12 A3045 RMK AO2\ SLP309 T01670117= 201710041351 METAR KLGA 041351Z 23010KT 10SM FEW035 FEW250 18/12 A3043\ RMK AO2 SLP305 T01830122= 201710041451 METAR KLGA 041451Z 23009KT 10SM FEW250 19/13 A3041 RMK AO2\ SLP299 T01940128 58013= 201710041551 METAR KLGA 041551Z 22009KT 190V250 10SM FEW250 21/13 A3038\ RMK AO2 SLP288 T02060128= 201710041651 METAR KLGA 041651Z 21010KT 10SM FEW250 22/13 A3035 RMK AO2\ SLP278 T02170128= 201710041751 METAR KLGA 041751Z 22007KT 10SM FEW250 23/13 A3031 RMK AO2\ SLP263 T02330128 10233 20156 58036= 201710041851 METAR KLGA 041851Z 22008KT 170V240 10SM FEW250 23/13 A3028\ RMK AO2 SLP252 T02330128= 201710041951 METAR KLGA 041951Z 16014KT 10SM FEW250 23/15 A3025 RMK AO2\ WSHFT 1919 SLP243 T02280150= 201710042051 METAR KLGA 042051Z 17009KT 10SM FEW250 23/15 A3024 RMK AO2\ SLP239 T02280150 56025= 201710042151 METAR KLGA 042151Z 17010KT 10SM FEW250 22/16 A3022 RMK AO2\ SLP232 T02170161= 201710042251 METAR KLGA 042251Z 22009KT 10SM FEW250 23/13 A3021 RMK AO2\ SLP230 T02330133= 201710042351 METAR KLGA 042351Z 23010KT 10SM FEW250 23/13 A3021 RMK AO2\ SLP231 T02280133 10239 20217 55007= 201710050051 METAR KLGA 050051Z 22012KT 10SM FEW250 22/14 A3020 RMK AO2\ SLP227 T02220139= 201710050151 METAR KLGA 050151Z 22012KT 10SM CLR 21/14 A3020 RMK AO2 SLP226\ T02110144= 201710050251 METAR KLGA 050251Z 21011KT 10SM FEW250 21/14 A3019 RMK AO2\ SLP224 T02060144 56007= 201710050351 METAR KLGA 050351Z 24010G19KT 10SM FEW250 20/14 A3019 RMK\ AO2 SLP222 T02000144= 201710050451 METAR KLGA 050451Z 24014G21KT 10SM SCT130 20/14 A3018 RMK\ AO2 SLP220 T02000139 402390144= 201710050551 METAR KLGA 050551Z 24015G19KT 10SM BKN100 20/14 A3017 RMK\ AO2 SLP217 T02000139 10228 20200\ 58007= 201710050651 METAR KLGA 050651Z 21007KT 10SM BKN100 19/14 A3016 RMK AO2\ SLP212 T01940139= 201710050751 METAR KLGA 050751Z 23009KT 10SM BKN100 20/14 A3014 RMK AO2\ SLP205 T02000139= 201710050851 METAR KLGA 050851Z 23010KT 10SM SCT110 SCT250 19/14 A3012\ RMK AO2 SLP201 T01940139 56016= 201710050951 METAR KLGA 050951Z 24007KT 10SM BKN090 BKN110 19/14 A3012\ RMK AO2 SLP201 T01940139= 201710051051 METAR KLGA 051051Z 21007KT 10SM BKN110 19/14 A3014 RMK AO2\ SLP206 T01890144= 201710051151 METAR KLGA 051151Z 23008KT 10SM BKN110 19/14 A3014 RMK AO2\ SLP207 T01890144 10200 20189 53007= 201710051251 METAR KLGA 051251Z 21008KT 10SM FEW110 BKN250 19/14 A3015\ RMK AO2 SLP208 T01940144= 201710051351 METAR KLGA 051351Z 23008KT 10SM SCT110 SCT250 21/14 A3014\ RMK AO2 SLP206 T02110144= 201710051451 METAR KLGA 051451Z 20005KT 10SM FEW110 SCT250 23/14 A3013\ RMK AO2 SLP201 T02330144 58006= 201710051551 METAR KLGA 051551Z 24008KT 10SM FEW110 BKN250 25/14 A3010\ RMK AO2 SLP193 T02500144= 201710051651 METAR KLGA 051651Z 24008KT 10SM SCT090 BKN250 27/15 A3008\ RMK AO2 SLP187 T02670150= 201710051751 METAR KLGA 051751Z 26012G18KT 10SM BKN100 BKN150 BKN250 28/16\ A3006 RMK AO2 SLP180 T02780161 10278\ 20189 56021= 201710051851 METAR KLGA 051851Z 25010KT 10SM SCT090 SCT110 BKN250 28/16\ A3004 RMK AO2 SLP172 T02830161= 201710051951 METAR KLGA 051951Z 22008KT 10SM SCT060 SCT110 BKN250 29/16\ A3003 RMK AO2 SLP168 T02890161= 201710052051 METAR KLGA 052051Z 23011G17KT 10SM SCT055 BKN120 BKN240 28/17\ A3002 RMK AO2 SLP164 T02830167 56016= 201710052151 METAR KLGA 052151Z 23011G17KT 10SM SCT050 BKN120 OVC200 28/17\ A3002 RMK AO2 SLP165 T02780167= 201710052251 METAR KLGA 052251Z 22008KT 10SM FEW050 SCT120 OVC220 27/17\ A3002 RMK AO2 SLP165 T02670167= 201710052351 METAR KLGA 052351Z 25012KT 10SM SCT080 BKN120 OVC220 26/17\ A3004 RMK AO2 SLP171 T02610167 10289\ 20261 53006= 201710060051 METAR KLGA 060051Z 23008KT 10SM SCT080 SCT140 BKN190 OVC230\ 26/17 A3004 RMK AO2 SLP174 T02610167= 201710060151 METAR KLGA 060151Z 23010KT 10SM -RA SCT060 BKN070 BKN120\ OVC140 25/18 A3005 RMK AO2 RAB42\ SLP177 P0000 T02500178= 201710060251 METAR KLGA 060251Z 25006KT 10SM -RA OVC120 23/19 A3005 RMK\ AO2 RAE0158B14 SLP176 P0000 60000\ T02330189 50005= 201710060351 METAR KLGA 060351Z 26009G17KT 10SM -RA SCT080 OVC110 23/19\ A3006 RMK AO2 RAE00B33 SLP179 P0000\ T02330189= 201710060451 METAR KLGA 060451Z 26008KT 10SM FEW070 BKN110 OVC140 23/19\ A3006 RMK AO2 RAE31 SLP178 P0000\ T02280189 402890189= 201710060551 METAR KLGA 060551Z 23005KT 10SM BKN080 BKN110 23/19 A3007\ RMK AO2 SLP183 60000 T02280189 10267\ 20228 53006= 201710060651 METAR KLGA 060651Z 29006KT 10SM BKN200 22/19 A3006 RMK AO2\ SLP177 T02220189= 201710060751 METAR KLGA 060751Z 29004KT 10SM FEW120 22/18 A3006 RMK AO2\ SLP179 T02170183= 201710060851 METAR KLGA 060851Z 27005KT 10SM SCT110 BKN140 22/17 A3007\ RMK AO2 SLP182 T02170172 55001= 201710060951 METAR KLGA 060951Z 30004KT 10SM FEW130 BKN150 21/18 A3009\ RMK AO2 SLP188 T02110178= 201710061051 METAR KLGA 061051Z 30005KT 10SM BKN120 21/17 A3010 RMK AO2\ SLP191 T02110167= 201710061151 METAR KLGA 061151Z 31005KT 10SM FEW120 BKN170 21/16 A3010\ RMK AO2 SLP194 T02110161 10222 20211\ 51012= 201710061251 METAR KLGA 061251Z 30005KT 10SM FEW120 SCT170 22/16 A3010\ RMK AO2 SLP194 T02170156= 201710061351 METAR KLGA 061351Z 31006KT 10SM BKN150 22/17 A3011 RMK AO2\ SLP194 T02220167= 201710061451 METAR KLGA 061451Z 31004KT 10SM FEW150 FEW250 24/16 A3010\ RMK AO2 SLP191 T02390161 58003= 201710061551 METAR KLGA 061551Z 31007KT 10SM FEW075 FEW150 FEW250 25/15\ A3008 RMK AO2 SLP187 T02500150= 201710061651 METAR KLGA 061651Z 31006KT 10SM FEW050 FEW120 SCT250 26/15\ A3006 RMK AO2 SLP180 T02610150= 201710061751 METAR KLGA 061751Z 26006KT 10SM FEW050 FEW140 SCT250 27/15\ A3005 RMK AO2 SLP174 T02670150 10272\ 20211 58016= 201710061851 METAR KLGA 061851Z 26011KT 10SM FEW050 FEW140 SCT250 27/14\ A3004 RMK AO2 SLP172 T02720139= 201710061951 METAR KLGA 061951Z 29006KT 10SM FEW050 SCT140 SCT250 27/13\ A3003 RMK AO2 SLP168 T02720133= 201710062051 METAR KLGA 062051Z 17010KT 10SM FEW055 SCT140 SCT250 25/18\ A3004 RMK AO2 SLP171 T02500178 55004= 201710062151 METAR KLGA 062151Z 17011KT 10SM FEW055 FEW140 SCT250 23/18\ A3003 RMK AO2 SLP169 T02330183= 201710062251 METAR KLGA 062251Z 18008KT 10SM FEW055 SCT140 SCT250 22/19\ A3004 RMK AO2 SLP171 T02220189= 201710062351 METAR KLGA 062351Z 18004KT 10SM FEW050 SCT140 BKN250 22/19\ A3006 RMK AO2 SLP178 T02220194 10278\ 20217 53007= 201710070051 METAR KLGA 070051Z 16005KT 10SM FEW050 BKN250 22/19 A3006\ RMK AO2 SLP177 T02220194= 201710070151 METAR KLGA 070151Z 00000KT 10SM FEW045 BKN170 BKN250 22/19\ A3007 RMK AO2 SLP184 T02220194= 201710070251 METAR KLGA 070251Z 17003KT 10SM BKN160 BKN190 23/19 A3008\ RMK AO2 SLP186 T02280194 53007= 201710070351 METAR KLGA 070351Z 19004KT 10SM BKN160 23/19 A3007 RMK AO2\ SLP184 T02280189= 201710070451 METAR KLGA 070451Z 00000KT 10SM BKN160 23/19 A3008 RMK AO2\ SLP185 T02280194 402780211= 201710070551 METAR KLGA 070551Z 06006KT 10SM SCT130 21/20 A3008 RMK AO2\ SLP186 T02110200 10228 20211 53001= 201710070651 METAR KLGA 070651Z 06007KT 10SM FEW015 FEW140 BKN250 21/19\ A3009 RMK AO2 SLP188 T02060194= 201710070751 METAR KLGA 070751Z 05005KT 10SM BKN006 BKN060 BKN250 20/19\ A3009 RMK AO2 SLP190 T02000189= 201710070851 METAR KLGA 070851Z 07005KT 10SM FEW006 FEW060 SCT250 20/19\ A3009 RMK AO2 SLP189 T02000194 50002= 201710070951 METAR KLGA 070951Z 05003KT 8SM OVC006 20/19 A3010 RMK AO2\ SLP192 T02000194= 201710071051 METAR KLGA 071051Z 05004KT 4SM BR BKN004 BKN040 19/19 A3011\ RMK AO2 SLP194 T01940189= 201710071151 METAR KLGA 071151Z 11003KT 1/2SM R04/P6000FT BR OVC003 19/19\ A3011 RMK AO2 SFC VIS 2 1/2 SLP195\ T01890189 10211 20189 51006= 201710071251 METAR KLGA 071251Z 05006KT 1 1/2SM BR BKN006 BKN150 BKN250\ 20/19 A3013 RMK AO2 SFC VIS 3 SLP202\ T02000189= 201710071351 METAR KLGA 071351Z 04007KT 6SM BR FEW003 SCT008 BKN150 BKN250\ 21/19 A3014 RMK AO2 SLP204 T02060189= 201710071451 METAR KLGA 071451Z 05005KT 10SM FEW009 SCT160 BKN250 23/19\ A3012 RMK AO2 SLP200 T02280189 50005= 201710071551 METAR KLGA 071551Z 21004KT 10SM SCT160 BKN250 26/17 A3011\ RMK AO2 SLP197 T02610172= 201710071651 METAR KLGA 071651Z 17006KT 10SM FEW040 SCT160 BKN250 26/18\ A3010 RMK AO2 SLP191 T02610178= 201710071751 METAR KLGA 071751Z 17009KT 10SM FEW035 BKN190 BKN250 27/18\ A3007 RMK AO2 SLP183 T02670178 10278\ 20189 58017= 201710071851 METAR KLGA 071851Z 16012KT 10SM FEW035 BKN150 BKN250 26/19\ A3006 RMK AO2 SLP180 T02560189= 201710071951 METAR KLGA 071951Z 18012G20KT 10SM FEW040 BKN150 OVC250 25/19\ A3006 RMK AO2 SLP178 T02500189= 201710072051 METAR KLGA 072051Z 17015G20KT 10SM FEW040 SCT150 BKN250 25/18\ A3004 RMK AO2 SLP171 T02500183 58013= 201710072151 METAR KLGA 072151Z 18014G21KT 10SM FEW040 SCT150 BKN250 24/19\ A3003 RMK AO2 PK WND 18026/2100 SLP169\ T02390194= 201710072251 METAR KLGA 072251Z 17011KT 10SM FEW040 SCT150 BKN250 23/20\ A3003 RMK AO2 SLP170 T02280200= 201710072351 METAR KLGA 072351Z 18012KT 10SM CLR 23/20 A3004 RMK AO2 SLP173\ T02280200 10272 20228 53002= 201710080051 METAR KLGA 080051Z 18011KT 10SM SCT250 22/20 A3004 RMK AO2\ SLP172 T02220200= 201710080151 METAR KLGA 080151Z 18009KT 10SM BKN045 BKN250 22/20 A3005\ RMK AO2 SLP176 T02220200= 201710080251 METAR KLGA 080251Z 17012G18KT 10SM OVC050 22/20 A3004 RMK\ AO2 SLP171 T02220200 58001= 201710080351 METAR KLGA 080351Z 18010KT 10SM OVC050 22/20 A3002 RMK AO2\ SLP166 T02220200= 201710080451 METAR KLGA 080451Z 19010KT 10SM FEW019 OVC050 22/20 A3001\ RMK AO2 SLP162 T02220200 402780189= 201710080551 METAR KLGA 080551Z 18010KT 10SM SCT037 OVC055 23/20 A3000\ RMK AO2 SLP160 T02280200 10228 20222\ 56012= 201710080651 METAR KLGA 080651Z 18007KT 10SM OVC017 22/20 A2999 RMK AO2\ SLP155 T02220200= 201710080751 METAR KLGA 080751Z 18007KT 10SM -RA OVC016 22/21 A2997 RMK\ AO2 RAB29 SLP149 P0000 T02220206= 201710080851 METAR KLGA 080851Z 17007KT 10SM OVC018 22/21 A2995 RMK AO2\ RAE0758 SLP142 P0000 60000 T02220206\ 58013= 201710080951 METAR KLGA 080951Z 18009KT 10SM OVC017 23/21 A2994 RMK AO2\ SLP139 T02280206= 201710081051 METAR KLGA 081051Z 18009KT 10SM BKN020 BKN065 BKN090 23/21\ A2994 RMK AO2 SLP138 T02280206= 201710081151 METAR KLGA 081151Z 17010KT 10SM BKN019 BKN055 OVC085 23/21\ A2994 RMK AO2 SLP137 60000 T02280206\ 10228 20222 56005= 201710081251 METAR KLGA 081251Z 18008KT 5SM -RA BR FEW011 OVC018 22/21\ A2993 RMK AO2 LTG DSNT SW RAB28 SLP134\ P0002 T02220211= 201710081351 METAR KLGA 081351Z 18007KT 7SM SCT014 BKN020 OVC033 22/22\ A2992 RMK AO2 RAE41 SLP132 P0030\ T02220217= 201710081451 METAR KLGA 081451Z 20007KT 8SM -RA FEW010 BKN012 OVC022 23/22\ A2992 RMK AO2 RAB33 SLP133 P0000\ 60032 T02280222 55004= 201710081551 METAR KLGA 081551Z 20010KT 8SM -RA FEW010 OVC012 23/23 A2993\ RMK AO2 SLP134 P0004 T02330228= 201710081651 METAR KLGA 081651Z 21008KT 8SM -RA FEW010 BKN012 BKN023 OVC140\ 24/23 A2993 RMK AO2 SLP135 P0001\ T02440228= 201710081751 METAR KLGA 081751Z 21008KT 8SM FEW010 BKN012 BKN016 OVC140\ 25/23 A2991 RMK AO2 RAE36 SLP128\ P0000 60037 T02500228 10250 20217\ 58006= 201710081851 METAR KLGA 081851Z 22007KT 10SM BKN018 BKN024 OVC047 26/23\ A2991 RMK AO2 SLP129 T02560228= 201710081951 METAR KLGA 081951Z 21011G15KT 10SM FEW018 BKN045 OVC140 26/22\ A2991 RMK AO2 SLP127 T02610222= 201710082051 METAR KLGA 082051Z 22010KT 10SM FEW019 BKN045 BKN140 26/22\ A2991 RMK AO2 SLP129 T02560222 53001= 201710082151 METAR KLGA 082151Z 22011G17KT 10SM FEW019 SCT045 BKN200 26/22\ A2993 RMK AO2 SLP135 T02560217= 201710082251 METAR KLGA 082251Z 23006KT 10SM FEW019 FEW045 BKN210 25/22\ A2995 RMK AO2 SLP142 T02500217= 201710082351 METAR KLGA 082351Z 22008KT 10SM FEW019 FEW045 BKN210 25/22\ A2996 RMK AO2 SLP145 T02500222 10267\ 20250 51016= 201710090051 METAR KLGA 090051Z 22007KT 10SM FEW020 SCT050 BKN200 25/22\ A2997 RMK AO2 SLP150 T02500217= 201710090151 METAR KLGA 090151Z 19003KT 10SM FEW020 BKN200 25/22 A2998\ RMK AO2 SLP151 T02500222= 201710090251 METAR KLGA 090251Z 17006KT 10SM FEW025 BKN200 24/23 A3000\ RMK AO2 SLP158 T02440228 53013= 201710090351 METAR KLGA 090351Z 18008KT 10SM FEW025 BKN200 24/23 A3000\ RMK AO2 SLP157 T02390228= 201710090451 METAR KLGA 090451Z 16005KT 10SM FEW025 BKN100 24/22 A2999\ RMK AO2 SLP156 T02390222 402670217= 201710090551 METAR KLGA 090551Z 17005KT 10SM FEW025 BKN100 23/22 A2999\ RMK AO2 SLP154 T02330222 10256 20233\ 58004= 201710090651 METAR KLGA 090651Z 17004KT 10SM FEW025 OVC200 23/22 A2998\ RMK AO2 SLP150 T02280217= 201710090751 METAR KLGA 090751Z 17007KT 7SM FEW006 BKN035 OVC100 22/22\ A2998 RMK AO2 SLP150 T02220217= 201710090851 METAR KLGA 090851Z 18003KT 7SM -RA FEW006 BKN035 OVC050 22/22\ A2997 RMK AO2 RAB0754 SLP150 P0001\ 60001 T02220217 56004= 201710090951 METAR KLGA 090951Z 18005KT 7SM FEW006 BKN065 OVC095 22/21\ A2997 RMK AO2 RAE14B31E42 SLP150\ P0001 T02170211= 201710091051 METAR KLGA 091051Z 17009KT 6SM -RA BR FEW006 SCT065 BKN110\ 22/21 A2996 RMK AO2 RAB44 SLP147\ P0000 T02170211= 201710091151 METAR KLGA 091151Z 17009G15KT 10SM SCT006 SCT050 BKN110 23/22\ A2998 RMK AO2 RAE1058B25E35 SLP151\ P0000 60002 70039 T02330217 10233\ 20217 53001= 201710091251 METAR KLGA 091251Z 18009KT 7SM BKN006 OVC050 23/22 A2998\ RMK AO2 RAB1157E07 SLP152 P0000 T02330217= 201710091351 METAR KLGA 091351Z 18012G19KT 6SM BR OVC005 23/22 A2996 RMK\ AO2 SLP145 T02330217= 201710091451 METAR KLGA 091451Z 17014G22KT 6SM -RA BR OVC006 23/22 A2994\ RMK AO2 RAB21 SLP137 P0000 60000\ T02280217 58014= 201710091551 METAR KLGA 091551Z 18014G20KT 6SM -RA BR OVC006 23/22 A2992\ RMK AO2 SLP132 P0002 T02330222= 201710091651 METAR KLGA 091651Z 17012G22KT 140V200 6SM -RA BR OVC008 24/22\ A2989 RMK AO2 SLP123 P0005 T02440222= 201710091751 METAR KLGA 091751Z 17020G28KT 2SM -RA BR BKN007 BKN024 OVC039\ 23/22 A2985 RMK AO2 PK WND 16031/1734\ SFC VIS 4 SLP107 P0012 60019 T02280217\ 10244 20222 58030= 201710091851 METAR KLGA 091851Z 18016G30KT 2 1/2SM -RA BR BKN007 OVC020\ 23/22 A2983 RMK AO2 PK WND 18031/1802\ SFC VIS 5 RAE10B28 SLP101 P0000 T02280217= 201710091951 METAR KLGA 091951Z 18011G20KT 2 1/2SM -RA BR BKN007 OVC018\ 23/22 A2982 RMK AO2 PK WND 17029/1852\ SFC VIS 5 SLP098 P0000 T02280217= 201710092051 METAR KLGA 092051Z 18009KT 2 1/2SM BR BKN008 OVC020 23/22\ A2982 RMK AO2 SFC VIS 5 RAE51 SLP099\ P0000 60000 T02330222 55008= 201710092151 METAR KLGA 092151Z 19008KT 7SM -DZ BKN010 OVC020 23/22 A2983\ RMK AO2 DZB42 SLP102 P0000 T02330222= 201710092251 METAR KLGA 092251Z VRB05KT 10SM BKN010 OVC020 23/23 A2985\ RMK AO2 DZE09RAB09E24 SLP108 P0002\ T02330228= 201710092351 METAR KLGA 092351Z 21008KT 10SM BKN014 BKN027 OVC075 24/23\ A2986 RMK AO2 SLP110 60002 T02440233\ 10250 20222 51012= 201710100051 METAR KLGA 100051Z 19008KT 10SM SCT014 BKN065 OVC080 24/23\ A2987 RMK AO2 SLP116 T02440233= 201710100151 METAR KLGA 100151Z 21008KT 10SM BKN015 BKN029 BKN043 25/23\ A2989 RMK AO2 SLP120 T02500233= 201710100251 METAR KLGA 100251Z 22007KT 10SM SCT016 OVC080 25/23 A2989\ RMK AO2 SLP123 T02500233 51013= 201710100351 METAR KLGA 100351Z 26012KT 10SM BKN033 OVC080 26/23 A2990\ RMK AO2 SLP126 T02560233= 201710100451 METAR KLGA 100451Z 33015KT 10SM FEW020 BKN031 OVC075 23/18\ A2993 RMK AO2 SLP136 T02330183 402610217= 201710100551 METAR KLGA 100551Z 30015KT 10SM BKN070 23/18 A2995 RMK AO2\ SLP141 T02280183 10261 20228 53018= 201710100651 METAR KLGA 100651Z 31012KT 10SM SCT070 22/18 A2996 RMK AO2\ SLP144 T02220178= 201710100751 METAR KLGA 100751Z 31011KT 10SM FEW070 22/17 A2996 RMK AO2\ SLP146 T02170172= 201710100851 METAR KLGA 100851Z 31006KT 10SM FEW070 21/17 A2998 RMK AO2\ SLP153 T02110172 53012= 201710100951 METAR KLGA 100951Z 33007KT 10SM FEW250 21/17 A3000 RMK AO2\ SLP160 T02060172= 201710101051 METAR KLGA 101051Z 35006KT 10SM FEW065 FEW250 21/16 A3002\ RMK AO2 SLP165 T02060161= 201710101151 METAR KLGA 101151Z 01004KT 10SM FEW065 SCT250 21/16 A3003\ RMK AO2 SLP170 70021 T02060161 10228\ 20206 51017= 201710101251 METAR KLGA 101251Z 30004KT 10SM FEW065 SCT250 22/16 A3006\ RMK AO2 SLP179 T02170161= 201710101351 METAR KLGA 101351Z 31006KT 10SM CLR 22/16 A3007 RMK AO2 SLP181\ T02220161= 201710101451 METAR KLGA 101451Z 32006KT 10SM FEW075 SCT250 23/16 A3007\ RMK AO2 SLP181 T02280161 50011= 201710101551 METAR KLGA 101551Z 34007KT 10SM FEW035 SCT075 BKN250 25/16\ A3006 RMK AO2 SLP178 T02500161= 201710101651 METAR KLGA 101651Z 35009KT 10SM FEW035 SCT080 BKN250 26/16\ A3005 RMK AO2 SLP174 T02610156 $= 201710101751 METAR KLGA 101751Z 33013KT 10SM FEW040 SCT085 BKN250 27/16\ A3003 RMK AO2 SLP169 T02670156 10272\ 20206 58011 $= 201710101851 METAR KLGA 101851Z 32011KT 10SM SCT045 BKN250 27/15 A3004\ RMK AO2 SLP171 T02670150 $= 201710101951 METAR KLGA 101951Z 35009KT 10SM FEW045 BKN250 27/16 A3003\ RMK AO2 SLP170 T02670161 $= 201710102051 METAR KLGA 102051Z 35005KT 10SM FEW045 SCT250 27/16 A3003\ RMK AO2 SLP167 T02720156 58002 $= 201710102151 METAR KLGA 102151Z 32007KT 10SM FEW045 FEW250 27/16 A3004\ RMK AO2 SLP171 T02670156 $= 201710102251 METAR KLGA 102251Z 34006KT 10SM FEW045 FEW150 SCT250 26/15\ A3006 RMK AO2 SLP178 T02560150 $= 201710102351 METAR KLGA 102351Z 00000KT 10SM FEW150 FEW250 25/16 A3008\ RMK AO2 SLP185 T02500161 10272 20250\ 53018 $= 201710110051 METAR KLGA 110051Z 32006KT 10SM FEW150 FEW250 24/17 A3008\ RMK AO2 SLP186 T02440172 $= 201710110151 METAR KLGA 110151Z 30005KT 10SM FEW150 FEW250 24/17 A3009\ RMK AO2 SLP190 T02390172 $= 201710110251 METAR KLGA 110251Z 35004KT 10SM FEW150 FEW250 23/16 A3010\ RMK AO2 SLP191 T02330161 52006= 201710110351 METAR KLGA 110351Z 03005KT 10SM FEW250 22/16 A3009 RMK AO2\ SLP191 T02220156= 201710110451 METAR KLGA 110451Z 03004KT 10SM FEW250 21/09 A3010 RMK AO2\ SLP191 T02060089 402720206= 201710110551 METAR KLGA 110551Z 04004KT 10SM CLR 21/00 A3010 RMK AO2 SLP192\ T02060000 10250 20206 53001= 201710110651 METAR KLGA 110651Z 03004KT 10SM SCT250 21/M01 A3009 RMK AO2\ SLP190 T02061011= 201710110751 METAR KLGA 110751Z 03005KT 10SM BKN240 20/15 A3008 RMK AO2\ SLP187 T02000150= 201710110851 METAR KLGA 110851Z 02005KT 10SM BKN210 20/15 A3009 RMK AO2\ SLP188 T02000150 55004= 201710110951 METAR KLGA 110951Z 01003KT 10SM BKN190 20/15 A3011 RMK AO2\ SLP195 T02000150= 201710111051 METAR KLGA 111051Z 02005KT 10SM BKN160 20/16 A3011 RMK AO2\ SLP195 T02000161= 201710111151 METAR KLGA 111151Z 03004KT 10SM OVC150 20/15 A3012 RMK AO2\ SLP200 T02000150 10206 20200 51012= 201710111251 METAR KLGA 111251Z 03005KT 10SM OVC140 20/15 A3014 RMK AO2\ RAB41E45 SLP205 P0000 T02000150= 201710111351 METAR KLGA 111351Z 05010KT 10SM BKN140 OVC200 21/14 A3013\ RMK AO2 SLP204 T02060139= 201710111451 METAR KLGA 111451Z 06011KT 10SM BKN140 BKN250 21/14 A3013\ RMK AO2 SLP203 60000 T02110144 50003= 201710111551 METAR KLGA 111551Z 04010KT 10SM FEW100 BKN150 22/15 A3014\ RMK AO2 SLP206 T02170150= 201710111651 METAR KLGA 111651Z 05011KT 10SM BKN150 22/15 A3011 RMK AO2\ SLP197 T02220150= 201710111751 METAR KLGA 111751Z 04011KT 10SM FEW038 BKN140 23/16 A3010\ RMK AO2 SLP191 60000 T02330156 10233\ 20200 58012= 201710111851 METAR KLGA 111851Z 04015KT 10SM FEW040 BKN140 22/16 A3008\ RMK AO2 SLP184 T02220161= 201710111951 METAR KLGA 111951Z 04015KT 10SM BKN100 BKN250 22/16 A3007\ RMK AO2 SLP184 T02170161= 201710112051 METAR KLGA 112051Z 05010KT 10SM FEW040 BKN100 OVC250 22/17\ A3008 RMK AO2 SLP185 T02170167 55006= 201710112151 METAR KLGA 112151Z 15007KT 10SM OVC100 22/15 A3012 RMK AO2\ SLP200 T02220150= 201710112251 METAR KLGA 112251Z 10008KT 10SM -RA FEW040 OVC095 21/17 A3013\ RMK AO2 RAB2156 SLP201 P0003 T02060167= 201710112351 METAR KLGA 112351Z 10008KT 10SM OVC110 21/17 A3014 RMK AO2\ RAE07 SLP205 P0000 60003 T02060167\ 10233 20200 51020= 201710120051 METAR KLGA 120051Z 08007KT 10SM OVC100 20/16 A3015 RMK AO2\ SLP210 T02000161= 201710120151 METAR KLGA 120151Z 07013KT 10SM SCT018 BKN090 OVC120 18/15\ A3016 RMK AO2 SLP212 T01830150= 201710120251 METAR KLGA 120251Z 08013KT 10SM BKN085 OVC180 18/13 A3016\ RMK AO2 SLP214 T01780133 51009= 201710120351 METAR KLGA 120351Z 06012KT 10SM BKN080 OVC180 18/12 A3017\ RMK AO2 SLP216 T01780122= 201710120451 METAR KLGA 120451Z 07013KT 10SM -RA OVC080 17/13 A3018 RMK\ AO2 RAB41 SLP221 P0000 T01720128\ 402560172= 201710120551 METAR KLGA 120551Z 07017KT 10SM -RA FEW042 OVC055 16/12 A3021\ RMK AO2 SLP230 P0002 60002 T01610117\ 10206 20161 53016= 201710120651 METAR KLGA 120651Z 09014KT 10SM -RA OVC043 16/13 A3020 RMK\ AO2 RAE19B51 SLP227 P0000 T01610128= 201710120751 METAR KLGA 120751Z 08017KT 10SM -RA BKN039 OVC045 16/13 A3022\ RMK AO2 RAE00B24 SLP232 P0000 T01610128= 201710120851 METAR KLGA 120851Z 08012KT 10SM -RA FEW029 SCT036 OVC050\ 16/13 A3024 RMK AO2 SLP240 P0001\ 60001 T01560133 53010= 201710120951 METAR KLGA 120951Z 08012KT 10SM -RA FEW015 SCT021 OVC027\ 16/13 A3026 RMK AO2 SLP246 P0000\ T01560133= 201710121051 METAR KLGA 121051Z 08014KT 10SM -RA OVC022 16/13 A3027 RMK\ AO2 SLP251 P0001 T01560128= 201710121151 METAR KLGA 121151Z 06020KT 10SM -RA BKN018 OVC025 16/12 A3030\ RMK AO2 PK WND 05026/1135 RAE19B35\ SLP260 P0000 60002 70007 T01560122\ 10161 20150 53020= 201710121251 METAR KLGA 121251Z 06018KT 10SM SCT025 BKN049 OVC110 16/11\ A3033 RMK AO2 PK WND 06026/1200 RAE26B34E41\ SLP271 P0000 T01560106= 201710121351 METAR KLGA 121351Z 06019G26KT 10SM -RA BKN023 OVC050 16/11\ A3034 RMK AO2 PK WND 06026/1253 RAB45\ SLP275 P0000 T01560111= 201710121451 METAR KLGA 121451Z 06017G24KT 10SM SCT021 OVC029 16/11 A3036\ RMK AO2 RAE29 CIG 023 R22 SW SLP280\ P0000 60000 T01560111 51019= 201710121551 METAR KLGA 121551Z 06019KT 10SM SCT025 BKN032 BKN100 16/10\ A3036 RMK AO2 PK WND 05026/1455 SLP281\ T01610100= 201710121651 METAR KLGA 121651Z 06018KT 10SM BKN030 OVC120 17/10 A3035\ RMK AO2 SLP277 T01720100= 201710121751 METAR KLGA 121751Z 06017KT 10SM BKN032 BKN120 17/09 A3034\ RMK AO2 SLP275 60000 T01720089 10183\ 20150 58005= 201710121851 METAR KLGA 121851Z 06018KT 10SM SCT033 SCT130 17/08 A3034\ RMK AO2 SLP273 T01720083= 201710121951 METAR KLGA 121951Z 06013KT 10SM FEW035 SCT100 18/08 A3033\ RMK AO2 SLP271 T01780078= 201710122051 METAR KLGA 122051Z 07012KT 10SM FEW035 SCT100 18/07 A3034\ RMK AO2 SLP272 T01830072 55003= 201710122151 METAR KLGA 122151Z 09014KT 10SM CLR 18/07 A3034 RMK AO2 SLP275\ T01780067= 201710122251 METAR KLGA 122251Z 08009KT 10SM FEW035 SCT130 18/07 A3035\ RMK AO2 SLP278 T01780067= 201710122351 METAR KLGA 122351Z 08012KT 10SM FEW035 SCT120 17/07 A3037\ RMK AO2 SLP283 T01670067 10183 20167\ 53012= 201710130051 METAR KLGA 130051Z 10011KT 10SM FEW035 BKN120 16/07 A3039\ RMK AO2 SLP291 T01560067= 201710130151 METAR KLGA 130151Z 11012KT 10SM SCT120 14/07 A3040 RMK AO2\ SLP293 T01440072= 201710130251 METAR KLGA 130251Z 10013KT 10SM SCT120 14/07 A3040 RMK AO2\ SLP293 T01390072 50009= 201710130351 METAR KLGA 130351Z 10012KT 10SM SCT120 13/07 A3040 RMK AO2\ SLP295 T01330067= 201710130451 METAR KLGA 130451Z 09011KT 10SM FEW120 13/07 A3041 RMK AO2\ SLP298 T01330072 401830133= 201710130551 METAR KLGA 130551Z 07013KT 10SM FEW120 13/08 A3041 RMK AO2\ SLP298 T01330078 10167 20133 51005= 201710130651 METAR KLGA 130651Z 02010KT 10SM SCT110 12/08 A3041 RMK AO2\ SLP299 T01170078= 201710130751 METAR KLGA 130751Z 03009KT 10SM BKN030 12/08 A3042 RMK AO2\ SLP301 T01170078= 201710130851 METAR KLGA 130851Z 03011KT 10SM FEW016 SCT110 12/08 A3041\ RMK AO2 SLP298 T01170078 50000= 201710130951 METAR KLGA 130951Z 01008KT 10SM OVC016 12/08 A3042 RMK AO2\ SLP301 T01170083= 201710131051 METAR KLGA 131051Z 04013G19KT 10SM SCT015 SCT110 13/09 A3043\ RMK AO2 SLP304 T01280094= 201710131151 METAR KLGA 131151Z 03009KT 10SM FEW015 FEW025 SCT110 13/09\ A3044 RMK AO2 SLP306 T01280089 10139\ 20117 51007= 201710131251 METAR KLGA 131251Z 04009KT 10SM FEW015 BKN041 BKN110 13/09\ A3045 RMK AO2 SLP310 T01280089= 201710131351 METAR KLGA 131351Z 04011KT 10SM FEW015 BKN024 BKN041 15/11\ A3044 RMK AO2 SLP308 T01500106= 201710131451 METAR KLGA 131451Z 04012KT 10SM SCT026 BKN043 16/11 A3044\ RMK AO2 SLP309 T01610111 55001= 201710131551 METAR KLGA 131551Z 04012KT 10SM FEW018 BKN031 16/12 A3043\ RMK AO2 SLP304 T01610117= 201710131651 METAR KLGA 131651Z 05014KT 10SM BKN033 BKN043 18/12 A3040\ RMK AO2 SLP295 T01780117= 201710131751 METAR KLGA 131751Z 04012KT 10SM FEW023 BKN035 BKN043 17/12\ A3038 RMK AO2 SLP288 T01720117 10183\ 20122 58017= 201710131851 METAR KLGA 131851Z 04012KT 10SM SCT037 BKN045 BKN065 18/12\ A3037 RMK AO2 SLP282 T01830117= 201710131951 METAR KLGA 131951Z 05010G19KT 10SM BKN031 BKN044 BKN250 19/11\ A3036 RMK AO2 SLP279 T01940111= 201710132051 METAR KLGA 132051Z 10010KT 10SM BKN031 BKN044 BKN250 19/12\ A3034 RMK AO2 SLP273 T01890117 57015= 201710132151 METAR KLGA 132151Z 11009KT 10SM BKN024 BKN080 19/13 A3034\ RMK AO2 SLP273 T01940128= 201710132251 METAR KLGA 132251Z 10011KT 10SM BKN020 BKN070 19/13 A3034\ RMK AO2 SLP274 T01890133= 201710132351 METAR KLGA 132351Z 11010KT 10SM BKN018 BKN070 18/13 A3034\ RMK AO2 SLP273 T01780133 10200 20172\ 50000= 201710140051 METAR KLGA 140051Z 07009KT 10SM BKN018 OVC060 17/13 A3034\ RMK AO2 SLP273 T01720133= 201710140151 METAR KLGA 140151Z 10007KT 10SM BKN017 OVC055 17/13 A3033\ RMK AO2 SLP271 T01720133= 201710140251 METAR KLGA 140251Z 07006KT 10SM SCT015 BKN035 OVC050 17/13\ A3032 RMK AO2 CIG 015 R22 SW SLP267\ T01720133 58006= 201710140351 METAR KLGA 140351Z 04005KT 10SM BKN013 OVC033 17/14 A3032\ RMK AO2 SLP267 T01720139= 201710140451 METAR KLGA 140451Z 06008KT 10SM FEW013 SCT032 OVC048 17/14\ A3030 RMK AO2 SLP261 T01720144 402000117= 201710140551 METAR KLGA 140551Z 07010KT 10SM -DZ BKN010 BKN026 OVC044\ 17/15 A3029 RMK AO2 DZB36 SLP257\ P0000 60000 T01720150 10178 20172\ 58010= 201710140651 METAR KLGA 140651Z 07007KT 5SM -RA BR OVC014 17/16 A3028\ RMK AO2 DZE06RAB26 SLP252 P0003 T01670156= 201710140751 METAR KLGA 140751Z 05010KT 10SM BKN020 OVC029 17/16 A3026\ RMK AO2 RAE00 SLP247 P0000 T01720161= 201710140851 METAR KLGA 140851Z 04006KT 10SM BKN020 OVC027 17/17 A3025\ RMK AO2 SLP244 60003 T01720167 56013= 201710140951 METAR KLGA 140951Z 05011KT 10SM -RA OVC006 17/17 A3025 RMK\ AO2 RAB04 SLP244 P0000 T01720167= 201710141051 METAR KLGA 141051Z 05011KT 10SM BKN009 BKN017 OVC023 18/16\ A3025 RMK AO2 RAE0952 SLP244 P0000\ T01780161= 201710141151 METAR KLGA 141151Z 03007KT 10SM BKN009 BKN013 OVC023 17/16\ A3025 RMK AO2 SLP242 60003 70003\ T01720161 10178 20167 58002= 201710141251 METAR KLGA 141251Z 02009KT 10SM OVC005 17/16 A3026 RMK AO2\ SLP245 T01720161= 201710141351 METAR KLGA 141351Z 04007KT 10SM OVC006 18/16 A3025 RMK AO2\ SLP244 T01780161= 201710141451 METAR KLGA 141451Z 04009KT 10SM OVC008 18/16 A3025 RMK AO2\ SLP242 T01830161 55003= 201710141551 METAR KLGA 141551Z 04006KT 10SM BKN009 OVC040 20/17 A3024\ RMK AO2 SLP239 T02000167= 201710141651 METAR KLGA 141651Z 04005KT 10SM BKN014 BKN024 OVC040 21/17\ A3021 RMK AO2 SLP231 T02060167= 201710141751 METAR KLGA 141751Z 05004KT 10SM SCT014 BKN022 BKN040 21/17\ A3019 RMK AO2 SLP221 SCT V BKN T02110172\ 10217 20172 58020= 201710141851 METAR KLGA 141851Z 34003KT 10SM BKN020 22/17 A3017 RMK AO2\ SLP216 T02170167= 201710141951 METAR KLGA 141951Z 34003KT 10SM OVC021 22/17 A3016 RMK AO2\ SLP212 T02220167= 201710142051 METAR KLGA 142051Z 31003KT 10SM OVC023 22/17 A3015 RMK AO2\ SLP209 T02220167 56012= 201710142151 METAR KLGA 142151Z 00000KT 10SM OVC024 22/17 A3015 RMK AO2\ SLP211 T02220167= 201710142251 METAR KLGA 142251Z 33003KT 10SM BKN024 22/17 A3017 RMK AO2\ SLP214 T02170167= 201710142351 METAR KLGA 142351Z 03003KT 10SM OVC025 22/17 A3017 RMK AO2\ SLP217 T02170172 10228 20211 53008= 201710150051 METAR KLGA 150051Z 05003KT 10SM OVC022 22/17 A3017 RMK AO2\ SLP217 T02170167= 201710150151 METAR KLGA 150151Z 00000KT 10SM OVC022 22/17 A3017 RMK AO2\ SLP215 T02170167= 201710150251 METAR KLGA 150251Z 00000KT 10SM OVC019 21/17 A3016 RMK AO2\ SLP214 T02110172 58003= 201710150351 METAR KLGA 150351Z 04004KT 10SM FEW020 OVC027 21/17 A3016\ RMK AO2 SLP212 T02060172= 201710150451 METAR KLGA 150451Z 03003KT 10SM OVC019 20/18 A3014 RMK AO2\ SLP206 T02000178 402280167= 201710150551 METAR KLGA 150551Z 18006KT 10SM OVC020 21/17 A3013 RMK AO2\ SLP202 T02060172 10217 20200 58012= 201710150651 METAR KLGA 150651Z 21005KT 10SM BKN020 OVC033 20/17 A3012\ RMK AO2 SLP200 T02000172= 201710150751 METAR KLGA 150751Z 18005KT 10SM BKN025 OVC031 20/17 A3010\ RMK AO2 SLP192 T02000172= 201710150851 METAR KLGA 150851Z 20004KT 9SM SCT015 BKN021 OVC026 19/18\ A3009 RMK AO2 SLP190 T01940178 56012= 201710150951 METAR KLGA 150951Z 21005KT 7SM BKN015 OVC021 19/18 A3009\ RMK AO2 SLP188 T01940178 $= 201710151051 METAR KLGA 151051Z 22005KT 4SM -DZ BR BKN008 BKN010 BKN013\ 19/18 A3007 RMK AO2 DZB11 SLP184\ P0000 T01890178 $= 201710151151 METAR KLGA 151151Z 22004KT 5SM -DZ BR BKN008 OVC012 19/18\ A3007 RMK AO2 SLP183 P0000 60000\ T01940178 10206 20189 56008 $= 201710151251 METAR KLGA 151251Z 19006KT 5SM -DZ BR BKN008 BKN014 OVC020\ 19/18 A3007 RMK AO2 SLP181 P0000\ T01940183 $= 201710151351 METAR KLGA 151351Z 18009KT 6SM -DZ BR BKN007 BKN010 OVC018\ 21/18 A3005 RMK AO2 SLP176 P0000\ T02060183 $= 201710151451 METAR KLGA 151451Z 21008KT 7SM BKN007 BKN010 OVC013 21/18\ A3003 RMK AO2 DZE1355 SLP167 P0000\ 60000 T02060178 58015 $= 201710151551 METAR KLGA 151551Z 22009KT 7SM BKN007 BKN014 BKN026 22/18\ A3000 RMK AO2 SLP159 T02220178 $= 201710151651 METAR KLGA 151651Z 21012KT 8SM SCT007 BKN014 BKN026 22/18\ A2997 RMK AO2 SLP147 T02220178 $= 201710151751 METAR KLGA 151751Z 22010G20KT 10SM SCT010 BKN025 BKN031 23/17\ A2993 RMK AO2 SLP135 60000 T02330167\ 10233 20194 58033 $= 201710151851 METAR KLGA 151851Z 23014G20KT 10SM SCT010 BKN028 BKN045 23/17\ A2991 RMK AO2 SLP128 T02280167 $= 201710151951 METAR KLGA 151951Z 23010G16KT 10SM OVC027 23/17 A2989 RMK\ AO2 SLP122 T02330167 $= 201710152051 METAR KLGA 152051Z 21010KT 10SM OVC025 23/17 A2987 RMK AO2\ SLP116 T02280167 56019 $= 201710152151 METAR KLGA 152151Z 23014KT 10SM OVC025 22/17 A2986 RMK AO2\ SLP112 T02220167 $= 201710152251 METAR KLGA 152251Z 23011KT 10SM OVC024 22/16 A2985 RMK AO2\ SLP108 T02170161 $= 201710152351 METAR KLGA 152351Z 22010G23KT 10SM BKN022 21/17 A2983 RMK\ AO2 SLP101 T02110167 10239 20211\ 58015 $= 201710160051 METAR KLGA 160051Z 22011G17KT 10SM BKN020 21/17 A2981 RMK\ AO2 SLP095 T02110167 $= 201710160151 METAR KLGA 160151Z 21012G22KT 10SM OVC020 21/17 A2982 RMK\ AO2 SLP099 T02110172 $= 201710160251 METAR KLGA 160251Z 21011KT 10SM BKN016 21/17 A2981 RMK AO2\ SLP093 T02060172 58007 $= 201710160351 METAR KLGA 160351Z 20010KT 10SM SCT015 BKN075 21/18 A2979\ RMK AO2 SLP086 T02060178 $= 201710160451 METAR KLGA 160451Z 24010G17KT 10SM BKN015 OVC022 21/18 A2980\ RMK AO2 SLP092 T02110183 402390189\ $= 201710160551 METAR KLGA 160551Z 25009G15KT 10SM SCT016 OVC075 21/18 A2980\ RMK AO2 RAB01E26 SLP091 P0001 60001\ T02110183 10217 20206 51004 $= 201710160651 METAR KLGA 160651Z 31013KT 10SM BKN024 OVC029 20/16 A2982\ RMK AO2 SLP099 T02000161 $= 201710160751 METAR KLGA 160751Z 32017G29KT 10SM FEW050 OVC090 19/12 A2983\ RMK AO2 PK WND 31029/0749 RAB18E27\ SLP100 P0000 T01890122 $= 201710160851 METAR KLGA 160851Z 30009KT 10SM -RA SCT070 OVC090 17/13 A2985\ RMK AO2 RAB28 SLP107 P0000 60000\ T01720133 51016 $= 201710160951 METAR KLGA 160951Z 32015G23KT 10SM FEW018 SCT070 OVC110 17/11\ A2988 RMK AO2 RAE14 SLP117 P0000\ T01670106 $= 201710161051 METAR KLGA 161051Z 32017KT 10SM FEW080 OVC120 17/09 A2990\ RMK AO2 SLP125 T01670094 $= 201710161151 METAR KLGA 161151Z 31019G25KT 10SM FEW024 FEW085 OVC140 16/08\ A2994 RMK AO2 SLP137 60000 70001\ T01560078 10211 20156 53029 $= 201710161251 METAR KLGA 161251Z 32020G27KT 10SM FEW025 FEW075 BKN130 14/07\ A2997 RMK AO2 PK WND 29028/1200 RAB46E49\ SLP148 P0000 T01440067 $= 201710161351 METAR KLGA 161351Z 32014KT 10SM FEW040 FEW055 SCT110 BKN140\ 14/06 A2999 RMK AO2 RAB31E49 SLP156\ P0000 T01390061 $= 201710161451 METAR KLGA 161451Z 32016KT 10SM FEW035 BKN160 14/06 A3000\ RMK AO2 SLP158 60000 T01390061 51022\ $= 201710161551 METAR KLGA 161551Z 30016G20KT 10SM SCT035 BKN160 14/06 A3002\ RMK AO2 SLP167 T01390061 $= 201710161651 METAR KLGA 161651Z 32016G20KT 10SM FEW035 OVC180 14/06 A2999\ RMK AO2 SLP156 T01440061 $= 201710161751 METAR KLGA 161751Z 32017KT 10SM FEW042 BKN170 14/05 A3001\ RMK AO2 SLP160 60000 T01440050 10156\ 20139 51002= 201710161851 METAR KLGA 161851Z 31015G21KT 10SM SCT045 BKN180 14/06 A3001\ RMK AO2 SLP163 T01440056= 201710161951 METAR KLGA 161951Z 30015KT 10SM BKN045 BKN250 14/06 A3003\ RMK AO2 SLP169 T01440056= 201710162051 METAR KLGA 162051Z 31014G21KT 10SM FEW045 BKN250 14/04 A3005\ RMK AO2 SLP176 T01390044 53015= 201710162151 METAR KLGA 162151Z 33012KT 10SM FEW045 BKN250 14/04 A3007\ RMK AO2 SLP183 T01390039= 201710162251 METAR KLGA 162251Z 31015G19KT 10SM FEW045 BKN250 14/04 A3009\ RMK AO2 SLP190 T01390044= 201710162351 METAR KLGA 162351Z 32013G22KT 10SM CLR 13/03 A3013 RMK AO2\ PK WND 34027/2316 SLP203 T01280028\ 10150 20128 53027= 201710170051 METAR KLGA 170051Z 34012G20KT 10SM FEW050 12/03 A3016 RMK\ AO2 SLP211 T01220028= 201710170151 METAR KLGA 170151Z 34015KT 10SM FEW050 SCT250 11/02 A3019\ RMK AO2 SLP221 T01110017= 201710170251 METAR KLGA 170251Z 33017G23KT 10SM CLR 11/01 A3020 RMK AO2\ PK WND 32026/0159 SLP225 T01060006\ 51022= 201710170351 METAR KLGA 170351Z 33015G21KT 10SM CLR 10/01 A3021 RMK AO2\ SLP228 T01000006= 201710170451 METAR KLGA 170451Z 34012KT 10SM CLR 09/00 A3021 RMK AO2 SLP231\ T00890000 402170089= 201710170551 METAR KLGA 170551Z 33010KT 10SM CLR 09/00 A3023 RMK AO2 SLP237\ T00890000 10128 20089 53013= 201710170651 METAR KLGA 170651Z 33009KT 10SM CLR 08/01 A3024 RMK AO2 SLP240\ T00830011= 201710170751 METAR KLGA 170751Z 34008KT 10SM CLR 08/01 A3024 RMK AO2 SLP241\ T00830011= 201710170851 METAR KLGA 170851Z 35007KT 10SM CLR 08/02 A3026 RMK AO2 SLP248\ T00780017 53010= 201710170951 METAR KLGA 170951Z 36009KT 10SM CLR 08/02 A3029 RMK AO2 SLP256\ T00780017= 201710171051 METAR KLGA 171051Z 02011KT 10SM FEW028 08/01 A3031 RMK AO2\ SLP263 T00780011= 201710171151 METAR KLGA 171151Z 01010KT 10SM FEW027 08/01 A3033 RMK AO2\ SLP270 T00780011 10089 20072 51022= 201710171251 METAR KLGA 171251Z 02012KT 10SM FEW027 08/01 A3035 RMK AO2\ SLP277 T00830006= 201710171351 METAR KLGA 171351Z 02009KT 10SM FEW032 09/M01 A3035 RMK AO2\ SLP277 T00941006= 201710171451 METAR KLGA 171451Z 03009KT 10SM CLR 10/M02 A3034 RMK AO2\ SLP272 T01001017 50002= 201710171551 METAR KLGA 171551Z VRB05KT 10SM R04/3500VP6000FT CLR 12/M02\ A3032 RMK AO2 SLP268 T01171022= 201710171651 METAR KLGA 171651Z 00000KT 10SM CLR 13/M02 A3031 RMK AO2\ SLP264 T01281017= 201710171751 METAR KLGA 171751Z 00000KT 10SM CLR 14/M02 A3029 RMK AO2\ SLP256 T01441017 10144 20078 58016= 201710171851 METAR KLGA 171851Z VRB04KT 10SM CLR 15/M01 A3027 RMK AO2\ SLP250 T01501006= 201710171951 METAR KLGA 171951Z VRB04KT 10SM CLR 16/M02 A3026 RMK AO2\ SLP246 T01611017= 201710172051 METAR KLGA 172051Z 21005KT 10SM CLR 16/M02 A3024 RMK AO2\ SLP241 T01561017 56015= 201710172151 METAR KLGA 172151Z 17007KT 10SM CLR 14/02 A3024 RMK AO2 SLP241\ T01440017= 201710172251 METAR KLGA 172251Z 18007KT 10SM CLR 14/01 A3025 RMK AO2 SLP244\ T01440006= 201710172351 METAR KLGA 172351Z 19008KT 10SM CLR 13/04 A3027 RMK AO2 SLP250\ T01330039 10161 20133 53009= 201710180051 METAR KLGA 180051Z 21006KT 10SM CLR 13/05 A3028 RMK AO2 SLP252\ T01330050= 201710180151 METAR KLGA 180151Z 21009KT 10SM CLR 13/03 A3028 RMK AO2 SLP255\ T01330033= 201710180251 METAR KLGA 180251Z 22009KT 10SM CLR 13/03 A3029 RMK AO2 SLP258\ T01330028 53008= 201710180351 METAR KLGA 180351Z 22008KT 10SM CLR 13/03 A3028 RMK AO2 SLP254\ T01280033= 201710180451 METAR KLGA 180451Z 22007KT 10SM CLR 12/03 A3028 RMK AO2 SLP255\ T01220033 401610072= 201710180551 METAR KLGA 180551Z 22007KT 10SM CLR 12/02 A3028 RMK AO2 SLP254\ T01220022 10133 20122 56003= 201710180651 METAR KLGA 180651Z 25008KT 10SM CLR 12/02 A3028 RMK AO2 SLP253\ T01220022= 201710180751 METAR KLGA 180751Z 23007KT 10SM CLR 12/03 A3026 RMK AO2 SLP247\ T01220028= 201710180851 METAR KLGA 180851Z 25006KT 10SM CLR 12/02 A3027 RMK AO2 SLP250\ T01220022 55004= 201710180951 METAR KLGA 180951Z 19005KT 10SM CLR 12/02 A3029 RMK AO2 SLP256\ T01170022= 201710181051 METAR KLGA 181051Z 23006KT 10SM CLR 12/03 A3030 RMK AO2 SLP259\ T01170033= 201710181151 METAR KLGA 181151Z 22004KT 10SM CLR 12/03 A3031 RMK AO2 SLP263\ T01170033 10128 20111 51013= 201710181251 METAR KLGA 181251Z 22006KT 10SM CLR 13/04 A3032 RMK AO2 SLP267\ T01330039= 201710181351 METAR KLGA 181351Z 26006KT 10SM CLR 15/04 A3032 RMK AO2 SLP267\ T01500039= 201710181451 METAR KLGA 181451Z 30005KT 10SM CLR 16/04 A3032 RMK AO2 SLP266\ T01610044 50003= 201710181551 METAR KLGA 181551Z 30004KT 10SM FEW250 18/06 A3032 RMK AO2\ SLP267 T01830056= 201710181651 METAR KLGA 181651Z 32003KT 10SM FEW250 20/07 A3030 RMK AO2\ SLP260 T02000067= 201710181751 METAR KLGA 181751Z 30003KT 10SM CLR 22/07 A3027 RMK AO2 SLP250\ T02170067 10222 20117 58016= 201710181851 METAR KLGA 181851Z 00000KT 10SM CLR 23/07 A3026 RMK AO2 SLP245\ T02280067= 201710181951 METAR KLGA 181951Z 26006KT 10SM CLR 23/07 A3025 RMK AO2 SLP242\ T02330067= 201710182051 METAR KLGA 182051Z 19008KT 10SM CLR 22/07 A3024 RMK AO2 SLP241\ T02220072 56009= 201710182151 METAR KLGA 182151Z 18009KT 10SM CLR 20/09 A3025 RMK AO2 SLP241\ T02000089= 201710182251 METAR KLGA 182251Z 18008KT 10SM CLR 19/11 A3026 RMK AO2 SLP246\ T01890106= 201710182351 METAR KLGA 182351Z 18007KT 10SM CLR 18/11 A3027 RMK AO2 SLP249\ T01830111 10233 20183 53008= 201710190051 METAR KLGA 190051Z 19005KT 10SM CLR 18/11 A3028 RMK AO2 SLP252\ T01780106= 201710190151 METAR KLGA 190151Z 19005KT 10SM CLR 18/09 A3028 RMK AO2 SLP255\ T01780094= 201710190251 METAR KLGA 190251Z 21006KT 10SM CLR 18/09 A3028 RMK AO2 SLP253\ T01830089 50003= 201710190351 METAR KLGA 190351Z 21007KT 10SM CLR 18/08 A3027 RMK AO2 SLP250\ T01780083= 201710190451 METAR KLGA 190451Z 22005KT 10SM CLR 17/08 A3027 RMK AO2 SLP249\ T01670083 402330111= 201710190551 METAR KLGA 190551Z 23007KT 10SM CLR 17/08 A3026 RMK AO2 SLP247\ T01670078 10183 20161 58006= 201710190651 METAR KLGA 190651Z 22005KT 10SM CLR 16/07 A3025 RMK AO2 SLP244\ T01610072= 201710190751 METAR KLGA 190751Z 22004KT 10SM CLR 16/07 A3025 RMK AO2 SLP241\ T01560072= 201710190851 METAR KLGA 190851Z 22004KT 10SM CLR 15/08 A3025 RMK AO2 SLP242\ T01500078 55005= 201710190951 METAR KLGA 190951Z 22006KT 10SM SCT250 14/08 A3025 RMK AO2\ SLP244 T01440078= 201710191051 METAR KLGA 191051Z 21006KT 10SM SCT250 15/08 A3024 RMK AO2\ SLP240 T01500078= 201710191151 METAR KLGA 191151Z 20005KT 10SM SCT250 14/08 A3024 RMK AO2\ SLP240 T01440078 10167 20144 58002= 201710191251 METAR KLGA 191251Z 21006KT 10SM SCT250 17/08 A3025 RMK AO2\ SLP243 T01670078= 201710191351 METAR KLGA 191351Z 21007KT 10SM SCT250 17/07 A3024 RMK AO2\ SLP240 T01720072= 201710191451 METAR KLGA 191451Z 24009KT 10SM SCT250 18/07 A3023 RMK AO2\ SLP238 T01830072 58002= 201710191551 METAR KLGA 191551Z 22014G19KT 10SM FEW250 19/06 A3022 RMK\ AO2 SLP234 T01940056= 201710191651 METAR KLGA 191651Z 24013G19KT 10SM FEW250 21/05 A3019 RMK\ AO2 SLP221 T02060050= 201710191751 METAR KLGA 191751Z 23014KT 10SM FEW250 21/04 A3015 RMK AO2\ SLP210 T02110039 10217 20144 58027= 201710191851 METAR KLGA 191851Z 23012KT 10SM FEW250 22/04 A3012 RMK AO2\ SLP200 T02220039= 201710191951 METAR KLGA 191951Z 20012G18KT 10SM FEW250 22/04 A3010 RMK\ AO2 SLP192 T02220039= 201710192051 METAR KLGA 192051Z 20012G16KT 10SM SCT250 22/03 A3008 RMK\ AO2 SLP185 T02220033 56025= 201710192151 METAR KLGA 192151Z 22009KT 10SM SCT250 21/04 A3007 RMK AO2\ SLP182 T02110039= 201710192251 METAR KLGA 192251Z 23009KT 10SM SCT250 21/06 A3008 RMK AO2\ SLP185 T02060056= 201710192351 METAR KLGA 192351Z 23011KT 10SM FEW250 20/07 A3008 RMK AO2\ SLP185 T02000067 10222 20200 53000= 201710200051 METAR KLGA 200051Z 23007KT 10SM FEW250 19/07 A3008 RMK AO2\ SLP185 T01940072= 201710200151 METAR KLGA 200151Z 22008KT 10SM FEW250 19/08 A3009 RMK AO2\ SLP188 T01890078= 201710200251 METAR KLGA 200251Z 23008KT 10SM FEW250 18/08 A3008 RMK AO2\ SLP186 T01830078 50001= 201710200351 METAR KLGA 200351Z 20008KT 10SM BKN250 18/08 A3007 RMK AO2\ SLP182 T01780078= 201710200451 METAR KLGA 200451Z 24008KT 10SM SCT250 19/08 A3007 RMK AO2\ SLP182 T01890078 402220144= 201710200551 METAR KLGA 200551Z 26009KT 10SM SCT250 18/08 A3007 RMK AO2\ SLP181 T01830078 10200 20178 56005= 201710200651 METAR KLGA 200651Z 28010KT 10SM FEW250 18/08 A3006 RMK AO2\ SLP180 T01780083= 201710200751 METAR KLGA 200751Z 28008KT 10SM SCT250 18/08 A3007 RMK AO2\ SLP183 T01780083= 201710200851 METAR KLGA 200851Z 29011KT 10SM FEW250 17/08 A3008 RMK AO2\ SLP186 T01720083 53006= 201710200951 METAR KLGA 200951Z 29011G17KT 10SM FEW250 18/08 A3010 RMK\ AO2 SLP191 T01780078= 201710201051 METAR KLGA 201051Z 29006KT 10SM SCT250 17/08 A3012 RMK AO2\ SLP199 T01670078= 201710201151 METAR KLGA 201151Z 30008KT 10SM BKN250 17/07 A3014 RMK AO2\ SLP207 T01670072 10183 20167 53021= 201710201251 METAR KLGA 201251Z 31010KT 10SM SCT250 17/06 A3016 RMK AO2\ SLP212 T01670061= 201710201351 METAR KLGA 201351Z 31010KT 10SM FEW250 17/04 A3017 RMK AO2\ SLP217 T01720044= 201710201451 METAR KLGA 201451Z 32011KT 10SM FEW250 19/01 A3016 RMK AO2\ SLP212 T01940011 50005= 201710201551 METAR KLGA 201551Z 32009KT 10SM FEW250 21/01 A3015 RMK AO2\ SLP208 T02060011= 201710201651 METAR KLGA 201651Z 32014KT 10SM FEW250 21/M02 A3012 RMK AO2\ SLP199 T02111017= 201710201751 METAR KLGA 201751Z 33010KT 10SM CLR 22/00 A3010 RMK AO2 SLP192\ T02220000 10222 20167 58020= 201710201851 METAR KLGA 201851Z 32011KT 10SM CLR 23/01 A3009 RMK AO2 SLP190\ T02280011= 201710201951 METAR KLGA 201951Z 31013G19KT 10SM FEW250 23/02 A3009 RMK\ AO2 SLP188 T02280022= 201710202051 METAR KLGA 202051Z 31012KT 10SM FEW250 23/03 A3009 RMK AO2\ SLP188 T02280028 56004= 201710202151 METAR KLGA 202151Z 31011KT 10SM FEW250 22/04 A3010 RMK AO2\ SLP192 T02220039= 201710202251 METAR KLGA 202251Z 30008KT 10SM FEW250 22/04 A3013 RMK AO2\ SLP203 T02170039= 201710202351 METAR KLGA 202351Z 30009KT 10SM FEW250 21/04 A3015 RMK AO2\ SLP208 T02110039 10233 20211 53020= 201710210051 METAR KLGA 210051Z 29007KT 10SM FEW250 21/05 A3015 RMK AO2\ SLP210 T02060050= 201710210151 METAR KLGA 210151Z 29007KT 10SM FEW250 20/04 A3018 RMK AO2\ SLP219 T02000039= 201710210251 METAR KLGA 210251Z 30007KT 10SM FEW250 19/06 A3020 RMK AO2\ SLP226 T01940056 53018= 201710210351 METAR KLGA 210351Z 32009KT 10SM FEW250 19/06 A3020 RMK AO2\ SLP226 T01890056= 201710210451 METAR KLGA 210451Z 34004KT 10SM CLR 18/04 A3021 RMK AO2 SLP230\ T01830039 402330167= 201710210551 METAR KLGA 210551Z 28004KT 10SM CLR 17/03 A3023 RMK AO2 SLP236\ T01720033 10211 20172 53010= 201710210651 METAR KLGA 210651Z 31006KT 10SM FEW250 17/04 A3024 RMK AO2\ SLP240 T01720044= 201710210751 METAR KLGA 210751Z 35003KT 10SM FEW250 17/05 A3025 RMK AO2\ SLP243 T01670050= 201710210851 METAR KLGA 210851Z 01003KT 10SM FEW250 16/06 A3026 RMK AO2\ SLP246 T01610061 51009= 201710210951 METAR KLGA 210951Z 00000KT 10SM FEW250 16/07 A3027 RMK AO2\ SLP249 T01560072= 201710211051 METAR KLGA 211051Z 00000KT 10SM FEW250 15/06 A3028 RMK AO2\ SLP252 T01500061= 201710211151 METAR KLGA 211151Z 00000KT 10SM FEW250 16/07 A3030 RMK AO2\ SLP259 T01610072 10178 20144 53013= 201710211251 METAR KLGA 211251Z 00000KT 10SM FEW250 17/06 A3033 RMK AO2\ SLP270 T01720061 CHINO R22 SW $= 201710211351 METAR KLGA 211351Z 00000KT 10SM FEW250 19/08 A3033 RMK AO2\ SLP271 T01830078 CHINO R22 SW $= 201710211451 METAR KLGA 211451Z 00000KT 10SM FEW250 20/08 A3033 RMK AO2\ SLP271 T02000078 51012 CHINO R22\ SW $= 201710211551 METAR KLGA 211551Z 00000KT 10SM FEW250 23/07 A3033 RMK AO2\ SLP269 T02280072 CHINO R22 SW $= 201710211651 METAR KLGA 211651Z 34004KT 10SM FEW250 25/09 A3031 RMK AO2\ SLP264 T02500083 CHINO R22 SW $= 201710211751 METAR KLGA 211751Z 28005KT 10SM SCT250 26/07 A3030 RMK AO2\ SLP259 T02610067 58013 CHINO R22\ SW $= 201710211851 METAR KLGA 211851Z 27007KT 10SM SCT250 26/07 A3029 RMK AO2\ SLP256 T02610067 CHINO R22 SW $= 201710211951 METAR KLGA 211951Z 24008KT 10SM OVC250 24/08 A3029 RMK AO2\ SLP256 T02390083 CHINO R22 SW $= 201710212051 METAR KLGA 212051Z 19012KT 10SM BKN250 22/09 A3030 RMK AO2\ SLP260 T02220089 53001 CHINO R22\ SW $= 201710212151 METAR KLGA 212151Z 19008KT 10SM BKN250 22/03 A3031 RMK AO2\ SLP263 T02170028 $= 201710212251 METAR KLGA 212251Z 19008KT 10SM BKN250 21/03 A3033 RMK AO2\ SLP269 T02060028 $= 201710212351 METAR KLGA 212351Z 20007KT 10SM BKN250 20/06 A3033 RMK AO2\ SLP271 T02000061 51011 $= 201710220051 METAR KLGA 220051Z 19006KT 10SM FEW250 19/08 A3034 RMK AO2\ SLP275 T01940083 $= 201710220151 METAR KLGA 220151Z 20006KT 10SM FEW250 19/08 A3035 RMK AO2\ SLP276 T01940083 $= 201710220251 METAR KLGA 220251Z 21005KT 10SM FEW250 19/08 A3035 RMK AO2\ SLP276 T01890078 51005 $= 201710220351 METAR KLGA 220351Z 21005KT 10SM BKN250 19/08 A3035 RMK AO2\ SLP276 T01890078 $= 201710220451 METAR KLGA 220451Z 00000KT 10SM BKN250 18/08 A3035 RMK AO2\ SLP277 T01780083 $= 201710220551 METAR KLGA 220551Z 00000KT 10SM CLR 18/08 A3035 RMK AO2 SLP277\ T01780083 10194 20167 50001 $= 201710220651 METAR KLGA 220651Z 00000KT 10SM FEW250 17/08 A3034 RMK AO2\ SLP274 T01720083 $= 201710220751 METAR KLGA 220751Z 00000KT 10SM FEW250 16/08 A3035 RMK AO2\ SLP276 T01610083 $= 201710220851 METAR KLGA 220851Z 00000KT 10SM CLR 16/09 A3036 RMK AO2 SLP279\ T01610094 53002 $= 201710220951 METAR KLGA 220951Z 03003KT 10SM CLR 15/12 A3037 RMK AO2 SLP283\ T01500117 $= 201710221051 METAR KLGA 221051Z 08003KT 10SM FEW090 SCT250 16/12 A3038\ RMK AO2 SLP286 T01560117 $= 201710221151 METAR KLGA 221151Z 10003KT 10SM FEW090 SCT190 BKN250 16/12\ A3039 RMK AO2 SLP291 T01560122 10178\ 20144 53013 $= 201710221251 METAR KLGA 221251Z 00000KT 10SM FEW090 SCT190 BKN250 17/12\ A3041 RMK AO2 SLP297 T01720122 $= 201710221351 METAR KLGA 221351Z VRB03KT 10SM FEW090 SCT190 BKN250 19/12\ A3041 RMK AO2 SLP296 T01890117 $= 201710221451 METAR KLGA 221451Z 00000KT 10SM FEW090 SCT190 BKN250 21/09\ A3040 RMK AO2 SLP294 T02110089 50002\ $= 201710221551 METAR KLGA 221551Z 15004KT 10SM FEW090 SCT200 BKN250 23/08\ A3039 RMK AO2 SLP292 T02330078 $= 201710221651 METAR KLGA 221651Z 17009KT 10SM FEW090 SCT200 BKN250 24/04\ A3039 RMK AO2 SLP289 T02390044 $= 201710221751 METAR KLGA 221751Z 18007KT 10SM FEW090 SCT170 BKN250 23/06\ A3037 RMK AO2 SLP284 T02330056 10244\ 20156 58010 $= 201710221851 METAR KLGA 221851Z 17011KT 10SM FEW100 BKN250 23/04 A3036\ RMK AO2 SLP282 T02330039 $= 201710221951 METAR KLGA 221951Z 18009KT 10SM FEW100 BKN150 BKN250 23/03\ A3036 RMK AO2 SLP279 T02280028 $= 201710222051 METAR KLGA 222051Z 17011KT 10SM FEW100 BKN150 BKN250 22/06\ A3036 RMK AO2 SLP279 T02170061 56005\ $= 201710222151 METAR KLGA 222151Z 16011KT 10SM FEW100 SCT150 OVC250 20/10\ A3035 RMK AO2 SLP277 T02000100 $= 201710222251 METAR KLGA 222251Z 16006KT 10SM BKN250 19/12 A3035 RMK AO2\ SLP278 T01940117 $= 201710222351 METAR KLGA 222351Z 15005KT 10SM BKN250 19/12 A3036 RMK AO2\ SLP281 T01940117 10239 20189 53002\ $= 201710230051 METAR KLGA 230051Z 18006KT 10SM BKN250 18/12 A3037 RMK AO2\ SLP283 T01830117 $= 201710230151 METAR KLGA 230151Z 16005KT 10SM BKN250 18/12 A3037 RMK AO2\ SLP285 T01830117 $= 201710230251 METAR KLGA 230251Z 17004KT 10SM BKN250 18/13 A3038 RMK AO2\ SLP285 T01780133 51004 $= 201710230351 METAR KLGA 230351Z 14004KT 10SM BKN250 17/14 A3037 RMK AO2\ SLP284 T01720139 $= 201710230451 METAR KLGA 230451Z 12003KT 10SM BKN250 17/14 A3035 RMK AO2\ SLP278 T01720144 402440144 $= 201710230551 METAR KLGA 230551Z 00000KT 10SM BKN250 17/15 A3035 RMK AO2\ SLP275 T01670150 10206 20161 58010\ $= 201710230651 METAR KLGA 230651Z 12004KT 10SM FEW020 BKN250 16/15 A3033\ RMK AO2 SLP269 T01610150 $= 201710230751 METAR KLGA 230751Z 10004KT 10SM FEW006 BKN029 17/15 A3032\ RMK AO2 SLP265 T01670150 $= 201710230851 METAR KLGA 230851Z 00000KT 10SM SCT006 BKN035 17/16 A3032\ RMK AO2 SLP266 T01670156 55009 $= 201710230951 METAR KLGA 230951Z 06004KT 10SM SCT024 BKN037 BKN047 17/16\ A3032 RMK AO2 SLP266 T01670156 $= 201710231051 METAR KLGA 231051Z 05005KT 10SM SCT008 SCT025 BKN037 17/16\ A3030 RMK AO2 SLP261 T01720161 $= 201710231151 METAR KLGA 231151Z 08005KT 10SM FEW007 SCT035 SCT160 BKN250\ 18/16 A3030 RMK AO2 SLP259 T01780161\ 10178 20161 58007 $= 201710231251 METAR KLGA 231251Z 00000KT 10SM BKN009 OVC034 18/17 A3030\ RMK AO2 SLP261 T01830172 $= 201710231351 METAR KLGA 231351Z 16006KT 10SM BKN011 BKN042 BKN250 20/17\ A3028 RMK AO2 SLP254 T02000167= 201710231451 METAR KLGA 231451Z 15008KT 10SM FEW018 BKN250 22/17 A3026\ RMK AO2 SLP246 T02220167 58013= 201710231551 METAR KLGA 231551Z 16013KT 10SM FEW022 FEW055 BKN250 22/16\ A3025 RMK AO2 SLP242 T02220156= 201710231651 METAR KLGA 231651Z 17014G21KT 10SM FEW025 BKN060 BKN250 23/16\ A3022 RMK AO2 SLP234 T02280156= 201710231751 METAR KLGA 231751Z 16017G23KT 10SM FEW026 BKN060 BKN250 23/16\ A3020 RMK AO2 SLP225 T02330161 10239\ 20172 58021= 201710231851 METAR KLGA 231851Z 17013G21KT 10SM SCT036 BKN065 BKN250 23/16\ A3017 RMK AO2 SLP216 T02280161= 201710231951 METAR KLGA 231951Z 14012G20KT 10SM FEW035 SCT050 BKN065 BKN250\ 23/16 A3014 RMK AO2 SLP207 T02280161= 201710232051 METAR KLGA 232051Z 14011G17KT 10SM FEW035 BKN060 BKN250 22/16\ A3013 RMK AO2 SLP203 T02220161 56021= 201710232151 METAR KLGA 232151Z 14013G18KT 10SM FEW035 BKN055 BKN070 BKN250\ 22/16 A3011 RMK AO2 SLP196 T02220161= 201710232251 METAR KLGA 232251Z 14011KT 10SM FEW035 BKN070 BKN250 22/17\ A3010 RMK AO2 SLP193 T02170167= 201710232351 METAR KLGA 232351Z 14010KT 10SM FEW030 SCT055 BKN075 BKN250\ 21/17 A3007 RMK AO2 SLP184 T02110167\ 10239 20211 58020= 201710240051 METAR KLGA 240051Z 15013G19KT 10SM BKN028 BKN070 BKN250 22/17\ A3005 RMK AO2 SLP177 T02170172= 201710240151 METAR KLGA 240151Z 15014G22KT 10SM FEW025 SCT055 BKN070 BKN250\ 22/18 A3004 RMK AO2 SLP173 T02170178= 201710240251 METAR KLGA 240251Z 16016G28KT 10SM SCT029 SCT038 SCT060 OVC240\ 22/18 A3002 RMK AO2 PK WND 17028/0249\ SLP166 T02170178 57018= 201710240351 METAR KLGA 240351Z 15016G25KT 10SM SCT015 SCT030 OVC240 21/18\ A2998 RMK AO2 SLP151 T02110183= 201710240451 METAR KLGA 240451Z 15018G22KT 10SM BKN013 BKN035 OVC240 21/18\ A2996 RMK AO2 SLP145 T02060178 402390161= 201710240551 METAR KLGA 240551Z 16016G23KT 10SM BKN012 OVC033 21/18 A2997\ RMK AO2 SLP150 T02110183 10217 20206\ 55016= 201710240651 METAR KLGA 240651Z 16015G24KT 10SM BKN011 BKN034 OVC065 21/18\ A2994 RMK AO2 PK WND 16027/0625 SLP137\ T02110183= 201710240751 METAR KLGA 240751Z 15016G27KT 10SM BKN011 BKN060 OVC210 21/18\ A2988 RMK AO2 PK WND 14027/0744 SLP117\ T02110183= 201710240851 METAR KLGA 240851Z 15018G28KT 10SM SCT013 OVC220 21/18 A2984\ RMK AO2 PK WND 16030/0841 SLP104\ T02110183 56033= 201710240951 METAR KLGA 240951Z 15018G35KT 10SM FEW015 BKN045 OVC065 22/18\ A2984 RMK AO2 PK WND 15035/0949 PRESFR\ SLP104 T02170183= 201710241051 METAR KLGA 241051Z 17026G35KT 10SM FEW015 SCT045 OVC150 22/18\ A2981 RMK AO2 PK WND 15041/1037 SLP095\ T02170183= 201710241151 METAR KLGA 241151Z 18016G27KT 10SM -RA OVC013 21/19 A2985\ RMK AO2 PK WND 16035/1054 RAB16 SLP108\ P0004 60004 70004 T02110189 10222\ 20206 53004= 201710241251 METAR KLGA 241251Z 16020G30KT 10SM FEW015 BKN038 BKN065 OVC150\ 22/19 A2984 RMK AO2 PK WND 17034/1230\ RAE1152B26E49 SLP104 P0000 T02170189= 201710241351 METAR KLGA 241351Z 17021G32KT 10SM FEW014 BKN034 BKN049 BKN130\ 22/19 A2983 RMK AO2 PK WND 17032/1343\ SLP100 T02220189= 201710241451 METAR KLGA 241451Z 17022G36KT 10SM FEW016 SCT032 BKN046 BKN130\ 23/19 A2981 RMK AO2 PK WND 17036/1451\ SLP094 60000 T02330189 58014= 201710241551 METAR KLGA 241551Z 16026G33KT 10SM FEW017 BKN039 BKN048 BKN130\ 24/19 A2980 RMK AO2 PK WND 15036/1514\ SLP091 T02440189= 201710241651 METAR KLGA 241651Z 17018G27KT 10SM FEW014 BKN035 BKN070 OVC140\ 23/19 A2977 RMK AO2 PK WND 18036/1641\ LTG DSNT NW RAB40E50 SLP081 P0000\ T02280189= 201710241751 METAR KLGA 241751Z 17019G32KT 10SM BKN015 BKN024 OVC033 22/19\ A2977 RMK AO2 PK WND 17037/1710 RAB26E45\ SLP081 P0000 60000 T02220194 10244\ 20211 56014= 201710241851 METAR KLGA 241851Z 17020G29KT 10SM OVC011 22/19 A2976 RMK\ AO2 PK WND 16035/1832 RAB1755E37\ SLP077 P0002 T02170194 $= 201710241951 METAR KLGA 241951Z 18019G29KT 10SM OVC008 21/19 A2977 RMK\ AO2 PK WND 17033/1930 RAB13E33 SLP081\ P0000 T02060189 $= 201710242051 METAR KLGA 242051Z 17019G28KT 5SM -RA BR OVC007 21/19 A2977\ RMK AO2 PK WND 16029/2015 RAB46 SLP081\ P0000 60002 T02060189 53000 $= 201710242151 METAR KLGA 242151Z 17015G23KT 10SM OVC008 21/19 A2976 RMK\ AO2 PK WND 17028/2052 RAE09 SLP079\ P0000 T02060189 $= 201710242251 METAR KLGA 242251Z 18013G20KT 10SM -RA OVC008 21/19 A2978\ RMK AO2 RAB32 SLP083 P0000 T02060189\ $= 201710242351 METAR KLGA 242351Z 17012G20KT 8SM -RA BKN007 BKN033 OVC060\ 19/18 A2976 RMK AO2 SLP079 P0004\ 60006 T01940183 10217 20194 58003\ $= 201710250051 METAR KLGA 250051Z 16007KT 10SM BKN007 BKN013 OVC060 21/19\ A2977 RMK AO2 LTG DSNT SE RAE35 SLP080\ P0003 T02060189 $= 201710250151 METAR KLGA 250151Z 18008KT 10SM SCT009 BKN020 OVC070 20/19\ A2977 RMK AO2 SLP082 T02000189 $= 201710250251 METAR KLGA 250251Z 19006KT 10SM FEW007 FEW019 BKN070 BKN250\ 20/19 A2974 RMK AO2 SLP071 60003\ T02000189 58008 $= 201710250351 METAR KLGA 250351Z 22006KT 10SM SCT008 OVC070 20/19 A2974\ RMK AO2 LTG DSNT E AND SE SLP070\ T02000189 $= 201710250451 METAR KLGA 250451Z 23005KT 10SM SCT009 BKN070 OVC120 20/18\ A2972 RMK AO2 RAB27E37 SLP062 P0000\ T02000183 402440194 $= 201710250551 METAR KLGA 250551Z 27007KT 10SM SCT009 SCT021 BKN070 OVC140\ 20/17 A2973 RMK AO2 SLP068 60003\ T02000172 10206 20194 55003 $= 201710250651 METAR KLGA 250651Z 00000KT 10SM FEW009 FEW023 FEW028 19/17\ A2973 RMK AO2 SLP068 T01940172 $= 201710250751 METAR KLGA 250751Z 00000KT 10SM FEW009 FEW035 SCT250 19/17\ A2971 RMK AO2 SLP060 T01890167 $= 201710250851 METAR KLGA 250851Z 30010KT 10SM FEW009 SCT020 SCT250 18/16\ A2972 RMK AO2 SLP064 T01830161 55005\ $= 201710250951 METAR KLGA 250951Z 31009KT 10SM FEW009 FEW250 17/14 A2973\ RMK AO2 SLP066 T01720144 $= 201710251051 METAR KLGA 251051Z 33008KT 10SM FEW085 17/11 A2972 RMK AO2\ SLP063 T01670111 $= 201710251151 METAR KLGA 251151Z 33005KT 10SM FEW065 FEW250 16/09 A2973\ RMK AO2 SLP068 70009 T01610094 10200\ 20161 53004 $= 201710251251 METAR KLGA 251251Z 31003KT 10SM FEW042 SCT085 16/09 A2973\ RMK AO2 SLP067 T01610094 $= 201710251351 METAR KLGA 251351Z 31006KT 10SM FEW045 SCT085 BKN130 16/09\ A2973 RMK AO2 SLP068 T01610089 $= 201710251451 METAR KLGA 251451Z 30008KT 10SM BKN035 BKN046 OVC140 16/08\ A2973 RMK AO2 SLP069 T01610083 53001\ $= 201710251551 METAR KLGA 251551Z 30009KT 10SM FEW034 OVC047 17/08 A2973\ RMK AO2 SLP066 T01670083= 201710251651 METAR KLGA 251651Z 33008KT 10SM BKN037 BKN055 17/08 A2970\ RMK AO2 SLP058 T01670083= 201710251751 METAR KLGA 251751Z 02004KT 10SM SCT042 SCT060 BKN070 18/05\ A2968 RMK AO2 SLP050 T01830050 10183\ 20161 58018= 201710251851 METAR KLGA 251851Z 04003KT 10SM SCT050 BKN075 OVC170 18/06\ A2967 RMK AO2 SLP046 T01830061= 201710251951 METAR KLGA 251951Z 00000KT 10SM SCT050 BKN080 OVC170 18/07\ A2967 RMK AO2 SLP046 T01830072= 201710252051 METAR KLGA 252051Z VRB03KT 10SM SCT050 BKN080 OVC150 18/06\ A2966 RMK AO2 SLP045 T01830061 56005= 201710252151 METAR KLGA 252151Z 05004KT 10SM SCT050 BKN060 OVC095 18/08\ A2967 RMK AO2 SLP046 T01780083= 201710252251 METAR KLGA 252251Z 00000KT 10SM BKN090 18/08 A2969 RMK AO2\ SLP053 T01780083= 201710252351 METAR KLGA 252351Z 03004KT 10SM FEW090 BKN160 BKN250 18/07\ A2968 RMK AO2 SLP049 T01780072 10189\ 20178 50004= 201710260051 METAR KLGA 260051Z 31003KT 10SM FEW100 SCT150 BKN250 18/08\ A2968 RMK AO2 SLP050 T01780083= 201710260151 METAR KLGA 260151Z 31007KT 10SM FEW100 SCT150 OVC250 18/07\ A2968 RMK AO2 SLP049 T01780072= 201710260251 METAR KLGA 260251Z 31013KT 10SM BKN100 OVC200 17/07 A2969\ RMK AO2 SLP055 T01670067 53006= 201710260351 METAR KLGA 260351Z 31012KT 10SM BKN090 OVC190 16/04 A2968\ RMK AO2 SLP049 T01560044= 201710260451 METAR KLGA 260451Z 32014KT 10SM OVC070 15/04 A2966 RMK AO2\ SLP043 T01500044 402000150= 201710260551 METAR KLGA 260551Z 31013KT 10SM BKN080 OVC100 14/05 A2966\ RMK AO2 SLP044 T01440050 10183 20144\ 55010= 201710260651 METAR KLGA 260651Z 31010KT 10SM BKN070 OVC085 14/05 A2964\ RMK AO2 SLP037 T01440050= 201710260751 METAR KLGA 260751Z 29009KT 10SM BKN110 OVC200 14/04 A2965\ RMK AO2 SLP040 T01390044= 201710260851 METAR KLGA 260851Z 30009KT 10SM BKN042 BKN049 14/05 A2965\ RMK AO2 SLP039 T01390050 56005= 201710260951 METAR KLGA 260951Z 30011KT 10SM FEW042 BKN060 BKN100 BKN250\ 13/05 A2966 RMK AO2 SLP044 T01330050= 201710261051 METAR KLGA 261051Z 33009KT 10SM CLR 13/05 A2963 RMK AO2 SLP034\ T01280050= 201710261151 METAR KLGA 261151Z 30009KT 10SM BKN038 BKN050 BKN250 13/06\ A2966 RMK AO2 SLP042 T01280056 10144\ 20128 53003= 201710261251 METAR KLGA 261251Z 33009KT 10SM FEW040 BKN070 BKN250 13/06\ A2966 RMK AO2 SLP043 T01280056= 201710261351 METAR KLGA 261351Z 34010KT 10SM SCT075 BKN100 BKN250 14/06\ A2967 RMK AO2 SLP045 T01390061= 201710261451 METAR KLGA 261451Z 29012KT 10SM BKN055 BKN100 OVC250 13/06\ A2967 RMK AO2 SLP048 T01330056 53006= 201710261551 METAR KLGA 261551Z 29012KT 10SM FEW047 BKN065 OVC140 12/07\ A2969 RMK AO2 SLP053 VCSH NW VIRGA\ SE-SW T01220067= 201710261651 METAR KLGA 261651Z 30010KT 10SM -RA FEW030 BKN070 BKN100\ OVC140 12/08 A2967 RMK AO2 LTG DSNT\ SE RAB08E17B44 SLP047 VCSH N-NE P0000\ T01220078= 201710261751 METAR KLGA 261751Z 31014KT 10SM SCT065 BKN085 OVC140 13/06\ A2966 RMK AO2 RAE1659 SLP043 VIRGA\ E AND S P0000 60000 T01330061 10139\ 20117 58005= 201710261851 METAR KLGA 261851Z 30013G19KT 10SM FEW030 BKN075 OVC140 14/04\ A2967 RMK AO2 SLP045 T01440044= 201710261951 METAR KLGA 261951Z 26007KT 10SM BKN065 OVC080 15/04 A2968\ RMK AO2 LTG DSNT SE RAB15E31 SLP052\ P0000 T01500039= 201710262051 METAR KLGA 262051Z 24010KT 10SM FEW035 BKN055 OVC070 14/05\ A2971 RMK AO2 SLP059 60000 T01390050\ 53015= 201710262151 METAR KLGA 262151Z 29014KT 10SM FEW035 BKN060 BKN075 15/05\ A2973 RMK AO2 RAB10E27 SLP068 P0000\ T01500050= 201710262251 METAR KLGA 262251Z 31018G25KT 10SM FEW055 SCT070 BKN100 14/04\ A2977 RMK AO2 PK WND 29027/2228 SLP082\ T01440039= 201710262351 METAR KLGA 262351Z 30015KT 10SM FEW055 SCT100 14/03 A2982\ RMK AO2 SLP097 60000 T01390033 10150\ 20133 53038= 201710270051 METAR KLGA 270051Z 29016KT 10SM FEW100 13/02 A2984 RMK AO2\ SLP106 T01280017= 201710270151 METAR KLGA 270151Z 29015G22KT 10SM FEW100 12/02 A2988 RMK\ AO2 SLP118 T01220022= 201710270251 METAR KLGA 270251Z 30013G19KT 10SM CLR 12/02 A2989 RMK AO2\ SLP122 T01170022 51025= 201710270351 METAR KLGA 270351Z 26010KT 10SM CLR 11/02 A2991 RMK AO2 SLP127\ T01110017= 201710270451 METAR KLGA 270451Z 27010G18KT 10SM CLR 11/02 A2992 RMK AO2\ SLP131 T01110022 401500111= 201710270551 METAR KLGA 270551Z 27009KT 10SM CLR 11/02 A2995 RMK AO2 SLP140\ T01110022 10139 20111 53018= 201710270651 METAR KLGA 270651Z 25009KT 10SM CLR 11/02 A2997 RMK AO2 SLP148\ T01110022= 201710270751 METAR KLGA 270751Z 25007KT 10SM CLR 11/03 A2999 RMK AO2 SLP154\ T01060028= 201710270851 METAR KLGA 270851Z 27009KT 10SM CLR 11/01 A3001 RMK AO2 SLP162\ T01060011 53022= 201710270951 METAR KLGA 270951Z 30011KT 10SM CLR 11/01 A3003 RMK AO2 SLP168\ T01110011= 201710271051 METAR KLGA 271051Z 30009KT 10SM CLR 11/02 A3005 RMK AO2 SLP175\ T01110017= 201710271151 METAR KLGA 271151Z 30009KT 10SM CLR 11/02 A3007 RMK AO2 SLP182\ T01060017 10117 20106 53020= 201710271251 METAR KLGA 271251Z 29005KT 10SM FEW250 11/02 A3009 RMK AO2\ SLP189 T01110022= 201710271351 METAR KLGA 271351Z 31003KT 10SM FEW250 13/03 A3010 RMK AO2\ SLP194 T01280028= 201710271451 METAR KLGA 271451Z 30003KT 10SM FEW250 14/03 A3010 RMK AO2\ SLP192 T01440028 50009= 201710271551 METAR KLGA 271551Z 00000KT 10SM SCT250 15/02 A3009 RMK AO2\ SLP190 T01500017= 201710271651 METAR KLGA 271651Z 24009KT 10SM SCT250 16/00 A3008 RMK AO2\ SLP187 T01610000= 201710271751 METAR KLGA 271751Z 24007KT 10SM SCT250 16/01 A3008 RMK AO2\ SLP185 T01610011 10161 20106 57006= 201710271851 METAR KLGA 271851Z 23009KT 10SM SCT250 17/01 A3007 RMK AO2\ SLP182 T01720011= 201710271951 METAR KLGA 271951Z 22007KT 10SM SCT250 17/02 A3006 RMK AO2\ SLP180 T01720017= 201710272051 METAR KLGA 272051Z 16012KT 10SM SCT250 16/04 A3006 RMK AO2\ SLP179 T01610039 56006= 201710272151 METAR KLGA 272151Z 16009KT 10SM FEW250 16/06 A3007 RMK AO2\ SLP182 T01560056= 201710272251 METAR KLGA 272251Z 18008KT 10SM FEW250 16/06 A3009 RMK AO2\ SLP188 T01560061= 201710272351 METAR KLGA 272351Z 17006KT 10SM FEW250 15/07 A3009 RMK AO2\ SLP187 T01500072 10172 20150 50008= 201710280051 METAR KLGA 280051Z 20007KT 10SM CLR 15/06 A3009 RMK AO2 SLP188\ T01500061= 201710280151 METAR KLGA 280151Z 20007KT 10SM CLR 15/07 A3009 RMK AO2 SLP190\ T01500067= 201710280251 METAR KLGA 280251Z 22005KT 10SM CLR 14/07 A3009 RMK AO2 SLP188\ T01440072 50001= 201710280351 METAR KLGA 280351Z 22003KT 10SM CLR 14/08 A3008 RMK AO2 SLP186\ T01440078= 201710280451 METAR KLGA 280451Z 21005KT 10SM CLR 14/08 A3007 RMK AO2 SLP181\ T01440078 401720106= 201710280551 METAR KLGA 280551Z 21006KT 10SM CLR 14/08 A3007 RMK AO2 SLP181\ T01440078 10150 20139 56008= 201710280651 METAR KLGA 280651Z 21005KT 10SM CLR 14/08 A3007 RMK AO2 SLP181\ T01390078= 201710280751 METAR KLGA 280751Z 20004KT 10SM CLR 13/08 A3005 RMK AO2 SLP176\ T01330078= 201710280851 METAR KLGA 280851Z 17004KT 10SM CLR 13/08 A3005 RMK AO2 SLP174\ T01280083 58006= 201710280951 METAR KLGA 280951Z 17003KT 10SM CLR 12/08 A3005 RMK AO2 SLP175\ T01220083= 201710281051 METAR KLGA 281051Z 17003KT 8SM CLR 13/09 A3005 RMK AO2 SLP175\ T01280089= 201710281151 METAR KLGA 281151Z 20003KT 10SM FEW250 13/09 A3005 RMK AO2\ SLP176 T01280089 10144 20122 53002= 201710281251 METAR KLGA 281251Z 19008KT 10SM FEW250 15/09 A3006 RMK AO2\ SLP179 T01500094= 201710281351 METAR KLGA 281351Z 20013KT 10SM FEW050 SCT250 17/08 A3005\ RMK AO2 SLP175 T01720078 VISNO R22\ SW $= 201710281451 METAR KLGA 281451Z 20014G17KT 10SM FEW050 BKN250 19/09 A3003\ RMK AO2 SLP169 T01890089 58007 VISNO\ R22 SW $= 201710281551 METAR KLGA 281551Z 19013G21KT 10SM FEW050 BKN260 19/09 A3002\ RMK AO2 SLP165 T01940089 $= 201710281651 METAR KLGA 281651Z 18015G23KT 10SM FEW050 SCT220 BKN260 20/08\ A2999 RMK AO2 SLP154 T02000078 $= 201710281751 METAR KLGA 281751Z 18016G23KT 10SM FEW050 SCT220 BKN260 19/10\ A2997 RMK AO2 SLP148 T01940100 10200\ 20128 58021 $= 201710281851 METAR KLGA 281851Z 17015G26KT 10SM FEW050 SCT200 BKN250 20/11\ A2995 RMK AO2 PK WND 16028/1815 SLP140\ T02000111 $= 201710281951 METAR KLGA 281951Z 17018G26KT 10SM SCT027 SCT200 BKN250 19/12\ A2993 RMK AO2 PK WND 16028/1938 SLP135\ T01940122 $= 201710282051 METAR KLGA 282051Z 17019G25KT 10SM SCT020 BKN200 BKN250 19/13\ A2992 RMK AO2 PK WND 16027/2022 SLP131\ SCT V BKN T01890133 56018= 201710282151 METAR KLGA 282151Z 17012G20KT 10SM SCT020 BKN200 BKN250 18/14\ A2992 RMK AO2 SLP131 T01830144= 201710282251 METAR KLGA 282251Z 17012G19KT 10SM SCT015 BKN200 BKN250 18/15\ A2992 RMK AO2 SLP130 T01830150= 201710282351 METAR KLGA 282351Z 18010KT 10SM SCT015 BKN200 BKN250 18/16\ A2992 RMK AO2 SLP131 T01830156 10200\ 20178 53000= 201710290051 METAR KLGA 290051Z 17008KT 10SM FEW015 BKN050 OVC250 18/16\ A2992 RMK AO2 SLP132 T01830156= 201710290151 METAR KLGA 290151Z 18006KT 10SM OVC011 18/16 A2992 RMK AO2\ SLP132 T01780156= 201710290251 METAR KLGA 290251Z 18007KT 10SM SCT011 OVC065 18/16 A2992\ RMK AO2 SLP130 T01830161 58001= 201710290351 METAR KLGA 290351Z 16006KT 10SM BKN055 OVC090 18/16 A2990\ RMK AO2 SLP124 T01830161= 201710290451 METAR KLGA 290451Z 16008KT 10SM OVC065 18/16 A2989 RMK AO2\ SLP121 T01830156 402000122= 201710290551 METAR KLGA 290551Z 15008KT 10SM OVC015 18/16 A2986 RMK AO2\ SLP112 T01830156 10183 20178 58018= 201710290651 METAR KLGA 290651Z 17016G22KT 10SM -RA FEW065 OVC080 18/16\ A2985 RMK AO2 RAB38 SLP108 P0000\ T01830156= 201710290751 METAR KLGA 290751Z 17014KT 10SM OVC050 17/15 A2985 RMK AO2\ RAE49 SLP107 P0001 T01720150= 201710290851 METAR KLGA 290851Z 12010KT 8SM -RA SCT030 BKN041 OVC049 16/15\ A2983 RMK AO2 RAB0752 SLP101 P0003\ 60004 T01610150 58011= 201710290951 METAR KLGA 290951Z 06010KT 8SM -RA SCT006 BKN013 OVC018 16/15\ A2979 RMK AO2 RAE0857B22 SLP087 P0003\ T01610150= 201710291051 METAR KLGA 291051Z 16013G18KT 7SM -RA OVC006 17/16 A2978\ RMK AO2 SLP084 P0002 T01720161= 201710291151 METAR KLGA 291151Z 15010KT 10SM BKN011 OVC016 17/16 A2978\ RMK AO2 RAE10 SLP083 P0001 60010\ 70010 T01720161 10183 20161 57005= 201710291251 METAR KLGA 291251Z 13011KT 10SM -RA BKN012 BKN055 OVC085\ 17/16 A2978 RMK AO2 RAB32 SLP083\ P0000 T01720156= 201710291351 METAR KLGA 291351Z 13006KT 10SM BKN009 OVC012 17/16 A2975\ RMK AO2 RAE48 SLP074 P0003 T01670156= 201710291451 METAR KLGA 291451Z 11009KT 10SM -RA SCT009 OVC100 17/15 A2972\ RMK AO2 RAB03E15B39 CIG 009 R22 SW\ SLP065 P0000 60003 T01670150 58018= 201710291551 METAR KLGA 291551Z 06007KT 10SM -RA BKN007 BKN022 OVC095\ 17/16 A2969 RMK AO2 SLP054 P0006\ T01720161= 201710291651 METAR KLGA 291651Z 06009KT 4SM R04/6000VP6000FT RA BR BKN004\ BKN025 OVC050 17/16 A2963 RMK AO2\ VIS 2 1/2 R22 SW SLP034 P0011 T01720161= 201710291751 METAR KLGA 291751Z 11012KT 3SM RA BR BKN008 BKN012 OVC018\ 18/17 A2957 RMK AO2 PRESFR SLP014\ P0040 60060 T01830172 10183 20167\ 56040= 201710291851 METAR KLGA 291851Z 15016G26KT 3SM R04/6000VP6000FT RA BR\ BKN006 OVC011 18/17 A2952 RMK AO2\ PK WND 15028/1824 SFC VIS 5 SLP997\ P0018 T01830172= 201710291951 METAR KLGA 291951Z 13014G25KT 1SM R04/3500VP6000FT +RA BR\ BKN006 BKN009 OVC016 19/17 A2949\ RMK AO2 PK WND 14031/1915 SFC VIS\ 1 1/2 SLP986 P0050 T01890172= 201710292051 METAR KLGA 292051Z 14011G22KT 2 1/2SM -RA BR BKN006 BKN009\ OVC013 19/18 A2947 RMK AO2 PK WND\ 15030/2013 SFC VIS 5 SLP979 P0019\ 60087 T01940178 56036= 201710292151 METAR KLGA 292151Z 14015G23KT 2 1/2SM -RA BR BKN006 BKN009\ OVC011 18/17 A2943 RMK AO2 PK WND\ 15026/2130 SFC VIS 4 SLP965 P0017\ T01830172= 201710292251 METAR KLGA 292251Z 13016G28KT 5SM -RA BR BKN006 BKN009 OVC011\ 19/18 A2937 RMK AO2 PK WND 11030/2228\ PRESFR SLP945 P0013 T01890178= 201710292351 METAR KLGA 292351Z 12019G29KT 6SM -RA BR BKN006 BKN011 OVC013\ 19/17 A2929 RMK AO2 PK WND 11029/2349\ PRESFR SLP920 P0015 60132 T01890172\ 10194 20183 58059= 201710300051 METAR KLGA 300051Z 09021G27KT 2SM +RA BR BKN006 BKN013 OVC017\ 18/17 A2916 RMK AO2 PK WND 11031/0021\ PRESFR SLP875 P0033 T01780167= 201710300151 METAR KLGA 300151Z 07018KT 2 1/2SM R04/6000VP6000FT +RA BR\ BKN006 BKN008 OVC015 18/17 A2903\ RMK AO2 SFC VIS 3 PRESFR SLP829 P0026\ T01780172= 201710300251 METAR KLGA 300251Z 14022G36KT 2 1/2SM R04/6000VP6000FT -RA\ BR OVC008 19/19 A2891 RMK AO2 PK\ WND 14036/0242 PRESFR SLP789 P0013\ 60072 T01940189 56130= 201710300351 METAR KLGA 300351Z 24025G37KT 10SM SCT006 BKN015 BKN080 17/15\ A2892 RMK AO2 PK WND 24043/0338 WSHFT\ 0314 RAE39 SLP794 P0004 T01720150= 201710300451 METAR KLGA 300451Z 23007G18KT 10SM FEW035 17/13 A2899 RMK\ AO2 PK WND 23038/0359 SLP817 T01670133\ 402000161= 201710300551 METAR KLGA 300551Z 00000KT 10SM FEW100 17/13 A2902 RMK AO2\ SLP828 60076 T01670133 10200 20161\ 53038= 201710300651 METAR KLGA 300651Z 00000KT 10SM SCT015 BKN095 16/13 A2903\ RMK AO2 SLP830 T01560128= 201710300751 METAR KLGA 300751Z 31011KT 10SM FEW015 BKN095 16/12 A2901\ RMK AO2 SLP825 T01560122= 201710300851 METAR KLGA 300851Z 31016KT 5SM RA BR FEW009 BKN019 OVC048\ 13/11 A2901 RMK AO2 RAB0756 SLP823\ P0006 60006 T01280111 55007= 201710300951 METAR KLGA 300951Z 28018G27KT 8SM -RA FEW009 OVC019 11/09\ A2908 RMK AO2 PK WND 28027/0947 PRESRR\ SLP846 P0001 T01110089= 201710301051 METAR KLGA 301051Z 26023G30KT 5SM -RA BR FEW012 BKN018 OVC025\ 10/08 A2915 RMK AO2 PK WND 27030/1050\ PRESRR SLP871 P0003 T01000078= 201710301151 METAR KLGA 301151Z 27026G35KT 5SM -RA FEW016 BKN022 OVC035\ 09/06 A2924 RMK AO2 PK WND 26035/1151\ PRESRR SLP900 P0001 60011 70279 T00890061\ 10167 20089 53077= 201710301251 METAR KLGA 301251Z 26016G24KT 10SM FEW017 SCT035 BKN075 09/04\ A2932 RMK AO2 PK WND 27035/1158 RAE37\ SLP930 P0005 T00890044 $= 201710301351 METAR KLGA 301351Z 27014G27KT 10SM FEW029 SCT043 OVC100 10/04\ A2940 RMK AO2 PK WND 27032/1318 SLP954\ T01000039 $= 201710301451 METAR KLGA 301451Z 25019G26KT 10SM -RA SCT041 BKN075 BKN100\ 11/04 A2944 RMK AO2 PK WND 25032/1355\ RAB43 SLP970 P0000 60005 T01060039\ 51070 $= 201710301551 METAR KLGA 301551Z 29022G31KT 10SM BKN045 13/03 A2951 RMK\ AO2 PK WND 27034/1528 RAE1455 SLP992\ P0000 T01280033= 201710301651 METAR KLGA 301651Z 27018G27KT 10SM FEW050 FEW250 14/02 A2955\ RMK AO2 PK WND 29035/1557 SLP005\ T01390022= 201710301751 METAR KLGA 301751Z 27017G30KT 10SM SCT050 14/02 A2959 RMK\ AO2 PK WND 28030/1746 PRESRR SLP020\ 60005 T01390017 10139 20083 51050= 201710301851 METAR KLGA 301851Z 27019G31KT 10SM SCT050 14/01 A2964 RMK\ AO2 PK WND 27035/1753 SLP037 T01390006= 201710301951 METAR KLGA 301951Z 27010G18KT 10SM FEW050 13/00 A2966 RMK\ AO2 PK WND 26031/1911 SLP045 T01330000= 201710302051 METAR KLGA 302051Z 28015G21KT 10SM FEW050 13/00 A2970 RMK\ AO2 SLP055 T01330000 51035= 201710302151 METAR KLGA 302151Z 26015KT 10SM FEW050 13/00 A2973 RMK AO2\ SLP066 T01280000= 201710302251 METAR KLGA 302251Z 24010KT 10SM FEW050 13/01 A2975 RMK AO2\ SLP073 T01280006= 201710302351 METAR KLGA 302351Z 23010KT 10SM FEW050 12/01 A2977 RMK AO2\ SLP082 T01220011 10139 20122 51027= 201710310051 METAR KLGA 310051Z 21012G21KT 10SM CLR 13/01 A2980 RMK AO2\ SLP091 T01280006= 201710310151 METAR KLGA 310151Z 23013KT 10SM CLR 12/01 A2983 RMK AO2 SLP101\ T01220011= 201710310251 METAR KLGA 310251Z 23012G21KT 10SM FEW090 12/01 A2983 RMK\ AO2 SLP102 T01220006 51020= 201710310351 METAR KLGA 310351Z 23014G22KT 10SM CLR 12/02 A2986 RMK AO2\ SLP111 T01170017= 201710310451 METAR KLGA 310451Z 22012G20KT 10SM CLR 12/02 A2987 RMK AO2\ SLP114 T01170022 401670083= 201710310551 METAR KLGA 310551Z 23012KT 10SM CLR 11/03 A2988 RMK AO2 SLP119\ T01110033 10128 20111 51017= 201710310651 METAR KLGA 310651Z 25015KT 10SM FEW100 11/03 A2991 RMK AO2\ SLP129 T01110028= 201710310751 METAR KLGA 310751Z 24011KT 10SM OVC075 11/03 A2992 RMK AO2\ SLP132 T01110028= 201710310851 METAR KLGA 310851Z 24011KT 10SM CLR 11/03 A2994 RMK AO2 SLP137\ T01060033 51018= 201710310951 METAR KLGA 310951Z 24008KT 10SM SCT180 11/03 A2995 RMK AO2\ SLP143 T01060033= 201710311051 METAR KLGA 311051Z 25012KT 10SM FEW085 11/01 A2997 RMK AO2\ SLP148 T01060011= 201710311151 METAR KLGA 311151Z 27013G21KT 10SM FEW085 11/01 A3000 RMK\ AO2 SLP157 70005 T01060006 10111\ 20106 53020= 201710311251 METAR KLGA 311251Z 27016G24KT 10SM FEW090 SCT150 11/01 A3002\ RMK AO2 SLP165 T01060011= 201710311351 METAR KLGA 311351Z 27015G22KT 10SM BKN160 11/00 A3003 RMK\ AO2 SLP169 T01110000= 201710311451 METAR KLGA 311451Z 26017G25KT 10SM BKN150 12/M02 A3004 RMK\ AO2 PK WND 30028/1403 SLP171 T01221022\ 51014= 201710311551 METAR KLGA 311551Z 28014KT 10SM FEW050 SCT150 13/M02 A3004\ RMK AO2 PK WND 26028/1456 SLP172\ T01281017= 201710311651 METAR KLGA 311651Z 27021G27KT 10SM FEW050 FEW150 14/M02 A3003\ RMK AO2 PK WND 27027/1651 SLP170\ T01391022= 201710311751 METAR KLGA 311751Z 26015KT 10SM FEW055 14/M02 A3004 RMK AO2\ PK WND 28027/1656 SLP170 T01391017\ 10139 20100 58001= 201710311851 METAR KLGA 311851Z 26018G24KT 10SM FEW055 14/M02 A3004 RMK\ AO2 PK WND 25026/1827 SLP173 T01391022= 201710311951 METAR KLGA 311951Z 25014G23KT 10SM FEW055 14/M03 A3006 RMK\ AO2 PK WND 27027/1932 SLP178 T01391028= 201710312051 METAR KLGA 312051Z 26011KT 10SM FEW055 14/M03 A3007 RMK AO2\ SLP183 T01391028 53012= 201710312151 METAR KLGA 312151Z 25012G15KT 10SM FEW055 13/M03 A3010 RMK\ AO2 SLP193 T01281028= 201710312251 METAR KLGA 312251Z 26009KT 10SM FEW055 FEW250 13/M02 A3013\ RMK AO2 SLP203 T01281022= 201710312351 METAR KLGA 312351Z 27011G23KT 10SM FEW250 12/M03 A3015 RMK\ AO2 SLP210 T01221028 10144 20122\ 51028=
