 201702010051 METAR KLGA 010051Z 08007KT 050V120 10SM BKN080 01/M02 A2983\ RMK AO2 SLP101 T00111022 $= 201702010151 METAR KLGA 010151Z 00000KT 10SM FEW080 BKN150 01/M02 A2983\ RMK AO2 SLP102 T00111022 $= 201702010251 METAR KLGA 010251Z 04004KT 10SM BKN080 BKN150 01/M02 A2984\ RMK AO2 SLP105 T00111022 53007 $= 201702010351 METAR KLGA 010351Z 05003KT 10SM OVC075 01/M02 A2984 RMK AO2\ SLP104 T00111017 $= 201702010451 METAR KLGA 010451Z 12004KT 10SM BKN070 BKN095 OVC200 01/M02\ A2984 RMK AO2 SLP103 T00111017 400171022\ $= 201702010551 METAR KLGA 010551Z 00000KT 9SM BKN070 OVC200 02/M01 A2985\ RMK AO2 SLP106 4/001 T00171011 10017\ 20006 53001 $= 201702010651 METAR KLGA 010651Z 19005KT 10SM SCT060 SCT100 BKN250 02/M01\ A2985 RMK AO2 SLP109 T00221011 $= 201702010751 METAR KLGA 010751Z 21005KT 10SM FEW060 BKN090 BKN250 02/M01\ A2986 RMK AO2 SLP109 T00221011 $= 201702010851 METAR KLGA 010851Z 23010KT 10SM BKN060 BKN250 04/M03 A2987\ RMK AO2 SLP113 T00441028 53006 $= 201702010951 METAR KLGA 010951Z 23012KT 10SM FEW055 OVC200 06/M03 A2986\ RMK AO2 SLP112 T00561028 $= 201702011051 METAR KLGA 011051Z 24017G25KT 10SM FEW055 BKN180 06/M03 A2990\ RMK AO2 SLP123 T00561033 $= 201702011151 METAR KLGA 011151Z 25017G23KT 10SM BKN065 07/M04 A2990 RMK\ AO2 SLP125 70006 T00671039 10067\ 20011 53013 $= 201702011251 METAR KLGA 011251Z 24015KT 10SM FEW032 FEW065 SCT250 07/M03\ A2992 RMK AO2 PK WND 27026/1152 SLP130\ T00671033 $= 201702011351 METAR KLGA 011351Z 27016G25KT 10SM SCT110 BKN250 07/M04 A2993\ RMK AO2 PK WND 25028/1341 SLP135\ T00671044 $= 201702011451 METAR KLGA 011451Z 27017G25KT 10SM BKN140 BKN250 07/M04 A2994\ RMK AO2 PK WND 26027/1436 SLP139\ T00671044 51013 $= 201702011551 METAR KLGA 011551Z 26013G21KT 10SM FEW034 BKN130 BKN250 07/M06\ A2994 RMK AO2 PK WND 25029/1506 SLP138\ T00721056 $= 201702011651 METAR KLGA 011651Z 26009KT 10SM BKN050 BKN140 BKN250 08/M04\ A2992 RMK AO2 SLP132 T00781044 $= 201702011751 METAR KLGA 011751Z 27015G24KT 10SM BKN065 BKN100 BKN250 08/M05\ A2990 RMK AO2 SLP125 T00831050 10089\ 20061 58014 $= 201702011851 METAR KLGA 011851Z 26015G24KT 10SM BKN060 BKN075 OVC250 09/M04\ A2988 RMK AO2 SLP119 T00941044 $= 201702011951 METAR KLGA 011951Z 25010G17KT 10SM BKN060 BKN075 OVC250 09/M05\ A2990 RMK AO2 SLP123 T00891050 $= 201702012051 METAR KLGA 012051Z 26018G23KT 10SM OVC060 09/M04 A2992 RMK\ AO2 PK WND 27026/2014 SLP131 T00891039\ 53006 $= 201702012151 METAR KLGA 012151Z 26013KT 10SM FEW050 08/M03 A2994 RMK AO2\ PK WND 27027/2113 SLP138 T00781028\ $= 201702012251 METAR KLGA 012251Z 27012KT 10SM BKN250 08/M03 A2996 RMK AO2\ SLP146 T00781028 $= 201702012351 METAR KLGA 012351Z 30014G25KT 10SM BKN070 OVC250 07/M02 A2999\ RMK AO2 SLP156 T00721017 10094 20072\ 53026 $= 201702020051 METAR KLGA 020051Z 29009KT 10SM SCT060 BKN080 OVC250 06/M01\ A3001 RMK AO2 SLP160 T00611011 $= 201702020151 METAR KLGA 020151Z 30013G21KT 10SM OVC090 06/M02 A3002 RMK\ AO2 SLP163 T00611022 $= 201702020251 METAR KLGA 020251Z 30014KT 10SM FEW090 BKN150 OVC250 06/M02\ A3003 RMK AO2 SLP169 T00561022 53013\ $= 201702020351 METAR KLGA 020351Z 30012G19KT 10SM BKN170 05/M03 A3004 RMK\ AO2 SLP172 T00501028 $= 201702020451 METAR KLGA 020451Z 31012KT 10SM FEW170 04/M03 A3004 RMK AO2\ SLP172 T00441033 400940011 $= 201702020551 METAR KLGA 020551Z 30012KT 10SM SCT180 04/M03 A3004 RMK AO2\ SLP170 T00441033 10072 20044 50001\ $= 201702020651 METAR KLGA 020651Z 31012KT 10SM SCT160 SCT250 04/M04 A3004\ RMK AO2 SLP174 T00391044 $= 201702020751 METAR KLGA 020751Z 31006KT 10SM OVC140 04/M04 A3006 RMK AO2\ SLP177 T00391044 $= 201702020851 METAR KLGA 020851Z 31004KT 10SM BKN170 04/M06 A3005 RMK AO2\ SLP177 T00391061 50006 $= 201702020951 METAR KLGA 020951Z 00000KT 10SM OVC110 04/M06 A3005 RMK AO2\ SLP175 T00391061 $= 201702021051 METAR KLGA 021051Z 22006KT 10SM BKN120 03/M05 A3005 RMK AO2\ SLP175 T00331050 $= 201702021151 METAR KLGA 021151Z 22007KT 10SM OVC070 04/M04 A3006 RMK AO2\ SLP177 T00391039 10044 20028 53001\ $= 201702021251 METAR KLGA 021251Z 25013G20KT 10SM BKN070 04/M04 A3007 RMK\ AO2 SLP183 T00441044 $= 201702021351 METAR KLGA 021351Z 25009KT 10SM BKN041 OVC065 05/M04 A3008\ RMK AO2 PK WND 28027/1252 SLP184\ T00501039 $= 201702021451 METAR KLGA 021451Z 26014KT 10SM SCT036 SCT060 05/M04 A3007\ RMK AO2 SLP183 T00501044 50006 $= 201702021551 METAR KLGA 021551Z 30013KT 10SM FEW036 FEW100 06/M06 A3007\ RMK AO2 SLP181 T00561061 $= 201702021651 METAR KLGA 021651Z 30010KT 10SM FEW040 SCT075 BKN250 07/M08\ A3003 RMK AO2 SLP170 T00671083 $= 201702021751 METAR KLGA 021751Z 29022G26KT 10SM BKN070 BKN250 07/M09 A3002\ RMK AO2 PK WND 29026/1748 SLP166\ T00671089 10072 20039 58017 $= 201702021851 METAR KLGA 021851Z 26021G26KT 10SM SCT075 BKN250 08/M11 A3001\ RMK AO2 PK WND 29029/1802 SLP161\ T00781111 $= 201702021951 METAR KLGA 021951Z 30015KT 10SM BKN075 BKN250 07/M09 A3002\ RMK AO2 PK WND 30027/1907 SLP164\ T00721089 $= 201702022051 METAR KLGA 022051Z 29017G24KT 10SM SCT065 BKN085 BKN250 07/M09\ A3005 RMK AO2 PK WND 31026/2025 SLP175\ VIRGA E-S-W T00671089 53009 $= 201702022151 METAR KLGA 022151Z 33013KT 10SM BKN065 BKN085 BKN250 05/M06\ A3008 RMK AO2 SLP184 VIRGA S-W T00501056\ $= 201702022251 METAR KLGA 022251Z 31013KT 10SM SCT055 BKN080 BKN250 04/M06\ A3010 RMK AO2 SLP192 T00441056 $= 201702022351 METAR KLGA 022351Z 30012G22KT 10SM FEW080 FEW250 04/M06 A3013\ RMK AO2 SLP201 T00391061 10078 20039\ 52025 $= 201702030051 METAR KLGA 030051Z 31014KT 10SM FEW055 FEW080 SCT250 03/M06\ A3015 RMK AO2 SLP209 T00331061 $= 201702030151 METAR KLGA 030151Z 31012KT 10SM FEW055 FEW250 03/M07 A3017\ RMK AO2 SLP214 T00281067 $= 201702030251 METAR KLGA 030251Z 33010KT 10SM FEW055 FEW250 02/M07 A3019\ RMK AO2 SLP222 T00171072 51021 $= 201702030351 METAR KLGA 030351Z 31010KT 10SM FEW050 FEW250 02/M08 A3020\ RMK AO2 SLP225 T00171083 $= 201702030451 METAR KLGA 030451Z 31013KT 10SM FEW250 02/M09 A3020 RMK AO2\ SLP224 T00171094 400780017 $= 201702030551 METAR KLGA 030551Z 31011KT 10SM CLR 01/M10 A3019 RMK AO2\ SLP224 T00111100 10039 20011 51002\ $= 201702030651 METAR KLGA 030651Z 31013G20KT 10SM CLR 01/M11 A3021 RMK AO2\ SLP228 T00061106 $= 201702030751 METAR KLGA 030751Z 33014KT 10SM CLR 00/M11 A3021 RMK AO2\ SLP230 T00001106 $= 201702030851 METAR KLGA 030851Z 33011KT 10SM FEW250 M01/M12 A3020 RMK\ AO2 SLP227 T10111117 50002 $= 201702030951 METAR KLGA 030951Z 32011KT 10SM SCT250 M02/M12 A3021 RMK\ AO2 SLP231 T10171122 $= 201702031051 METAR KLGA 031051Z 31008KT 10SM BKN250 M02/M13 A3023 RMK\ AO2 SLP235 T10221128 $= 201702031151 METAR KLGA 031151Z 30010KT 10SM BKN250 M02/M12 A3024 RMK\ AO2 SLP238 T10221122 10011 21022\ 51012 $= 201702031251 METAR KLGA 031251Z 30007KT 10SM BKN220 M02/M13 A3024 RMK\ AO2 SLP239 T10221128 $= 201702031351 METAR KLGA 031351Z 33009KT 10SM BKN170 OVC220 M02/M12 A3025\ RMK AO2 SLP244 T10171122 $= 201702031451 METAR KLGA 031451Z 31009KT 10SM SCT160 OVC250 M02/M13 A3024\ RMK AO2 SLP241 T10171128 50003 $= 201702031551 METAR KLGA 031551Z 31010KT 10SM FEW160 OVC250 M01/M12 A3023\ RMK AO2 SLP237 T10111122 $= 201702031651 METAR KLGA 031651Z 27007KT 250V330 10SM FEW140 OVC250 M01/M12\ A3019 RMK AO2 SLP221 T10061122 $= 201702031751 METAR KLGA 031751Z 27010KT 10SM FEW100 FEW130 OVC250 00/M12\ A3015 RMK AO2 SLP208 T00001122 10000\ 21022 58033 $= 201702031851 METAR KLGA 031851Z 29008KT 10SM FEW140 BKN250 01/M12 A3012\ RMK AO2 SLP198 T00111117 $= 201702031951 METAR KLGA 031951Z 26009G14KT 10SM FEW140 BKN250 01/M12 A3010\ RMK AO2 SLP193 T00111122 $= 201702032051 METAR KLGA 032051Z 29009KT 10SM FEW140 BKN250 01/M12 A3009\ RMK AO2 SLP189 T00111122 56019 $= 201702032151 METAR KLGA 032151Z 30013KT 10SM BKN120 01/M12 A3010 RMK AO2\ SLP190 T00111117 $= 201702032251 METAR KLGA 032251Z 26013KT 10SM BKN110 BKN250 01/M12 A3011\ RMK AO2 SLP195 T00111117 $= 201702032351 METAR KLGA 032351Z 31012G20KT 10SM BKN110 OVC250 01/M11 A3013\ RMK AO2 SLP202 T00111106 10017 20000\ 53013 $= 201702040051 METAR KLGA 040051Z 32016G23KT 10SM BKN100 OVC250 01/M12 A3015\ RMK AO2 SLP209 T00061117 $= 201702040151 METAR KLGA 040151Z 32019KT 10SM FEW050 BKN100 OVC250 00/M12\ A3017 RMK AO2 SLP215 T00001122 $= 201702040251 METAR KLGA 040251Z 32014G22KT 10SM FEW100 SCT250 M01/M13\ A3018 RMK AO2 PK WND 32031/0208 SLP220\ T10061128 51018 $= 201702040351 METAR KLGA 040351Z 32022G27KT 10SM SCT055 M01/M12 A3020 RMK\ AO2 PK WND 32027/0351 SLP225 T10111122\ $= 201702040451 METAR KLGA 040451Z 33020G29KT 10SM SCT055 M02/M13 A3021 RMK\ AO2 PK WND 32029/0445 SLP230 T10171133\ 400171022 $= 201702040551 METAR KLGA 040551Z 31022KT 10SM FEW055 M03/M14 A3024 RMK\ AO2 PK WND 31034/0534 SLP238 T10281144\ 10011 21028 53018 $= 201702040651 METAR KLGA 040651Z 32021G26KT 10SM CLR M03/M14 A3025 RMK\ AO2 PK WND 32029/0602 SLP244 T10331139\ $= 201702040751 METAR KLGA 040751Z 31018G26KT 10SM CLR M03/M14 A3027 RMK\ AO2 PK WND 31029/0708 SLP250 T10331139\ $= 201702040851 METAR KLGA 040851Z 30013G23KT 10SM CLR M04/M14 A3028 RMK\ AO2 PK WND 30028/0805 SLP253 T10391144\ 51015 $= 201702040951 METAR KLGA 040951Z 30016KT 10SM CLR M04/M14 A3031 RMK AO2\ SLP263 T10441139 $= 201702041051 METAR KLGA 041051Z 29014G20KT 10SM CLR M04/M15 A3032 RMK\ AO2 SLP267 T10441150 $= 201702041151 METAR KLGA 041151Z 29010KT 10SM FEW250 M04/M14 A3036 RMK\ AO2 SLP279 T10441144 11028 21044\ 53026 $= 201702041251 METAR KLGA 041251Z 29012KT 10SM FEW250 M04/M14 A3037 RMK\ AO2 SLP282 T10441144 $= 201702041351 METAR KLGA 041351Z 28013G21KT 10SM FEW250 M04/M14 A3039 RMK\ AO2 SLP292 T10391139 $= 201702041451 METAR KLGA 041451Z 30010G19KT 10SM FEW250 M03/M14 A3041 RMK\ AO2 SLP295 T10281144 53016 $= 201702041551 METAR KLGA 041551Z 30014KT 10SM CLR M02/M13 A3039 RMK AO2\ SLP291 T10171133 $= 201702041651 METAR KLGA 041651Z 29013KT 10SM FEW050 M01/M14 A3037 RMK\ AO2 SLP284 T10061139 $= 201702041751 METAR KLGA 041751Z 26012G19KT 10SM FEW050 00/M14 A3034 RMK\ AO2 SLP273 T00001144 10006 21044\ 58022 $= 201702041851 METAR KLGA 041851Z 27013KT 10SM FEW050 01/M16 A3030 RMK AO2\ SLP261 T00111156 $= 201702041951 METAR KLGA 041951Z 27010KT 10SM CLR 02/M14 A3030 RMK AO2\ SLP260 T00221144 $= 201702042051 METAR KLGA 042051Z 25010G19KT 10SM FEW250 02/M15 A3029 RMK\ AO2 SLP257 T00221150 56015 $= 201702042151 METAR KLGA 042151Z 25013G20KT 10SM FEW250 02/M16 A3029 RMK\ AO2 SLP258 T00171156 $= 201702042251 METAR KLGA 042251Z 25011KT 10SM CLR 02/M15 A3030 RMK AO2\ SLP259 T00171150 $= 201702042351 METAR KLGA 042351Z 26014G19KT 10SM BKN250 02/M14 A3031 RMK\ AO2 SLP262 T00171144 10022 20000\ 53004 $= 201702050051 METAR KLGA 050051Z 24008KT 10SM BKN250 01/M14 A3030 RMK AO2\ SLP261 T00111139 $= 201702050151 METAR KLGA 050151Z 27014G18KT 10SM BKN250 01/M14 A3030 RMK\ AO2 SLP259 T00111139 $= 201702050251 METAR KLGA 050251Z 27016KT 10SM BKN250 01/M14 A3029 RMK AO2\ SLP258 T00111139 57004 $= 201702050351 METAR KLGA 050351Z 26012KT 10SM BKN250 01/M14 A3028 RMK AO2\ SLP254 T00111139 $= 201702050451 METAR KLGA 050451Z 22007KT 10SM OVC150 01/M13 A3026 RMK AO2\ SLP247 T00111133 400221044 $= 201702050551 METAR KLGA 050551Z 22007KT 10SM OVC150 01/M13 A3024 RMK AO2\ SLP240 T00111128 10017 20011 58018\ $= 201702050651 METAR KLGA 050651Z 22010KT 10SM OVC150 01/M13 A3024 RMK AO2\ SLP238 T00061128 $= 201702050751 METAR KLGA 050751Z 21007KT 10SM OVC150 01/M12 A3021 RMK AO2\ SLP228 T00111122 $= 201702050851 METAR KLGA 050851Z 20007KT 10SM OVC150 01/M12 A3017 RMK AO2\ SLP217 T00111122 58022 $= 201702050951 METAR KLGA 050951Z 20007KT 10SM OVC150 01/M10 A3015 RMK AO2\ SLP210 T00111100 $= 201702051051 METAR KLGA 051051Z 20009KT 10SM BKN150 01/M09 A3012 RMK AO2\ SLP198 T00111094 $= 201702051151 METAR KLGA 051151Z 21012KT 10SM FEW050 SCT090 BKN190 BKN250\ 01/M08 A3011 RMK AO2 SLP194 T00111078\ 10011 20006 56023 $= 201702051251 METAR KLGA 051251Z 20012KT 10SM FEW050 SCT090 SCT120 BKN180\ BKN250 02/M07 A3008 RMK AO2 SLP184\ T00171072 $= 201702051351 METAR KLGA 051351Z 21014G18KT 10SM FEW045 SCT080 SCT100 BKN170\ BKN250 02/M08 A3005 RMK AO2 SLP176\ VIRGA W-NW T00221083 $= 201702051451 METAR KLGA 051451Z 22010G21KT 10SM FEW030 BKN100 BKN160 BKN220\ 03/M08 A3002 RMK AO2 SLP166 VIRGA\ W-N T00281083 57028 $= 201702051551 METAR KLGA 051551Z 25010G18KT 10SM FEW030 BKN090 BKN160 OVC220\ 03/M08 A3000 RMK AO2 SLP157 VIRGA\ OHD AND NW-N T00281078 $= 201702051651 METAR KLGA 051651Z 23008KT 10SM FEW030 BKN090 BKN150 OVC210\ 03/M07 A2995 RMK AO2 SLP140 VIRGA\ OHD AND NW-NE T00331072 $= 201702051751 METAR KLGA 051751Z 27008KT 10SM FEW030 BKN080 BKN150 OVC250\ 04/M08 A2992 RMK AO2 SLP130 VIRGA\ OHD AND NW-N T00441078 10044 20011\ 58036 $= 201702051851 METAR KLGA 051851Z 24005KT 10SM FEW036 SCT044 BKN070 BKN140\ OVC250 04/M06 A2987 RMK AO2 SLP115\ VIRGA OHD AND ALQDS T00441061 $= 201702051951 METAR KLGA 051951Z 23009KT 10SM BKN080 OVC100 06/M07 A2984\ RMK AO2 SLP104 T00561067 $= 201702052051 METAR KLGA 052051Z 24010KT 10SM BKN060 BKN140 06/M08 A2985\ RMK AO2 SLP106 T00611078 55024 $= 201702052151 METAR KLGA 052151Z 24008G22KT 10SM SCT055 BKN140 07/M08 A2985\ RMK AO2 SLP106 T00671078 $= 201702052251 METAR KLGA 052251Z 27015G23KT 10SM FEW055 SCT140 BKN250 06/M08\ A2986 RMK AO2 SLP112 T00611078 $= 201702052351 METAR KLGA 052351Z 25013KT 10SM FEW060 SCT140 06/M08 A2988\ RMK AO2 SLP119 T00611078 10067 20039\ 53012 $= 201702060051 METAR KLGA 060051Z 24010G19KT 10SM BKN070 06/M07 A2990 RMK\ AO2 SLP123 T00611072 $= 201702060151 METAR KLGA 060151Z 25013G20KT 10SM BKN065 06/M07 A2989 RMK\ AO2 SLP123 T00611067 $= 201702060251 METAR KLGA 060251Z 24011KT 10SM BKN060 07/M06 A2990 RMK AO2\ SLP125 T00671056 51007 $= 201702060351 METAR KLGA 060351Z 26016G26KT 10SM OVC060 07/M06 A2991 RMK\ AO2 PK WND 26026/0348 SLP130 T00721056\ $= 201702060451 METAR KLGA 060451Z 26015G21KT 10SM SCT055 07/M06 A2992 RMK\ AO2 SLP130 T00671056 400720006 $= 201702060551 METAR KLGA 060551Z 27012KT 10SM SCT055 06/M05 A2992 RMK AO2\ SLP132 T00611050 10072 20061 51007\ $= 201702060651 METAR KLGA 060651Z 29018G28KT 10SM SCT055 06/M05 A2993 RMK\ AO2 PK WND 31028/0642 SLP136 T00611050\ $= 201702060751 METAR KLGA 060751Z 31018G28KT 10SM BKN050 06/M06 A2997 RMK\ AO2 PK WND 31030/0715 SLP147 T00561056\ $= 201702060851 METAR KLGA 060851Z 31018KT 10SM BKN050 05/M05 A3000 RMK AO2\ PK WND 31027/0806 SLP157 T00501050\ 53025 $= 201702060951 METAR KLGA 060951Z 31018G28KT 10SM BKN050 05/M07 A3001 RMK\ AO2 PK WND 31028/0947 SLP163 T00501067\ $= 201702061051 METAR KLGA 061051Z 31011KT 10SM SCT050 04/M07 A3005 RMK AO2\ SLP175 T00441067 $= 201702061151 METAR KLGA 061151Z 33012G21KT 10SM SCT050 SCT250 03/M06 A3008\ RMK AO2 SLP186 T00331061 10067 20033\ 53030 $= 201702061251 METAR KLGA 061251Z 33010KT 10SM FEW050 SCT250 03/M08 A3011\ RMK AO2 SLP194 T00331078 $= 201702061351 METAR KLGA 061351Z 33009KT 10SM FEW250 04/M08 A3014 RMK AO2\ SLP204 T00391078 $= 201702061451 METAR KLGA 061451Z 32010KT 10SM FEW050 04/M08 A3015 RMK AO2\ SLP209 T00441078 51023 $= 201702061551 METAR KLGA 061551Z 30012KT 10SM FEW050 06/M07 A3014 RMK AO2\ SLP207 T00561072 $= 201702061651 METAR KLGA 061651Z 31012KT 10SM FEW050 06/M07 A3013 RMK AO2\ SLP202 T00611072 $= 201702061751 METAR KLGA 061751Z 31007KT 10SM FEW050 FEW250 07/M07 A3010\ RMK AO2 SLP192 T00721072 10072 20033\ 58017 $= 201702061851 METAR KLGA 061851Z 27007KT 10SM FEW050 FEW250 08/M07 A3008\ RMK AO2 SLP185 T00831067 $= 201702061951 METAR KLGA 061951Z 29006KT 10SM FEW050 SCT250 09/M07 A3007\ RMK AO2 SLP183 T00941072 $= 201702062051 METAR KLGA 062051Z 21013KT 10SM FEW250 10/M06 A3006 RMK AO2\ SLP178 T01001061 56015 $= 201702062151 METAR KLGA 062151Z 18015G18KT 10SM FEW250 09/M04 A3005 RMK\ AO2 SLP176 T00891044 $= 201702062251 METAR KLGA 062251Z 18010KT 10SM FEW250 06/M01 A3007 RMK AO2\ SLP183 T00611011 $= 201702062351 METAR KLGA 062351Z 18008KT 10SM FEW250 06/M01 A3008 RMK AO2\ SLP186 T00611006 10100 20061 53008\ $= 201702070051 METAR KLGA 070051Z 17008KT 10SM FEW250 06/01 A3007 RMK AO2\ SLP182 T00560006 $= 201702070151 METAR KLGA 070151Z VRB06KT 9SM SCT250 07/02 A3005 RMK AO2\ SLP176 T00720022 $= 201702070251 METAR KLGA 070251Z 17005KT 8SM FEW250 06/02 A3005 RMK AO2\ SLP174 T00560022 56012 $= 201702070351 METAR KLGA 070351Z 18005KT 9SM FEW250 06/02 A3003 RMK AO2\ SLP168 T00610017 $= 201702070451 METAR KLGA 070451Z 16006KT 10SM BKN250 06/01 A3001 RMK AO2\ SLP163 T00560006 401000033 $= 201702070551 METAR KLGA 070551Z 05007KT 8SM OVC250 04/01 A2999 RMK AO2\ SLP155 T00440006 10072 20044 58018\ $= 201702070651 METAR KLGA 070651Z 05007KT 7SM OVC170 04/01 A2998 RMK AO2\ SLP151 T00390011 $= 201702070751 METAR KLGA 070751Z 04007KT 7SM FEW170 BKN250 03/01 A2997\ RMK AO2 SLP147 T00330011 $= 201702070851 METAR KLGA 070851Z 04007KT 7SM OVC170 03/01 A2994 RMK AO2\ SLP139 T00330006 58017 $= 201702070951 METAR KLGA 070951Z 03005KT 6SM BR OVC100 04/02 A2994 RMK\ AO2 SLP138 T00390017 $= 201702071051 METAR KLGA 071051Z 02004KT 7SM OVC090 04/02 A2994 RMK AO2\ RAB16E26 SLP137 P0000 T00390017 $= 201702071151 METAR KLGA 071151Z 06009KT 4SM -RA BR FEW045 OVC065 04/02\ A2992 RMK AO2 RAB1058 SLP130 P0004\ 60004 70004 T00390017 10044 20033\ 58008 $= 201702071251 METAR KLGA 071251Z 04012KT 2 1/2SM HZ FEW006 SCT045 OVC080\ 04/02 A2992 RMK AO2 SFC VIS 3 RAE41\ SLP132 P0000 T00440017 $= 201702071351 METAR KLGA 071351Z 04011KT 2SM -RA BR SCT006 SCT012 OVC075\ 04/02 A2994 RMK AO2 SFC VIS 3 RAB1254\ SLP139 P0003 T00440022 $= 201702071451 METAR KLGA 071451Z 05015KT 5SM HZ FEW005 BKN024 OVC070 05/02\ A2994 RMK AO2 RAE29 SLP138 P0000\ 60003 T00500022 50006 $= 201702071551 METAR KLGA 071551Z 04013KT 4SM -RA BKN007 OVC047 04/02 A2997\ RMK AO2 RAB47 PRESRR SLP146 P0000\ T00440017 $= 201702071651 METAR KLGA 071651Z 06013KT 3SM RA BR BKN007 BKN055 OVC070\ 04/02 A2989 RMK AO2 PRESFR SLP120\ P0010 T00390017 $= 201702071751 METAR KLGA 071751Z 04012KT 8SM OVC006 04/02 A2988 RMK AO2\ RAE37 SLP117 P0005 60018 T00390017\ 10056 20033 58021 $= 201702071851 METAR KLGA 071851Z 05010KT 5SM -RA BR OVC006 03/01 A2985\ RMK AO2 RAB1753E21B41 SLP108 P0000\ T00330011 $= 201702071951 METAR KLGA 071951Z 05009KT 7SM OVC006 03/02 A2985 RMK AO2\ RAE28 SLP106 P0001 T00330017 $= 201702072051 METAR KLGA 072051Z 06010KT 6SM BR OVC006 04/02 A2981 RMK\ AO2 SLP093 60001 T00390017 58024\ $= 201702072151 METAR KLGA 072151Z 05010G19KT 9SM OVC006 04/02 A2982 RMK\ AO2 SLP096 T00390017 $= 201702072251 METAR KLGA 072251Z 05012KT 9SM OVC005 04/02 A2978 RMK AO2\ RAB12E26 SLP085 P0000 T00390017 $= 201702072351 METAR KLGA 072351Z 05011KT 6SM BR OVC004 04/02 A2977 RMK\ AO2 SLP080 60001 T00390022 10044\ 20033 58013 $= 201702080051 METAR KLGA 080051Z 05008KT 3/4SM BR OVC002 04/02 A2974 RMK\ AO2 SFC VIS 2 SLP070 T00390022 $= 201702080151 METAR KLGA 080151Z 05011KT 1/2SM BR OVC003 04/02 A2971 RMK\ AO2 SFC VIS 1 1/2 SLP060 T00390022\ $= 201702080251 METAR KLGA 080251Z 06011KT 1/2SM BR VV002 04/02 A2968 RMK\ AO2 SFC VIS 1 SLP050 T00390022 58020\ RVRNO $= 201702080351 METAR KLGA 080351Z 05007KT 1/4SM BR VV002 04/03 A2965 RMK\ AO2 SFC VIS 3/4 SLP039 T00390033\ RVRNO $= 201702080451 METAR KLGA 080451Z 05010KT 1/4SM FG VV002 04/03 A2961 RMK\ AO2 SFC VIS 1/2 SLP025 T00390028\ 400610033 RVRNO $= 201702080551 METAR KLGA 080551Z 05008KT 1/4SM FG VV002 04/03 A2957 RMK\ AO2 SFC VIS 1/2 SLP015 T00390033\ 10050 20033 57036 RVRNO $= 201702080651 METAR KLGA 080651Z 05005KT 1/4SM FG VV002 04/03 A2956 RMK\ AO2 SFC VIS 1/2 SLP010 T00390033\ RVRNO $= 201702080751 METAR KLGA 080751Z 03003KT 1/4SM BR OVC003 04/04 A2956 RMK\ AO2 SFC VIS 1 3/4 SLP008 T00390039\ $= 201702080851 METAR KLGA 080851Z 10006KT 4SM -RA BR FEW004 BKN070 OVC090\ 04/03 A2954 RMK AO2 RAB09 SLP002\ P0001 60001 T00440033 58012 $= 201702080951 METAR KLGA 080951Z 07004KT 4SM BR BKN003 BKN095 OVC110 04/03\ A2953 RMK AO2 RAE06 SLP000 P0001\ T00440033 $= 201702081051 METAR KLGA 081051Z 00000KT 4SM BR SCT050 SCT070 OVC220 04/04\ A2954 RMK AO2 SLP003 T00440039 $= 201702081151 METAR KLGA 081151Z 05003KT 5SM BR FEW010 SCT075 SCT250 06/04\ A2957 RMK AO2 SLP014 60002 70021\ T00560039 10056 20039 53011 $= 201702081251 METAR KLGA 081251Z 00000KT 6SM BR FEW075 BKN250 06/04 A2958\ RMK AO2 SLP015 T00610044 $= 201702081351 METAR KLGA 081351Z 17004KT 7SM FEW040 BKN049 BKN070 BKN250\ 09/06 A2961 RMK AO2 SLP026 T00940061\ $= 201702081451 METAR KLGA 081451Z 24006KT 6SM HZ BKN055 BKN250 12/08 A2963\ RMK AO2 SLP034 T01220083 53020 $= 201702081551 METAR KLGA 081551Z 29011KT 10SM FEW075 BKN250 15/08 A2965\ RMK AO2 SLP039 T01500078 $= 201702081651 METAR KLGA 081651Z 31010KT 9SM FEW050 BKN250 14/07 A2964\ RMK AO2 SLP038 T01390072 $= 201702081751 METAR KLGA 081751Z 32007KT 10SM FEW050 BKN250 16/07 A2964\ RMK AO2 SLP036 T01610067 10161 20050\ 50003 $= 201702081851 METAR KLGA 081851Z 31010KT 10SM FEW047 BKN250 16/04 A2963\ RMK AO2 SLP035 T01560044 $= 201702081951 METAR KLGA 081951Z 33008KT 10SM FEW050 BKN250 16/04 A2964\ RMK AO2 SLP036 T01560044 $= 201702082051 METAR KLGA 082051Z 34009KT 10SM FEW050 BKN250 14/03 A2966\ RMK AO2 SLP042 T01440033 53006 $= 201702082151 METAR KLGA 082151Z 34010KT 10SM CLR 13/02 A2969 RMK AO2 SLP054\ T01280022 $= 201702082251 METAR KLGA 082251Z 35011KT 10SM FEW035 OVC250 11/01 A2969\ RMK AO2 SLP053 T01060006 $= 201702082351 METAR KLGA 082351Z 01009KT 10SM OVC250 10/M02 A2970 RMK AO2\ SLP056 T01001017 10167 20094 51014\ $= 201702090051 METAR KLGA 090051Z 02005KT 10SM SCT120 OVC250 09/M01 A2971\ RMK AO2 SLP062 T00941006 $= 201702090151 METAR KLGA 090151Z 02009KT 10SM BKN150 BKN250 09/M01 A2972\ RMK AO2 SLP065 T00891011 $= 201702090251 METAR KLGA 090251Z 36007KT 10SM BKN130 BKN250 08/M01 A2972\ RMK AO2 SLP062 T00831006 50006 $= 201702090351 METAR KLGA 090351Z 05008KT 10SM FEW130 BKN160 OVC250 07/00\ A2970 RMK AO2 SLP058 T00670000 $= 201702090451 METAR KLGA 090451Z 05008KT 10SM BKN080 BKN130 07/M01 A2970\ RMK AO2 SLP058 T00671006 401670039\ $= 201702090551 METAR KLGA 090551Z 05010KT 10SM BKN095 06/M01 A2966 RMK AO2\ PRESFR SLP045 T00611011 10100 20061\ 58018 $= 201702090651 METAR KLGA 090651Z 04010KT 10SM BKN100 06/M02 A2966 RMK AO2\ SLP042 T00561017 $= 201702090751 METAR KLGA 090751Z 05012KT 10SM BKN045 OVC095 05/M02 A2961\ RMK AO2 SLP025 T00501017 $= 201702090851 METAR KLGA 090851Z 01014KT 10SM OVC041 04/M02 A2958 RMK AO2\ RAB31E45 SLP018 P0000 60000 T00441022\ 58027 $= 201702090951 METAR KLGA 090951Z 02014KT 3/4SM -SN BR FEW006 BKN016 OVC042\ 01/M01 A2960 RMK AO2 TWR VIS 1 RAB01E03SNB03\ PRESFR SLP021 P0004 T00111011 RVRNO\ $= 201702091051 METAR KLGA 091051Z 35015G21KT 2SM -SN BR SCT011 BKN014 OVC019\ 00/M02 A2960 RMK AO2 CIG 010 R22\ SW SLP023 P0003 T00001022 $= 201702091151 METAR KLGA 091151Z 36013G29KT 1/4SM FZFG VV007 M01/M02 A2956\ RMK AO2 PK WND 01027/1126 SFC VIS\ 1/2 SNEMM SLP011 931015 4/002 P0008\ 60015 70015 T10061022 10056 21006\ 58012 RVRNO $= 201702091251 METAR KLGA 091251Z 36018G28KT 1/4SM SN FG VV007 00/M02 A2955\ RMK AO2 PK WND 36031/1214 SFC VIS\ 1/2 SLP005 SNINCR 2/3 P0007 T00001022\ RVRNO $= 201702091351 METAR KLGA 091351Z 02022KT 1/4SM SN FG VV004 01/M01 A2953\ RMK AO2 PK WND 35030/1311 TWR VIS\ 1/4 SLP001 SNINCR 3/6 P0009 T00061011\ RVRNO $= 201702091451 METAR KLGA 091451Z 02021KT 1/4SM SN BLSN FZFG VV009 M01/M03\ A2952 RMK AO2 PK WND 35034/1427 SLP997\ SNINCR 3/9 P0007 60023 T10111028\ 56009 RVRNO $= 201702091551 METAR KLGA 091551Z 35023G29KT 1/4SM SN BLSN FZFG VV009 M01/M03\ A2955 RMK AO2 PK WND 34038/1523 SLP005\ P0002 T10111033 RVRNO $= 201702091651 METAR KLGA 091651Z 34017G28KT 1/2SM -SN BLSN FZFG VV010 M01/M03\ A2953 RMK AO2 PK WND 34033/1621 SLP998\ P0003 T10111033 RVRNO $= 201702091751 METAR KLGA 091751Z 33018KT 1/2SM -SN BLSN FZFG VV010 M01/M04\ A2954 RMK AO2 PK WND 33030/1713 SFC\ VIS 1 3/4 SLP001 931080 4/010 933030\ P0001 60029 T10111044 10006 21017\ 51005 $= 201702091851 METAR KLGA 091851Z 32020G31KT 1 1/2SM -SN BLSN BKN025 OVC032\ M02/M06 A2956 RMK AO2 PK WND 33031/1843\ SLP010 P0000 T10171061 $= 201702091951 METAR KLGA 091951Z 33024G29KT 1 1/2SM -SN BLSN BKN024 OVC030\ M02/M08 A2961 RMK AO2 PK WND 31038/1907\ SLP028 P0000 T10221078 $= 201702092051 METAR KLGA 092051Z 31024G36KT 3SM -SN BLSN BKN026 OVC034\ M02/M09 A2966 RMK AO2 PK WND 31036/1954\ SLP045 P0000 60000 T10221094 53043\ $= 201702092151 METAR KLGA 092151Z 33022G33KT 10SM OVC100 M02/M11 A2970 RMK\ AO2 PK WND 31034/2109 SNE2055 SLP056\ PRESENT WX DRSN P0000 T10221111 $= 201702092251 METAR KLGA 092251Z 30020G35KT 10SM FEW030 SCT090 BKN110 M03/M13\ A2976 RMK AO2 PK WND 32038/2204 SLP078\ T10331128 $= 201702092351 METAR KLGA 092351Z 31021G34KT 10SM FEW045 SCT110 M04/M13\ A2982 RMK AO2 PK WND 31038/2309 SLP098\ 931005 4/008 60000 T10441133 11011\ 21044 53053 $= 201702100051 METAR KLGA 100051Z 31028G35KT 10SM FEW045 SCT110 M04/M14\ A2988 RMK AO2 PK WND 30038/0036 SLP117\ PRESENT WX DRSN T10441139 $= 201702100151 METAR KLGA 100151Z 30026G36KT 10SM FEW110 M05/M14 A2994 RMK\ AO2 PK WND 30036/0147 SLP137 PRESENT\ WX DRSN T10501144 $= 201702100251 METAR KLGA 100251Z 32016G28KT 10SM FEW110 M05/M14 A2999 RMK\ AO2 PK WND 31035/0239 SLP155 PRESENT\ WX DRSN T10501139 51058 $= 201702100351 METAR KLGA 100351Z 32020G29KT 10SM FEW130 M07/M16 A3004 RMK\ AO2 SLP171 PRESENT WX DRSN T10721161\ $= 201702100451 METAR KLGA 100451Z 31018G23KT 10SM CLR M07/M16 A3009 RMK\ AO2 SLP187 PRESENT WX DRSN T10721161\ 400671072 $= 201702100551 METAR KLGA 100551Z 29011G17KT 10SM SCT050 BKN200 M07/M15\ A3010 RMK AO2 SLP192 4/008 T10721150\ 51037 $= 201702100651 METAR KLGA 100651Z 27012G17KT 10SM FEW050 FEW140 M06/M15\ A3009 RMK AO2 SLP190 T10671150 $= 201702100751 METAR KLGA 100751Z 27016G21KT 10SM CLR M07/M15 A3010 RMK\ AO2 SLP193 T10671150 $= 201702100851 METAR KLGA 100851Z 27015G22KT 10SM CLR M07/M15 A3014 RMK\ AO2 SLP204 T10671144 53013 $= 201702100951 METAR KLGA 100951Z 28015G20KT 10SM CLR M06/M14 A3016 RMK\ AO2 SLP211 T10671139 $= 201702101051 METAR KLGA 101051Z 27015G19KT 10SM CLR M05/M14 A3019 RMK\ AO2 SLP222 T10561133 $= 201702101151 METAR KLGA 101151Z 28015KT 10SM FEW040 M05/M14 A3021 RMK\ AO2 SLP231 70029 T10501144 11050\ 21072 53026 $= 201702101251 METAR KLGA 101251Z 27012KT 10SM FEW040 M05/M16 A3022 RMK\ AO2 SLP233 T10501167 $= 201702101351 METAR KLGA 101351Z 28015KT 10SM FEW040 M05/M17 A3024 RMK\ AO2 SLP238 T10441167 $= 201702101451 METAR KLGA 101451Z 28015G19KT 10SM FEW040 M04/M16 A3023 RMK\ AO2 SLP238 T10391161 50007 $= 201702101551 METAR KLGA 101551Z 29015G22KT 10SM FEW040 M03/M14 A3024 RMK\ AO2 SLP238 T10281139 $= 201702101651 METAR KLGA 101651Z 29015G22KT 10SM FEW050 M03/M14 A3023 RMK\ AO2 SLP237 T10281139 $= 201702101751 METAR KLGA 101751Z 28018G22KT 10SM FEW055 SCT250 M01/M13\ A3022 RMK AO2 SLP231 T10171133 11017\ 21050 58006 $= 201702101851 METAR KLGA 101851Z 29019KT 10SM FEW055 SCT250 M01/M12 A3020\ RMK AO2 SLP225 T10111122 $= 201702101951 METAR KLGA 101951Z 29019KT 10SM FEW055 BKN250 M01/M12 A3021\ RMK AO2 SLP228 T10111122 $= 201702102051 METAR KLGA 102051Z 26018KT 10SM FEW055 BKN250 M01/M11 A3020\ RMK AO2 SLP227 T10061111 56004 $= 201702102151 METAR KLGA 102151Z 26010KT 10SM FEW055 BKN250 00/M11 A3021\ RMK AO2 SLP228 T00001111 $= 201702102251 METAR KLGA 102251Z 25011KT 10SM FEW055 BKN250 M01/M11 A3020\ RMK AO2 SLP227 T10061106 $= 201702102351 METAR KLGA 102351Z 22011KT 10SM BKN100 OVC250 M01/M11 A3019\ RMK AO2 SLP224 4/007 T10061106 10011\ 21017 58003 $= 201702110051 METAR KLGA 110051Z 23009KT 10SM BKN110 OVC250 M01/M10 A3018\ RMK AO2 SLP218 T10061100 $= 201702110151 METAR KLGA 110151Z 24012KT 10SM BKN060 OVC075 M01/M11 A3015\ RMK AO2 SLP209 T10061106 $= 201702110251 METAR KLGA 110251Z 21011KT 6SM -SN BKN044 OVC070 M01/M08\ A3015 RMK AO2 SNB47 SLP210 P0000\ 60000 T10111083 55014 $= 201702110351 METAR KLGA 110351Z 20005KT 10SM BKN045 OVC090 M01/M07 A3015\ RMK AO2 SNE13 SLP208 P0000 T10111072\ $= 201702110451 METAR KLGA 110451Z 16005KT 10SM OVC100 M01/M08 A3010 RMK\ AO2 SLP193 T10061078 400111072 $= 201702110551 METAR KLGA 110551Z 12005KT 10SM FEW065 OVC085 M01/M07 A3008\ RMK AO2 PRESFR SLP185 931000 4/006\ 60000 T10061067 11006 21017 58025\ $= 201702110651 METAR KLGA 110651Z 09005KT 10SM SCT060 OVC080 M01/M06 A3007\ RMK AO2 SLP181 T10061056 $= 201702110751 METAR KLGA 110751Z 06004KT 10SM OVC070 00/M05 A3002 RMK AO2\ SLP167 T00001050 $= 201702110851 METAR KLGA 110851Z 02003KT 10SM OVC070 01/M04 A2999 RMK AO2\ SLP155 T00061039 58029 $= 201702110951 METAR KLGA 110951Z 00000KT 10SM BKN070 OVC120 02/M03 A2998\ RMK AO2 SLP150 T00171028 $= 201702111051 METAR KLGA 111051Z 04005KT 10SM OVC060 02/M02 A2995 RMK AO2\ SLP142 T00171022 $= 201702111151 METAR KLGA 111151Z 21007KT 10SM OVC060 04/M04 A2994 RMK AO2\ SLP138 4/006 T00391039 10044 21006\ 56017 $= 201702111251 METAR KLGA 111251Z 22006KT 10SM OVC060 04/M04 A2995 RMK AO2\ SLP142 T00391044 $= 201702111351 METAR KLGA 111351Z 23007KT 10SM BKN060 BKN150 04/M04 A2995\ RMK AO2 SLP141 T00441044 $= 201702111451 METAR KLGA 111451Z 28004KT 10SM SCT060 BKN170 BKN260 06/M05\ A2995 RMK AO2 SLP140 T00561050 50001\ $= 201702111551 METAR KLGA 111551Z 28009KT 10SM SCT060 BKN170 BKN260 06/M06\ A2995 RMK AO2 SLP142 T00561056 $= 201702111651 METAR KLGA 111651Z 28005KT 10SM FEW060 BKN170 BKN260 06/M06\ A2993 RMK AO2 SLP135 T00611056 $= 201702111751 METAR KLGA 111751Z 30005KT 10SM FEW060 SCT170 BKN260 07/M05\ A2991 RMK AO2 SLP127 4/005 933004\ T00671050 10072 20039 58014 $= 201702111851 METAR KLGA 111851Z 03003KT 10SM BKN130 BKN260 07/M05 A2988\ RMK AO2 SLP119 T00721050 $= 201702111951 METAR KLGA 111951Z 00000KT 10SM BKN130 BKN250 08/M05 A2991\ RMK AO2 SLP127 T00831050 $= 201702112051 METAR KLGA 112051Z 00000KT 10SM SCT120 09/M03 A2995 RMK AO2\ SLP141 T00891033 53014 $= 201702112151 METAR KLGA 112151Z 04003KT 10SM SCT130 BKN150 BKN250 08/M03\ A2995 RMK AO2 SLP143 T00831033 $= 201702112251 METAR KLGA 112251Z 05006KT 10SM OVC100 06/M02 A2998 RMK AO2\ SLP151 T00611017 $= 201702112351 METAR KLGA 112351Z 05006KT 10SM BKN140 06/M03 A3000 RMK AO2\ SLP159 4/003 T00611028 10094 20061\ 53018 $= 201702120051 METAR KLGA 120051Z 08004KT 10SM BKN140 BKN250 05/M01 A3003\ RMK AO2 SLP167 T00501011 $= 201702120151 METAR KLGA 120151Z 06003KT 10SM FEW130 BKN250 05/M02 A3005\ RMK AO2 SLP176 T00501022 $= 201702120251 METAR KLGA 120251Z 06004KT 10SM SCT130 BKN250 03/00 A3006\ RMK AO2 SLP180 T00330000 51021 $= 201702120351 METAR KLGA 120351Z 06004KT 10SM FEW130 BKN250 03/00 A3008\ RMK AO2 SLP185 T00330000 $= 201702120451 METAR KLGA 120451Z 04004KT 10SM BKN130 OVC250 03/00 A3010\ RMK AO2 SLP193 T00330000 400941006\ $= 201702120551 METAR KLGA 120551Z 07004KT 10SM OVC130 03/M01 A3011 RMK AO2\ SLP195 4/002 T00331006 10061 20028\ 51015 $= 201702120651 METAR KLGA 120651Z 03005KT 10SM OVC150 03/M01 A3012 RMK AO2\ SLP198 T00331011 $= 201702120751 METAR KLGA 120751Z 07010KT 10SM OVC150 03/M02 A3010 RMK AO2\ SLP192 T00281017 $= 201702120851 METAR KLGA 120851Z 07010KT 10SM OVC095 02/M03 A3011 RMK AO2\ SLP195 T00221033 50000 $= 201702120951 METAR KLGA 120951Z 07008KT 10SM OVC070 02/M03 A3012 RMK AO2\ SLP197 T00171028 $= 201702121051 METAR KLGA 121051Z 07008KT 9SM -DZ OVC065 01/M03 A3011 RMK\ AO2 DZB32 SLP197 P0000 T00111028\ $= 201702121151 METAR KLGA 121151Z 07012KT 8SM -RA FEW014 BKN070 OVC090 01/M03\ A3009 RMK AO2 DZE24RAB24 PRESFR SLP187\ 4/002 P0002 60002 70002 T00061028\ 10033 20006 58007 $= 201702121251 METAR KLGA 121251Z 06009KT 8SM -RA BKN014 OVC037 01/M03 A3009\ RMK AO2 SLP187 P0001 T00061028 $= 201702121351 METAR KLGA 121351Z 06013KT 6SM -FZRAPL FEW011 OVC014 00/M03\ A3006 RMK AO2 RAE05FZRAB05PLB05 SLP179\ P0000 T00001028 $= 201702121451 METAR KLGA 121451Z 06014KT 2 1/2SM -FZRAPL BR OVC009 00/M02\ A3003 RMK AO2 SLP169 P0001 60002\ T00001022 58019 $= 201702121551 METAR KLGA 121551Z 06020KT 1 1/2SM -FZRAPLSN BR OVC007 00/M02\ A2998 RMK AO2 SFC VIS 2 SNB30 PRESFR\ SLP152 P0007 T00001022 $= 201702121651 METAR KLGA 121651Z 07013KT 1 1/2SM -FZRAPL BR OVC006 00/M02\ A2992 RMK AO2 SFC VIS 2 SNE06 PRESFR\ SLP131 P0009 T00001017 $= 201702121751 METAR KLGA 121751Z 04009KT 2SM -FZRA BR OVC006 01/M01 A2988\ RMK AO2 PLE30 SLP116 931003 4/002\ 933008 P0011 60029 T00061011 10006\ 20000 58039 $= 201702121851 METAR KLGA 121851Z 06010KT 3SM -RA BR BKN007 OVC010 01/M01\ A2979 RMK AO2 SFC VIS 4 RAB41FZRAE41\ PRESFR SLP089 P0004 T00111006 $= 201702121951 METAR KLGA 121951Z 06011KT 3SM BR OVC005 02/00 A2976 RMK\ AO2 SFC VIS 5 RAE46 SLP077 P0001\ T00170000 $= 201702122051 METAR KLGA 122051Z 05011KT 3SM -RA BR OVC005 02/01 A2972\ RMK AO2 SFC VIS 4 RAB41 SLP065 P0002\ 60007 T00220006 56052 $= 201702122151 METAR KLGA 122151Z 04011KT 3SM -DZ BR BKN005 OVC013 03/01\ A2968 RMK AO2 SFC VIS 4 RAE48DZB48\ SLP048 P0001 T00330011 $= 201702122251 METAR KLGA 122251Z 02009KT 3SM BR OVC004 02/01 A2968 RMK\ AO2 DZE15 SLP051 P0002 T00220006\ $= 201702122351 METAR KLGA 122351Z 33010KT 3SM BR OVC004 03/01 A2970 RMK\ AO2 SFC VIS 4 SLP055 931000 4/002\ P0001 60011 T00280011 10039 20000\ 55009 $= 201702130051 METAR KLGA 130051Z 32010KT 6SM BR BKN007 OVC013 03/01 A2969\ RMK AO2 SLP053 T00280006 $= 201702130151 METAR KLGA 130151Z 32008KT 10SM SCT008 BKN021 OVC039 03/01\ A2967 RMK AO2 CIG 007 R22 SW SLP046\ T00280006 $= 201702130251 METAR KLGA 130251Z 33006KT 10SM FEW019 02/01 A2965 RMK AO2\ SLP040 T00220006 58016 $= 201702130351 METAR KLGA 130351Z 32007KT 10SM FEW015 03/00 A2962 RMK AO2\ SLP029 T00280000 $= 201702130451 METAR KLGA 130451Z 28009KT 10SM FEW015 BKN070 04/01 A2959\ RMK AO2 SLP020 T00440006 400440000\ $= 201702130551 METAR KLGA 130551Z 26014G24KT 10SM FEW035 BKN110 06/01 A2958\ RMK AO2 SLP015 4/001 T00560006 10056\ 20022 56024 $= 201702130651 METAR KLGA 130651Z 26019G26KT 10SM -RA FEW045 BKN075 BKN090\ 05/00 A2960 RMK AO2 PK WND 27027/0558\ RAB44 SLP022 P0000 T00500000 $= 201702130751 METAR KLGA 130751Z 30018G30KT 10SM FEW014 SCT037 BKN110 04/00\ A2960 RMK AO2 PK WND 31030/0743 RAE51\ SLP024 P0001 T00390000 $= 201702130851 METAR KLGA 130851Z 28020G32KT 10SM FEW014 SCT037 BKN110 04/M02\ A2962 RMK AO2 PK WND 30033/0837 SLP030\ 60001 T00441022 51015 $= 201702130951 METAR KLGA 130951Z 31024G35KT 10SM SCT042 BKN049 04/M04 A2967\ RMK AO2 PK WND 31037/0908 SLP046\ T00391044 $= 201702131051 METAR KLGA 131051Z 29023G36KT 10SM SCT040 SCT120 03/M06 A2967\ RMK AO2 PK WND 29045/1034 SLP048\ T00281056 $= 201702131151 METAR KLGA 131151Z 30022G37KT 10SM SCT042 BKN060 BKN080 03/M06\ A2969 RMK AO2 PK WND 30041/1106 SLP052\ 4/001 60001 70041 T00281061 10056\ 20022 51022 $= 201702131251 METAR KLGA 131251Z 29025G39KT 10SM FEW042 FEW120 BKN140 BKN250\ 02/M06 A2970 RMK AO2 PK WND 29042/1214\ SLP057 T00221056 $= 201702131351 METAR KLGA 131351Z 29025G37KT 10SM BKN041 BKN250 03/M05 A2972\ RMK AO2 PK WND 29040/1300 SLP064\ T00281050 $= 201702131451 METAR KLGA 131451Z 31034G42KT 10SM SCT041 03/M06 A2971 RMK\ AO2 PK WND 29044/1353 SLP060 T00331061\ 50008 $= 201702131551 METAR KLGA 131551Z 31031G45KT 10SM SCT047 04/M06 A2975 RMK\ AO2 PK WND 29053/1505 SLP074 SCT\ V BKN T00391061 $= 201702131651 METAR KLGA 131651Z 32036G52KT 10SM BKN048 04/M06 A2976 RMK\ AO2 PK WND 32052/1648 SLP077 T00391061\ $= 201702131751 METAR KLGA 131751Z 32032G49KT 10SM BKN049 04/M07 A2977 RMK\ AO2 PK WND 32049/1745 SLP080 4/001\ T00391067 10044 20022 51020 $= 201702131851 METAR KLGA 131851Z 31029G41KT 10SM SCT048 04/M06 A2979 RMK\ AO2 PK WND 32049/1802 SLP086 T00441056\ $= 201702131951 METAR KLGA 131951Z 30026G38KT 10SM BKN047 04/M06 A2981 RMK\ AO2 PK WND 31046/1853 SLP094 T00391056\ $= 201702132051 METAR KLGA 132051Z 33024G39KT 10SM ? BKN045 03/M06 A2985\ RMK AO2 PK WND 31039/2046 SLP106\ T00331061 53026 $= 201702132151 METAR KLGA 132151Z 31021G31KT 10SM SCT041 03/M06 A2987 RMK\ AO2 PK WND 30038/2056 SLP115 T00281056\ $= 201702132251 METAR KLGA 132251Z 31024G33KT 10SM ? FEW041 FEW250 02/M07\ A2990 RMK AO2 PK WND 29037/2153 SLP125\ T00221067 $= 201702132351 METAR KLGA 132351Z 31024G31KT 10SM FEW040 FEW250 02/M08 A2994\ RMK AO2 PK WND 31037/2312 SLP137\ T00221083 10044 20022 53031 $= 201702140051 METAR KLGA 140051Z 31021G32KT 10SM ? FEW044 02/M08 A2993\ RMK AO2 PK WND 30036/0031 SLP136\ T00171078 $= 201702140151 METAR KLGA 140151Z 31019G29KT 10SM FEW044 01/M07 A2995 RMK\ AO2 PK WND 33038/0115 SLP142 T00111072\ $= 201702140251 METAR KLGA 140251Z 31017G25KT 10SM FEW044 01/M07 A2997 RMK\ AO2 PK WND 31028/0215 SLP147 T00061067\ 53010 $= 201702140351 METAR KLGA 140351Z 32014G21KT 10SM SCT034 01/M07 A2998 RMK\ AO2 SLP151 T00061067 $= 201702140451 METAR KLGA 140451Z 31014KT 10SM SCT035 01/M07 A2997 RMK AO2\ SLP149 T00061067 400560006 $= 201702140551 METAR KLGA 140551Z 33015G20KT 10SM SCT035 01/M07 A2996 RMK\ AO2 PK WND 31026/0518 SLP146 T00061072\ 10022 20006 58001 $= 201702140651 METAR KLGA 140651Z 32011KT 10SM SCT035 00/M07 A2997 RMK AO2\ SLP148 T00001072 $= 201702140751 METAR KLGA 140751Z 33010KT 10SM ? FEW035 00/M07 A2996 RMK\ AO2 SLP146 T00001072 $= 201702140851 METAR KLGA 140851Z 33008KT 300V010 10SM FEW035 00/M07 A2996\ RMK AO2 SLP146 T00001072 50000 $= 201702140951 METAR KLGA 140951Z 32011KT 10SM ? FEW035 M01/M08 A2997 RMK\ AO2 SLP149 T10061078 $= 201702141051 METAR KLGA 141051Z 31011KT 10SM FEW035 M01/M07 A2997 RMK\ AO2 SLP149 T10061072 $= 201702141151 METAR KLGA 141151Z 31008KT 10SM BKN250 M01/M08 A2999 RMK\ AO2 SLP155 T10061078 10006 21006\ 53009 $= 201702141251 METAR KLGA 141251Z 32009KT 10SM FEW160 BKN250 00/M08 A2999\ RMK AO2 SLP155 T00001078 $= 201702141351 METAR KLGA 141351Z 32007KT 10SM FEW160 BKN250 00/M07 A2998\ RMK AO2 SLP151 T00001072 $= 201702141451 METAR KLGA 141451Z 32008KT 10SM FEW150 OVC200 01/M07 A2995\ RMK AO2 SLP142 T00061072 58014 $= 201702141551 METAR KLGA 141551Z 28005KT 10SM FEW150 OVC200 01/M07 A2994\ RMK AO2 SLP137 T00111072 $= 201702141651 METAR KLGA 141651Z 28008KT 10SM BKN230 02/M08 A2990 RMK AO2\ SLP125 T00171078 $= 201702141751 METAR KLGA 141751Z 23009KT 10SM SCT230 03/M07 A2987 RMK AO2\ SLP114 T00281072 10028 21006 58028\ $= 201702141851 METAR KLGA 141851Z 23009KT 10SM FEW250 03/M06 A2984 RMK AO2\ SLP104 T00331061 $= 201702141951 METAR KLGA 141951Z 21010KT 10SM FEW250 04/M06 A2981 RMK AO2\ SLP093 T00441061 $= 201702142051 METAR KLGA 142051Z 22011KT 10SM SCT250 05/M06 A2981 RMK AO2\ SLP093 T00501061 56021 $= 201702142151 METAR KLGA 142151Z 20009KT 10SM SCT250 05/M06 A2978 RMK AO2\ SLP084 T00501056 $= 201702142251 METAR KLGA 142251Z 21010KT 10SM FEW250 05/M06 A2979 RMK AO2\ SLP086 T00501056 $= 201702142351 METAR KLGA 142351Z 17006KT 10SM FEW250 04/M04 A2979 RMK AO2\ SLP089 T00441039 10056 20022 55004\ $= 201702150051 METAR KLGA 150051Z 17004KT 10SM CLR 04/M04 A2978 RMK AO2\ SLP085 T00441039 $= 201702150151 METAR KLGA 150151Z 19007KT 10SM ? SCT250 04/M04 A2979 RMK\ AO2 SLP087 T00441044 $= 201702150251 METAR KLGA 150251Z 18007KT 10SM BKN250 04/M02 A2977 RMK AO2\ SLP079 T00441022 58009 $= 201702150351 METAR KLGA 150351Z 19006KT 10SM BKN250 04/M02 A2975 RMK AO2\ SLP073 T00391017 $= 201702150451 METAR KLGA 150451Z 19007KT 10SM FEW200 BKN250 03/M02 A2973\ RMK AO2 SLP067 T00331017 400561006\ $= 201702150551 METAR KLGA 150551Z 19004KT 10SM BKN250 03/M02 A2970 RMK AO2\ SLP057 T00331022 10050 20033 58022\ $= 201702150651 METAR KLGA 150651Z 20005KT 10SM BKN250 03/M02 A2969 RMK AO2\ SLP053 T00331017 $= 201702150751 METAR KLGA 150751Z 17003KT 10SM BKN250 03/M02 A2966 RMK AO2\ SLP042 T00281017 $= 201702150851 METAR KLGA 150851Z 20004KT 10SM BKN250 03/M02 A2962 RMK AO2\ SLP030 T00331017 58027 $= 201702150951 METAR KLGA 150951Z 19005KT 10SM OVC250 03/M01 A2959 RMK AO2\ SLP021 T00331011 $= 201702151051 METAR KLGA 151051Z 19005KT 10SM OVC250 03/M01 A2958 RMK AO2\ SLP016 T00331011 $= 201702151151 METAR KLGA 151151Z 16006KT 10SM ? SCT250 03/M01 A2956 RMK\ AO2 SLP010 T00281011 10039 20022\ 56020 $= 201702151251 METAR KLGA 151251Z 18005KT 10SM SCT080 BKN250 03/00 A2953\ RMK AO2 SLP000 T00330000 $= 201702151351 METAR KLGA 151351Z 00000KT 10SM BKN080 OVC250 04/01 A2950\ RMK AO2 SLP988 T00440006 $= 201702151451 METAR KLGA 151451Z 02004KT 10SM BKN085 OVC250 05/01 A2947\ RMK AO2 SLP979 T00500006 56031 $= 201702151551 METAR KLGA 151551Z 07006KT 9SM BKN090 OVC250 06/00 A2945\ RMK AO2 SLP972 T00610000 $= 201702151651 METAR KLGA 151651Z 06007KT 8SM ? FEW085 BKN250 06/01 A2941\ RMK AO2 SLP959 T00560006 $= 201702151751 METAR KLGA 151751Z 04006KT 8SM ? BKN085 BKN250 06/01 A2937\ RMK AO2 SLP947 T00610011 10067 20028\ 58032 $= 201702151851 METAR KLGA 151851Z 19006KT 10SM FEW045 SCT085 BKN250 08/01\ A2934 RMK AO2 SLP934 T00830006 $= 201702151951 METAR KLGA 151951Z 24006KT 10SM FEW045 SCT090 BKN250 09/00\ A2932 RMK AO2 SLP929 T00940000 $= 201702152051 METAR KLGA 152051Z 23008KT 10SM BKN070 09/M01 A2930 RMK AO2\ SLP920 T00941006 56026 $= 201702152151 METAR KLGA 152151Z 31020G26KT 10SM -RA BKN034 OVC075 08/M01\ A2931 RMK AO2 PK WND 28031/2129 RAB30\ SLP925 P0000 T00781006 $= 201702152251 METAR KLGA 152251Z 31019G28KT 10SM SCT038 OVC045 06/M01 A2933\ RMK AO2 PK WND 32030/2217 RAE2156B28E37\ SLP933 P0000 T00611011 $= 201702152351 METAR KLGA 152351Z 32021G28KT 10SM SCT018 OVC023 04/01 A2936\ RMK AO2 PK WND 30035/2300 RAB02E45\ SLP943 P0000 60000 T00440006 10100\ 20044 53023 $= 201702160051 METAR KLGA 160051Z 30016KT 10SM FEW027 SCT035 BKN090 04/M01\ A2939 RMK AO2 PK WND 32026/2352 SLP953\ T00441011 $= 201702160151 METAR KLGA 160151Z 31018G25KT 10SM ? FEW030 BKN120 04/M03\ A2942 RMK AO2 PK WND 30028/0121 SLP962\ T00391033 $= 201702160251 METAR KLGA 160251Z 30014G21KT 10SM FEW030 FEW100 04/M04 A2943\ RMK AO2 PK WND 32027/0156 SLP966\ T00391039 51023 $= 201702160351 METAR KLGA 160351Z 31016G20KT 10SM BKN046 03/M04 A2944 RMK\ AO2 PK WND 30026/0254 SLP970 T00331039\ $= 201702160451 METAR KLGA 160451Z 30014G21KT 10SM BKN038 03/M04 A2945 RMK\ AO2 PK WND 31026/0439 SLP973 T00331039\ 401000022 $= 201702160551 METAR KLGA 160551Z 31021G27KT 10SM SCT035 BKN047 BKN055 03/M04\ A2946 RMK AO2 PK WND 31028/0531 SLP976\ T00281039 10044 20028 51009 $= 201702160651 METAR KLGA 160651Z 29019G25KT 10SM FEW040 02/M05 A2947 RMK\ AO2 PK WND 31029/0625 SLP978 T00221050\ $= 201702160751 METAR KLGA 160751Z 30015G24KT 10SM FEW040 02/M07 A2946 RMK\ AO2 SLP977 T00171067 $= 201702160851 METAR KLGA 160851Z 29016G22KT 10SM BKN045 01/M07 A2948 RMK\ AO2 PK WND 28027/0833 SLP982 T00111072\ 53006 $= 201702160951 METAR KLGA 160951Z 29015G21KT 10SM OVC044 02/M07 A2949 RMK\ AO2 SLP987 T00171067 $= 201702161051 METAR KLGA 161051Z 30019G24KT 10SM BKN043 01/M07 A2950 RMK\ AO2 PK WND 31026/1029 SLP991 T00111072\ $= 201702161151 METAR KLGA 161151Z 30017G24KT 10SM SCT043 01/M08 A2953 RMK\ AO2 PK WND 31029/1111 SLP999 T00111078\ 10028 20006 53017 $= 201702161251 METAR KLGA 161251Z 31020G28KT 10SM SCT043 01/M08 A2955 RMK\ AO2 PK WND 32028/1242 SLP007 T00111078\ $= 201702161351 METAR KLGA 161351Z 31017G30KT 10SM SCT037 01/M08 A2956 RMK\ AO2 PK WND 30030/1345 SLP010 T00061078\ $= 201702161451 METAR KLGA 161451Z 31023G30KT 10SM SCT038 01/M08 A2957 RMK\ AO2 PK WND 30033/1420 SLP014 T00111083\ 51015 $= 201702161551 METAR KLGA 161551Z 29019G28KT 10SM SCT042 01/M09 A2959 RMK\ AO2 PK WND 31033/1452 SLP018 T00111089\ $= 201702161651 METAR KLGA 161651Z 31018G27KT 10SM FEW040 BKN250 02/M09 A2958\ RMK AO2 PK WND 29032/1608 SLP018\ T00221089 $= 201702161751 METAR KLGA 161751Z 30022G27KT 10SM FEW040 BKN250 03/M09 A2958\ RMK AO2 PK WND 29035/1707 SLP017\ T00281089 10028 20006 50003 $= 201702161851 METAR KLGA 161851Z 31023G29KT 10SM FEW050 SCT250 03/M08 A2958\ RMK AO2 PK WND 30029/1851 SLP017\ T00281083 $= 201702161951 METAR KLGA 161951Z 32019G27KT 10SM BKN050 BKN250 03/M08 A2960\ RMK AO2 PK WND 30031/1915 SLP023\ T00331083 $= 201702162051 METAR KLGA 162051Z 30022G27KT 10SM SCT050 SCT250 02/M09 A2962\ RMK AO2 PK WND 33030/1955 SLP030\ T00221089 53013 $= 201702162151 METAR KLGA 162151Z 30018G25KT 10SM FEW050 SCT095 SCT230 02/M09\ A2964 RMK AO2 PK WND 31029/2101 SLP038\ T00221089 $= 201702162251 METAR KLGA 162251Z 31021G27KT 10SM FEW050 SCT160 SCT230 01/M09\ A2967 RMK AO2 PK WND 31031/2232 SLP047\ T00111089 $= 201702162351 METAR KLGA 162351Z 31019G27KT 10SM FEW045 SCT180 SCT230 01/M09\ A2971 RMK AO2 PK WND 31028/2307 SLP059\ T00061089 10033 20006 53029 $= 201702170051 METAR KLGA 170051Z 31024G32KT 10SM SCT045 SCT090 SCT180 BKN250\ 01/M09 A2974 RMK AO2 PK WND 31033/0027\ SLP069 T00061094 $= 201702170151 METAR KLGA 170151Z 31018G24KT 10SM ? SCT045 SCT090 SCT180\ 00/M09 A2975 RMK AO2 PK WND 30029/0057\ SLP075 T00001089 $= 201702170251 METAR KLGA 170251Z 32017G24KT 10SM FEW045 FEW180 M01/M09\ A2977 RMK AO2 PK WND 32029/0213 SLP081\ T10061094 51022 $= 201702170351 METAR KLGA 170351Z 32018G24KT 10SM FEW038 M01/M09 A2979 RMK\ AO2 PK WND 32032/0335 SLP087 T10061089\ $= 201702170451 METAR KLGA 170451Z 31017KT 10SM FEW038 M01/M09 A2980 RMK\ AO2 PK WND 32027/0355 SLP090 T10061089\ 400331006 $= 201702170551 METAR KLGA 170551Z 30014KT 10SM CLR M01/M09 A2980 RMK AO2\ SLP092 T10061094 10011 21006 51010\ $= 201702170651 METAR KLGA 170651Z 30016G21KT 10SM FEW040 M01/M09 A2981 RMK\ AO2 SLP094 T10061094 $= 201702170751 METAR KLGA 170751Z 31017G23KT 10SM CLR M01/M09 A2981 RMK\ AO2 PK WND 31026/0733 SLP093 T10061094\ $= 201702170851 METAR KLGA 170851Z 30014G20KT 10SM CLR M01/M09 A2982 RMK\ AO2 PK WND 32027/0821 SLP096 T10111094\ 53004 $= 201702170951 METAR KLGA 170951Z 29017G23KT 10SM CLR M01/M09 A2983 RMK\ AO2 SLP101 T10111094 $= 201702171051 METAR KLGA 171051Z 31016G26KT 10SM CLR M02/M09 A2984 RMK\ AO2 PK WND 29026/1033 SLP104 T10171089\ $= 201702171151 METAR KLGA 171151Z 31013KT 10SM FEW250 M02/M09 A2985 RMK\ AO2 SLP109 T10171094 11006 21017\ 53013 $= 201702171251 METAR KLGA 171251Z 29016KT 10SM BKN250 M01/M09 A2987 RMK\ AO2 SLP113 T10111094 $= 201702171351 METAR KLGA 171351Z 30015G23KT 10SM SCT250 M01/M09 A2986 RMK\ AO2 SLP112 T10061089 $= 201702171451 METAR KLGA 171451Z 31015KT 10SM FEW250 01/M09 A2987 RMK AO2\ PK WND 29026/1406 SLP113 T00061089\ 51004 $= 201702171551 METAR KLGA 171551Z 32012G17KT 10SM FEW250 02/M08 A2986 RMK\ AO2 SLP111 T00221083 $= 201702171651 METAR KLGA 171651Z 33014G20KT 10SM FEW250 03/M09 A2985 RMK\ AO2 SLP106 T00281089 $= 201702171751 METAR KLGA 171751Z 31010KT 10SM FEW250 04/M09 A2983 RMK AO2\ SLP099 T00441089 10044 21017 58014\ $= 201702171851 METAR KLGA 171851Z 32016KT 10SM FEW250 06/M08 A2981 RMK AO2\ SLP094 T00561083 $= 201702171951 METAR KLGA 171951Z 29013G20KT 10SM FEW250 06/M09 A2981 RMK\ AO2 SLP093 T00611094 $= 201702172051 METAR KLGA 172051Z 32013KT 10SM FEW250 07/M09 A2980 RMK AO2\ SLP092 T00671089 56007 $= 201702172151 METAR KLGA 172151Z 31013KT 10SM SCT250 06/M08 A2982 RMK AO2\ SLP097 T00611083 $= 201702172251 METAR KLGA 172251Z 31013KT 10SM BKN250 06/M08 A2984 RMK AO2\ SLP104 T00561083 $= 201702172351 METAR KLGA 172351Z 31009KT 10SM BKN250 05/M07 A2987 RMK AO2\ SLP114 T00501072 10067 20044 53022\ $= 201702180051 METAR KLGA 180051Z 31009KT 10SM FEW180 BKN250 05/M08 A2987\ RMK AO2 SLP115 T00501078 $= 201702180151 METAR KLGA 180151Z 29013KT 10SM SCT180 BKN250 05/M09 A2989\ RMK AO2 SLP120 T00501089 $= 201702180251 METAR KLGA 180251Z 29012KT 10SM FEW180 BKN250 04/M09 A2990\ RMK AO2 SLP124 T00441089 53009 $= 201702180351 METAR KLGA 180351Z 30012KT 10SM SCT170 BKN250 04/M08 A2990\ RMK AO2 SLP124 T00441083 $= 201702180451 METAR KLGA 180451Z 31007KT 10SM SCT250 04/M08 A2989 RMK AO2\ SLP122 T00391083 400671017 $= 201702180551 METAR KLGA 180551Z 30003KT 10SM SCT250 03/M07 A2990 RMK AO2\ SLP124 T00331072 10056 20033 55000\ $= 201702180651 METAR KLGA 180651Z 00000KT 10SM FEW250 03/M07 A2989 RMK AO2\ SLP123 T00331072 $= 201702180751 METAR KLGA 180751Z 00000KT 10SM FEW250 03/M08 A2989 RMK AO2\ SLP120 T00331083 $= 201702180851 METAR KLGA 180851Z 19004KT 10SM SCT250 03/M08 A2987 RMK AO2\ SLP114 T00331083 58010 $= 201702180951 METAR KLGA 180951Z 20007KT 10SM FEW250 03/M06 A2987 RMK AO2\ SLP115 T00331061 $= 201702181051 METAR KLGA 181051Z 20005KT 10SM FEW250 03/M07 A2986 RMK AO2\ SLP112 T00331072 $= 201702181151 METAR KLGA 181151Z 20005KT 10SM FEW250 03/M07 A2985 RMK AO2\ SLP109 T00331067 10039 20022 58005\ $= 201702181251 METAR KLGA 181251Z 21009KT 10SM FEW250 05/M07 A2985 RMK AO2\ SLP109 T00501072 $= 201702181351 METAR KLGA 181351Z 21009KT 10SM FEW250 06/M08 A2985 RMK AO2\ SLP108 T00611078 $= 201702181451 METAR KLGA 181451Z 21013KT 10SM SCT160 SCT250 08/M07 A2985\ RMK AO2 SLP109 T00781067 55000 $= 201702181551 METAR KLGA 181551Z 23011KT 10SM FEW160 SCT250 09/M06 A2982\ RMK AO2 SLP097 T00941056 $= 201702181651 METAR KLGA 181651Z 23013KT 10SM ? FEW160 FEW250 12/M03 A2977\ RMK AO2 PRESFR SLP080 T01171028 $= 201702181751 METAR KLGA 181751Z 21010KT 10SM FEW250 13/M02 A2972 RMK AO2\ SLP063 T01331017 10133 20033 58046\ $= 201702181851 METAR KLGA 181851Z 23013KT 10SM FEW250 16/M01 A2968 RMK AO2\ SLP051 T01611006 $= 201702181951 METAR KLGA 181951Z 23010KT 10SM BKN250 17/M01 A2967 RMK AO2\ SLP046 T01721006 $= 201702182051 METAR KLGA 182051Z 22009KT 10SM BKN250 18/01 A2967 RMK AO2\ SLP046 T01780006 56017 $= 201702182151 METAR KLGA 182151Z 23011KT 10SM SCT250 18/01 A2966 RMK AO2\ SLP044 T01780006 $= 201702182251 METAR KLGA 182251Z 21005KT 10SM ? SCT250 17/01 A2967 RMK\ AO2 SLP046 T01720006 $= 201702182351 METAR KLGA 182351Z 18007KT 10SM FEW250 16/01 A2966 RMK AO2\ SLP044 T01610011 10183 20133 56002\ $= 201702190051 METAR KLGA 190051Z 21011KT 10SM SCT250 17/00 A2966 RMK AO2\ SLP044 T01670000 $= 201702190151 METAR KLGA 190151Z 23007KT 10SM BKN250 16/00 A2967 RMK AO2\ SLP046 T01610000 $= 201702190251 METAR KLGA 190251Z 23010KT 10SM BKN250 16/00 A2967 RMK AO2\ SLP045 T01560000 52001 $= 201702190351 METAR KLGA 190351Z 23011KT 10SM SCT250 16/00 A2966 RMK AO2\ SLP043 T01560000 $= 201702190451 METAR KLGA 190451Z 23010KT 10SM BKN250 16/00 A2966 RMK AO2\ SLP043 T01560000 401830022 $= 201702190551 METAR KLGA 190551Z 24007KT 10SM ? BKN250 16/00 A2966 RMK\ AO2 SLP044 T01560000 10172 20150\ 55001 $= 201702190651 METAR KLGA 190651Z 23010KT 10SM SCT250 15/00 A2967 RMK AO2\ SLP048 T01500000 $= 201702190751 METAR KLGA 190751Z 23007KT 10SM BKN250 16/00 A2969 RMK AO2\ SLP053 T01560000 $= 201702190851 METAR KLGA 190851Z 24008KT 10SM FEW130 BKN250 14/00 A2971\ RMK AO2 SLP059 T01390000 53015 $= 201702190951 METAR KLGA 190951Z 27008KT 10SM FEW130 BKN250 15/01 A2972\ RMK AO2 SLP063 T01500006 $= 201702191051 METAR KLGA 191051Z 29011KT 10SM FEW130 BKN250 14/01 A2973\ RMK AO2 SLP066 T01390011 $= 201702191151 METAR KLGA 191151Z 29008KT 10SM FEW049 BKN110 BKN190 14/01\ A2976 RMK AO2 SLP076 T01440011 10172\ 20117 53017 $= 201702191251 METAR KLGA 191251Z 29005KT 10SM FEW044 BKN110 BKN190 BKN250\ 13/02 A2979 RMK AO2 SLP086 T01330017\ $= 201702191351 METAR KLGA 191351Z 26006KT 10SM FEW050 SCT110 BKN190 BKN250\ 15/02 A2980 RMK AO2 SLP092 T01500022\ $= 201702191451 METAR KLGA 191451Z 29007KT 10SM FEW055 FEW120 SCT150 BKN190\ BKN250 16/02 A2981 RMK AO2 SLP094\ T01560022 51018 $= 201702191551 METAR KLGA 191551Z 31012KT 10SM FEW055 FEW120 SCT150 BKN170\ BKN250 15/02 A2980 RMK AO2 SLP092\ T01500022 $= 201702191651 METAR KLGA 191651Z 31009KT 10SM FEW060 SCT120 SCT150 BKN180\ BKN250 15/02 A2980 RMK AO2 SLP092\ T01500017 $= 201702191751 METAR KLGA 191751Z 30010KT 10SM FEW065 SCT120 BKN160 BKN250\ 18/01 A2979 RMK AO2 SLP089 T01780011\ 10178 20122 58005 $= 201702191851 METAR KLGA 191851Z 29012G18KT 10SM FEW070 SCT120 SCT190 SCT250\ 18/01 A2979 RMK AO2 SLP086 T01830011\ $= 201702191951 METAR KLGA 191951Z 29012G19KT 10SM FEW075 FEW120 SCT190 SCT250\ 19/M01 A2979 RMK AO2 SLP088 T01891011\ $= 201702192051 METAR KLGA 192051Z 29013G19KT 10SM FEW160 FEW250 19/M01 A2981\ RMK AO2 SLP095 T01891011 53006 $= 201702192151 METAR KLGA 192151Z 30010KT 10SM FEW110 FEW250 16/M01 A2983\ RMK AO2 SLP102 ACSL NW T01611006\ $= 201702192251 METAR KLGA 192251Z 30008KT 10SM FEW110 FEW250 16/M01 A2986\ RMK AO2 SLP112 T01561006 $= 201702192351 METAR KLGA 192351Z 30006KT 10SM CLR 13/00 A2988 RMK AO2 SLP119\ T01330000 10189 20133 53024 $= 201702200051 METAR KLGA 200051Z 33005KT 10SM CLR 13/M01 A2990 RMK AO2\ SLP123 T01331006 $= 201702200151 METAR KLGA 200151Z 35007KT 10SM ? CLR 14/M01 A2993 RMK AO2\ SLP135 T01391011 $= 201702200251 METAR KLGA 200251Z 33005KT 10SM ? CLR 14/M01 A2996 RMK AO2\ SLP143 T01391011 53024 $= 201702200351 METAR KLGA 200351Z 32008KT 10SM CLR 12/01 A2996 RMK AO2 SLP146\ T01170006 $= 201702200451 METAR KLGA 200451Z 33015G22KT 10SM CLR 12/01 A2997 RMK AO2\ SLP150 T01220006 401890117 $= 201702200551 METAR KLGA 200551Z 33011KT 10SM CLR 12/01 A3000 RMK AO2 SLP157\ T01170006 10150 20117 53013 $= 201702200651 METAR KLGA 200651Z 32012KT 10SM CLR 10/01 A3001 RMK AO2 SLP160\ T01000006 $= 201702200751 METAR KLGA 200751Z 32015G18KT 10SM CLR 10/01 A3001 RMK AO2\ SLP163 T01000006 $= 201702200851 METAR KLGA 200851Z 32012KT 10SM CLR 09/00 A3004 RMK AO2 SLP173\ T00890000 53016 $= 201702200951 METAR KLGA 200951Z 31010KT 10SM CLR 08/00 A3007 RMK AO2 SLP182\ T00830000 $= 201702201051 METAR KLGA 201051Z 30010KT 10SM ? FEW250 08/00 A3010 RMK\ AO2 SLP191 T00780000 $= 201702201151 METAR KLGA 201151Z 31010KT 10SM FEW250 07/00 A3013 RMK AO2\ SLP203 T00720000 10117 20072 53030\ $= 201702201251 METAR KLGA 201251Z 31011KT 10SM FEW250 07/00 A3015 RMK AO2\ SLP208 T00720000 $= 201702201351 METAR KLGA 201351Z 31012KT 10SM ? CLR 08/00 A3017 RMK AO2\ SLP215 T00830000 $= 201702201451 METAR KLGA 201451Z 31009KT 10SM CLR 09/00 A3019 RMK AO2 SLP222\ T00890000 53020 $= 201702201551 METAR KLGA 201551Z 35010KT 10SM FEW046 11/M02 A3019 RMK AO2\ SLP224 T01061022 $= 201702201651 METAR KLGA 201651Z 32011KT 10SM FEW047 11/M03 A3018 RMK AO2\ SLP221 T01111033 $= 201702201751 METAR KLGA 201751Z 32010KT 10SM FEW050 12/M04 A3017 RMK AO2\ SLP217 T01171039 10122 20072 58005\ $= 201702201851 METAR KLGA 201851Z 31011KT 10SM CLR 12/M06 A3016 RMK AO2\ SLP213 T01221061 $= 201702201951 METAR KLGA 201951Z 32009G19KT 10SM CLR 12/M08 A3016 RMK AO2\ SLP213 T01221078 $= 201702202051 METAR KLGA 202051Z 32008KT 10SM FEW250 12/M08 A3018 RMK AO2\ SLP218 T01221083 53001 $= 201702202151 METAR KLGA 202151Z 01008KT 10SM FEW250 12/M09 A3021 RMK AO2\ SLP229 T01221094 $= 201702202251 METAR KLGA 202251Z 02014KT 10SM ? FEW250 10/M09 A3025 RMK\ AO2 SLP243 T01001094 $= 201702202351 METAR KLGA 202351Z 03013KT 10SM FEW250 09/M11 A3029 RMK AO2\ SLP258 T00891106 10128 20089 53039\ $= 201702210051 METAR KLGA 210051Z 03011KT 10SM FEW250 08/M11 A3031 RMK AO2\ SLP264 T00781111 $= 201702210151 METAR KLGA 210151Z 04013KT 10SM FEW250 07/M10 A3033 RMK AO2\ SLP270 T00671100 $= 201702210251 METAR KLGA 210251Z 03012G22KT 10SM FEW250 07/M09 A3034 RMK\ AO2 SLP274 T00721094 51016 $= 201702210351 METAR KLGA 210351Z 02011KT 10SM FEW250 06/M10 A3035 RMK AO2\ SLP277 T00561100 $= 201702210451 METAR KLGA 210451Z 04006KT 10SM FEW250 05/M10 A3036 RMK AO2\ SLP279 T00501100 401280050 $= 201702210551 METAR KLGA 210551Z 03006KT 10SM FEW250 04/M11 A3037 RMK AO2\ SLP283 T00441111 10089 20044 53009\ $= 201702210651 METAR KLGA 210651Z 04006KT 10SM FEW250 04/M11 A3037 RMK AO2\ SLP285 T00391111 $= 201702210751 METAR KLGA 210751Z 04007KT 10SM FEW250 03/M11 A3036 RMK AO2\ SLP280 T00331106 $= 201702210851 METAR KLGA 210851Z 05006KT 10SM FEW250 03/M09 A3036 RMK AO2\ SLP281 T00281094 58002 $= 201702210951 METAR KLGA 210951Z 03004KT 10SM FEW250 03/M09 A3039 RMK AO2\ SLP289 T00281094 $= 201702211051 METAR KLGA 211051Z 05007KT 10SM ? FEW250 02/M08 A3038 RMK\ AO2 SLP287 T00221083 $= 201702211151 METAR KLGA 211151Z 07008KT 10SM BKN250 03/M07 A3036 RMK AO2\ SLP281 T00281067 10044 20022 50000\ $= 201702211251 METAR KLGA 211251Z 05006KT 10SM FEW170 BKN250 03/M07 A3039\ RMK AO2 SLP291 T00281072 $= 201702211351 METAR KLGA 211351Z 05007KT 10SM FEW170 BKN240 04/M06 A3038\ RMK AO2 SLP288 T00391061 $= 201702211451 METAR KLGA 211451Z 04007KT 10SM BKN240 04/M06 A3038 RMK AO2\ SLP285 T00441056 50004 $= 201702211551 METAR KLGA 211551Z 05009KT 10SM BKN250 07/M06 A3036 RMK AO2\ SLP281 T00671056 $= 201702211651 METAR KLGA 211651Z 21010KT 10SM SCT180 OVC250 08/M03 A3034\ RMK AO2 SLP274 T00781033 $= 201702211751 METAR KLGA 211751Z 17009KT 10SM ? FEW180 BKN250 08/M03 A3030\ RMK AO2 SLP261 T00831028 10083 20022\ 58024 $= 201702211851 METAR KLGA 211851Z 17009KT 10SM FEW050 FEW170 OVC230 08/M02\ A3027 RMK AO2 SLP248 T00831022 $= 201702211951 METAR KLGA 211951Z 17010KT 10SM FEW050 SCT180 OVC230 08/M01\ A3025 RMK AO2 SLP241 T00781011 $= 201702212051 METAR KLGA 212051Z 17011KT 10SM FEW050 SCT180 OVC230 08/M01\ A3023 RMK AO2 SLP237 T00781011 56023\ $= 201702212151 METAR KLGA 212151Z 17013KT 10SM SCT180 OVC250 07/M01 A3021\ RMK AO2 SLP230 T00671011= 201702212251 METAR KLGA 212251Z 18011G16KT 10SM SCT180 OVC250 07/M01 A3022\ RMK AO2 SLP232 T00671006= 201702212351 METAR KLGA 212351Z 16012KT 10SM SCT180 OVC250 07/M01 A3022\ RMK AO2 SLP232 T00671006= 201702220051 METAR KLGA 220051Z 19009KT 10SM SCT180 OVC250 07/01 A3020\ RMK AO2 SLP226 T00670006= 201702220151 METAR KLGA 220151Z 20008KT 10SM SCT180 OVC250 07/01 A3019\ RMK AO2 SLP222 T00670006= 201702220251 METAR KLGA 220251Z 21010KT 10SM SCT180 BKN250 07/00 A3017\ RMK AO2 SLP217 T00670000 58010= 201702220351 METAR KLGA 220351Z 21009KT 10SM OVC190 07/00 A3015 RMK AO2\ SLP208 T00670000 $= 201702220451 METAR KLGA 220451Z 21009KT 10SM BKN140 OVC190 07/01 3012\ RMK AO2 SLP200 T00720006 400830022\ $= 201702220551 METAR KLGA 220551Z 21010G16KT 10SM OVC210 07/01 A3009 RMK\ AO2 SLP190 T00720006 10072 20067\ 58027 $= 201702220651 METAR KLGA 220651Z 22007KT 10SM OVC100 07/01 3007 RMK AO2\ SLP183 T00720011 $= 201702220751 METAR KLGA 220751Z 22009KT 10SM SCT080 OVC160 07/01 3007\ RMK AO2 SLP182 T00720011 $= 201702220851 METAR KLGA 220851Z 21006KT 10SM OVC110 07/02 A3008 RMK AO2\ SLP184 T00720017 55006 $= 201702220951 METAR KLGA 220951Z 21006KT 10SM FEW120 OVC150 07/02 A3005\ RMK AO2 SLP177 T00720017 $= 201702221051 METAR KLGA 221051Z 19005KT 10SM SCT080 BKN120 OVC150 07/02\ A3006 RMK AO2 SLP177 T00720017 $= 201702221151 METAR KLGA 221151Z 20006KT 10SM FEW065 BKN080 OVC120 07/02\ A3005 RMK AO2 SLP175 T00720017 10078\ 20067 56009 $= 201702221251 METAR KLGA 221251Z 22007KT 10SM FEW085 OVC110 08/02 A3005\ RMK AO2 SLP175 T00780017 $= 201702221351 METAR KLGA 221351Z 20007KT 10SM SCT070 SCT120 OVC150 08/02\ A3004 RMK AO2 SLP172 T00830022 $= 201702221451 METAR KLGA 221451Z 22005KT 10SM FEW075 SCT110 BKN150 OVC250\ 09/02 A3003 RMK AO2 SLP169 T00940022\ 58007 $= 201702221551 METAR KLGA 221551Z 22005KT 10SM FEW085 BKN150 OVC250 10/03\ A3001 RMK AO2 SLP162 T01000028 $= 201702221651 METAR KLGA 221651Z 31003KT 10SM FEW085 SCT120 OVC150 11/03\ A2999 RMK AO2 SLP154 T01060028 $= 201702221751 METAR KLGA 221751Z 34003KT 10SM FEW110 BKN160 OVC250 12/03\ A2995 RMK AO2 SLP142 T01220028 10122\ 20072 58026 $= 201702221851 METAR KLGA 221851Z 16003KT 10SM SCT160 BKN250 13/03 A2991\ RMK AO2 SLP129 T01280033 $= 201702221951 METAR KLGA 221951Z 20007KT 10SM SCT120 SCT160 BKN250 14/03\ A2990 RMK AO2 SLP126 T01390033 $= 201702222051 METAR KLGA 222051Z 17007KT 10SM ? FEW110 BKN250 14/04 A2990\ RMK AO2 SLP126 T01390039 56017 $= 201702222151 METAR KLGA 222151Z 19008KT 10SM FEW100 BKN250 13/04 A2991\ RMK AO2 SLP127 T01330039 $= 201702222251 METAR KLGA 222251Z 18007KT 10SM BKN100 BKN250 12/05 A2990\ RMK AO2 SLP126 T01220050 $= 201702222351 METAR KLGA 222351Z 17009KT 10SM BKN100 BKN250 11/06 A2991\ RMK AO2 SLP128 T01110061 10150 20111\ 53002 $= 201702230051 METAR KLGA 230051Z 18006KT 10SM BKN100 BKN250 11/06 A2990\ RMK AO2 SLP126 T01110061 $= 201702230151 METAR KLGA 230151Z 19004KT 10SM SCT250 11/07 A2991 RMK AO2\ SLP127 T01110067 $= 201702230251 METAR KLGA 230251Z 00000KT 10SM BKN250 11/06 A2990 RMK AO2\ SLP125 T01060061 56003 $= 201702230351 METAR KLGA 230351Z 00000KT 10SM BKN250 09/06 A2988 RMK AO2\ SLP119 T00940056 $= 201702230451 METAR KLGA 230451Z 00000KT 10SM SCT250 09/06 A2988 RMK AO2\ SLP117 T00940061 401500067 $= 201702230551 METAR KLGA 230551Z 06003KT 10SM FEW120 BKN250 08/06 A2988\ RMK AO2 SLP117 T00830056 10111 20083\ 55008 $= 201702230651 METAR KLGA 230651Z 05008KT 10SM BKN250 07/04 A2989 RMK AO2\ SLP119 T00720044 $= 201702230751 METAR KLGA 230751Z 05003KT 9SM SCT250 07/04 A2988 RMK AO2\ SLP117 T00670039 $= 201702230851 METAR KLGA 230851Z 05005KT 9SM FEW250 06/03 A2988 RMK AO2\ SLP117 T00610033 58000 $= 201702230951 METAR KLGA 230951Z 05005KT 9SM FEW250 06/03 A2987 RMK AO2\ SLP116 T00560033 $= 201702231051 METAR KLGA 231051Z 05005KT 9SM FEW250 06/03 A2989 RMK AO2\ SLP120 T00560033 $= 201702231151 METAR KLGA 231151Z 00000KT 7SM FEW250 07/04 A2989 RMK AO2\ SLP121 T00670044 10089 20056 53004\ $= 201702231251 METAR KLGA 231251Z 02004KT 7SM FEW022 07/04 A2991 RMK AO2\ SLP127 T00720044 $= 201702231351 METAR KLGA 231351Z 00000KT 5SM ? HZ OVC010 09/06 A2992 RMK\ AO2 SLP130 T00890061 $= 201702231451 METAR KLGA 231451Z 21005KT 4SM BR OVC008 11/08 A2990 RMK\ AO2 SLP126 T01110083 50004 $= 201702231551 METAR KLGA 231551Z 22009KT 10SM OVC009 13/09 A2989 RMK AO2\ SLP120 T01280094 $= 201702231651 METAR KLGA 231651Z 22010KT 10SM OVC011 13/09 A2988 RMK AO2\ SLP116 T01330094 $= 201702231751 METAR KLGA 231751Z 23006KT 7SM BKN010 14/10 A2984 RMK AO2\ SLP104 T01390100 10139 20061 58022\ $= 201702231851 METAR KLGA 231851Z 22010KT 8SM FEW010 SCT250 16/11 A2982\ RMK AO2 SLP098 T01560106 $= 201702231951 METAR KLGA 231951Z 19010G15KT 9SM FEW010 SCT250 18/11 A2980\ RMK AO2 SLP092 T01780106 $= 201702232051 METAR KLGA 232051Z 18009KT 10SM FEW040 SCT250 16/09 A2980\ RMK AO2 SLP092 T01560094 56012 $= 201702232151 METAR KLGA 232151Z 17008KT 10SM FEW040 SCT250 17/11 A2982\ RMK AO2 SLP096 T01720106 $= 201702232251 METAR KLGA 232251Z 16005KT 10SM FEW040 SCT100 SCT250 16/09\ A2984 RMK AO2 SLP103 T01610094 $= 201702232351 METAR KLGA 232351Z VRB04KT 10SM FEW050 SCT250 15/09 A2986\ RMK AO2 SLP111 T01500094 10183 20139\ 53019 $= 201702240051 METAR KLGA 240051Z 00000KT 10SM SCT070 SCT080 13/08 A2986\ RMK AO2 SLP111 T01330083 $= 201702240151 METAR KLGA 240151Z VRB04KT 10SM SCT070 BKN250 14/09 A2988\ RMK AO2 SLP118 T01390089 $= 201702240251 METAR KLGA 240251Z VRB04KT 10SM CLR 14/09 A2988 RMK AO2 SLP119\ T01440089 53008 $= 201702240351 METAR KLGA 240351Z 17005KT 10SM FEW090 SCT250 14/09 A2989\ RMK AO2 SLP121 T01390089 $= 201702240451 METAR KLGA 240451Z 17007KT 10SM SCT075 SCT100 SCT250 13/08\ A2990 RMK AO2 SLP124 T01280083 401830056\ $= 201702240551 METAR KLGA 240551Z 17003KT 10SM BKN090 13/08 A2990 RMK AO2\ SLP125 T01280083 10150 20128 51006\ $= 201702240651 METAR KLGA 240651Z 16007KT 10SM SCT090 13/08 A2991 RMK AO2\ SLP127 T01330083 $= 201702240751 METAR KLGA 240751Z 17006KT 10SM ? FEW090 12/08 A2991 RMK\ AO2 SLP128 T01170083 $= 201702240851 METAR KLGA 240851Z 16006KT 10SM FEW090 FEW180 12/08 A2991\ RMK AO2 SLP129 T01170083 51005 $= 201702240951 METAR KLGA 240951Z 00000KT 10SM FEW150 BKN200 10/07 A2993\ RMK AO2 SLP133 T01000072 $= 201702241051 METAR KLGA 241051Z 16005KT 10SM FEW150 SCT250 12/09 A2992\ RMK AO2 SLP132 T01170089 $= 201702241151 METAR KLGA 241151Z 17008KT 10SM FEW140 SCT250 12/09 A2992\ RMK AO2 SLP133 T01170089 10133 20094\ 51003 $= 201702241251 METAR KLGA 241251Z 18006KT 10SM ? FEW140 FEW250 13/09 A2994\ RMK AO2 SLP138 T01280089 $= 201702241351 METAR KLGA 241351Z 20005KT 10SM FEW140 BKN250 16/10 A2995\ RMK AO2 SLP141 T01560100 $= 201702241451 METAR KLGA 241451Z 21006KT 10SM FEW140 SCT250 19/12 A2995\ RMK AO2 SLP142 T01940117 51009 $= 201702241551 METAR KLGA 241551Z 18012KT 10SM FEW250 20/12 A2994 RMK AO2\ SLP137 T02000117 $= 201702241651 METAR KLGA 241651Z 18009KT 10SM FEW040 FEW250 19/12 A2993\ RMK AO2 SLP133 T01940117 $= 201702241751 METAR KLGA 241751Z 18012KT 10SM FEW045 FEW250 20/11 A2989\ RMK AO2 SLP123 T02000111 10206 20117\ 58019 $= 201702241851 METAR KLGA 241851Z 16015KT 10SM FEW045 FEW250 19/11 A2987\ RMK AO2 SLP116 T01940111 $= 201702241951 METAR KLGA 241951Z 17013KT 10SM FEW045 SCT250 20/11 A2986\ RMK AO2 SLP112 T02000106 $= 201702242051 METAR KLGA 242051Z 17014G20KT 10SM FEW045 SCT250 19/11 A2986\ RMK AO2 SLP110 T01890111 56013 $= 201702242151 METAR KLGA 242151Z 18016G23KT 10SM FEW045 SCT250 19/11 A2985\ RMK AO2 PK WND 17026/2147 SLP108\ T01890111 $= 201702242251 METAR KLGA 242251Z 18013G20KT 10SM ? FEW045 SCT250 18/12\ A2985 RMK AO2 PK WND 18028/2214 SLP108\ T01780122 $= 201702242351 METAR KLGA 242351Z 18011KT 10SM FEW050 SCT250 17/12 A2986\ RMK AO2 SLP110 T01670117 10211 20167\ 55000 $= 201702250051 METAR KLGA 250051Z 18011KT 10SM FEW050 SCT250 14/11 A2985\ RMK AO2 SLP109 T01440111 $= 201702250151 METAR KLGA 250151Z 19012KT 10SM FEW007 SCT250 15/13 A2986\ RMK AO2 SLP111 T01500128 $= 201702250251 METAR KLGA 250251Z 17008KT 10SM FEW007 SCT250 14/12 A2986\ RMK AO2 SLP110 T01440122 50001 $= 201702250351 METAR KLGA 250351Z 20005KT 10SM ? SCT007 BKN055 13/12 A2987\ RMK AO2 SLP113 T01330117 $= 201702250451 METAR KLGA 250451Z 17006KT 10SM SCT004 BKN055 13/11 A2985\ RMK AO2 SLP109 T01280111 402110094\ $= 201702250551 METAR KLGA 250551Z 18004KT 8SM OVC003 12/11 A2984 RMK AO2\ VIS 1/2 R22 SW SLP105 T01220106 10167\ 20122 58005 $= 201702250651 METAR KLGA 250651Z 17004KT 1/4SM R04/P6000FT BR OVC002 12/11\ A2983 RMK AO2 SFC VIS 3 SLP102 T01220106\ $= 201702250751 METAR KLGA 250751Z 16005KT 10SM OVC004 12/10 A2982 RMK AO2\ SLP099 T01170100 $= 201702250851 METAR KLGA 250851Z 15004KT 10SM SCT004 OVC065 12/10 A2980\ RMK AO2 VIS 1/2 R22 SW CIG 002 R22\ SW SLP092 T01170100 58013 $= 201702250951 METAR KLGA 250951Z 20003KT 3/4SM R04/P6000FT BR OVC002 12/11\ A2980 RMK AO2 SFC VIS 2 1/2 VIS 1/2\ R22 SW SLP090 T01170106 $= 201702251051 METAR KLGA 251051Z 18005KT 1/4SM R04/2200V2800FT FG VV002\ 11/10 A2979 RMK AO2 SFC VIS 1/2 SLP086\ T01110100 $= 201702251151 METAR KLGA 251151Z 18005KT 1/4SM R04/2000V3500FT FG VV002\ 11/10 A2978 RMK AO2 SLP085 T01060100\ 10122 20106 58004 $= 201702251251 METAR KLGA 251251Z 18004KT 1/4SM R04/2000V3500FT BR VV003\ 11/11 A2977 RMK AO2 SFC VIS 3/4 VIS\ 1/4 R22 SW SLP081 T01110106 $= 201702251351 METAR KLGA 251351Z 17005KT 1SM R04/P6000FT BR OVC003 12/11\ A2976 RMK AO2 SLP076 T01170111 $= 201702251451 METAR KLGA 251451Z 15008KT 1SM R04/P6000FT BR OVC005 13/11\ A2974 RMK AO2 SLP069 T01280106 58016\ $= 201702251551 METAR KLGA 251551Z 17006KT 4SM BR BKN005 OVC070 14/12 A2971\ RMK AO2 SLP061 T01440122 $= 201702251651 METAR KLGA 251651Z 18008KT 6SM ? HZ BKN005 BKN014 BKN070\ 16/12 A2969 RMK AO2 SLP053 T01560122\ $= 201702251751 METAR KLGA 251751Z 16011KT 10SM BKN009 BKN014 BKN070 BKN250\ 17/12 A2964 RMK AO2 SLP035 BKN009\ V SCT T01670122 10172 20106 58034\ $= 201702251851 METAR KLGA 251851Z 16019G23KT 10SM SCT013 BKN025 BKN070 BKN250\ 17/13 A2959 RMK AO2 SLP021 T01720128\ $= 201702251951 METAR KLGA 251951Z 17021G24KT 10SM BKN025 OVC031 18/13 A2955\ RMK AO2 SLP006 T01830128 $= 201702252051 METAR KLGA 252051Z 15017G26KT 10SM SCT025 17/12 A2948 RMK\ AO2 PK WND 15026/2043 SLP983 T01720122\ 58052 $= 201702252151 METAR KLGA 252151Z 17015G21KT 10SM ? BKN006 16/13 A2948 RMK\ AO2 PK WND 19028/2127 SLP984 T01560128\ $= 201702252251 METAR KLGA 252251Z 18012G22KT 2 1/2SM HZ OVC005 14/12 A2948\ RMK AO2 SFC VIS 6 SLP984 T01440117\ $= 201702252351 METAR KLGA 252351Z 25012G23KT 1 3/4SM R04/4000VP6000FT +TSRA\ BR BKN004 OVC015CB 14/12 A2952 RMK\ AO2 TWR VIS 2 1/2 VIS 3/4V5 RAB20\ TSB43 SLP998 OCNL LTGIC OHD TS OHD\ MOV NE P0019 60019 T01440122 10183\ 20139 53014 $= 201702260051 METAR KLGA 260051Z 29020G35KT 8SM -RA SCT015 BKN020 OVC038\ 12/08 A2958 RMK AO2 PK WND 29035/0048\ TSE22 SLP015 P0011 T01220078 $= 201702260151 METAR KLGA 260151Z 30011KT 10SM -RA OVC075 11/06 A2958 RMK\ AO2 PK WND 29027/0055 RAE31B50 PRESRR\ SLP018 P0001 T01110056 $= 201702260251 METAR KLGA 260251Z 31011KT 10SM FEW100 SCT150 BKN250 10/06\ A2959 RMK AO2 RAE07 SLP019 P0001\ 60013 T01000056 51022 $= 201702260351 METAR KLGA 260351Z 31021KT 10SM BKN028 BKN031 BKN045 09/04\ A2962 RMK AO2 SLP029 T00940039 $= 201702260451 METAR KLGA 260451Z 33018G27KT 10SM FEW027 SCT047 BKN120 08/02\ A2965 RMK AO2 PK WND 31029/0356 SLP041\ T00830017 401830083 $= 201702260551 METAR KLGA 260551Z 32016G26KT 10SM BKN033 BKN065 07/01 A2969\ RMK AO2 PK WND 32029/0501 SLP054\ 60013 T00720006 10150 20072 53035\ $= 201702260651 METAR KLGA 260651Z 31015G25KT 10SM BKN037 BKN065 07/M01 A2972\ RMK AO2 PK WND 31026/0614 SLP063\ T00671011 $= 201702260751 METAR KLGA 260751Z 31014G22KT 10SM SCT036 BKN045 BKN060 07/M01\ A2974 RMK AO2 SLP071 T00671011 $= 201702260851 METAR KLGA 260851Z 30020G26KT 10SM BKN038 BKN045 BKN060 06/M03\ A2977 RMK AO2 PK WND 31028/0755 SLP082\ T00611033 53028 $= 201702260951 METAR KLGA 260951Z 31020G28KT 10SM SCT045 SCT055 05/M06 A2981\ RMK AO2 PK WND 31029/0926 SLP093\ T00501056 $= 201702261051 METAR KLGA 261051Z 30016G23KT 10SM SCT050 04/M07 A2985 RMK\ AO2 PK WND 31029/0957 SLP108 T00391072\ $= 201702261151 METAR KLGA 261151Z 30016G21KT 10SM BKN050 04/M07 A2989 RMK\ AO2 PK WND 30026/1133 SLP121 70032\ T00391072 10072 20039 53040 $= 201702261251 METAR KLGA 261251Z 29016G24KT 10SM BKN049 04/M07 A2993 RMK\ AO2 PK WND 29027/1213 SLP134 T00391072\ $= 201702261351 METAR KLGA 261351Z 30021G30KT 10SM OVC048 04/M07 A2996 RMK\ AO2 PK WND 30030/1351 SLP144 T00441067\ $= 201702261451 METAR KLGA 261451Z 32021G29KT 10SM CLR 04/M08 A2998 RMK AO2\ PK WND 31029/1436 SLP150 T00441078\ 51029 $= 201702261551 METAR KLGA 261551Z 31016G25KT 10SM SCT055 05/M08 A2999 RMK\ AO2 PK WND 32028/1512 SLP157 T00501083\ $= 201702261651 METAR KLGA 261651Z 29016G27KT 10SM SCT055 05/M09 A3001 RMK\ AO2 PK WND 29027/1648 SLP163 T00501094\ $= 201702261751 METAR KLGA 261751Z 32019G22KT 10SM ? SCT060 06/M08 A3001\ RMK AO2 SLP160 T00561083 10061 20039\ 50010 $= 201702261851 METAR KLGA 261851Z 29011KT 10SM FEW060 06/M09 A3002 RMK AO2\ SLP165 T00611089 $= 201702261951 METAR KLGA 261951Z 26013G22KT 10SM SCT065 07/M11 A3004 RMK\ AO2 SLP173 T00671106 $= 201702262051 METAR KLGA 262051Z 29018G24KT 10SM SCT060 07/M09 A3006 RMK\ AO2 SLP177 T00721094 51017 $= 201702262151 METAR KLGA 262151Z 29016G21KT 10SM SCT065 07/M09 A3008 RMK\ AO2 SLP187 T00671089 $= 201702262251 METAR KLGA 262251Z 30015KT 10SM SCT065 06/M08 A3012 RMK AO2\ SLP197 T00561083 $= 201702262351 METAR KLGA 262351Z 26013KT 10SM SCT060 06/M08 A3016 RMK AO2\ SLP213 T00561083 10072 20056 53036\ $= 201702270051 METAR KLGA 270051Z 26014G21KT 10SM SCT060 05/M09 A3019 RMK\ AO2 SLP224 T00501089 $= 201702270151 METAR KLGA 270151Z 29014G22KT 10SM FEW050 04/M08 A3022 RMK\ AO2 SLP234 T00441083 $= 201702270251 METAR KLGA 270251Z 29012KT 10SM CLR 04/M08 A3024 RMK AO2\ SLP240 T00441083 51027 $= 201702270351 METAR KLGA 270351Z 27013KT 10SM CLR 04/M09 A3025 RMK AO2\ SLP243 T00391094 $= 201702270451 METAR KLGA 270451Z 26009KT 10SM CLR 04/M10 A3027 RMK AO2\ SLP249 T00391100 400830039 $= 201702270551 METAR KLGA 270551Z 25007KT 10SM CLR 04/M09 A3029 RMK AO2\ SLP256 T00391094 10056 20039 53016\ $= 201702270651 METAR KLGA 270651Z 24005KT 10SM CLR 04/M09 A3029 RMK AO2\ SLP257 T00391094 $= 201702270751 METAR KLGA 270751Z 21008KT 10SM CLR 03/M08 A3030 RMK AO2\ SLP261 T00331078 $= 201702270851 METAR KLGA 270851Z 20009KT 10SM CLR 03/M08 A3032 RMK AO2\ SLP268 T00331083 53012 $= 201702270951 METAR KLGA 270951Z 21007KT 10SM CLR 03/M07 A3035 RMK AO2\ SLP275 T00331072 $= 201702271051 METAR KLGA 271051Z 22007KT 10SM CLR 03/M08 A3037 RMK AO2\ SLP283 T00331078 $= 201702271151 METAR KLGA 271151Z 22007KT 10SM FEW100 FEW250 03/M07 A3037\ RMK AO2 SLP282 T00331067 10044 20028\ 50015 $= 201702271251 METAR KLGA 271251Z 23010KT 10SM FEW150 FEW250 04/M06 A3040\ RMK AO2 SLP293 T00391061 $= 201702271351 METAR KLGA 271351Z 23007KT 10SM FEW150 BKN250 06/M05 A3041\ RMK AO2 SLP298 T00561050 $= 201702271451 METAR KLGA 271451Z 22009KT 10SM FEW120 BKN250 08/M05 A3043\ RMK AO2 SLP304 T00781050 51021 $= 201702271551 METAR KLGA 271551Z 23010KT 10SM FEW120 BKN250 09/M05 A3041\ RMK AO2 SLP298 T00941050 $= 201702271651 METAR KLGA 271651Z 24009KT 10SM FEW120 OVC250 11/M06 A3041\ RMK AO2 SLP299 T01061056 $= 201702271751 METAR KLGA 271751Z 23012KT 10SM FEW140 OVC250 12/M06 A3038\ RMK AO2 SLP288 T01171061 10117 20033\ 58016 $= 201702271851 METAR KLGA 271851Z 23010KT 10SM SCT110 BKN130 OVC220 12/M07\ A3036 RMK AO2 SLP281 T01221067 $= 201702271951 METAR KLGA 271951Z 16013KT 10SM BKN100 OVC260 11/M01 A3035\ RMK AO2 SLP278 T01111011 $= 201702272051 METAR KLGA 272051Z 16009KT 10SM OVC080 11/00 A3035 RMK AO2\ SLP277 T01110000 56012 $= 201702272151 METAR KLGA 272151Z VRB06KT 10SM OVC085 11/01 A3036 RMK AO2\ SLP279 T01110006 $= 201702272251 METAR KLGA 272251Z 20008KT 10SM FEW060 SCT110 BKN250 11/M01\ A3037 RMK AO2 SLP283 T01111006 $= 201702272351 METAR KLGA 272351Z 24015G21KT 10SM FEW060 SCT100 BKN250 12/M03\ A3039 RMK AO2 SLP290 T01171028 10122\ 20111 53013 $= 201702280051 METAR KLGA 280051Z 23007KT 10SM ? BKN110 BKN250 11/M02 A3039\ RMK AO2 SLP291 T01111022 $= 201702280151 METAR KLGA 280151Z 21005KT 10SM ? SCT110 BKN250 11/M02 A3039\ RMK AO2 SLP289 T01061017 $= 201702280251 METAR KLGA 280251Z 21005KT 10SM SCT120 SCT250 10/M01 A3040\ RMK AO2 SLP294 T01001011 53004 $= 201702280351 METAR KLGA 280351Z 20006KT 10SM SCT080 SCT150 BKN250 10/M01\ A3039 RMK AO2 SLP291 T01001011 $= 201702280451 METAR KLGA 280451Z 19003KT 10SM OVC085 10/M01 A3039 RMK AO2\ SLP289 T01001011 401220028 $= 201702280551 METAR KLGA 280551Z 19003KT 10SM OVC080 10/M01 A3039 RMK AO2\ SLP290 T01001006 10117 20094 55004\ $= 201702280651 METAR KLGA 280651Z 18003KT 10SM OVC080 10/M01 A3037 RMK AO2\ SLP284 T01001006 $= 201702280751 METAR KLGA 280751Z 15005KT 10SM ? OVC100 09/01 A3036 RMK\ AO2 SLP280 T00940006 $= 201702280851 METAR KLGA 280851Z 17007KT 10SM ? OVC095 09/01 A3036 RMK\ AO2 SLP279 T00890011 56011 $= 201702280951 METAR KLGA 280951Z 10005KT 10SM OVC110 08/02 A3035 RMK AO2\ SLP277 T00780017 $= 201702281051 METAR KLGA 281051Z 08004KT 10SM BKN120 08/02 A3036 RMK AO2\ SLP279 T00780022 $= 201702281151 METAR KLGA 281151Z 05007KT 10SM BKN120 07/03 A3035 RMK AO2\ SLP276 T00670028 10100 20067 58003\ $= 201702281251 METAR KLGA 281251Z 05007KT 10SM FEW085 BKN110 OVC150 07/03\ A3037 RMK AO2 SLP282 T00670028 $= 201702281351 METAR KLGA 281351Z 05010KT 10SM SCT032 BKN110 BKN150 OVC250\ 07/03 A3036 RMK AO2 SLP281 T00720033\ $= 201702281451 METAR KLGA 281451Z 04009KT 10SM FEW032 SCT250 08/03 A3035\ RMK AO2 SLP277 T00830033 50001 $= 201702281551 METAR KLGA 281551Z 05010KT 10SM FEW032 FEW250 09/04 A3034\ RMK AO2 SLP274 T00940039 $= 201702281651 METAR KLGA 281651Z 06011KT 10SM FEW040 SCT250 11/04 A3030\ RMK AO2 SLP261 T01060039 $= 201702281751 METAR KLGA 281751Z 06011KT 10SM FEW017 BKN250 10/04 A3027\ RMK AO2 SLP250 T01000044 10106 20067\ 58027 $= 201702281851 METAR KLGA 281851Z 05009KT 10SM BKN020 BKN250 11/04 A3023\ RMK AO2 SLP237 T01110044 $= 201702281951 METAR KLGA 281951Z 06008KT 10SM BKN020 BKN250 11/05 A3020\ RMK AO2 SLP227 T01110050 $= 201702282051 METAR KLGA 282051Z 15010KT 10SM OVC015 14/10 A3017 RMK AO2\ SLP214 T01390100 56036 $= 201702282151 METAR KLGA 282151Z 16011KT 10SM OVC009 13/10 A3016 RMK AO2\ SLP213 T01330100 $= 201702282251 METAR KLGA 282251Z 16008KT 1SM BR OVC005 12/10 A3017 RMK\ AO2 SFC VIS 3 SLP216 T01220100 $= 201702282351 METAR KLGA 282351Z 11007KT 1 1/2SM BR OVC005 13/11 A3015\ RMK AO2 SFC VIS 3 SLP208 T01280106\ 10144 20106 58007 $=
