 201701010051 METAR KLGA 010051Z 22010G20KT 10SM FEW075 OVC090 07/M04 A2994\ RMK AO2 SLP139 T00671039 $= 201701010151 METAR KLGA 010151Z 21010G18KT 10SM OVC100 07/M04 A2992 RMK\ AO2 SLP131 T00671044 $= 201701010251 METAR KLGA 010251Z 20010KT 10SM OVC085 07/M04 A2991 RMK AO2\ SLP128 T00671044 56015 $= 201701010351 METAR KLGA 010351Z 21010KT 10SM OVC070 07/M04 A2991 RMK AO2\ SLP127 T00721044 $= 201701010451 METAR KLGA 010451Z 23011G14KT 10SM BKN075 OVC090 07/M04 A2989\ RMK AO2 SLP122 T00721044 400720011\ $= 201701010551 METAR KLGA 010551Z 23009KT 10SM BKN046 OVC065 08/M04 A2989\ RMK AO2 SLP122 T00781039 10078 20067\ 56006 $= 201701010651 METAR KLGA 010651Z 23007KT 10SM OVC085 07/M02 A2990 RMK AO2\ RAB09E29 SLP124 P0000 T00721022 $= 201701010751 METAR KLGA 010751Z 24011KT 10SM FEW055 BKN100 08/M03 A2991\ RMK AO2 SLP127 T00781033 $= 201701010851 METAR KLGA 010851Z 24009G22KT 10SM FEW055 FEW100 08/M04 A2993\ RMK AO2 SLP134 60000 T00781039 53012\ $= 201701010951 METAR KLGA 010951Z 24009KT 10SM BKN050 BKN100 08/M04 A2995\ RMK AO2 SLP141 T00831044 $= 201701011051 METAR KLGA 011051Z 25010G23KT 10SM FEW100 08/M04 A2999 RMK\ AO2 SLP153 T00831039 $= 201701011151 METAR KLGA 011151Z 26011G18KT 10SM FEW044 SCT100 SCT290 08/M03\ A3002 RMK AO2 SLP165 60000 T00831033\ 10083 20072 53031 $= 201701011251 METAR KLGA 011251Z 24010G20KT 10SM FEW044 SCT060 SCT100 SCT250\ 08/M03 A3005 RMK AO2 SLP174 T00831028\ $= 201701011351 METAR KLGA 011351Z 26012G17KT 10SM FEW044 SCT060 SCT100 SCT250\ 08/M03 A3010 RMK AO2 PRESRR SLP191\ T00831028 $= 201701011451 METAR KLGA 011451Z 32017G22KT 10SM FEW042 SCT060 SCT200 SCT250\ 08/M02 A3014 RMK AO2 SLP205 T00831017\ 53040 $= 201701011551 METAR KLGA 011551Z 29016KT 10SM FEW049 SCT200 SCT250 08/M03\ A3016 RMK AO2 SLP213 T00831033 $= 201701011651 METAR KLGA 011651Z 32011KT 10SM FEW010 FEW050 SCT200 SCT250\ 09/M04 A3017 RMK AO2 SLP216 FU FEW010\ FU PLUME NE-E DRFTG S T00891044 $= 201701011751 METAR KLGA 011751Z 30009KT 10SM FEW055 FEW200 SCT250 09/M05\ A3018 RMK AO2 SLP218 T00891050 10089\ 20078 51014 $= 201701011851 METAR KLGA 011851Z 34007KT 10SM FEW200 FEW250 09/M06 A3019\ RMK AO2 SLP222 T00941056 $= 201701011951 METAR KLGA 011951Z 32011KT 10SM FEW200 FEW250 09/M06 A3021\ RMK AO2 SLP231 T00941061 $= 201701012051 METAR KLGA 012051Z 32009KT 10SM FEW050 FEW250 09/M05 A3025\ RMK AO2 SLP244 T00891050 53025 $= 201701012151 METAR KLGA 012151Z 32009KT 10SM FEW250 08/M06 A3030 RMK AO2\ SLP259 T00831061 $= 201701012251 METAR KLGA 012251Z 33006KT 10SM FEW250 08/M07 A3032 RMK AO2\ SLP267 T00781067 $= 201701012351 METAR KLGA 012351Z 02005KT 10SM FEW250 07/M06 A3035 RMK AO2\ SLP275 T00671061 10094 20067 51032\ $= 201701020051 METAR KLGA 020051Z 05005KT 10SM FEW250 06/M04 A3037 RMK AO2\ SLP285 T00611044 $= 201701020151 METAR KLGA 020151Z 08004KT 10SM FEW250 06/M04 A3040 RMK AO2\ SLP295 T00561044 $= 201701020251 METAR KLGA 020251Z 00000KT 10SM CLR 04/M02 A3042 RMK AO2\ SLP302 T00441017 51026 $= 201701020351 METAR KLGA 020351Z 07003KT 10SM FEW250 04/M01 A3045 RMK AO2\ SLP311 T00441011 $= 201701020451 METAR KLGA 020451Z 04008KT 10SM SCT250 04/00 A3043 RMK AO2\ SLP305 T00390000 400940039 $= 201701020551 METAR KLGA 020551Z 05005KT 10SM BKN250 03/M01 A3043 RMK AO2\ SLP302 T00331006 10072 20033 50000\ $= 201701020651 METAR KLGA 020651Z 02003KT 10SM BKN250 03/M01 A3044 RMK AO2\ SLP309 T00331006 $= 201701020751 METAR KLGA 020751Z 06008KT 10SM BKN250 04/M03 A3045 RMK AO2\ SLP309 T00391033 $= 201701020851 METAR KLGA 020851Z 06007KT 10SM CLR 03/M04 A3046 RMK AO2\ SLP314 T00331039 51012 $= 201701020951 METAR KLGA 020951Z 06006KT 10SM OVC220 03/M04 A3047 RMK AO2\ SLP318 T00331039 $= 201701021051 METAR KLGA 021051Z 06005KT 10SM BKN170 OVC220 04/M04 A3048\ RMK AO2 SLP320 T00391039 $= 201701021151 METAR KLGA 021151Z 05008KT 10SM BKN100 OVC250 04/M04 A3048\ RMK AO2 SLP320 T00441039 10044 20033\ 50006 $= 201701021251 METAR KLGA 021251Z 05008KT 10SM -RA FEW055 OVC085 04/M02\ A3049 RMK AO2 RAB08PLB12E26 SLP325\ P0000 T00391017 $= 201701021351 METAR KLGA 021351Z 06009KT 10SM -RA FEW075 OVC095 04/M01\ A3049 RMK AO2 SLP324 P0002 T00391006\ $= 201701021451 METAR KLGA 021451Z 05012KT 10SM OVC060 04/01 A3051 RMK AO2\ RAE21 SLP331 P0001 60003 T00440006\ 53011 $= 201701021551 METAR KLGA 021551Z 06014KT 10SM -RA OVC055 05/01 A3049 RMK\ AO2 RAB29 SLP324 P0000 T00500011\ $= 201701021651 METAR KLGA 021651Z 05011KT 10SM -RA OVC050 04/02 A3046 RMK\ AO2 RAE25B43 SLP314 P0000 T00440017\ $= 201701021751 METAR KLGA 021751Z 04009KT 8SM -RA FEW032 OVC047 04/02 A3043\ RMK AO2 SLP304 931000 P0001 60004\ T00440022 10056 20033 58027 $= 201701021851 METAR KLGA 021851Z 05012KT 7SM -RA FEW028 BKN050 OVC070 04/02\ A3041 RMK AO2 SLP297 P0001 T00440022\ $= 201701021951 METAR KLGA 021951Z 05011KT 6SM -RA BR FEW030 BKN070 OVC085\ 05/03 A3041 RMK AO2 SLP297 P0003\ T00500028 $= 201701022051 METAR KLGA 022051Z 05013KT 10SM -RA BKN044 OVC055 05/03 A3040\ RMK AO2 SLP295 P0002 60006 T00500028\ 56009 $= 201701022151 METAR KLGA 022151Z 06012KT 1 1/2SM -RA BR BKN006 BKN019 OVC031\ 04/03 A3040 RMK AO2 SFC VIS 5 SLP292\ P0002 T00440028 $= 201701022251 METAR KLGA 022251Z 05013KT 3SM -RA BR OVC009 05/03 A3038\ RMK AO2 SFC VIS 4 RAE22B37 SLP288\ P0001 T00500028 $= 201701022351 METAR KLGA 022351Z 05015KT 3SM -RA BR BKN006 BKN017 OVC032\ 04/03 A3037 RMK AO2 SFC VIS 4 SLP284\ P0004 60013 T00440028 10056 20044\ 55009 $= 201701030051 METAR KLGA 030051Z 05014KT 6SM BR OVC006 05/03 A3036 RMK\ AO2 RAE03 SLP281 P0000 T00500033\ $= 201701030151 METAR KLGA 030151Z 05016KT 6SM BR OVC006 05/03 A3031 RMK\ AO2 SLP264 T00500033 $= 201701030251 METAR KLGA 030251Z 06014KT 5SM BR OVC006 04/03 A3030 RMK\ AO2 SLP259 60000 T00440033 58025\ $= 201701030351 METAR KLGA 030351Z 05013KT 6SM -DZ BR OVC005 04/03 A3031\ RMK AO2 DZB06 SLP262 P0000 T00440033\ $= 201701030451 METAR KLGA 030451Z 06015KT 3SM -RA BR OVC005 05/03 A3027\ RMK AO2 DZE49RAB49 SLP249 P0001 T00500033\ 400560033 $= 201701030551 METAR KLGA 030551Z 05018KT 5SM -DZ BR OVC005 04/03 A3022\ RMK AO2 RAE18DZB49 SLP234 P0001 60002\ T00440033 10056 20044 58025 $= 201701030651 METAR KLGA 030651Z 05013KT 3SM -RA BR OVC005 04/03 A3022\ RMK AO2 DZE40RAB40 SLP234 P0001 T00440033\ $= 201701030751 METAR KLGA 030751Z 05017KT 5SM -DZ BR OVC005 04/03 A3019\ RMK AO2 RAE20DZB31 SLP224 P0001 T00440033\ $= 201701030851 METAR KLGA 030851Z 05017KT 10SM OVC005 05/03 A3016 RMK AO2\ DZE27 SLP212 P0001 60003 T00500033\ 58022 $= 201701030951 METAR KLGA 030951Z 06017KT 5SM -DZ BR OVC005 05/03 A3013\ RMK AO2 DZB50 SLP203 P0000 T00500033\ $= 201701031051 METAR KLGA 031051Z 06016KT 4SM -DZ BR BKN005 OVC008 05/03\ A3012 RMK AO2 SLP198 P0000 T00500033\ $= 201701031151 METAR KLGA 031151Z 06018KT 10SM -DZ OVC005 05/03 A3008 RMK\ AO2 SLP184 P0000 60003 70022 T00500033\ 10056 20044 58027 $= 201701031251 METAR KLGA 031251Z 05016KT 2 1/2SM -DZ BR OVC005 05/04 A3004\ RMK AO2 SFC VIS 3 SLP173 P0000 T00500039\ $= 201701031351 METAR KLGA 031351Z 05016G22KT 2SM -DZ BR OVC005 06/04 A3002\ RMK AO2 SFC VIS 2 1/2 SLP165 P0000\ T00560039 $= 201701031451 METAR KLGA 031451Z 05018KT 1 1/2SM -RA BR OVC004 06/04 A3000\ RMK AO2 SFC VIS 2 DZE16RAB16 SLP158\ P0000 60000 T00610044 56026 $= 201701031551 METAR KLGA 031551Z 06016KT 1 1/2SM -RA BR OVC004 07/04 A2995\ RMK AO2 SFC VIS 2 SLP142 P0000 T00670044\ $= 201701031651 METAR KLGA 031651Z 06014KT 5SM -RA BR OVC005 07/05 A2986\ RMK AO2 PRESFR SLP112 P0003 T00670050\ $= 201701031751 METAR KLGA 031751Z 07016G23KT 4SM -RA BR OVC008 07/05 A2980\ RMK AO2 SLP092 P0004 60007 T00670050\ 10072 20050 56050 $= 201701031851 METAR KLGA 031851Z 06016KT 4SM RA BR OVC008 07/05 A2974 RMK\ AO2 SLP070 P0005 T00670050 $= 201701031951 METAR KLGA 031951Z 06018KT 3SM -RA BR OVC007 07/05 A2969\ RMK AO2 PK WND 07028/1907 SLP053\ P0004 T00720050 $= 201701032051 METAR KLGA 032051Z 06017KT 1 1/2SM +RA BR BKN007 OVC012 07/06\ A2965 RMK AO2 SFC VIS 1 3/4 SLP041\ P0011 60020 T00670056 56050 $= 201701032151 METAR KLGA 032151Z 06017KT 7SM -RA OVC008 08/06 A2961 RMK\ AO2 SLP025 P0007 T00780056 $= 201701032251 METAR KLGA 032251Z 05012KT 4SM BR OVC006 07/06 A2959 RMK\ AO2 RAE2156 SLP021 P0000 T00670056\ $= 201701032351 METAR KLGA 032351Z 04012KT 2SM BR OVC004 07/06 A2956 RMK\ AO2 SFC VIS 3 RAB03E48 SLP010 P0002\ 60029 T00720061 10083 20067 56031\ $= 201701040051 METAR KLGA 040051Z 04009KT 2SM BR OVC005 07/06 A2952 RMK\ AO2 SFC VIS 3 SLP995 P0001 T00720061\ $= 201701040151 METAR KLGA 040151Z 02005KT 2SM BR OVC005 07/06 A2950 RMK\ AO2 SFC VIS 3 SLP990 T00720061 $= 201701040251 METAR KLGA 040251Z 33008KT 1SM BR OVC003 07/05 A2949 RMK\ AO2 SFC VIS 2 SLP987 60001 T00670050\ 56009 $= 201701040351 METAR KLGA 040351Z 33006KT 3SM -RA BR BKN005 OVC010 06/05\ A2948 RMK AO2 SFC VIS 6 RAB21 SLP984\ P0001 T00610050 $= 201701040451 METAR KLGA 040451Z 31006KT 10SM BKN007 OVC013 06/05 A2948\ RMK AO2 RAE51 SLP984 P0003 T00610050\ 400830044 $= 201701040551 METAR KLGA 040551Z 30006KT 10SM BKN009 OVC011 06/04 A2945\ RMK AO2 SLP973 60005 T00610044 10083\ 20061 58014 $= 201701040651 METAR KLGA 040651Z 30008KT 10SM OVC010 06/04 A2946 RMK AO2\ SLP975 T00610044 $= 201701040751 METAR KLGA 040751Z 26006KT 10SM OVC010 07/04 A2945 RMK AO2\ SLP972 T00670044 $= 201701040851 METAR KLGA 040851Z 26010KT 10SM OVC012 07/04 A2944 RMK AO2\ SLP970 T00720039 58003 $= 201701040951 METAR KLGA 040951Z 25005KT 10SM -RA BKN015 OVC032 07/04 A2944\ RMK AO2 RAB43 SLP970 P0000 T00670039\ $= 201701041051 METAR KLGA 041051Z 23008KT 10SM BKN015 OVC032 07/04 A2946\ RMK AO2 RAE07 SLP976 P0000 T00670044\ $= 201701041151 METAR KLGA 041151Z 23010KT 10SM BKN015 OVC031 07/04 A2947\ RMK AO2 SLP978 60000 70041 T00720044\ 10072 20061 51008 $= 201701041251 METAR KLGA 041251Z 25009KT 7SM BKN013 BKN018 OVC034 08/05\ A2948 RMK AO2 SLP983 T00780050 $= 201701041351 METAR KLGA 041351Z 23012KT 10SM FEW012 SCT036 BKN250 08/05\ A2949 RMK AO2 SLP986 T00830050 $= 201701041451 METAR KLGA 041451Z 26014KT 10SM SCT016 OVC025 09/05 A2950\ RMK AO2 SLP988 T00890050 51010 $= 201701041551 METAR KLGA 041551Z 25009G17KT 10SM FEW015 BKN028 BKN200 10/05\ A2949 RMK AO2 SLP987 T01000050 $= 201701041651 METAR KLGA 041651Z 23008G18KT 10SM FEW018 BKN028 OVC200 10/05\ A2950 RMK AO2 SLP988 T01000050 $= 201701041751 METAR KLGA 041751Z 27013G20KT 10SM FEW020 BKN033 OVC200 11/05\ A2948 RMK AO2 SLP984 T01060050 10106\ 20072 58005 $= 201701041851 METAR KLGA 041851Z 27021G29KT 10SM BKN033 12/03 A2948 RMK\ AO2 PK WND 27029/1835 SLP982 T01170028\ $= 201701041951 METAR KLGA 041951Z 27021G28KT 10SM SCT043 12/01 A2948 RMK\ AO2 PK WND 27031/1927 SLP982 T01220011\ $= 201701042051 METAR KLGA 042051Z 27019G29KT 10SM SCT045 SCT250 11/M03 A2951\ RMK AO2 PK WND 28031/2031 SLP993\ T01111033 53009 $= 201701042151 METAR KLGA 042151Z 27020G29KT 10SM FEW050 SCT250 10/M05 A2953\ RMK AO2 PK WND 26036/2133 SLP000\ T01001050 $= 201701042251 METAR KLGA 042251Z 27017G30KT 10SM FEW050 SCT250 09/M05 A2955\ RMK AO2 PK WND 27032/2155 SLP007\ T00891050 $= 201701042351 METAR KLGA 042351Z 27014G29KT 10SM FEW050 SCT250 08/M07 A2958\ RMK AO2 PK WND 26030/2325 SLP017\ T00781067 10122 20078 53023 $= 201701050051 METAR KLGA 050051Z 27023G33KT 10SM FEW050 FEW250 07/M11 A2962\ RMK AO2 PK WND 28033/0045 SLP030\ T00671106 $= 201701050151 METAR KLGA 050151Z 28019G29KT 10SM CLR 06/M12 A2965 RMK AO2\ PK WND 28036/0109 SLP039 T00561117\ $= 201701050251 METAR KLGA 050251Z 29018G32KT 10SM CLR 04/M11 A2968 RMK AO2\ PK WND 27034/0200 SLP050 T00441106\ 51034 $= 201701050351 METAR KLGA 050351Z 25017G23KT 10SM CLR 03/M12 A2971 RMK AO2\ SLP061 T00281122 $= 201701050451 METAR KLGA 050451Z 27016G24KT 10SM CLR 02/M12 A2973 RMK AO2\ PK WND 25026/0404 SLP066 T00221122\ 401220022 $= 201701050551 METAR KLGA 050551Z 26016G23KT 10SM CLR 02/M12 A2976 RMK AO2\ PK WND 25028/0515 SLP077 T00171122\ 10078 20017 51026 $= 201701050651 METAR KLGA 050651Z 26018G28KT 10SM CLR 01/M12 A2979 RMK AO2\ PK WND 26028/0651 SLP086 T00061122\ $= 201701050751 METAR KLGA 050751Z 26020KT 10SM CLR 00/M12 A2982 RMK AO2\ PK WND 28029/0717 PRESRR SLP096 T00001122\ $= 201701050851 METAR KLGA 050851Z 26013G25KT 10SM CLR M01/M12 A2984 RMK\ AO2 PK WND 27028/0833 SLP103 T10061122\ 51026 $= 201701050951 METAR KLGA 050951Z 25018G22KT 10SM CLR M01/M13 A2987 RMK\ AO2 SLP114 T10111128 $= 201701051051 METAR KLGA 051051Z 25016G21KT 10SM CLR M02/M14 A2990 RMK\ AO2 PK WND 25026/1015 SLP125 T10171144\ $= 201701051151 METAR KLGA 051151Z 25015G23KT 10SM FEW055 M02/M14 A2994 RMK\ AO2 SLP136 T10171139 10017 21017\ 53033 $= 201701051251 METAR KLGA 051251Z 28016G22KT 10SM FEW055 BKN250 M02/M14\ A2994 RMK AO2 PK WND 26027/1228 SLP139\ T10171139 $= 201701051351 METAR KLGA 051351Z 26014G23KT 10SM FEW055 BKN250 M02/M14\ A2997 RMK AO2 SLP147 T10171139 $= 201701051451 METAR KLGA 051451Z 27015G21KT 10SM FEW060 SCT170 OVC250 M02/M14\ A3001 RMK AO2 SLP162 T10171139 53025\ $= 201701051551 METAR KLGA 051551Z 29015G22KT 10SM FEW060 SCT100 OVC250 M01/M14\ A2998 RMK AO2 SLP151 T10111139 $= 201701051651 METAR KLGA 051651Z 27011KT 10SM SCT100 OVC250 M01/M13 A2996\ RMK AO2 SLP146 T10061128 $= 201701051751 METAR KLGA 051751Z 26011KT 10SM FEW100 SCT160 BKN250 00/M14\ A2993 RMK AO2 SLP136 T00001139 10000\ 21022 56026 $= 201701051851 METAR KLGA 051851Z 25010KT 10SM FEW100 SCT160 BKN250 01/M13\ A2993 RMK AO2 SLP136 T00061133 $= 201701051951 METAR KLGA 051951Z 26010KT 10SM BKN160 OVC200 01/M13 A2993\ RMK AO2 SLP135 T00061133 $= 201701052051 METAR KLGA 052051Z 23009KT 10SM SCT130 BKN180 OVC250 01/M13\ A2993 RMK AO2 SLP135 T00111133 55001\ $= 201701052151 METAR KLGA 052151Z 25008KT 10SM BKN130 BKN180 OVC250 01/M13\ A2992 RMK AO2 SLP131 T00061128 $= 201701052251 METAR KLGA 052251Z 23011KT 10SM BKN080 BKN110 OVC250 01/M12\ A2995 RMK AO2 SLP140 T00061117 $= 201701052351 METAR KLGA 052351Z 22011KT 10SM SCT080 BKN100 OVC250 01/M12\ A2995 RMK AO2 SLP141 T00061117 10011\ 20000 53006 $= 201701060051 METAR KLGA 060051Z 24011KT 10SM SCT065 OVC120 01/M11 A2997\ RMK AO2 PRESRR SLP149 T00111111 $= 201701060151 METAR KLGA 060151Z 24010KT 10SM FEW070 SCT090 OVC110 01/M11\ A2997 RMK AO2 SLP149 T00111111 $= 201701060251 METAR KLGA 060251Z 25011KT 10SM FEW070 OVC095 01/M11 A2997\ RMK AO2 SLP147 T00111111 50006 $= 201701060351 METAR KLGA 060351Z 24008KT 10SM SCT075 BKN090 BKN110 BKN200\ 01/M10 A2996 RMK AO2 SLP144 T00061100\ $= 201701060451 METAR KLGA 060451Z 21009KT 10SM OVC060 01/M09 A2996 RMK AO2\ SLP144 T00061089 400221022 $= 201701060551 METAR KLGA 060551Z 22003KT 3/4SM -SN FEW014 OVC020 M01/M04\ A2997 RMK AO2 SFC VIS 1 1/4 SNB23\ SLP149 931000 P0000 60000 T10111044\ 10011 21011 53005 $= 201701060651 METAR KLGA 060651Z 32006KT 3/4SM -SN BR FEW009 OVC016 M02/M04\ A2996 RMK AO2 SFC VIS 1 1/4 SLP145\ SNINCR 1/1 P0002 T10171039 $= 201701060751 METAR KLGA 060751Z 33005KT 3/4SM -SN BR OVC018 M02/M04 A2995\ RMK AO2 SFC VIS 1 3/4 SLP143 P0001\ T10171039 $= 201701060851 METAR KLGA 060851Z 34005KT 10SM FEW014 SCT042 OVC080 M01/M04\ A2993 RMK AO2 SNE21 CIG 060 R22 SW\ SLP134 P0001 60004 T10111039 58015\ $= 201701060951 METAR KLGA 060951Z 34007KT 9SM -SN OVC050 M01/M06 A2994 RMK\ AO2 SNB04 SLP139 P0000 T10111056\ $= 201701061051 METAR KLGA 061051Z 36009KT 9SM -SN FEW023 OVC080 M01/M06\ A2996 RMK AO2 SNE08B36 SLP145 P0000\ T10111056 $= 201701061151 METAR KLGA 061151Z 02006KT 6SM -SN SCT023 BKN047 OVC080 M01/M06\ A3000 RMK AO2 SNE1057B21 SLP159 931010\ 4/001 P0000 60004 70004 T10111056\ 11006 21017 53025 $= 201701061251 METAR KLGA 061251Z 02007KT 8SM -SN SCT022 BKN033 OVC080 M01/M06\ A3002 RMK AO2 SLP164 P0000 T10111056\ $= 201701061351 METAR KLGA 061351Z 31008KT 10SM FEW024 SCT031 BKN095 BKN250\ M01/M07 A3005 RMK AO2 SNE03 SLP173\ P0000 T10061067 $= 201701061451 METAR KLGA 061451Z 34006KT 10SM FEW035 FEW120 SCT250 00/M08\ A3006 RMK AO2 SLP178 60000 T00001078\ 51020 $= 201701061551 METAR KLGA 061551Z 35006KT 10SM FEW032 FEW090 BKN250 01/M08\ A3006 RMK AO2 SLP178 T00061078 $= 201701061651 METAR KLGA 061651Z 01006KT 10SM FEW037 FEW095 BKN250 01/M08\ A3005 RMK AO2 SLP174 T00061078 $= 201701061751 METAR KLGA 061751Z 32010G15KT 10SM SCT042 BKN250 01/M09 A3004\ RMK AO2 SLP172 931001 60000 T00111089\ 10017 21017 58006 $= 201701061851 METAR KLGA 061851Z 34012KT 10SM SCT047 BKN250 01/M09 A3004\ RMK AO2 SLP172 T00111094 $= 201701061951 METAR KLGA 061951Z 32011KT 10SM SCT047 BKN120 BKN250 01/M11\ A3006 RMK AO2 SLP179 T00111106 $= 201701062051 METAR KLGA 062051Z 30010KT 10SM FEW047 BKN120 BKN250 01/M11\ A3008 RMK AO2 SLP186 T00111111 53013\ $= 201701062151 METAR KLGA 062151Z 33009KT 10SM FEW050 BKN120 BKN250 01/M11\ A3012 RMK AO2 SLP198 T00061111 $= 201701062251 METAR KLGA 062251Z 34008KT 10SM FEW050 BKN140 BKN250 01/M12\ A3016 RMK AO2 SLP212 T00061117 $= 201701062351 METAR KLGA 062351Z 34011KT 10SM FEW050 BKN140 BKN250 00/M12\ A3018 RMK AO2 SLP221 T00001117 10017\ 20000 51035 $= 201701070051 METAR KLGA 070051Z 33011KT 10SM FEW050 BKN140 BKN250 M01/M12\ A3021 RMK AO2 SLP230 T10061117 $= 201701070151 METAR KLGA 070151Z 34012KT 10SM FEW050 BKN130 BKN250 M01/M12\ A3023 RMK AO2 SLP237 T10111122 $= 201701070251 METAR KLGA 070251Z 33010KT 10SM BKN130 BKN250 M02/M13 A3025\ RMK AO2 SLP242 T10171128 51022 $= 201701070351 METAR KLGA 070351Z 35010KT 10SM BKN250 M02/M12 A3024 RMK\ AO2 SLP238 T10221122 $= 201701070451 METAR KLGA 070451Z 35008KT 10SM OVC240 M02/M13 A3028 RMK\ AO2 SLP252 T10221128 400171022 $= 201701070551 METAR KLGA 070551Z 36009KT 10SM OVC200 M03/M12 A3028 RMK\ AO2 SLP253 T10281122 10000 21028\ 53011 $= 201701070651 METAR KLGA 070651Z 01010KT 10SM OVC180 M03/M13 A3029 RMK\ AO2 SLP257 T10331133 $= 201701070751 METAR KLGA 070751Z 02009KT 10SM OVC140 M03/M13 A3032 RMK\ AO2 SLP266 T10331133 $= 201701070851 METAR KLGA 070851Z 03010KT 10SM OVC120 M04/M13 A3032 RMK\ AO2 SLP268 T10391133 51015 $= 201701070951 METAR KLGA 070951Z 03008KT 10SM OVC110 M04/M14 A3033 RMK\ AO2 SLP269 T10391144 $= 201701071051 METAR KLGA 071051Z 02009KT 10SM OVC110 M04/M14 A3031 RMK\ AO2 SLP263 T10391139 $= 201701071151 METAR KLGA 071151Z 02012KT 10SM OVC095 M04/M14 A3029 RMK\ AO2 SLP257 T10391139 11028 21039\ 58011 $= 201701071251 METAR KLGA 071251Z 01010KT 10SM OVC065 M04/M14 A3031 RMK\ AO2 SLP262 T10391139 $= 201701071351 METAR KLGA 071351Z 03010KT 6SM -SN OVC038 M04/M12 A3032 RMK\ AO2 SNB42 SLP267 P0000 T10441122\ $= 201701071451 METAR KLGA 071451Z 01010KT 1SM -SN OVC023 M05/M09 A3030 RMK\ AO2 SFC VIS 2 SLP261 P0000 60000\ T10501094 50004 $= 201701071551 METAR KLGA 071551Z 35011KT 1/2SM -SN BR VV010 M06/M08 A3027\ RMK AO2 SFC VIS 3/4 SLP250 P0002\ T10561078 RVRNO $= 201701071651 METAR KLGA 071651Z 36013KT 1SM -SN VV019 M06/M08 A3022 RMK\ AO2 PRESFR SLP232 SNINCR 1/1 P0002\ T10561083 RVRNO $= 201701071751 METAR KLGA 071751Z 36012KT 3/4SM -SN BR VV013 M06/M08 A3018\ RMK AO2 SLP219 SNINCR 1/2 P0002 60006\ T10561078 11039 21056 58042 RVRNO\ $= 201701071851 METAR KLGA 071851Z 36015G18KT 3/4SM -SN VV015 M05/M08 A3016\ RMK AO2 SFC VIS 1 SLP211 SNINCR 1/3\ P0002 T10501078 RVRNO $= 201701071951 METAR KLGA 071951Z 01011KT 1/4SM SN VV010 M05/M08 A3017 RMK\ AO2 SFC VIS 1/2 SLP217 SNINCR 1/4\ P0002 T10501078 RVRNO $= 201701072051 METAR KLGA 072051Z 34015KT 1/4SM SN FZFG VV009 M05/M07 A3012\ RMK AO2 SFC VIS 1/2 PRESFR SLP198\ SNINCR 1/5 P0004 60008 T10501072\ 58021 RVRNO $= 201701072151 METAR KLGA 072151Z 35016G21KT 3/4SM -SN FZFG VV012 M05/M07\ A3012 RMK AO2 SFC VIS 1 SLP198 P0002\ T10501072 RVRNO $= 201701072251 METAR KLGA 072251Z 34019KT 1/2SM -SN BR VV012 M05/M08 A3013\ RMK AO2 SFC VIS 3/4 SLP201 SNINCR\ 1/6 P0002 T10501078 RVRNO $= 201701072351 METAR KLGA 072351Z 34018G24KT 1 1/2SM -SN BR FEW013 OVC022\ M05/M08 A3012 RMK AO2 PK WND 34027/2314\ SFC VIS 1 3/4 SLP198 931045 4/006\ P0001 60013 T10501078 11050 21056\ 50000 $= 201701080051 METAR KLGA 080051Z 35016G21KT 1 1/2SM -SN BR FEW016 OVC025\ M05/M08 A3012 RMK AO2 SFC VIS 1 3/4\ SLP198 P0000 T10501078 $= 201701080151 METAR KLGA 080151Z 33014G21KT 2 1/2SM -SN BR FEW019 OVC031\ M05/M08 A3013 RMK AO2 SFC VIS 3 SLP202\ P0001 T10501078 $= 201701080251 METAR KLGA 080251Z 34009KT 7SM SCT018 SCT034 OVC044 M05/M08\ A3015 RMK AO2 SNE47 SLP207 P0000\ 60001 T10501083 53009 $= 201701080351 METAR KLGA 080351Z 35010KT 10SM FEW018 BKN065 OVC110 M04/M09\ A3015 RMK AO2 SLP210 T10441094 $= 201701080451 METAR KLGA 080451Z 33015KT 10SM FEW018 BKN060 M04/M10 A3015\ RMK AO2 SLP210 T10441100 410221056\ $= 201701080551 METAR KLGA 080551Z 32015KT 10SM SCT070 M05/M12 A3016 RMK\ AO2 SLP212 931007 4/007 60001 T10501122\ 11044 21050 51005 $= 201701080651 METAR KLGA 080651Z 31015KT 10SM FEW070 M06/M12 A3019 RMK\ AO2 SLP223 T10561122 $= 201701080751 METAR KLGA 080751Z 31014G20KT 10SM FEW070 M06/M13 A3021 RMK\ AO2 SLP229 T10611128 $= 201701080851 METAR KLGA 080851Z 32017KT 10SM FEW070 M06/M12 A3022 RMK\ AO2 PK WND 33026/0816 SLP233 T10611122\ 51021 $= 201701080951 METAR KLGA 080951Z 31017KT 10SM CLR M07/M13 A3023 RMK AO2\ PK WND 32027/0909 SLP236 T10671133\ $= 201701081051 METAR KLGA 081051Z 31014KT 10SM FEW035 M07/M14 A3025 RMK\ AO2 SLP242 P0000 T10671139 $= 201701081151 METAR KLGA 081151Z 29011G19KT 10SM FEW029 FEW090 SCT220 M07/M14\ A3027 RMK AO2 SLP251 4/007 60000\ 70020 T10721139 11050 21072 53018\ $= 201701081251 METAR KLGA 081251Z 28014G22KT 10SM FEW029 SCT070 SCT220 M07/M14\ A3027 RMK AO2 SLP250 T10671139 $= 201701081351 METAR KLGA 081351Z 28014G26KT 10SM FEW030 SCT070 SCT220 M07/M15\ A3029 RMK AO2 PK WND 27026/1342 SLP257\ T10671150 $= 201701081451 METAR KLGA 081451Z 29016G27KT 10SM FEW035 M07/M16 A3030 RMK\ AO2 PK WND 29027/1444 SLP260 T10671156\ 53009 $= 201701081551 METAR KLGA 081551Z 29018G28KT 10SM FEW035 SCT044 M06/M15\ A3029 RMK AO2 PK WND 29028/1549 SLP258\ T10561150 $= 201701081651 METAR KLGA 081651Z 31015G24KT 10SM FEW038 BKN050 M05/M14\ A3028 RMK AO2 SLP253 T10501144 $= 201701081751 METAR KLGA 081751Z 29018G25KT 10SM FEW035 BKN048 BKN055 M05/M15\ A3027 RMK AO2 SLP250 VIRGA OHD 4/007\ 933003 T10501150 11044 21072 58010\ $= 201701081851 METAR KLGA 081851Z 31018G24KT 10SM FEW035 SCT049 BKN060 M04/M13\ A3028 RMK AO2 SLP253 VIRGA OHD-E-SE\ T10391133 $= 201701081951 METAR KLGA 081951Z 32018KT 10SM SCT035 BKN050 M03/M13 A3031\ RMK AO2 SLP262 VIRGA OHD AND ALQDS\ T10281133 $= 201701082051 METAR KLGA 082051Z 29015G24KT 10SM SCT033 BKN060 BKN095 M03/M17\ A3033 RMK AO2 SLP271 VIRGA OHD AND\ ALQDS T10331167 53022 $= 201701082151 METAR KLGA 082151Z 30020KT 10SM SCT035 BKN070 M03/M16 A3037\ RMK AO2 PK WND 31033/2132 SLP284\ VIRGA OHD AND ALQDS T10331156 $= 201701082251 METAR KLGA 082251Z 30020G27KT 10SM SCT040 SCT070 M04/M14\ A3042 RMK AO2 PK WND 31028/2156 SLP299\ VIRGA W-NW T10391144 $= 201701082351 METAR KLGA 082351Z 30015G22KT 10SM FEW047 M04/M15 A3046 RMK\ AO2 SLP313 4/007 T10441150 11028\ 21050 53042 $= 201701090051 METAR KLGA 090051Z 31019G27KT 10SM FEW040 M04/M14 A3050 RMK\ AO2 PK WND 31028/0040 SLP327 T10441139\ $= 201701090151 METAR KLGA 090151Z 30016KT 10SM CLR M06/M14 A3054 RMK AO2\ PK WND 31027/0124 SLP340 T10561139\ $= 201701090251 METAR KLGA 090251Z 30017KT 10SM FEW040 M06/M14 A3056 RMK\ AO2 PK WND 30029/0156 SLP347 T10561144\ 51034 $= 201701090351 METAR KLGA 090351Z 30020G26KT 10SM FEW040 M06/M15 A3059 RMK\ AO2 PK WND 30028/0340 SLP357 T10611150\ $= 201701090451 METAR KLGA 090451Z 30015G25KT 10SM CLR M07/M15 A3061 RMK\ AO2 PK WND 31026/0358 SLP363 T10671150\ 410281072 $= 201701090551 METAR KLGA 090551Z 32013G18KT 10SM CLR M07/M16 A3061 RMK\ AO2 SLP366 4/006 T10721161 11039\ 21072 51019 $= 201701090651 METAR KLGA 090651Z 32010KT 10SM CLR M07/M16 A3065 RMK AO2\ SLP377 T10721161 $= 201701090751 METAR KLGA 090751Z 30013KT 10SM CLR M08/M16 A3066 RMK AO2\ SLP380 T10781161 $= 201701090851 METAR KLGA 090851Z 31013KT 10SM CLR M08/M16 A3066 RMK AO2\ SLP383 T10781161 51017 $= 201701090951 METAR KLGA 090951Z 31010KT 10SM CLR M08/M16 A3068 RMK AO2\ SLP388 T10781156 $= 201701091051 METAR KLGA 091051Z 30010KT 10SM CLR M08/M16 A3069 RMK AO2\ SLP391 T10831161 $= 201701091151 METAR KLGA 091151Z 32007KT 10SM FEW250 M08/M16 A3068 RMK\ AO2 SLP390 4/005 T10831161 11072\ 21083 50007 $= 201701091251 METAR KLGA 091251Z 31004KT 10SM BKN250 M08/M17 A3070 RMK\ AO2 SLP396 T10781167 $= 201701091351 METAR KLGA 091351Z 31007KT 10SM OVC250 M07/M16 A3074 RMK\ AO2 SLP407 T10721156 $= 201701091451 METAR KLGA 091451Z 30010KT 10SM FEW130 OVC250 M07/M16 A3077\ RMK AO2 SLP417 T10721156 53027 $= 201701091551 METAR KLGA 091551Z 33006KT 10SM FEW130 OVC250 M06/M15 A3075\ RMK AO2 SLP411 T10611150 $= 201701091651 METAR KLGA 091651Z 30004KT 10SM SCT120 OVC250 M06/M16 A3071\ RMK AO2 SLP398 T10561156 $= 201701091751 METAR KLGA 091751Z 00000KT 10SM SCT110 OVC250 M06/M14 A3069\ RMK AO2 SLP391 4/004 933003 T10561144\ 11050 21083 58026 $= 201701091851 METAR KLGA 091851Z 23008KT 10SM BKN100 OVC250 M04/M15 A3069\ RMK AO2 SLP391 T10441150 $= 201701091951 METAR KLGA 091951Z 19007KT 10SM FEW080 BKN100 OVC250 M05/M14\ A3068 RMK AO2 SLP387 T10501144 $= 201701092051 METAR KLGA 092051Z 21007KT 10SM FEW100 SCT250 M05/M16 A3067\ RMK AO2 SLP386 T10501156 58005 $= 201701092151 METAR KLGA 092151Z 21008KT 10SM SCT110 BKN250 M05/M13 A3067\ RMK AO2 SLP384 T10501133 $= 201701092251 METAR KLGA 092251Z 21009KT 10SM FEW110 BKN250 M05/M14 A3068\ RMK AO2 SLP388 T10501139 $= 201701092351 METAR KLGA 092351Z 20011KT 10SM FEW110 BKN250 M04/M13 A3068\ RMK AO2 SLP388 4/003 T10441133 11044\ 21056 53001 $= 201701100051 METAR KLGA 100051Z 20008KT 10SM SCT140 SCT250 M04/M13 A3067\ RMK AO2 SLP384 T10441133 $= 201701100151 METAR KLGA 100151Z 20010KT 10SM FEW100 SCT250 M04/M13 A3067\ RMK AO2 SLP385 T10441133 $= 201701100251 METAR KLGA 100251Z 21011KT 10SM FEW100 SCT250 M05/M13 A3069\ RMK AO2 SLP391 T10501133 53003 $= 201701100351 METAR KLGA 100351Z 21008KT 10SM SCT250 M05/M13 A3068 RMK\ AO2 SLP390 T10501128 $= 201701100451 METAR KLGA 100451Z 21007KT 10SM SCT250 M05/M13 A3066 RMK\ AO2 SLP382 T10501128 410441083 $= 201701100551 METAR KLGA 100551Z 22008KT 10SM SCT250 M05/M13 A3065 RMK\ AO2 SLP377 4/003 T10501128 11044\ 21056 58014 $= 201701100651 METAR KLGA 100651Z 22005KT 10SM FEW250 M05/M12 A3064 RMK\ AO2 SLP376 T10501117 $= 201701100751 METAR KLGA 100751Z 00000KT 10SM SCT200 M05/M11 A3063 RMK\ AO2 SLP372 T10501111 $= 201701100851 METAR KLGA 100851Z 19005KT 10SM SCT200 SCT250 M05/M11 A3062\ RMK AO2 SLP369 T10501111 58008 $= 201701100951 METAR KLGA 100951Z 21005KT 10SM OVC200 M04/M11 A3064 RMK\ AO2 SLP373 T10441106 $= 201701101051 METAR KLGA 101051Z 21004KT 10SM OVC170 M04/M10 A3063 RMK\ AO2 SLP372 T10441100 $= 201701101151 METAR KLGA 101151Z 20005KT 10SM FEW170 OVC220 M04/M11 A3063\ RMK AO2 SLP372 4/003 T10441106 11039\ 21050 51003 $= 201701101251 METAR KLGA 101251Z 18005KT 10SM FEW070 BKN140 OVC250 M04/M11\ A3064 RMK AO2 SLP375 T10391111 $= 201701101351 METAR KLGA 101351Z 19006KT 10SM FEW070 FEW140 OVC220 M03/M09\ A3064 RMK AO2 SLP375 T10281094 $= 201701101451 METAR KLGA 101451Z 19008KT 10SM FEW095 FEW140 OVC230 M02/M12\ A3064 RMK AO2 SLP374 T10171117 50002\ $= 201701101551 METAR KLGA 101551Z 18006KT 10SM FEW140 BKN250 M01/M11 A3062\ RMK AO2 SLP369 T10111111 $= 201701101651 METAR KLGA 101651Z 18008KT 10SM SCT210 BKN250 01/M08 A3057\ RMK AO2 SLP352 T00061078 $= 201701101751 METAR KLGA 101751Z 18008KT 10SM FEW120 BKN170 OVC250 01/M06\ A3053 RMK AO2 SLP339 4/003 933002\ T00111056 10011 21044 58035 $= 201701101851 METAR KLGA 101851Z 19006KT 10SM FEW045 BKN100 OVC220 02/M04\ A3051 RMK AO2 SLP329 T00171044 $= 201701101951 METAR KLGA 101951Z 13006KT 10SM FEW045 BKN090 OVC250 02/M03\ A3046 RMK AO2 SLP315 T00221033 $= 201701102051 METAR KLGA 102051Z 14005KT 10SM FEW045 BKN070 OVC250 03/M02\ A3046 RMK AO2 SLP315 T00281022 56024\ $= 201701102151 METAR KLGA 102151Z 05005KT 10SM FEW015 BKN075 OVC090 02/M02\ A3045 RMK AO2 SLP309 T00171022 $= 201701102251 METAR KLGA 102251Z 06005KT 10SM FEW015 OVC095 03/M01 A3042\ RMK AO2 SLP301 T00281011 $= 201701102351 METAR KLGA 102351Z 12007KT 10SM OVC110 04/00 A3039 RMK AO2\ SLP290 T00390000 10039 20011 58025\ $= 201701110051 METAR KLGA 110051Z 13004KT 10SM FEW015 BKN060 OVC110 04/01\ A3036 RMK AO2 SLP280 T00440006 $= 201701110151 METAR KLGA 110151Z 14004KT 10SM FEW015 OVC065 04/01 A3032\ RMK AO2 SLP267 T00440011 $= 201701110251 METAR KLGA 110251Z 18012G19KT 10SM BKN042 OVC070 07/03 A3027\ RMK AO2 SLP251 T00670028 58039 $= 201701110351 METAR KLGA 110351Z 18015G22KT 10SM BKN032 OVC070 08/03 A3024\ RMK AO2 SLP238 T00780033 $= 201701110451 METAR KLGA 110451Z 18011G18KT 10SM FEW015 BKN027 OVC046 08/04\ A3020 RMK AO2 SLP226 T00830039 400831050\ $= 201701110551 METAR KLGA 110551Z 23004KT 10SM BKN022 OVC046 08/04 A3019\ RMK AO2 SLP223 T00780039 10083 20033\ 56028 $= 201701110651 METAR KLGA 110651Z 23009KT 10SM RA OVC021 07/03 A3021 RMK\ AO2 RAB30 SLP229 P0001 T00670033\ $= 201701110751 METAR KLGA 110751Z 20011KT 5SM RA BR FEW025 SCT034 OVC047\ 07/05 A3018 RMK AO2 SLP220 P0013\ T00720050 $= 201701110851 METAR KLGA 110851Z 21014G20KT 5SM BR SCT021 BKN026 OVC047\ 08/06 A3016 RMK AO2 RAE45 SLP212\ P0012 60026 T00830061 58010 $= 201701110951 METAR KLGA 110951Z 23014G27KT 8SM FEW015 BKN019 OVC029 09/05\ A3017 RMK AO2 PK WND 22028/0939 RAB0856E25\ SLP216 P0000 T00890050 $= 201701111051 METAR KLGA 111051Z 24014G29KT 10SM BKN019 08/04 A3021 RMK\ AO2 PK WND 22030/1009 SLP228 T00830044\ $= 201701111151 METAR KLGA 111151Z 24014G21KT 10SM FEW020 SCT045 SCT120 08/03\ A3025 RMK AO2 SLP245 60026 70026\ T00780033 10089 20067 53032 $= 201701111251 METAR KLGA 111251Z 23008G16KT 10SM CLR 07/03 A3028 RMK AO2\ PK WND 24027/1201 SLP253 T00720028\ $= 201701111351 METAR KLGA 111351Z 22010KT 10SM CLR 07/03 A3031 RMK AO2 SLP264\ T00720028 $= 201701111451 METAR KLGA 111451Z 23012KT 10SM SCT250 08/02 A3033 RMK AO2\ SLP268 T00830022 51024 $= 201701111551 METAR KLGA 111551Z 23009KT 10SM SCT250 09/03 A3033 RMK AO2\ SLP269 T00940033 $= 201701111651 METAR KLGA 111651Z 22008KT 10SM FEW170 BKN240 09/03 A3031\ RMK AO2 SLP264 T00940028 $= 201701111751 METAR KLGA 111751Z 22007KT 10SM FEW170 OVC220 10/03 A3031\ RMK AO2 SLP263 T01000028 10106 20072\ 58006 $= 201701111851 METAR KLGA 111851Z 24007KT 10SM BKN190 OVC250 11/03 A3029\ RMK AO2 SLP257 T01060033 $= 201701111951 METAR KLGA 111951Z 22004KT 10SM BKN250 12/02 A3029 RMK AO2\ SLP257 T01170022 $= 201701112051 METAR KLGA 112051Z 18006KT 10SM BKN250 11/03 A3027 RMK AO2\ SLP251 T01110028 57011 $= 201701112151 METAR KLGA 112151Z 16008KT 10SM BKN250 10/03 A3028 RMK AO2\ SLP253 T01000033 $= 201701112251 METAR KLGA 112251Z 17007KT 10SM BKN250 08/04 A3029 RMK AO2\ SLP255 T00830044 $= 201701112351 METAR KLGA 112351Z 17007G15KT 10SM BKN250 09/06 A3028 RMK\ AO2 SLP253 T00890056 10122 20083\ 50002 $= 201701120051 METAR KLGA 120051Z 16005KT 10SM FEW085 OVC100 09/05 A3024\ RMK AO2 SLP240 T00890050 $= 201701120151 METAR KLGA 120151Z 17007KT 10SM OVC110 09/05 A3025 RMK AO2\ SLP242 T00890050 $= 201701120251 METAR KLGA 120251Z 18006KT 6SM -RA OVC070 09/06 A3025 RMK\ AO2 RAB00 SLP243 P0002 60002 T00890061\ 55010 $= 201701120351 METAR KLGA 120351Z 15010KT 4SM RA BR BKN040 BKN048 OVC065\ 08/06 A3020 RMK AO2 SLP226 P0009\ T00830061 $= 201701120451 METAR KLGA 120451Z 19009KT 3SM -RA BR OVC006 08/07 A3019\ RMK AO2 SFC VIS 5 SLP221 P0014 T00830067\ 401220067 $= 201701120551 METAR KLGA 120551Z 20008KT 6SM -RA BR OVC008 09/07 A3016\ RMK AO2 SLP213 P0004 60029 T00890072\ 10094 20083 56030 $= 201701120651 METAR KLGA 120651Z 21008KT 10SM OVC013 10/08 A3015 RMK AO2\ RAE08 SLP208 P0001 T01000078 $= 201701120751 METAR KLGA 120751Z 19007KT 10SM -RA BKN019 BKN065 OVC080\ 11/08 A3014 RMK AO2 RAB00E29B32 SLP205\ P0001 T01060083 $= 201701120851 METAR KLGA 120851Z 15004KT 9SM SCT019 BKN026 OVC100 09/08\ A3013 RMK AO2 RAE0755 CIG 019 R22\ SW SLP201 P0000 60002 T00940078 56012\ $= 201701120951 METAR KLGA 120951Z 20009KT 10SM OVC021 12/09 A3010 RMK AO2\ SLP191 T01220094 $= 201701121051 METAR KLGA 121051Z 17008KT 10SM -RA OVC016 10/08 A3008 RMK\ AO2 RAB47 SLP186 P0000 T01000078\ $= 201701121151 METAR KLGA 121151Z 15010KT 10SM OVC016 11/08 A3009 RMK AO2\ RAE1056 SLP188 P0000 60002 70031\ T01060083 10122 20094 55014 $= 201701121251 METAR KLGA 121251Z 17006KT 10SM BKN017 BKN100 OVC250 11/09\ A3008 RMK AO2 SLP187 T01110089 $= 201701121351 METAR KLGA 121351Z 19005KT 10SM SCT018 BKN100 OVC250 12/09\ A3009 RMK AO2 SLP187 T01220094 $= 201701121451 METAR KLGA 121451Z 22007G20KT 10SM FEW020 BKN100 OVC250 14/11\ A3008 RMK AO2 SLP184 T01440106 58003\ $= 201701121551 METAR KLGA 121551Z 22010G20KT 10SM FEW022 BKN095 OVC250 16/11\ A3005 RMK AO2 SLP176 T01560106 $= 201701121651 METAR KLGA 121651Z 22012KT 10SM FEW050 BKN120 OVC250 17/11\ A3003 RMK AO2 SLP167 T01670111 $= 201701121751 METAR KLGA 121751Z 22016G26KT 10SM FEW032 SCT080 SCT120 BKN250\ 18/11 A2999 RMK AO2 PK WND 22026/1749\ RAB39E48 SLP157 P0000 60000 T01780111\ 10178 20106 58028 $= 201701121851 METAR KLGA 121851Z 22012G20KT 10SM FEW038 BKN090 BKN130 BKN250\ 18/11 A2998 RMK AO2 PK WND 23031/1754\ SLP151 T01830111 $= 201701121951 METAR KLGA 121951Z 22017G24KT 10SM FEW038 BKN130 BKN250 19/11\ A2996 RMK AO2 SLP147 T01940106 $= 201701122051 METAR KLGA 122051Z 23016G24KT 10SM FEW040 FEW090 BKN150 BKN250\ 19/11 A2998 RMK AO2 PK WND 24029/2026\ SLP151 T01890106 55005 $= 201701122151 METAR KLGA 122151Z 23012G19KT 10SM -RA FEW040 FEW090 BKN250\ 19/11 A2998 RMK AO2 RAB50 SLP152\ P0000 T01890106 $= 201701122251 METAR KLGA 122251Z 19010KT 10SM FEW080 BKN150 BKN250 17/10\ A2999 RMK AO2 RAE2159 SLP155 P0000\ T01670100 $= 201701122351 METAR KLGA 122351Z 23010KT 10SM FEW080 BKN130 BKN250 18/11\ A3001 RMK AO2 SLP162 60000 T01830106\ 10200 20167 53011 $= 201701130051 METAR KLGA 130051Z 22013KT 10SM BKN095 BKN250 19/11 A3002\ RMK AO2 SLP167 T01890106 $= 201701130251 METAR KLGA 130251Z 23009KT 10SM FEW070 FEW090 18/11 A3005\ RMK AO2 SLP174 T01830106 51013 $= 201701130351 METAR KLGA 130351Z 23014G23KT 10SM BKN075 18/10 A3005 RMK\ AO2 SLP175 T01830100 $= 201701130451 METAR KLGA 130451Z 24011G20KT 10SM SCT080 BKN095 OVC200 17/11\ A3006 RMK AO2 RAB27E37 SLP178 P0000\ T01720106 402000089 $= 201701130551 METAR KLGA 130551Z 24013KT 10SM BKN110 BKN130 BKN200 17/11\ A3008 RMK AO2 RAB26E36 SLP185 P0000\ 60000 T01670111 10189 20167 53010\ $= 201701130651 METAR KLGA 130651Z 26013G19KT 10SM SCT090 BKN130 BKN250 17/11\ A3011 RMK AO2 SLP196 T01670111 $= 201701130751 METAR KLGA 130751Z 26013G18KT 10SM BKN150 BKN250 16/11 A3014\ RMK AO2 SLP206 T01610111 $= 201701130851 METAR KLGA 130851Z 25010KT 10SM FEW035 FEW100 BKN250 16/10\ A3015 RMK AO2 SLP208 T01560100 51023\ $= 201701130951 METAR KLGA 130951Z 28008KT 10SM FEW035 SCT250 14/09 A3019\ RMK AO2 SLP224 T01440089 $= 201701131051 METAR KLGA 131051Z 33012KT 10SM SCT031 SCT250 11/06 A3024\ RMK AO2 SLP239 T01110061 $= 201701131151 METAR KLGA 131151Z 33014KT 10SM FEW028 SCT250 10/04 A3029\ RMK AO2 SLP256 T01000044 10172 20100\ 53047 $= 201701131251 METAR KLGA 131251Z 31019G26KT 10SM FEW028 SCT250 09/02 A3033\ RMK AO2 PK WND 31026/1251 SLP269\ T00890017 $= 201701131351 METAR KLGA 131351Z 31018G26KT 10SM FEW030 SCT250 08/M01 A3037\ RMK AO2 PK WND 31029/1341 SLP284\ T00831006 $= 201701131451 METAR KLGA 131451Z 32022G27KT 10SM FEW030 SCT250 08/M03 A3040\ RMK AO2 PK WND 32028/1436 SLP294\ T00781028 51039 $= 201701131551 METAR KLGA 131551Z 32018KT 10SM FEW030 SCT250 08/M03 A3041\ RMK AO2 PK WND 33033/1452 SLP297\ T00781033 $= 201701131651 METAR KLGA 131651Z 32015G22KT 10SM FEW050 BKN250 08/M03 A3041\ RMK AO2 SLP298 T00831033 $= 201701131751 METAR KLGA 131751Z 33019G26KT 10SM FEW050 BKN250 08/M03 A3042\ RMK AO2 PK WND 33029/1701 SLP300\ T00831033 10100 20078 51006 $= 201701131851 METAR KLGA 131851Z 33020G25KT 10SM FEW070 BKN250 08/M06 A3045\ RMK AO2 PK WND 32030/1819 SLP309\ T00781061 $= 201701131951 METAR KLGA 131951Z 32014G22KT 10SM FEW070 BKN250 07/M07 A3047\ RMK AO2 PK WND 33027/1852 SLP317\ T00721072 $= 201701132051 METAR KLGA 132051Z 33015G26KT 10SM FEW070 SCT200 BKN250 06/M08\ A3050 RMK AO2 PK WND 33026/2044 SLP329\ T00611083 53029 $= 201701132151 METAR KLGA 132151Z 33016KT 10SM FEW180 BKN250 05/M09 A3054\ RMK AO2 PK WND 33026/2132 SLP341\ T00501089 $= 201701132251 METAR KLGA 132251Z 31016KT 10SM FEW180 BKN250 04/M08 A3058\ RMK AO2 SLP355 T00441078 $= 201701132351 METAR KLGA 132351Z 34010KT 10SM FEW180 BKN250 03/M09 A3060\ RMK AO2 SLP362 T00331089 10083 20033\ 51033 $= 201701140051 METAR KLGA 140051Z 35011KT 10SM FEW180 BKN250 03/M08 A3063\ RMK AO2 SLP371 T00281083 $= 201701140151 METAR KLGA 140151Z 33016G22KT 10SM FEW180 BKN250 03/M09 A3066\ RMK AO2 SLP380 T00281089 $= 201701140251 METAR KLGA 140251Z 34011KT 10SM FEW130 BKN250 02/M09 A3068\ RMK AO2 SLP388 T00171094 51026 $= 201701140351 METAR KLGA 140351Z 34008KT 10SM OVC200 01/M09 A3068 RMK AO2\ SLP388 T00111094 $= 201701140451 METAR KLGA 140451Z 01007KT 10SM OVC150 01/M09 A3069 RMK AO2\ SLP392 T00111094 401720011 $= 201701140551 METAR KLGA 140551Z 04010KT 10SM BKN150 OVC250 01/M09 A3069\ RMK AO2 SLP392 T00061094 10033 20006\ 50004 $= 201701140651 METAR KLGA 140651Z 04010KT 10SM BKN120 OVC140 00/M10 A3070\ RMK AO2 SLP396 T00001100 $= 201701140751 METAR KLGA 140751Z 04010KT 10SM OVC150 00/M10 A3071 RMK AO2\ SLP398 T00001100 $= 201701140851 METAR KLGA 140851Z 05010KT 10SM OVC200 M01/M09 A3070 RMK\ AO2 SLP396 T10061094 50005 $= 201701140951 METAR KLGA 140951Z 04008KT 10SM FEW150 OVC200 M01/M10 A3070\ RMK AO2 SLP395 T10111100 $= 201701141051 METAR KLGA 141051Z 03007KT 10SM OVC250 M02/M10 A3069 RMK\ AO2 SLP392 T10171100 $= 201701141151 METAR KLGA 141151Z 04007KT 10SM SCT180 BKN250 M02/M10 A3069\ RMK AO2 SLP391 T10171100 10006 21017\ 56006 $= 201701141251 METAR KLGA 141251Z 03006KT 10SM SCT160 BKN250 M02/M10 A3069\ RMK AO2 SLP391 T10171100 $= 201701141351 METAR KLGA 141351Z 03007KT 10SM SCT170 BKN250 M01/M10 A3069\ RMK AO2 SLP390 T10111100 $= 201701141451 METAR KLGA 141451Z 05008KT 10SM SCT180 BKN250 M01/M09 A3068\ RMK AO2 SLP389 T10111094 58002 $= 201701141551 METAR KLGA 141551Z 04006KT 10SM SCT180 BKN250 00/M09 A3065\ RMK AO2 PRESFR SLP379 T00001089 $= 201701141651 METAR KLGA 141651Z 05008KT 10SM BKN150 BKN250 00/M09 A3060\ RMK AO2 SLP361 T00001094 $= 201701141751 METAR KLGA 141751Z 04005KT 10SM BKN100 BKN150 OVC250 00/M09\ A3057 RMK AO2 SLP351 T00001089 10006\ 21017 57038 $= 201701141851 METAR KLGA 141851Z 07005KT 10SM BKN070 OVC150 01/M09 A3054\ RMK AO2 SLP341 T00061089 $= 201701141951 METAR KLGA 141951Z 20007KT 1 3/4SM -SN OVC025 00/M06 A3052\ RMK AO2 SNB40 SLP333 P0000 T00001061\ $= 201701142051 METAR KLGA 142051Z 17006KT 1/2SM SN VV015 M02/M04 A3050 RMK\ AO2 SLP327 P0002 60002 T10171044\ 56024 RVRNO $= 201701142151 METAR KLGA 142151Z 16004KT 3/4SM -SN BR FEW006 OVC018 M01/M03\ A3047 RMK AO2 SFC VIS 1 SLP316 P0003\ T10111033 RVRNO $= 201701142251 METAR KLGA 142251Z 22004KT 3/4SM -SN BR BKN009 BKN032 OVC042\ M01/M03 A3045 RMK AO2 SFC VIS 4 SLP309\ P0002 T10061028 $= 201701142351 METAR KLGA 142351Z 18003KT 1 1/2SM -SN BR OVC024 00/M02 A3042\ RMK AO2 SFC VIS 2 1/2 SLP301 931006\ 4/001 P0001 60008 T00001017 10006\ 21017 56026 $= 201701150051 METAR KLGA 150051Z 20004KT 7SM BKN020 BKN032 OVC048 00/M02\ A3040 RMK AO2 SNE21 SLP293 P0001\ T00001022 $= 201701150151 METAR KLGA 150151Z 22004KT 5SM BR FEW019 OVC037 01/M02 A3038\ RMK AO2 CIG 022 R22 SW SLP286 T00061017\ $= 201701150251 METAR KLGA 150251Z 32003KT 1SM -SN BR BKN007 OVC023 01/M01\ A3036 RMK AO2 SFC VIS 1 1/2 SNB09\ SLP280 P0000 60001 T00061011 58012\ $= 201701150351 METAR KLGA 150351Z 00000KT 2 1/2SM -SN BR BKN007 OVC015 01/M01\ A3034 RMK AO2 SFC VIS 6 SLP272 P0001\ T00061011 $= 201701150451 METAR KLGA 150451Z 27007KT 10SM OVC012 01/M02 A3031 RMK AO2\ SNE08 SLP264 P0000 T00111017 400111017\ $= 201701150551 METAR KLGA 150551Z 28007KT 10SM SCT016 OVC023 01/M02 A3030\ RMK AO2 CIG 016 R22 SW SLP258 931000\ 4/001 60002 T00111022 10011 21006\ 56022 $= 201701150651 METAR KLGA 150651Z 27007KT 10SM SCT019 BKN055 BKN080 01/M03\ A3028 RMK AO2 SLP254 T00111028 $= 201701150751 METAR KLGA 150751Z 30008KT 10SM FEW019 SCT060 BKN080 01/M03\ A3027 RMK AO2 SLP251 T00111028 $= 201701150851 METAR KLGA 150851Z 30011KT 10SM FEW019 SCT060 BKN090 01/M03\ A3027 RMK AO2 SLP250 T00061033 56008\ $= 201701150951 METAR KLGA 150951Z 31009KT 10SM FEW019 SCT065 SCT090 01/M04\ A3028 RMK AO2 SLP253 T00061039 $= 201701151051 METAR KLGA 151051Z 32009KT 10SM CLR 01/M04 A3029 RMK AO2\ SLP255 T00061044 $= 201701151151 METAR KLGA 151151Z 32009KT 10SM FEW075 01/M05 A3032 RMK AO2\ SLP266 4/001 70010 T00061050 10011\ 20006 53015 $= 201701151251 METAR KLGA 151251Z 33012KT 10SM FEW022 FEW075 01/M06 A3034\ RMK AO2 SLP274 T00061056 $= 201701151351 METAR KLGA 151351Z 33010KT 10SM FEW029 FEW075 01/M06 A3037\ RMK AO2 SLP282 T00111061 $= 201701151451 METAR KLGA 151451Z 32008KT 10SM FEW075 FEW200 02/M06 A3038\ RMK AO2 SLP285 T00171056 51020 $= 201701151551 METAR KLGA 151551Z 32006KT 10SM FEW033 FEW200 SCT250 02/M06\ A3037 RMK AO2 SLP283 T00221056 $= 201701151651 METAR KLGA 151651Z 31006KT 10SM FEW034 FEW200 SCT250 03/M06\ A3035 RMK AO2 SLP277 T00281061 $= 201701151751 METAR KLGA 151751Z 31007KT 10SM FEW038 FEW200 SCT250 04/M06\ A3033 RMK AO2 SLP270 T00391061 10039\ 20006 58015 $= 201701151851 METAR KLGA 151851Z 32007KT 10SM FEW042 SCT200 SCT250 04/M06\ A3032 RMK AO2 SLP266 T00441056 $= 201701151951 METAR KLGA 151951Z 32009KT 10SM FEW040 SCT250 04/M06 A3032\ RMK AO2 SLP267 T00441056 $= 201701152051 METAR KLGA 152051Z 33006KT 10SM FEW050 BKN250 05/M06 A3033\ RMK AO2 SLP269 T00501056 55001 $= 201701152151 METAR KLGA 152151Z 31008KT 10SM BKN250 04/M06 A3034 RMK AO2\ SLP273 T00391056 $= 201701152251 METAR KLGA 152251Z 31010KT 10SM SCT250 04/M06 A3037 RMK AO2\ SLP282 T00391056 $= 201701152351 METAR KLGA 152351Z 33008KT 10SM SCT250 03/M06 A3038 RMK AO2\ SLP286 T00331061 10050 20033 52016\ $= 201701160051 METAR KLGA 160051Z 34007KT 10SM SCT250 03/M06 A3037 RMK AO2\ SLP285 T00281061 $= 201701160151 METAR KLGA 160151Z 32007KT 10SM FEW250 02/M06 A3041 RMK AO2\ SLP296 T00221061 $= 201701160251 METAR KLGA 160251Z 32004KT 10SM FEW250 02/M06 A3041 RMK AO2\ SLP296 T00171061 53010 $= 201701160351 METAR KLGA 160351Z 35005KT 10SM CLR 02/M07 A3041 RMK AO2\ SLP298 T00171067 $= 201701160451 METAR KLGA 160451Z 34005KT 10SM CLR 01/M07 A3042 RMK AO2\ SLP299 T00111067 400500006 $= 201701160551 METAR KLGA 160551Z 36003KT 10SM CLR 01/M06 A3042 RMK AO2\ SLP301 T00111061 10033 20011 51005\ $= 201701160651 METAR KLGA 160651Z 01005KT 10SM CLR 01/M06 A3044 RMK AO2\ SLP307 T00111061 $= 201701160751 METAR KLGA 160751Z 36005KT 10SM CLR 01/M07 A3045 RMK AO2\ SLP311 T00061072 $= 201701160851 METAR KLGA 160851Z 04004KT 10SM CLR 00/M08 A3045 RMK AO2\ SLP310 T00001078 50009 $= 201701160951 METAR KLGA 160951Z 02003KT 10SM CLR 00/M08 A3044 RMK AO2\ SLP307 T00001078 $= 201701161051 METAR KLGA 161051Z 01004KT 10SM CLR 00/M08 A3045 RMK AO2\ SLP309 T00001078 $= 201701161151 METAR KLGA 161151Z 00000KT 10SM CLR 00/M08 A3046 RMK AO2\ SLP312 T00001078 10011 21006 53002\ $= 201701161251 METAR KLGA 161251Z 00000KT 10SM FEW250 00/M08 A3046 RMK AO2\ SLP312 T00001078 $= 201701161351 METAR KLGA 161351Z 02003KT 10SM SCT250 01/M07 A3047 RMK AO2\ SLP318 T00111072 $= 201701161451 METAR KLGA 161451Z 05004KT 10SM SCT250 02/M07 A3047 RMK AO2\ SLP318 T00221067 53006 $= 201701161551 METAR KLGA 161551Z 00000KT 10SM BKN250 03/M06 A3046 RMK AO2\ SLP314 T00331061 $= 201701161651 METAR KLGA 161651Z 00000KT 10SM SCT250 05/M06 A3043 RMK AO2\ SLP305 T00501061 $= 201701161751 METAR KLGA 161751Z 21007KT 10SM BKN250 06/M06 A3039 RMK AO2\ SLP291 T00561061 10056 21006 58027\ $= 201701161851 METAR KLGA 161851Z 23006KT 10SM BKN250 06/M06 A3037 RMK AO2\ SLP282 T00611056 $= 201701161951 METAR KLGA 161951Z 22005KT 10SM BKN250 07/M06 A3035 RMK AO2\ SLP278 T00671061 $= 201701162051 METAR KLGA 162051Z 21010KT 10SM FEW090 BKN250 07/M06 A3035\ RMK AO2 SLP277 T00671061 56014 $= 201701162151 METAR KLGA 162151Z 21009KT 10SM FEW090 SCT140 BKN250 06/M05\ A3034 RMK AO2 SLP274 T00611050 $= 201701162251 METAR KLGA 162251Z 23010KT 10SM FEW130 SCT180 BKN250 06/M04\ A3035 RMK AO2 SLP275 T00611044 $= 201701162351 METAR KLGA 162351Z 22006KT 10SM FEW120 BKN150 BKN180 BKN250\ 06/M04 A3034 RMK AO2 SLP272 T00611039\ 10067 20050 58005 $= 201701170051 METAR KLGA 170051Z 22008KT 10SM BKN100 BKN150 BKN200 06/M04\ A3033 RMK AO2 SLP272 T00561039 $= 201701170151 METAR KLGA 170151Z 21008KT 10SM FEW025 BKN090 OVC140 06/M04\ A3033 RMK AO2 SLP269 T00611044 $= 201701170251 METAR KLGA 170251Z 22008KT 10SM FEW025 BKN085 06/M04 A3032\ RMK AO2 SLP266 T00611044 58006 $= 201701170351 METAR KLGA 170351Z 22006KT 10SM OVC085 06/M04 A3031 RMK AO2\ SLP262 T00611044 $= 201701170451 METAR KLGA 170451Z 21009KT 10SM BKN080 OVC090 06/M04 A3028\ RMK AO2 SLP254 T00561039 400671006\ $= 201701170551 METAR KLGA 170551Z 22009KT 10SM OVC065 06/M04 A3027 RMK AO2\ SLP250 T00561039 10061 20056 58017\ $= 201701170651 METAR KLGA 170651Z 22006KT 10SM OVC060 06/M03 A3026 RMK AO2\ SLP246 T00561033 $= 201701170751 METAR KLGA 170751Z 22006KT 10SM OVC060 06/M03 A3025 RMK AO2\ SLP244 T00561028 $= 201701170851 METAR KLGA 170851Z 22005KT 10SM SCT045 OVC055 05/M03 A3023\ RMK AO2 SLP236 T00501028 58013 $= 201701170951 METAR KLGA 170951Z 25007KT 10SM OVC050 06/M02 A3022 RMK AO2\ SLP232 T00561022 $= 201701171051 METAR KLGA 171051Z 00000KT 10SM SCT034 SCT090 OVC180 06/M02\ A3022 RMK AO2 SLP232 T00561022 $= 201701171151 METAR KLGA 171151Z 26004KT 9SM BKN085 BKN250 06/M02 A3022\ RMK AO2 SLP232 T00561017 10061 20050\ 55004 $= 201701171251 METAR KLGA 171251Z 22004KT 8SM BKN024 BKN044 BKN100 OVC250\ 06/M01 A3022 RMK AO2 SLP232 T00561011\ $= 201701171351 METAR KLGA 171351Z 00000KT 8SM FEW026 FEW031 OVC040 06/M01\ A3023 RMK AO2 SLP235 T00611011 $= 201701171451 METAR KLGA 171451Z VRB04KT 6SM -RA OVC030 06/M01 A3023 RMK\ AO2 RAB32 SLP236 P0000 60000 T00611011\ 53004 $= 201701171551 METAR KLGA 171551Z 07007KT 5SM -RA OVC033 06/00 A3021 RMK\ AO2 SLP229 P0001 T00560000 $= 201701171651 METAR KLGA 171651Z 11005KT 3SM -RA OVC024 05/02 A3018 RMK\ AO2 SLP218 P0004 T00500017 $= 201701171751 METAR KLGA 171751Z 14006KT 2 1/2SM RA BR FEW008 BKN010 OVC023\ 04/02 A3015 RMK AO2 SFC VIS 3 SLP210\ P0005 60010 T00440022 10061 20044\ 58026 $= 201701171851 METAR KLGA 171851Z 07006KT 2 1/2SM -RA BR OVC009 04/02 A3013\ RMK AO2 SFC VIS 3 SLP202 P0003 T00440022\ $= 201701171951 METAR KLGA 171951Z 09008KT 2 1/2SM -RA BKN006 BKN015 OVC020\ 04/02 A3011 RMK AO2 SFC VIS 3 RAE1855B29\ PRESFR SLP196 P0001 T00440017 $= 201701172051 METAR KLGA 172051Z 08006KT 2 1/2SM HZ FEW011 OVC018 05/02\ A3010 RMK AO2 SFC VIS 4 RAE05B07E39\ SLP192 P0000 60004 T00500022 56018\ $= 201701172151 METAR KLGA 172151Z 05009KT 2 1/2SM BR OVC010 04/03 A3009\ RMK AO2 SFC VIS 4 RAB18E32 SLP189\ P0000 T00440028 $= 201701172251 METAR KLGA 172251Z 05007KT 2 1/2SM -RA BR OVC010 04/03 A3009\ RMK AO2 SFC VIS 3 RAB33 SLP188 P0004\ T00440028 $= 201701172351 METAR KLGA 172351Z 06008KT 2 1/2SM -RA BR OVC006 04/03 A3006\ RMK AO2 SFC VIS 4 SLP179 P0004 60012\ T00440028 10061 20044 58013 $= 201701180051 METAR KLGA 180051Z 06007KT 2 1/2SM -RA BR OVC005 04/03 A3005\ RMK AO2 SFC VIS 3 SLP174 P0006 T00440028\ $= 201701180151 METAR KLGA 180151Z 05010KT 2SM -RA BR OVC004 04/03 A3002\ RMK AO2 SFC VIS 4 SLP166 P0004 T00440028\ $= 201701180251 METAR KLGA 180251Z 05010KT 4SM BR OVC007 04/03 A3001 RMK\ AO2 RAE36 SLP163 P0002 60012 T00390028\ 56011 $= 201701180351 METAR KLGA 180351Z 05012KT 2SM BR BKN003 OVC005 04/03 A2998\ RMK AO2 SFC VIS 2 1/2 RAB10E26 SLP151\ P0000 T00390028 $= 201701180451 METAR KLGA 180451Z 03011KT 2SM -DZ BR OVC003 04/03 A2997\ RMK AO2 DZB0352 SLP147 P0001 T00390028\ 400610039 $= 201701180551 METAR KLGA 180551Z 06015KT 3SM -DZ BR OVC003 04/03 A2992\ RMK AO2 SLP131 P0003 60016 T00390028\ 10050 20039 58032 $= 201701180651 METAR KLGA 180651Z 05012KT 3SM -DZ BR OVC003 04/03 A2991\ RMK AO2 SFC VIS 4 SLP128 P0000 T00440033\ $= 201701180751 METAR KLGA 180751Z 04012KT 3SM -RA BR OVC003 04/03 A2990\ RMK AO2 SFC VIS 4 DZE43RAB43 SLP125\ P0001 T00440033 $= 201701180851 METAR KLGA 180851Z 04010KT 3SM +RA BR OVC005 05/04 A2991\ RMK AO2 RAE33B46 SLP128 P0005 60006\ T00500039 55003 $= 201701180951 METAR KLGA 180951Z 06013KT 10SM OVC006 05/04 A2987 RMK AO2\ RAE41 SLP113 P0004 T00500039 $= 201701181051 METAR KLGA 181051Z 02012KT 10SM OVC005 05/04 A2990 RMK AO2\ SLP126 T00500039 $= 201701181151 METAR KLGA 181151Z 04011KT 10SM OVC006 06/04 A2991 RMK AO2\ SLP127 60010 70048 T00560039 10056\ 20039 55001 $= 201701181251 METAR KLGA 181251Z 03009KT 6SM BR OVC006 05/03 A2992 RMK\ AO2 SLP130 T00500033 $= 201701181351 METAR KLGA 181351Z 04011KT 7SM OVC007 06/03 A2993 RMK AO2\ SLP135 T00560033 $= 201701181451 METAR KLGA 181451Z 04012KT 5SM -DZ BR OVC008 06/03 A2994\ RMK AO2 DZB50 SLP137 P0000 60000\ T00560033 51009 $= 201701181551 METAR KLGA 181551Z 04009KT 10SM OVC008 06/03 A2993 RMK AO2\ DZE31 SLP135 P0000 T00560028 $= 201701181651 METAR KLGA 181651Z 04012KT 10SM OVC011 07/03 A2990 RMK AO2\ SLP125 T00670028 $= 201701181751 METAR KLGA 181751Z 04012KT 10SM OVC011 07/03 A2991 RMK AO2\ SLP129 60000 T00670033 10067 20050\ 55008 $= 201701181851 METAR KLGA 181851Z 35007KT 10SM OVC012 07/03 A2994 RMK AO2\ SLP138 T00670033 $= 201701181951 METAR KLGA 181951Z 35008KT 10SM OVC012 06/03 A2996 RMK AO2\ SLP143 T00560028 $= 201701182051 METAR KLGA 182051Z 02006KT 10SM OVC014 06/03 A2995 RMK AO2\ SLP141 T00560028 50013 $= 201701182151 METAR KLGA 182151Z 35008KT 10SM OVC013 06/03 A2999 RMK AO2\ SLP155 T00560028 $= 201701182251 METAR KLGA 182251Z 35007KT 10SM OVC014 06/03 A3002 RMK AO2\ SLP164 T00610028 $= 201701182351 METAR KLGA 182351Z 34008KT 9SM OVC012 06/03 A3004 RMK AO2\ SLP170 T00560028 10072 20056 51029\ $= 201701190051 METAR KLGA 190051Z 01006KT 10SM OVC012 06/03 A3003 RMK AO2\ SLP169 T00560028 $= 201701190151 METAR KLGA 190151Z 01003KT 10SM OVC014 06/03 A3003 RMK AO2\ SLP168 T00560028 $= 201701190251 METAR KLGA 190251Z 34007KT 10SM OVC017 06/02 A3002 RMK AO2\ SLP167 T00560022 58004 $= 201701190351 METAR KLGA 190351Z 34006KT 10SM BKN018 OVC065 06/02 A3002\ RMK AO2 SLP167 T00560022 $= 201701190451 METAR KLGA 190451Z 34003KT 10SM FEW018 FEW036 BKN070 05/02\ A3001 RMK AO2 SLP162 T00500017 400720039\ $= 201701190551 METAR KLGA 190551Z 34004KT 10SM FEW015 BKN065 05/02 A3002\ RMK AO2 SLP164 T00500022 10061 20050\ 55003 $= 201701190651 METAR KLGA 190651Z 00000KT 10SM FEW031 OVC060 06/02 A3003\ RMK AO2 SLP167 T00560022 $= 201701190751 METAR KLGA 190751Z 32003KT 10SM BKN060 06/02 A3002 RMK AO2\ SLP167 T00560022 $= 201701190851 METAR KLGA 190851Z 33005KT 10SM BKN029 OVC060 06/02 A3003\ RMK AO2 SLP168 T00560022 51005 $= 201701190951 METAR KLGA 190951Z 00000KT 10SM FEW025 BKN048 OVC060 06/02\ A3002 RMK AO2 SLP164 T00560017 $= 201701191051 METAR KLGA 191051Z 00000KT 10SM FEW021 SCT050 07/02 A3002\ RMK AO2 SLP164 T00670022 $= 201701191151 METAR KLGA 191151Z 31005KT 10SM FEW025 SCT045 06/02 A3003\ RMK AO2 SLP167 T00610022 10067 20050\ 55002 $= 201701191251 METAR KLGA 191251Z 33005KT 10SM FEW025 SCT050 06/02 A3004\ RMK AO2 SLP172 T00610022 $= 201701191351 METAR KLGA 191351Z 30007KT 10SM SCT023 SCT050 07/02 A3005\ RMK AO2 SLP176 T00670022= 201701191451 METAR KLGA 191451Z 31009KT 10SM FEW021 SCT050 SCT250 07/02\ A3006 RMK AO2 SLP177 T00720022 51010\ $= 201701191551 METAR KLGA 191551Z 31006KT 10SM FEW021 FEW050 SCT250 09/02\ A3004 RMK AO2 SLP170 T00890022 $= 201701191651 METAR KLGA 191651Z 32008KT 10SM FEW025 FEW050 SCT250 09/02\ A3001 RMK AO2 SLP160 T00940017 $= 201701191751 METAR KLGA 191751Z 31011KT 10SM SCT033 SCT250 10/02 A2999\ RMK AO2 SLP153 T01000017 10100 20061\ 56024 $= 201701191851 METAR KLGA 191851Z 30012KT 10SM BKN031 BKN250 08/02 A2999\ RMK AO2 SLP154 T00830017 $= 201701191951 METAR KLGA 191951Z 30011KT 10SM OVC028 08/01 A2999 RMK AO2\ SLP156 T00780011 $= 201701192051 METAR KLGA 192051Z 32008KT 10SM BKN028 08/01 A2999 RMK AO2\ SLP154 T00780006 50000 $= 201701192151 METAR KLGA 192151Z 32011KT 10SM BKN028 07/01 A3000 RMK AO2\ SLP158 T00720011 $= 201701192251 METAR KLGA 192251Z 31009KT 10SM BKN031 BKN250 07/01 A3001\ RMK AO2 SLP161 T00720006 $= 201701192351 METAR KLGA 192351Z 31010KT 10SM BKN033 BKN250 07/01 A3004\ RMK AO2 SLP171 T00720006 10100 20072\ 53017 $= 201701200051 METAR KLGA 200051Z 31008KT 10SM BKN033 BKN250 07/00 A3004\ RMK AO2 SLP173 T00670000 $= 201701200151 METAR KLGA 200151Z 33006KT 10SM BKN032 BKN250 07/01 A3003\ RMK AO2 SLP169 T00670006 $= 201701200251 METAR KLGA 200251Z 35007KT 10SM BKN031 BKN250 07/01 A3001\ RMK AO2 SLP161 T00670006 58010 $= 201701200351 METAR KLGA 200351Z 01004KT 10SM OVC028 07/01 A3002 RMK AO2\ SLP164 T00670006 $= 201701200451 METAR KLGA 200451Z 07007KT 10SM OVC028 06/01 A3002 RMK AO2\ SLP164 T00610011 401000050 $= 201701200551 METAR KLGA 200551Z 08007KT 10SM OVC028 06/00 A3004 RMK AO2\ SLP170 T00610000 10072 20061 53010\ $= 201701200651 METAR KLGA 200651Z 07010KT 10SM OVC027 06/00 A3003 RMK AO2\ SLP170 T00560000 $= 201701200751 METAR KLGA 200751Z 06005KT 10SM OVC027 06/00 A3003 RMK AO2\ SLP169 T00560000 $= 201701200851 METAR KLGA 200851Z 05008KT 10SM OVC029 05/M01 A3002 RMK AO2\ SLP166 T00501006 58004 $= 201701200951 METAR KLGA 200951Z 05005KT 10SM OVC029 05/M01 A3001 RMK AO2\ SLP163 T00501006 $= 201701201051 METAR KLGA 201051Z 06005KT 10SM OVC029 05/M01 A3001 RMK AO2\ SLP161 T00501006 $= 201701201151 METAR KLGA 201151Z 05007KT 10SM OVC029 05/M01 A3000 RMK AO2\ SLP159 T00501006 10061 20050 56007\ $= 201701201251 METAR KLGA 201251Z 06006KT 10SM OVC028 05/M01 A3001 RMK AO2\ SLP162 T00501006 $= 201701201351 METAR KLGA 201351Z 05007KT 10SM OVC028 06/00 A3001 RMK AO2\ SLP161 T00560000 $= 201701201451 METAR KLGA 201451Z 05007KT 10SM OVC028 06/00 A3002 RMK AO2\ SLP165 T00560000 53005 $= 201701201551 METAR KLGA 201551Z 04005KT 10SM OVC028 06/00 A3003 RMK AO2\ SLP169 T00610000 $= 201701201651 METAR KLGA 201651Z 05009KT 10SM OVC026 07/01 A2999 RMK AO2\ SLP153 T00670011 $= 201701201751 METAR KLGA 201751Z 06008KT 10SM OVC028 07/01 A2996 RMK AO2\ SLP146 T00670011 10072 20050 58018\ $= 201701201851 METAR KLGA 201851Z 22004KT 10SM SCT028 OVC160 08/01 A2993\ RMK AO2 SLP135 T00780011 $= 201701201951 METAR KLGA 201951Z 05006KT 10SM FEW028 SCT085 OVC160 07/01\ A2993 RMK AO2 SLP135 T00670011 $= 201701202051 METAR KLGA 202051Z 20005KT 10SM -RA BKN042 OVC060 07/02 A2994\ RMK AO2 RAB45 SLP137 P0000 60000\ T00720017 55009 $= 201701202151 METAR KLGA 202151Z VRB05KT 5SM -RA BKN035 BKN050 OVC075 07/03\ A2993 RMK AO2 SLP134 P0002 T00720028\ $= 201701202251 METAR KLGA 202251Z VRB05KT 7SM -RA BKN015 OVC032 06/02 A2994\ RMK AO2 SLP136 P0003 T00610022 $= 201701202351 METAR KLGA 202351Z 13006KT 5SM -RA BKN015 OVC030 06/03 A2993\ RMK AO2 SLP135 P0001 60006 T00560028\ 10078 20056 56002 $= 201701210051 METAR KLGA 210051Z 14005KT 8SM BKN015 BKN030 OVC042 06/03\ A2993 RMK AO2 RAE08 SLP133 P0000\ T00610028 $= 201701210151 METAR KLGA 210151Z 14006KT 8SM SCT015 OVC024 06/03 A2993\ RMK AO2 SLP135 T00610028 $= 201701210251 METAR KLGA 210251Z 13006KT 3SM -RA BR FEW011 BKN020 OVC026\ 06/04 A2992 RMK AO2 SFC VIS 4 RAB44\ SLP132 P0000 60000 T00610039 58003\ $= 201701210351 METAR KLGA 210351Z 06005KT 2SM BR FEW005 OVC009 06/04 A2992\ RMK AO2 SFC VIS 2 1/2 RAE18 SLP132\ P0001 T00560039 $= 201701210451 METAR KLGA 210451Z 00000KT 2SM BR OVC006 05/04 A2992 RMK\ AO2 SFC VIS 3 SLP131 T00500044 400780050\ $= 201701210551 METAR KLGA 210551Z 21006KT 2SM SCT007 OVC012 07/04 A2992\ RMK AO2 SFC VIS 7 SLP130 60001 T00670044\ 10067 20050 57002 $= 201701210651 METAR KLGA 210651Z 23009KT 8SM FEW009 OVC012 07/04 A2992\ RMK AO2 SLP131 T00670039 $= 201701210751 METAR KLGA 210751Z 22007KT 5SM BR OVC012 07/04 A2991 RMK\ AO2 SLP126 T00720044 $= 201701210851 METAR KLGA 210851Z 23007KT 5SM BR OVC011 07/05 A2990 RMK\ AO2 SLP123 T00720050 58007 $= 201701210951 METAR KLGA 210951Z 26007KT 9SM OVC011 08/05 A2989 RMK AO2\ SLP121 T00780050 $= 201701211051 METAR KLGA 211051Z 23005KT 8SM OVC012 07/05 A2988 RMK AO2\ SLP117 T00720050 $= 201701211151 METAR KLGA 211151Z 25003KT 7SM BKN013 BKN085 07/05 A2988\ RMK AO2 SLP119 70007 T00720050 10078\ 20067 55004 $= 201701211251 METAR KLGA 211251Z 23007KT 6SM BR BKN013 BKN080 07/05 A2988\ RMK AO2 SLP118 T00720050 $= 201701211351 METAR KLGA 211351Z 24004KT 8SM SCT013 BKN075 BKN250 08/06\ A2988 RMK AO2 SLP117 T00780056 $= 201701211451 METAR KLGA 211451Z 22007KT 7SM SCT011 SCT070 BKN250 09/06\ A2989 RMK AO2 SLP120 T00890056 53001\ $= 201701211551 METAR KLGA 211551Z 31006KT 6SM HZ BKN011 BKN070 BKN250 08/05\ A2987 RMK AO2 SLP114 T00830050 $= 201701211651 METAR KLGA 211651Z 28008KT 7SM FEW009 BKN012 09/06 A2986\ RMK AO2 SLP112 T00890056 $= 201701211751 METAR KLGA 211751Z 33006KT 7SM BKN009 BKN012 BKN070 BKN250\ 09/06 A2983 RMK AO2 SLP099 BKN009\ V SCT T00890056 10094 20072 58021\ $= 201701211851 METAR KLGA 211851Z VRB05KT 7SM FEW009 FEW070 SCT250 11/07\ A2980 RMK AO2 SLP092 T01060067 $= 201701211951 METAR KLGA 211951Z 23007KT 7SM FEW009 FEW070 SCT250 10/06\ A2981 RMK AO2 SLP093 T01000061 $= 201701212051 METAR KLGA 212051Z 21006KT 6SM HZ FEW009 SCT050 BKN250 09/06\ A2981 RMK AO2 SLP095 T00940061 55005\ $= 201701212151 METAR KLGA 212151Z 22009KT 6SM HZ FEW009 SCT050 SCT250 09/06\ A2981 RMK AO2 SLP094 T00940061 $= 201701212251 METAR KLGA 212251Z 23007KT 7SM FEW007 SCT050 SCT250 09/06\ A2981 RMK AO2 SLP093 T00890061 $= 201701212351 METAR KLGA 212351Z 22004KT 6SM BR SCT007 BKN250 09/07 A2981\ RMK AO2 SLP095 T00890067 10106 20089\ 53000 $= 201701220051 METAR KLGA 220051Z 22006KT 5SM BR OVC006 09/07 A2982 RMK\ AO2 SLP097 T00890067 $= 201701220151 METAR KLGA 220151Z 00000KT 3SM BR OVC006 09/07 A2980 RMK\ AO2 SLP090 T00890072 $= 201701220251 METAR KLGA 220251Z 24004KT 2SM BR OVC006 09/07 A2980 RMK\ AO2 SLP090 T00890067 58005 $= 201701220351 METAR KLGA 220351Z 22007KT 1SM BR OVC003 08/07 A2980 RMK\ AO2 SFC VIS 2 SLP092 T00830067 $= 201701220451 METAR KLGA 220451Z 19004KT 1SM BR OVC002 08/07 A2978 RMK\ AO2 SFC VIS 1 1/2 SLP084 T00780072\ 401060050 $= 201701220551 METAR KLGA 220551Z 00000KT 1SM BR OVC002 08/07 A2977 RMK\ AO2 SFC VIS 1 1/2 SLP080 T00830067\ 10089 20078 58010 $= 201701220651 METAR KLGA 220651Z 19004KT 1SM BR OVC004 08/07 A2975 RMK\ AO2 SFC VIS 4 SLP073 T00830072 $= 201701220751 METAR KLGA 220751Z 20008KT 1SM BR OVC004 08/07 A2976 RMK\ AO2 SFC VIS 3 SLP077 T00780067 $= 201701220851 METAR KLGA 220851Z 05003KT 1SM BR OVC003 08/06 A2972 RMK\ AO2 SFC VIS 3 SLP062 T00780061 58018\ $= 201701220951 METAR KLGA 220951Z 00000KT 1SM BR OVC003 08/07 A2972 RMK\ AO2 SFC VIS 2 SLP065 T00780067 $= 201701221051 METAR KLGA 221051Z 03005KT 1 1/2SM BR OVC006 08/06 A2973\ RMK AO2 SFC VIS 2 1/2 SLP067 T00780061\ $= 201701221151 METAR KLGA 221151Z 06004KT 1 1/2SM BR OVC005 08/07 A2974\ RMK AO2 SLP071 T00780067 10083 20072\ 53009 $= 201701221251 METAR KLGA 221251Z 05006KT 0SM FG VV003 07/07 A2973 RMK AO2\ SFC VIS 1/4 SLP068 T00720067 RVRNO\ $= 201701221351 METAR KLGA 221351Z 06007KT 0SM FG VV002 07/06 A2973 RMK AO2\ SFC VIS 1/4 SLP066 T00670061 RVRNO\ $= 201701221451 METAR KLGA 221451Z 05007KT 0SM FG OVC002 07/07 A2975 RMK\ AO2 SFC VIS 1/2 SLP072 T00720067\ 53001 RVRNO $= 201701221551 METAR KLGA 221551Z 05010KT 1/2SM BR OVC005 07/06 A2975 RMK\ AO2 SFC VIS 1 1/2 SLP075 T00670061\ $= 201701221651 METAR KLGA 221651Z 05011KT 1SM BR OVC002 06/05 A2973 RMK\ AO2 SLP068 T00610050 RVRNO $= 201701221751 METAR KLGA 221751Z 04012KT 2SM BR OVC004 07/05 A2970 RMK\ AO2 SFC VIS 2 1/2 SLP058 T00670050\ 10078 20061 58017 $= 201701221851 METAR KLGA 221851Z 05006KT 6SM HZ BKN013 BKN025 OVC140 08/05\ A2969 RMK AO2 SLP053 T00780050 $= 201701221951 METAR KLGA 221951Z 05013G20KT 6SM HZ BKN016 OVC026 08/05\ A2970 RMK AO2 SLP055 T00780050 $= 201701222051 METAR KLGA 222051Z 05010KT 5SM -RA BR BKN018 OVC026 07/05\ A2971 RMK AO2 RAB20 SLP062 P0000\ 60000 T00720050 53004 $= 201701222151 METAR KLGA 222151Z 05010KT 6SM BR BKN022 BKN031 OVC060 08/06\ A2973 RMK AO2 RAE33 SLP066 P0003\ T00780056 $= 201701222251 METAR KLGA 222251Z 04013KT 9SM OVC033 07/05 A2973 RMK AO2\ RAB2155E04 SLP069 P0000 T00720050\ $= 201701222351 METAR KLGA 222351Z 05011KT 10SM OVC028 07/05 A2975 RMK AO2\ SLP074 60003 T00720050 10083 20067\ 53012 $= 201701230051 METAR KLGA 230051Z 06009KT 10SM OVC030 07/05 A2976 RMK AO2\ SLP078 T00720050 $= 201701230151 METAR KLGA 230151Z 06015KT 10SM BKN022 OVC033 09/05 A2978\ RMK AO2 SLP083 T00940050 $= 201701230251 METAR KLGA 230251Z 06016KT 10SM OVC019 09/04 A2979 RMK AO2\ SLP089 T00940044 53011 $= 201701230351 METAR KLGA 230351Z 07020G28KT 10SM OVC016 08/04 A2981 RMK\ AO2 PK WND 08029/0339 SLP095 T00830044\ $= 201701230451 METAR KLGA 230451Z 06022G30KT 10SM OVC013 07/04 A2982 RMK\ AO2 PK WND 06034/0403 SLP097 T00720044\ 401000061 $= 201701230551 METAR KLGA 230551Z 07020G28KT 10SM OVC011 07/04 A2982 RMK\ AO2 PK WND 06031/0527 SLP096 T00720044\ 10100 20072 50007 $= 201701230651 METAR KLGA 230651Z 07020KT 10SM OVC012 07/04 A2984 RMK AO2\ PK WND 07031/0600 SLP104 T00670039\ $= 201701230751 METAR KLGA 230751Z 07024G31KT 10SM OVC010 07/04 A2982 RMK\ AO2 PK WND 06031/0743 SLP098 T00670039\ $= 201701230851 METAR KLGA 230851Z 07021G26KT 10SM OVC013 06/03 A2984 RMK\ AO2 PK WND 07033/0810 SLP103 T00610033\ 51007 $= 201701230951 METAR KLGA 230951Z 07022G30KT 10SM OVC012 06/03 A2983 RMK\ AO2 PK WND 07031/0853 SLP101 T00610028\ $= 201701231051 METAR KLGA 231051Z 07030G38KT 10SM OVC018 06/02 A2984 RMK\ AO2 PK WND 08038/1050 SLP105 T00610017\ $= 201701231151 METAR KLGA 231151Z 07025G32KT 10SM OVC021 06/01 A2983 RMK\ AO2 PK WND 07037/1104 SLP101 70003\ T00610011 10072 20056 58001 $= 201701231251 METAR KLGA 231251Z 07017G30KT 10SM OVC021 06/01 A2986 RMK\ AO2 PK WND 07034/1157 SLP112 T00610006\ $= 201701231351 METAR KLGA 231351Z 07019G34KT 10SM FEW023 BKN028 OVC065 06/M01\ A2985 RMK AO2 PK WND 07040/1338 SLP107\ T00561006 $= 201701231451 METAR KLGA 231451Z 07025G37KT 10SM OVC024 06/M01 A2985 RMK\ AO2 PK WND 06038/1438 SLP106 T00561011\ 50005 $= 201701231551 METAR KLGA 231551Z 08021G33KT 10SM OVC027 06/M01 A2986 RMK\ AO2 PK WND 06040/1505 SLP109 T00561011\ $= 201701231651 METAR KLGA 231651Z 07030G40KT 10SM OVC025 06/M01 A2979 RMK\ AO2 PK WND 07040/1648 SLP088 T00561011\ $= 201701231751 METAR KLGA 231751Z 06032G41KT 10SM -RA OVC024 06/M01 A2975\ RMK AO2 PK WND 08043/1720 RAB47 SLP074\ P0000 60000 T00561006 10061 20050\ 58032 $= 201701231851 METAR KLGA 231851Z 06028G37KT 10SM BKN024 BKN030 OVC055 06/M01\ A2971 RMK AO2 PK WND 07042/1831 RAE19\ SLP060 P0000 T00561006 $= 201701231951 METAR KLGA 231951Z 06030G38KT 10SM BKN029 OVC034 06/M01 A2968\ RMK AO2 PK WND 06041/1904 SLP051\ T00611006 $= 201701232051 METAR KLGA 232051Z 07028G41KT 7SM -RA OVC026 05/00 A2968\ RMK AO2 PK WND 07041/2047 RAB14 SLP049\ P0000 60000 T00500000 56025 $= 201701232151 METAR KLGA 232151Z 05029G36KT 7SM -RA OVC023 04/01 A2965\ RMK AO2 PK WND 06041/2117 SLP041\ P0000 T00440006 $= 201701232251 METAR KLGA 232251Z 05022G32KT 5SM RA OVC024 04/01 A2967 RMK\ AO2 PK WND 06037/2155 SLP046 P0007\ T00390011 $= 201701232351 METAR KLGA 232351Z 04020KT 5SM RA BR BKN015 OVC023 04/02\ A2965 RMK AO2 PK WND 05033/2301 SLP041\ P0014 60021 T00390017 10061 20039\ 56008 $= 201701240051 METAR KLGA 240051Z 04022G27KT 6SM RA BR OVC013 03/02 A2963\ RMK AO2 PK WND 04031/0000 SLP033\ P0014 T00330017 $= 201701240151 METAR KLGA 240151Z 04024G33KT 5SM RA BR BKN012 OVC018 03/01\ A2960 RMK AO2 PK WND 04034/0105 SLP022\ P0008 T00330011 $= 201701240251 METAR KLGA 240251Z 04025G35KT 5SM RA BR OVC015 04/02 A2956\ RMK AO2 PK WND 04035/0251 SLP008\ P0011 60033 T00390017 58033 $= 201701240351 METAR KLGA 240351Z 05027G33KT 4SM RA BR BKN013 OVC018 04/02\ A2951 RMK AO2 PK WND 05035/0333 SLP994\ P0013 T00390017 $= 201701240451 METAR KLGA 240451Z 04024G31KT 3SM +RA BR BKN013 OVC018 04/02\ A2947 RMK AO2 PK WND 04036/0420 SLP977\ P0015 T00390017 400720033 $= 201701240551 METAR KLGA 240551Z 04022G31KT 4SM RA BR OVC013 04/02 A2941\ RMK AO2 PK WND 04035/0533 SLP960\ P0013 60074 T00390017 10039 20033\ 58048 $= 201701240651 METAR KLGA 240651Z 03020G30KT 8SM -RA OVC015 04/02 A2937\ RMK AO2 PK WND 05037/0615 SLP944\ P0011 T00440017 $= 201701240751 METAR KLGA 240751Z 03022G32KT 4SM -RA BR OVC015 04/02 A2936\ RMK AO2 PK WND 03034/0711 SLP941\ P0006 T00390017 $= 201701240851 METAR KLGA 240851Z 03018G28KT 3SM -RA BR BKN013 OVC019 04/02\ A2935 RMK AO2 PK WND 04032/0838 SLP938\ P0005 60022 T00390017 56022 $= 201701240951 METAR KLGA 240951Z 02015G25KT 3SM -RA BR OVC012 04/02 A2936\ RMK AO2 PK WND 03029/0855 SLP943\ P0004 T00390017 $= 201701241051 METAR KLGA 241051Z 02016G26KT 3SM -RA BR BKN011 OVC019 04/02\ A2936 RMK AO2 PK WND 02026/1048 SLP942\ P0002 T00390017 $= 201701241151 METAR KLGA 241151Z 01014KT 3SM -RA BR SCT008 OVC014 04/02\ A2935 RMK AO2 SFC VIS 4 SLP938 P0001\ 60029 70124 T00390017 10044 20039\ 58004 $= 201701241251 METAR KLGA 241251Z 36014KT 3SM -RA BR BKN008 OVC013 03/02\ A2934 RMK AO2 SFC VIS 4 SLP936 P0000\ T00330017 $= 201701241351 METAR KLGA 241351Z 01014KT 3SM -RA BR BKN008 OVC013 04/02\ A2935 RMK AO2 PK WND 01027/1325 SFC\ VIS 4 RAE05B45DZB11E45 SLP939 P0000\ T00390017 $= 201701241451 METAR KLGA 241451Z 36017G22KT 3SM -RA BR BKN008 BKN010 OVC014\ 04/02 A2935 RMK AO2 SFC VIS 4 SLP940\ P0002 60002 T00390017 53002 $= 201701241551 METAR KLGA 241551Z 35013KT 7SM -RA BKN008 OVC010 04/02 A2935\ RMK AO2 RAE1455B21 SLP937 P0001 T00390017\ $= 201701241651 METAR KLGA 241651Z 35017G25KT 2 1/2SM -RA BR SCT008 OVC013\ 04/02 A2932 RMK AO2 SFC VIS 4 SLP927\ P0001 T00390017 $= 201701241751 METAR KLGA 241751Z 35013G21KT 3SM RA BR FEW008 BKN011 OVC021\ 04/02 A2931 RMK AO2 SFC VIS 4 SLP923\ P0016 60020 T00390017 10039 20033\ 58017 $= 201701241851 METAR KLGA 241851Z 34019G23KT 5SM HZ FEW008 BKN011 OVC020\ 04/01 A2931 RMK AO2 RAE36 SLP923\ P0014 T00390011 $= 201701241951 METAR KLGA 241951Z 33017KT 6SM -RA BKN013 OVC019 04/01 A2931\ RMK AO2 RAB05 SLP926 P0002 T00390011\ $= 201701242051 METAR KLGA 242051Z 33019G25KT 5SM RA BKN014 OVC028 04/01\ A2933 RMK AO2 RAE11B42 SLP933 P0001\ 60017 T00390011 53010 $= 201701242151 METAR KLGA 242151Z 32012G18KT 7SM -RA BKN009 OVC032 04/02\ A2936 RMK AO2 SLP942 P0009 T00440022\ $= 201701242251 METAR KLGA 242251Z 32013KT 8SM RA BKN013 BKN022 OVC032 04/02\ A2938 RMK AO2 SLP948 P0003 T00440022\ $= 201701242351 METAR KLGA 242351Z 32014KT 10SM -RA BKN018 OVC022 05/02 A2939\ RMK AO2 SLP953 P0003 60032 T00500017\ 10050 20033 51012 $= 201701250051 METAR KLGA 250051Z 33015G20KT 10SM -RA SCT017 BKN023 OVC047\ 04/02 A2941 RMK AO2 CIG 017 R22 SW\ SLP958 P0004 T00440017 $= 201701250151 METAR KLGA 250151Z 32014KT 10SM -RA FEW012 BKN050 OVC060\ 04/01 A2943 RMK AO2 RAE25B43 SLP966\ P0002 T00390011 $= 201701250251 METAR KLGA 250251Z 31014KT 10SM -RA SCT013 BKN055 OVC075\ 04/01 A2944 RMK AO2 SLP968 P0003\ 60009 T00390011 51015 $= 201701250351 METAR KLGA 250351Z 31019G26KT 10SM FEW019 SCT034 BKN090 OVC200\ 04/01 A2944 RMK AO2 PK WND 31026/0351\ RAE05 SLP970 P0000 T00390006 $= 201701250451 METAR KLGA 250451Z 30019G25KT 10SM -RA FEW021 SCT033 BKN080\ BKN200 04/M01 A2946 RMK AO2 PK WND\ 30029/0406 RAB0354 SLP975 P0000 T00391006\ 400500033 $= 201701250551 METAR KLGA 250551Z 30017G25KT 10SM SCT025 SCT060 BKN170 04/M01\ A2948 RMK AO2 PK WND 29028/0539 RAE0452\ SLP982 P0000 60009 T00391011 10050\ 20033 53013 $= 201701250651 METAR KLGA 250651Z 31018G27KT 10SM FEW029 BKN190 04/M02 A2951\ RMK AO2 PK WND 30031/0630 SLP991\ T00391017 $= 201701250751 METAR KLGA 250751Z 31019G24KT 10SM FEW031 SCT190 04/M02 A2953\ RMK AO2 PK WND 31028/0700 SLP998\ T00391022 $= 201701250851 METAR KLGA 250851Z 31015G27KT 10SM BKN029 04/M02 A2956 RMK\ AO2 PK WND 30027/0845 SLP008 T00391017\ 53027 $= 201701250951 METAR KLGA 250951Z 31020G27KT 10SM OVC028 04/M02 A2957 RMK\ AO2 PK WND 31028/0856 SLP013 T00391017\ $= 201701251051 METAR KLGA 251051Z 31014G20KT 10SM BKN029 04/M02 A2959 RMK\ AO2 PK WND 30030/0954 SLP018 T00441017\ $= 201701251151 METAR KLGA 251151Z 31014G21KT 10SM SCT033 04/M02 A2960 RMK\ AO2 SLP023 70061 T00391022 10044\ 20039 51015 $= 201701251251 METAR KLGA 251251Z 31014KT 10SM SCT033 04/M02 A2963 RMK AO2\ SLP032 T00441017 $= 201701251351 METAR KLGA 251351Z 31016G20KT 10SM OVC035 05/M02 A2965 RMK\ AO2 SLP039 T00501017 $= 201701251451 METAR KLGA 251451Z 31014G23KT 10SM FEW033 07/M02 A2966 RMK\ AO2 SLP045 T00671017 51022 $= 201701251551 METAR KLGA 251551Z 30013G23KT 10SM FEW035 08/M02 A2966 RMK\ AO2 PK WND 31028/1524 SLP045 T00781017\ $= 201701251651 METAR KLGA 251651Z 31015KT 10SM FEW039 09/M01 A2964 RMK AO2\ SLP036 T00891011 $= 201701251751 METAR KLGA 251751Z 30015KT 10SM FEW039 08/M01 A2963 RMK AO2\ PK WND 27030/1714 SLP035 T00831006\ 10094 20039 58010 $= 201701251851 METAR KLGA 251851Z 27019G25KT 10SM SCT038 09/M01 A2965 RMK\ AO2 PK WND 27026/1841 SLP038 T00941006\ $= 201701251951 METAR KLGA 251951Z 31018G25KT 10SM FEW039 09/00 A2967 RMK\ AO2 PK WND 26026/1859 SLP045 T00890000\ $= 201701252051 METAR KLGA 252051Z 32010KT 10SM FEW040 09/01 A2966 RMK AO2\ SLP044 T00890006 50009 $= 201701252151 METAR KLGA 252151Z 29004KT 10SM FEW040 09/00 A2966 RMK AO2\ SLP043 T00940000 $= 201701252251 METAR KLGA 252251Z 00000KT 10SM FEW040 SCT100 09/00 A2967\ RMK AO2 SLP047 T00890000 $= 201701252351 METAR KLGA 252351Z 00000KT 10SM FEW040 SCT100 08/01 A2965\ RMK AO2 SLP040 T00830006 10100 20083\ 58004 $= 201701260051 METAR KLGA 260051Z 16003KT 10SM FEW040 SCT100 09/01 A2965\ RMK AO2 SLP038 T00940011 $= 201701260151 METAR KLGA 260151Z VRB04KT 10SM BKN150 12/02 A2963 RMK AO2\ SLP032 T01170017 $= 201701260251 METAR KLGA 260251Z 22008KT 10SM SCT120 BKN180 10/01 A2962\ RMK AO2 SLP030 T01000011 56009 $= 201701260351 METAR KLGA 260351Z 22008KT 10SM BKN110 OVC200 10/01 A2959\ RMK AO2 SLP021 T01000011 $= 201701260451 METAR KLGA 260451Z 20008KT 10SM BKN080 BKN200 10/01 A2956\ RMK AO2 SLP011 T01000011 401170039\ $= 201701260551 METAR KLGA 260551Z 20007KT 10SM OVC080 10/01 A2954 RMK AO2\ SLP001 T01000011 10117 20078 58029\ $= 201701260651 METAR KLGA 260651Z 00000KT 10SM OVC080 09/01 A2952 RMK AO2\ SLP996 T00940011 $= 201701260751 METAR KLGA 260751Z 00000KT 10SM OVC075 09/02 A2950 RMK AO2\ SLP988 T00940017 $= 201701260851 METAR KLGA 260851Z 19004KT 10SM OVC150 09/02 A2946 RMK AO2\ SLP977 T00890022 58024 $= 201701260951 METAR KLGA 260951Z 23007KT 10SM BKN110 OVC150 10/02 A2945\ RMK AO2 SLP974 T01000022 $= 201701261051 METAR KLGA 261051Z 30005KT 10SM OVC100 11/02 A2943 RMK AO2\ SLP967 T01060022 $= 201701261151 METAR KLGA 261151Z 33003KT 10SM OVC100 10/02 A2944 RMK AO2\ SLP967 T01000022 10106 20078 55009\ $= 201701261251 METAR KLGA 261251Z 32004KT 10SM BKN065 OVC100 09/03 A2944\ RMK AO2 SLP967 T00890028 $= 201701261351 METAR KLGA 261351Z 26005KT 10SM -RA FEW033 BKN065 OVC080\ 11/03 A2944 RMK AO2 RAB22 SLP969\ P0000 T01060033 $= 201701261451 METAR KLGA 261451Z VRB04KT 8SM -RA FEW035 OVC055 10/05 A2943\ RMK AO2 SLP965 P0002 60002 T01000050\ 58003 $= 201701261551 METAR KLGA 261551Z 17008KT 10SM FEW032 SCT065 BKN090 10/06\ A2939 RMK AO2 RAE25 PRESFR SLP951\ P0000 T01000061 $= 201701261651 METAR KLGA 261651Z 19010KT 10SM FEW038 BKN085 BKN110 10/06\ A2937 RMK AO2 RAB06E15 SLP944 P0000\ T01000061 $= 201701261751 METAR KLGA 261751Z 20012KT 10SM FEW030 SCT055 SCT110 11/06\ A2933 RMK AO2 SLP931 60002 T01110061\ 10111 20089 56034 $= 201701261851 METAR KLGA 261851Z 27019G26KT 10SM FEW040 BKN055 13/01 A2932\ RMK AO2 PK WND 26026/1839 SLP929\ T01330011 $= 201701261951 METAR KLGA 261951Z 29022G32KT 10SM BKN060 11/M01 A2937 RMK\ AO2 PK WND 30034/1917 PRESRR SLP944\ T01111011 $= 201701262051 METAR KLGA 262051Z 29020G33KT 10SM BKN065 10/M03 A2940 RMK\ AO2 PK WND 30039/2006 SLP955 T01001033\ 53024 $= 201701262151 METAR KLGA 262151Z 29019G32KT 10SM BKN055 09/M04 A2943 RMK\ AO2 PK WND 30033/2118 SLP964 T00891039\ $= 201701262251 METAR KLGA 262251Z 26012G25KT 10SM BKN055 08/M04 A2945 RMK\ AO2 PK WND 27031/2222 SLP971 T00831039\ $= 201701262351 METAR KLGA 262351Z 27018G30KT 10SM BKN055 08/M03 A2947 RMK\ AO2 PK WND 27030/2348 SLP980 T00831028\ 10139 20083 51025 $= 201701270051 METAR KLGA 270051Z 26017G24KT 10SM SCT055 08/M03 A2949 RMK\ AO2 PK WND 25028/0036 SLP984 T00781028\ $= 201701270151 METAR KLGA 270151Z 27017G35KT 10SM SCT060 08/M03 A2949 RMK\ AO2 PK WND 26035/0145 SLP986 T00781028\ $= 201701270251 METAR KLGA 270251Z 26022G27KT 10SM FEW060 BKN250 08/M02 A2952\ RMK AO2 PK WND 27030/0215 SLP994\ T00781022 53014 $= 201701270351 METAR KLGA 270351Z 28018G27KT 10SM FEW045 08/M02 A2955 RMK\ AO2 PK WND 28030/0257 SLP005 T00781022\ $= 201701270451 METAR KLGA 270451Z 27015G24KT 10SM SCT050 SCT250 07/M03 A2957\ RMK AO2 PK WND 29027/0405 SLP014\ T00721028 401390072 $= 201701270551 METAR KLGA 270551Z 25014G23KT 10SM FEW050 FEW250 07/M03 A2959\ RMK AO2 SLP018 T00671033 10083 20067\ 51024 $= 201701270651 METAR KLGA 270651Z 26014G21KT 10SM FEW055 FEW250 07/M03 A2961\ RMK AO2 PK WND 26026/0625 SLP026\ T00671033 $= 201701270751 METAR KLGA 270751Z 26018G23KT 10SM FEW060 FEW250 06/M03 A2961\ RMK AO2 SLP027 T00611033 $= 201701270851 METAR KLGA 270851Z 26015G27KT 10SM FEW065 SCT250 06/M03 A2962\ RMK AO2 PK WND 26030/0758 SLP030\ T00611028 51012 $= 201701270951 METAR KLGA 270951Z 26018G26KT 10SM SCT065 SCT250 06/M04 A2962\ RMK AO2 PK WND 27026/0951 SLP031\ T00611039 $= 201701271051 METAR KLGA 271051Z 26017G25KT 10SM BKN060 06/M04 A2963 RMK\ AO2 PK WND 25026/1010 SLP034 T00611039\ $= 201701271151 METAR KLGA 271151Z 25013KT 10SM OVC070 06/M04 A2964 RMK AO2\ SLP037 70002 T00611039 10067 20061\ 53007 $= 201701271251 METAR KLGA 271251Z 25014G24KT 10SM BKN060 06/M04 A2965 RMK\ AO2 PK WND 26029/1155 SLP040 T00611044\ $= 201701271351 METAR KLGA 271351Z 26018G30KT 10SM FEW033 OVC060 06/M05 A2966\ RMK AO2 PK WND 28036/1335 SLP043\ T00611050 $= 201701271451 METAR KLGA 271451Z 27019G27KT 10SM FEW035 BKN060 06/M05 A2967\ RMK AO2 PK WND 28028/1435 SLP046\ T00611050 51009 $= 201701271551 METAR KLGA 271551Z 27015G29KT 10SM FEW035 FEW048 BKN060 07/M05\ A2966 RMK AO2 PK WND 28031/1515 SLP042\ T00671050 $= 201701271651 METAR KLGA 271651Z 28014G25KT 250V310 10SM BKN055 BKN250\ 07/M06 A2963 RMK AO2 PK WND 26026/1614\ SLP031 T00671061 $= 201701271751 METAR KLGA 271751Z 28017G22KT 10SM BKN055 BKN250 07/M07 A2959\ RMK AO2 PK WND 29028/1652 SLP020\ T00671072 10072 20061 58025 $= 201701271851 METAR KLGA 271851Z 26014G20KT 10SM OVC055 06/M06 A2958 RMK\ AO2 PK WND 30031/1757 SLP015 T00611056\ $= 201701271951 METAR KLGA 271951Z 28011KT 10SM BKN060 06/M06 A2957 RMK AO2\ PK WND 27027/1856 SLP013 T00611061\ $= 201701272051 METAR KLGA 272051Z 27015G29KT 10SM OVC060 06/M06 A2958 RMK\ AO2 PK WND 26029/2046 SLP018 T00611056\ 55002 $= 201701272151 METAR KLGA 272151Z 27014G25KT 10SM SCT049 OVC060 06/M05 A2959\ RMK AO2 SLP020 T00561050 $= 201701272251 METAR KLGA 272251Z 26015G22KT 10SM FEW040 BKN060 06/M05 A2960\ RMK AO2 PK WND 28029/2155 SLP024\ T00561050 $= 201701272351 METAR KLGA 272351Z 26012KT 10SM FEW040 BKN055 OVC070 06/M05\ A2961 RMK AO2 SLP026 T00561050 10067\ 20056 51008 $= 201701280051 METAR KLGA 280051Z 26016G21KT 10SM FEW045 SCT055 OVC075 05/M04\ A2962 RMK AO2 CIG 060 R22 SW SLP030\ T00501044 $= 201701280151 METAR KLGA 280151Z 27017G22KT 10SM FEW040 BKN070 04/M05 A2963\ RMK AO2 PK WND 28026/0120 SLP033\ T00441050 $= 201701280251 METAR KLGA 280251Z 25011G21KT 10SM FEW070 04/M05 A2963 RMK\ AO2 SLP035 T00441050 51009 $= 201701280351 METAR KLGA 280351Z 25013G20KT 10SM SCT046 04/M05 A2964 RMK\ AO2 SLP036 T00391050 $= 201701280451 METAR KLGA 280451Z 26010G20KT 10SM FEW070 04/M06 A2964 RMK\ AO2 SLP036 T00391061 400720033 $= 201701280551 METAR KLGA 280551Z 26014G21KT 10SM BKN065 03/M07 A2963 RMK\ AO2 SLP034 T00331067 10056 20033\ 50000 $= 201701280651 METAR KLGA 280651Z 25015G24KT 10SM BKN065 03/M07 A2963 RMK\ AO2 SLP033 T00331067 $= 201701280751 METAR KLGA 280751Z 26015G24KT 10SM BKN060 03/M07 A2963 RMK\ AO2 SLP034 T00331067 $= 201701280851 METAR KLGA 280851Z 26014G22KT 10SM FEW065 03/M07 A2964 RMK\ AO2 PK WND 27026/0812 SLP036 T00281072\ 53001 $= 201701280951 METAR KLGA 280951Z 26015G22KT 10SM SCT060 03/M07 A2964 RMK\ AO2 SLP036 T00281072 $= 201701281051 METAR KLGA 281051Z 25019G24KT 10SM BKN065 03/M07 A2964 RMK\ AO2 PK WND 27027/1018 SLP037 T00281072\ $= 201701281151 METAR KLGA 281151Z 24012KT 10SM BKN060 03/M07 A2966 RMK AO2\ PK WND 25027/1116 SLP044 T00281067\ 10033 20028 53008 $= 201701281251 METAR KLGA 281251Z 26016KT 10SM BKN060 03/M07 A2968 RMK AO2\ SLP050 T00281072 $= 201701281351 METAR KLGA 281351Z 25015G25KT 10SM BKN060 03/M07 A2970 RMK\ AO2 PK WND 25026/1331 SLP055 T00281067\ $= 201701281451 METAR KLGA 281451Z 26016G22KT 10SM FEW045 BKN070 03/M06 A2970\ RMK AO2 SLP058 VIRGA S T00331056\ 51014 $= 201701281551 METAR KLGA 281551Z 27020G24KT 10SM SCT036 BKN065 04/M06 A2971\ RMK AO2 SLP059 T00391056 $= 201701281651 METAR KLGA 281651Z 26015G22KT 10SM SCT042 OVC065 04/M07 A2968\ RMK AO2 SLP051 VIRGA E T00441072\ $= 201701281751 METAR KLGA 281751Z 27017KT 10SM SCT045 OVC060 04/M07 A2966\ RMK AO2 PK WND 27026/1703 SLP044\ T00441072 10044 20022 58014 $= 201701281851 METAR KLGA 281851Z 26017G27KT 10SM BKN045 OVC060 04/M07 A2966\ RMK AO2 PK WND 27027/1842 SLP043\ T00391067 $= 201701281951 METAR KLGA 281951Z 28009G19KT 10SM BKN045 OVC055 04/M06 A2967\ RMK AO2 SLP046 T00391061 $= 201701282051 METAR KLGA 282051Z 26014G19KT 10SM OVC046 04/M06 A2968 RMK\ AO2 SLP050 T00391061 53006 $= 201701282151 METAR KLGA 282151Z 25014KT 10SM BKN049 OVC055 04/M07 A2969\ RMK AO2 SLP054 T00391067 $= 201701282251 METAR KLGA 282251Z 26012KT 10SM OVC044 04/M07 A2970 RMK AO2\ SLP057 T00391067 $= 201701282351 METAR KLGA 282351Z 25012KT 10SM OVC044 03/M06 A2973 RMK AO2\ SLP066 T00331061 10044 20033 53016\ $= 201701290051 METAR KLGA 290051Z 27015G21KT 10SM OVC048 04/M06 A2975 RMK\ AO2 SLP073 T00391061 $= 201701290151 METAR KLGA 290151Z 26011G18KT 10SM OVC055 04/M07 A2975 RMK\ AO2 SLP074 T00391067 $= 201701290251 METAR KLGA 290251Z 27008KT 10SM FEW060 OVC100 04/M06 A2974\ RMK AO2 SLP072 T00391061 50006 $= 201701290351 METAR KLGA 290351Z 22008KT 10SM OVC095 03/M06 A2974 RMK AO2\ SLP070 T00331061 $= 201701290451 METAR KLGA 290451Z 21005KT 10SM OVC060 04/M06 A2973 RMK AO2\ SLP067 T00391061 400440022 $= 201701290551 METAR KLGA 290551Z 20007KT 10SM FEW075 SCT100 04/M06 A2971\ RMK AO2 SLP061 T00391056 10039 20033\ 58012 $= 201701290651 METAR KLGA 290651Z 22007KT 10SM FEW055 03/M06 A2971 RMK AO2\ SLP060 T00331056 $= 201701290751 METAR KLGA 290751Z 21006KT 10SM FEW055 SCT100 03/M04 A2970\ RMK AO2 SLP058 T00331044 $= 201701290851 METAR KLGA 290851Z 21007KT 10SM FEW050 SCT250 03/M05 A2970\ RMK AO2 SLP055 T00331050 58005 $= 201701290951 METAR KLGA 290951Z 25009KT 10SM FEW100 SCT250 04/M06 A2971\ RMK AO2 SLP059 T00391056 $= 201701291051 METAR KLGA 291051Z 21007KT 10SM SCT060 BKN250 03/M06 A2971\ RMK AO2 SLP059 T00331056 $= 201701291151 METAR KLGA 291151Z 22006KT 10SM BKN055 BKN090 BKN230 03/M06\ A2970 RMK AO2 SLP058 T00331056 10039\ 20028 50003 $= 201701291251 METAR KLGA 291251Z 22008KT 10SM SCT055 BKN085 BKN220 03/M06\ A2972 RMK AO2 SLP064 T00331056 $= 201701291351 METAR KLGA 291351Z 25009KT 10SM SCT055 BKN085 BKN220 04/M05\ A2973 RMK AO2 SLP066 T00441050 $= 201701291451 METAR KLGA 291451Z 25010KT 10SM FEW037 SCT090 SCT220 BKN250\ 04/M07 A2974 RMK AO2 SLP070 T00441067\ 51011 $= 201701291551 METAR KLGA 291551Z 28010KT 10SM FEW050 SCT090 SCT210 BKN250\ 06/M08 A2973 RMK AO2 SLP067 T00561078\ $= 201701291651 METAR KLGA 291651Z 31017KT 10SM FEW060 SCT090 SCT200 BKN250\ 06/M09 A2971 RMK AO2 SLP062 T00561094\ $= 201701291751 METAR KLGA 291751Z 31011KT 10SM FEW060 FEW090 SCT200 SCT250\ 06/M09 A2968 RMK AO2 SLP051 T00561094\ 10056 20028 58018 $= 201701291851 METAR KLGA 291851Z 27016G19KT 10SM FEW065 FEW090 SCT200 SCT250\ 07/M11 A2966 RMK AO2 SLP045 ACSL\ SE-SW T00671106 $= 201701291951 METAR KLGA 291951Z 30016KT 10SM FEW070 FEW100 SCT250 07/M10\ A2967 RMK AO2 SLP046 T00671100 $= 201701292051 METAR KLGA 292051Z 29010G18KT 10SM BKN070 06/M10 A2969 RMK\ AO2 SLP054 T00611100 53002 $= 201701292151 METAR KLGA 292151Z 26007G18KT 10SM BKN075 06/M10 A2970 RMK\ AO2 SLP058 T00561100 $= 201701292251 METAR KLGA 292251Z 25013KT 10SM SCT070 05/M09 A2972 RMK AO2\ SLP062 T00501094 $= 201701292351 METAR KLGA 292351Z 25012KT 10SM FEW070 FEW250 05/M09 A2973\ RMK AO2 SLP067 T00501094 10072 20050\ 53013 $= 201701300051 METAR KLGA 300051Z 25013G18KT 10SM BKN075 07/M09 A2974 RMK\ AO2 SLP069 T00671089 $= 201701300151 METAR KLGA 300151Z 26009KT 10SM OVC075 06/M09 A2973 RMK AO2\ SLP067 T00561089 $= 201701300251 METAR KLGA 300251Z 26008KT 10SM CLR 04/M08 A2972 RMK AO2\ SLP065 T00441078 58002 $= 201701300351 METAR KLGA 300351Z 26011KT 10SM FEW070 SCT250 04/M08 A2973\ RMK AO2 SLP068 T00441078 $= 201701300451 METAR KLGA 300451Z 27006KT 10SM FEW070 SCT250 03/M07 A2973\ RMK AO2 SLP067 T00331072 400720028\ $= 201701300551 METAR KLGA 300551Z 31008KT 10SM FEW070 SCT250 03/M07 A2973\ RMK AO2 SLP067 T00281067 10072 20028\ 50002 $= 201701300651 METAR KLGA 300651Z 33006KT 10SM BKN100 03/M07 A2972 RMK AO2\ SLP064 T00281067 $= 201701300751 METAR KLGA 300751Z 35008KT 10SM FEW070 OVC100 02/M07 A2972\ RMK AO2 SLP065 T00221072 $= 201701300851 METAR KLGA 300851Z 34008KT 10SM BKN085 BKN250 02/M06 A2973\ RMK AO2 SLP069 T00171061 53001 $= 201701300951 METAR KLGA 300951Z 35011KT 10SM BKN085 BKN250 01/M08 A2975\ RMK AO2 SLP072 T00111078 $= 201701301051 METAR KLGA 301051Z 33010KT 10SM BKN060 BKN250 01/M07 A2975\ RMK AO2 SLP073 T00111072 $= 201701301151 METAR KLGA 301151Z 01006KT 10SM BKN055 OVC120 01/M07 A2976\ RMK AO2 SLP077 T00061067 10028 20006\ 52009 $= 201701301251 METAR KLGA 301251Z 36007KT 10SM BKN065 BKN130 01/M07 A2976\ RMK AO2 SLP078 T00111072 $= 201701301351 METAR KLGA 301351Z 36010KT 10SM BKN060 OVC130 01/M11 A2978\ RMK AO2 SLP083 VIRGA SE T00111106\ $= 201701301451 METAR KLGA 301451Z 34007KT 10SM FEW065 SCT080 BKN110 OVC250\ 02/M12 A2979 RMK AO2 SLP088 T00171117\ 53010 $= 201701301551 METAR KLGA 301551Z 31010KT 10SM FEW065 BKN080 OVC095 02/M11\ A2980 RMK AO2 SLP090 T00221111 $= 201701301651 METAR KLGA 301651Z 33014KT 10SM FEW045 BKN100 BKN180 02/M11\ A2979 RMK AO2 SLP087 T00221106 $= 201701301751 METAR KLGA 301751Z 31014KT 10SM FEW045 FEW110 BKN250 02/M10\ A2977 RMK AO2 SLP081 T00221100 10028\ 20006 58007 $= 201701301851 METAR KLGA 301851Z 30014KT 10SM FEW045 FEW120 BKN250 03/M11\ A2976 RMK AO2 SLP078 T00281106 $= 201701301951 METAR KLGA 301951Z 32016KT 10SM FEW045 SCT150 BKN250 03/M12\ A2977 RMK AO2 SLP082 T00331117 $= 201701302051 METAR KLGA 302051Z 29017G22KT 10SM FEW065 SCT150 BKN250 03/M13\ A2979 RMK AO2 SLP087 T00331128 53007\ $= 201701302151 METAR KLGA 302151Z 33011KT 10SM SCT065 BKN250 03/M12 A2982\ RMK AO2 SLP096 T00281117 $= 201701302251 METAR KLGA 302251Z 30013KT 10SM FEW065 SCT250 02/M12 A2985\ RMK AO2 SLP107 T00221117 $= 201701302351 METAR KLGA 302351Z 33012KT 10SM FEW250 02/M12 A2988 RMK AO2\ SLP119 T00171122 10033 20017 53031\ $= 201701310051 METAR KLGA 310051Z 32011G19KT 10SM CLR 01/M12 A2991 RMK AO2\ SLP129 T00111117 $= 201701310151 METAR KLGA 310151Z 33012KT 10SM CLR 01/M12 A2993 RMK AO2\ SLP135 T00111122 $= 201701310251 METAR KLGA 310251Z 33011KT 10SM BKN075 01/M12 A2996 RMK AO2\ SLP144 T00061117 51025 $= 201701310351 METAR KLGA 310351Z 32015G19KT 10SM OVC080 01/M13 A2997 RMK\ AO2 SLP148 T00061128 $= 201701310451 METAR KLGA 310451Z 32010KT 10SM SCT080 00/M13 A2997 RMK AO2\ SLP147 T00001133 400330000 $= 201701310551 METAR KLGA 310551Z 31010G19KT 10SM FEW080 M01/M13 A2997 RMK\ AO2 SLP150 T10061133 10017 21006\ 51006 $= 201701310651 METAR KLGA 310651Z 33008KT 10SM FEW080 FEW200 M01/M13 A2997\ RMK AO2 SLP149 T10061128 $= 201701310751 METAR KLGA 310751Z 33008KT 10SM BKN050 M01/M12 A3001 RMK\ AO2 SLP161 T10111117 $= 201701310851 METAR KLGA 310851Z 36009KT 10SM BKN050 M02/M11 A3001 RMK\ AO2 SLP162 T10171111 53012 $= 201701310951 METAR KLGA 310951Z 36007KT 10SM SCT030 OVC045 M02/M12 A2998\ RMK AO2 SLP152 T10171122 $= 201701311051 METAR KLGA 311051Z 04003KT 10SM BKN043 M02/M12 A2998 RMK\ AO2 SLP152 T10221122 $= 201701311151 METAR KLGA 311151Z 11006KT 10SM BKN033 OVC160 M02/M12 A2997\ RMK AO2 SLP149 T10171122 10000 21022\ 56013 $= 201701311251 METAR KLGA 311251Z 12008KT 10SM SCT028 BKN160 BKN250 M02/M12\ A2996 RMK AO2 SLP145 T10171122 $= 201701311351 METAR KLGA 311351Z 12008KT 10SM FEW028 BKN075 BKN160 OVC250\ M01/M11 A2995 RMK AO2 SLP140 T10111106\ $= 201701311451 METAR KLGA 311451Z 11009KT 10SM -SN SCT025 BKN035 OVC050\ M01/M10 A2993 RMK AO2 SNB50 SLP134\ P0000 60000 T10111100 58015 $= 201701311551 METAR KLGA 311551Z 16006KT 1/2SM HZ SCT008 BKN012 OVC030\ M02/M06 A2993 RMK AO2 SFC VIS 1 SNEMM\ SLP135 P0000 T10221056 RVRNO $= 201701311651 METAR KLGA 311651Z 14007KT 3/4SM -SN FEW008 SCT010 OVC017\ M02/M04 A2988 RMK AO2 SLP116 P0002\ T10171044 RVRNO $= 201701311751 METAR KLGA 311751Z 09009G18KT 1SM -SN FEW004 BKN013 OVC026\ M01/M04 A2982 RMK AO2 SLP098 931006\ 4/001 P0001 60003 T10111039 11006\ 21022 58037 RVRNO $= 201701311851 METAR KLGA 311851Z 07008KT 1SM -SN SCT007 BKN013 OVC020 M01/M04\ A2979 RMK AO2 SLP086 P0001 T10111039\ RVRNO $= 201701311951 METAR KLGA 311951Z 06009KT 1SM -SN BKN007 BKN013 OVC045 M01/M03\ A2976 RMK AO2 SFC VIS 2 1/2 SLP077\ P0002 T10061033 $= 201701312051 METAR KLGA 312051Z 05008KT 4SM -SN FEW008 BKN015 OVC020 M01/M03\ A2977 RMK AO2 CIG 010 R22 SW SLP080\ P0000 60003 T10061033 55019 $= 201701312151 METAR KLGA 312151Z 06008KT 10SM BKN011 OVC070 00/M03 A2980\ RMK AO2 SNE03 SLP089 P0000 T00001033\ $= 201701312251 METAR KLGA 312251Z 06004KT 10SM FEW020 OVC075 00/M03 A2981\ RMK AO2 SLP093 T00001028 $= 201701312351 METAR KLGA 312351Z 09005KT 10SM FEW015 OVC080 01/M02 A2982\ RMK AO2 SLP099 931006 4/001 60003\ T00061022 10006 21011 51019 $=
