 201709010051 METAR KLGA 010051Z 33009KT 10SM FEW050 SCT100 BKN250 22/12\ A2994 RMK AO2 SLP137 T02220122= 201709010151 METAR KLGA 010151Z 33012KT 10SM FEW055 SCT130 BKN250 22/12\ A2996 RMK AO2 SLP144 T02170122= 201709010251 METAR KLGA 010251Z 34015KT 10SM SCT100 BKN250 21/11 A2997\ RMK AO2 SLP147 T02060106 51017= 201709010351 METAR KLGA 010351Z 33014KT 10SM SCT110 BKN250 19/09 A2999\ RMK AO2 SLP155 T01940094= 201709010451 METAR KLGA 010451Z 32013KT 10SM FEW110 BKN250 19/09 A3001\ RMK AO2 SLP161 T01890094 402780189= 201709010551 METAR KLGA 010551Z 34012KT 10SM SCT250 18/09 A3002 RMK AO2\ SLP165 T01780094 10228 20178 51018= 201709010651 METAR KLGA 010651Z 02010KT 10SM SCT250 16/10 A3002 RMK AO2\ SLP165 T01610100= 201709010751 METAR KLGA 010751Z 35011KT 10SM SCT250 16/10 A3003 RMK AO2\ SLP170 T01610100= 201709010851 METAR KLGA 010851Z 35009KT 10SM SCT250 15/08 A3005 RMK AO2\ SLP176 T01500083 53011= 201709010951 METAR KLGA 010951Z 32014KT 10SM FEW250 14/07 A3008 RMK AO2\ SLP184 T01440067= 201709011051 METAR KLGA 011051Z 33010KT 10SM FEW250 13/06 A3010 RMK AO2\ SLP191 T01330061= 201709011151 METAR KLGA 011151Z 32012KT 10SM SCT250 14/05 A3012 RMK AO2\ SLP199 T01390050 10178 20133 52022= 201709011251 METAR KLGA 011251Z 32009KT 10SM SCT250 14/04 A3013 RMK AO2\ SLP202 T01440044= 201709011351 METAR KLGA 011351Z 32010KT 10SM BKN250 16/05 A3012 RMK AO2\ SLP200 T01560050= 201709011451 METAR KLGA 011451Z 33010KT 10SM FEW170 SCT250 17/04 A3013\ RMK AO2 SLP203 T01720039 51004= 201709011551 METAR KLGA 011551Z 32005G15KT 10SM FEW250 18/03 A3012 RMK\ AO2 SLP200 T01830033= 201709011651 METAR KLGA 011651Z 32008G14KT 10SM FEW250 19/03 A3011 RMK\ AO2 SLP196 T01940033= 201709011751 METAR KLGA 011751Z 30004KT 10SM FEW200 SCT250 21/03 A3009\ RMK AO2 SLP190 T02060028 10211 20139\ 58013= 201709011851 METAR KLGA 011851Z 31009KT 10SM FEW200 BKN250 22/03 A3010\ RMK AO2 SLP191 T02170033= 201709011951 METAR KLGA 011951Z 31012KT 10SM FEW180 BKN250 22/04 A3008\ RMK AO2 SLP185 T02170039= 201709012051 METAR KLGA 012051Z 30013G18KT 280V340 10SM BKN250 22/04 A3007\ RMK AO2 SLP184 T02170044 58006= 201709012151 METAR KLGA 012151Z 35011KT 10SM CLR 22/06 A3008 RMK AO2 SLP187\ T02170056= 201709012251 METAR KLGA 012251Z 32014KT 10SM FEW200 BKN250 21/07 A3009\ RMK AO2 SLP190 T02060067= 201709012351 METAR KLGA 012351Z 32011KT 10SM FEW200 BKN250 21/07 A3012\ RMK AO2 SLP198 T02060072 10222 20200\ 53015= 201709020051 METAR KLGA 020051Z 32010KT 10SM FEW200 BKN250 20/07 A3014\ RMK AO2 SLP205 T02000072= 201709020151 METAR KLGA 020151Z 31008KT 10SM FEW200 BKN250 19/07 A3016\ RMK AO2 SLP211 T01940067= 201709020251 METAR KLGA 020251Z 33008KT 10SM SCT180 SCT250 19/08 A3017\ RMK AO2 SLP215 T01890078 51017= 201709020351 METAR KLGA 020351Z 01007KT 10SM SCT220 SCT250 18/08 A3018\ RMK AO2 SLP218 T01780083= 201709020451 METAR KLGA 020451Z 04008KT 10SM FEW150 FEW250 17/06 A3019\ RMK AO2 SLP224 T01720056 402220133= 201709020551 METAR KLGA 020551Z 04007KT 10SM FEW250 16/07 A3019 RMK AO2\ SLP224 T01610067 10206 20161 50009= 201709020651 METAR KLGA 020651Z 02008KT 10SM FEW250 16/06 A3020 RMK AO2\ SLP224 T01560061= 201709020751 METAR KLGA 020751Z 01006KT 10SM FEW250 14/07 A3018 RMK AO2\ SLP220 T01440067= 201709020851 METAR KLGA 020851Z 03007KT 10SM FEW250 14/07 A3020 RMK AO2\ SLP225 T01440067 53001= 201709020951 METAR KLGA 020951Z 03008KT 10SM SCT250 14/07 A3019 RMK AO2\ SLP224 T01390067= 201709021051 METAR KLGA 021051Z 02007KT 10SM FEW180 BKN260 14/07 A3022\ RMK AO2 SLP233 T01390072= 201709021151 METAR KLGA 021151Z 03005KT 10SM FEW180 BKN260 14/08 A3024\ RMK AO2 SLP239 T01440083 10161 20133\ 53014= 201709021251 METAR KLGA 021251Z 04007KT 10SM FEW180 BKN260 16/10 A3024\ RMK AO2 SLP238 T01560100= 201709021351 METAR KLGA 021351Z 07009KT 10SM FEW150 OVC230 17/11 A3025\ RMK AO2 SLP242 T01670106= 201709021451 METAR KLGA 021451Z 06008KT 10SM FEW150 SCT210 OVC240 17/08\ A3025 RMK AO2 SLP243 T01720078 53004= 201709021551 METAR KLGA 021551Z 06009KT 10SM FEW150 BKN220 OVC260 18/08\ A3023 RMK AO2 SLP238 T01830083= 201709021651 METAR KLGA 021651Z 04010KT 10SM FEW130 SCT190 BKN260 18/09\ A3021 RMK AO2 SLP230 T01830089= 201709021751 METAR KLGA 021751Z VRB04KT 10SM FEW130 SCT220 OVC260 19/08\ A3020 RMK AO2 SLP228 T01940083 10200\ 20144 56015= 201709021851 METAR KLGA 021851Z 10007KT 10SM FEW130 OVC250 19/09 A3019\ RMK AO2 SLP221 T01940094= 201709021951 METAR KLGA 021951Z 09008KT 10SM FEW130 OVC250 19/10 A3017\ RMK AO2 SLP215 T01940100= 201709022051 METAR KLGA 022051Z 10008KT 10SM SCT130 OVC250 19/10 A3016\ RMK AO2 SLP213 T01890100 56014= 201709022151 METAR KLGA 022151Z 11010KT 10SM SCT060 BKN110 OVC150 18/11\ A3015 RMK AO2 RAB31E48 SLP209 P0000\ T01830106= 201709022251 METAR KLGA 022251Z 09011KT 10SM -RA FEW075 BKN120 18/11 A3015\ RMK AO2 RAB43 SLP209 P0000 T01780111= 201709022351 METAR KLGA 022351Z 11010KT 10SM -RA SCT049 OVC100 17/13 A3015\ RMK AO2 RAE2258B28 SLP210 P0000 60000\ T01670133 10194 20167 55003= 201709030051 METAR KLGA 030051Z 08013KT 10SM -RA FEW038 SCT060 OVC110\ 16/14 A3014 RMK AO2 SLP205 P0006\ T01610139= 201709030151 METAR KLGA 030151Z 07010KT 4SM +RA BR FEW019 BKN028 OVC037\ 15/14 A3014 RMK AO2 SLP207 P0014\ T01500139= 201709030251 METAR KLGA 030251Z 07007KT 5SM -RA BR SCT011 OVC017 15/14\ A3014 RMK AO2 SLP205 P0032 60052\ T01500144 56005= 201709030351 METAR KLGA 030351Z 07011KT 9SM SCT008 BKN013 OVC022 15/15\ A3009 RMK AO2 RAE48 SLP190 P0006\ T01500150= 201709030451 METAR KLGA 030451Z 08007KT 10SM -RA BKN010 OVC014 15/14 A3008\ RMK AO2 RAB0352 SLP185 P0001 T01500144\ 402000133= 201709030551 METAR KLGA 030551Z 08011KT 6SM BR OVC010 15/14 A3004 RMK\ AO2 RAE51 SLP173 P0002 60061 T01500144\ 10156 20150 56018= 201709030651 METAR KLGA 030651Z 07012KT 6SM BR OVC007 15/15 A3001 RMK\ AO2 SLP161 P0001 T01500150= 201709030751 METAR KLGA 030751Z 07008KT 5SM -RA BR BKN006 OVC012 15/15\ A3000 RMK AO2 RAB0653E27B31 SLP159\ P0004 T01500150= 201709030851 METAR KLGA 030851Z 06009KT 5SM -RA BR BKN005 OVC012 15/15\ A2998 RMK AO2 SLP151 P0012 60017\ T01500150 56010= 201709030951 METAR KLGA 030951Z 06012KT 10SM OVC007 16/16 A2996 RMK AO2\ RAE0855 SLP146 P0001 T01560156= 201709031051 METAR KLGA 031051Z 09013KT 7SM OVC006 16/16 A2995 RMK AO2\ SLP142 T01560156= 201709031151 METAR KLGA 031151Z 07011KT 7SM OVC005 16/16 A2994 RMK AO2\ SLP139 60018 70079 T01560156 10156\ 20150 58007= 201709031251 METAR KLGA 031251Z 07011KT 5SM BR OVC005 16/16 A2991 RMK\ AO2 RAB21E50 SLP128 P0000 T01560156= 201709031351 METAR KLGA 031351Z 33005KT 2SM R04/5000VP6000FT +RA BR OVC005\ 16/16 A2990 RMK AO2 RAB09 SLP125\ P0024 T01610161= 201709031451 METAR KLGA 031451Z 04008KT 3SM -RA BR BKN005 BKN011 OVC045\ 17/17 A2988 RMK AO2 SFC VIS 4 SLP118\ P0011 60035 T01670167 56021= 201709031551 METAR KLGA 031551Z 06006KT 3SM BR BKN005 BKN008 OVC045 18/18\ A2986 RMK AO2 SFC VIS 5 RAE02 SLP111\ P0000 T01830178= 201709031651 METAR KLGA 031651Z 31011KT 8SM SCT005 BKN008 OVC015 18/18\ A2986 RMK AO2 RAB01E32 SLP110 P0005\ T01780178= 201709031751 METAR KLGA 031751Z 31009KT 10SM SCT005 BKN008 OVC011 18/17\ A2987 RMK AO2 SLP113 60040 T01780167\ 10189 20156 55004= 201709031851 METAR KLGA 031851Z 31007KT 10SM SCT005 BKN008 OVC011 19/17\ A2986 RMK AO2 SLP110 T01940172= 201709031951 METAR KLGA 031951Z 27008KT 10SM FEW008 SCT055 BKN090 21/16\ A2984 RMK AO2 SLP103 T02110156= 201709032051 METAR KLGA 032051Z 30011KT 10SM SCT030 BKN038 OVC095 21/16\ A2985 RMK AO2 SLP107 T02110156 55006= 201709032151 METAR KLGA 032151Z 26010KT 10SM FEW110 22/14 A2985 RMK AO2\ SLP108 T02170144= 201709032251 METAR KLGA 032251Z 26012KT 10SM SCT085 22/14 A2986 RMK AO2\ SLP111 T02170139= 201709032351 METAR KLGA 032351Z 26013KT 10SM FEW040 BKN055 OVC095 21/14\ A2987 RMK AO2 SLP116 T02110144 10222\ 20178 53008= 201709040051 METAR KLGA 040051Z 26012KT 10SM SCT055 SCT130 21/15 A2989\ RMK AO2 SLP123 T02060150= 201709040151 METAR KLGA 040151Z 25012KT 10SM FEW050 FEW130 20/15 A2990\ RMK AO2 SLP126 T02000150= 201709040251 METAR KLGA 040251Z 26013KT 10SM BKN095 20/14 A2991 RMK AO2\ SLP128 T02000144 51013= 201709040351 METAR KLGA 040351Z 25013KT 10SM FEW095 19/14 A2991 RMK AO2\ SLP129 T01940144= 201709040451 METAR KLGA 040451Z 25012KT 10SM FEW095 19/14 A2992 RMK AO2\ SLP132 T01890139 402220150= 201709040551 METAR KLGA 040551Z 25013KT 10SM CLR 19/13 A2992 RMK AO2 SLP130\ T01890133 10211 20189 50001= 201709040651 METAR KLGA 040651Z 26013KT 10SM FEW095 19/13 A2992 RMK AO2\ SLP130 T01890133= 201709040751 METAR KLGA 040751Z 26014G19KT 10SM CLR 18/13 A2992 RMK AO2\ SLP130 T01830133= 201709040851 METAR KLGA 040851Z 26011G20KT 10SM CLR 18/13 A2993 RMK AO2\ SLP134 T01830133 53005= 201709040951 METAR KLGA 040951Z 27008G17KT 10SM FEW250 18/13 A2995 RMK\ AO2 SLP141 T01830133= 201709041051 METAR KLGA 041051Z 30011KT 10SM FEW250 18/13 A2996 RMK AO2\ SLP146 T01780133= 201709041151 METAR KLGA 041151Z 30005KT 10SM CLR 19/14 A2997 RMK AO2 SLP150\ 70040 T01890139 10194 20178 51016= 201709041251 METAR KLGA 041251Z 25005KT 10SM FEW250 20/13 A2997 RMK AO2\ SLP149 T02000133= 201709041351 METAR KLGA 041351Z 22006KT 10SM FEW250 21/14 A2997 RMK AO2\ SLP149 T02110139= 201709041451 METAR KLGA 041451Z 21008KT 10SM BKN250 23/14 A2997 RMK AO2\ SLP150 T02280139 55000= 201709041551 METAR KLGA 041551Z 22011KT 10SM BKN250 24/13 A2996 RMK AO2\ SLP145 T02440133= 201709041651 METAR KLGA 041651Z 22012KT 10SM BKN250 26/12 A2995 RMK AO2\ SLP141 T02560122= 201709041751 METAR KLGA 041751Z 23013G19KT 10SM FEW060 SCT250 27/13 A2993\ RMK AO2 SLP136 T02670128 10267 20189\ 56014= 201709041851 METAR KLGA 041851Z 20012G21KT 10SM SCT060 SCT250 27/13 A2991\ RMK AO2 SLP128 T02670128= 201709041951 METAR KLGA 041951Z 24012KT 10SM SCT050 SCT250 27/13 A2989\ RMK AO2 SLP122 T02720128= 201709042051 METAR KLGA 042051Z 21012G18KT 10SM FEW060 SCT250 27/13 A2987\ RMK AO2 SLP115 T02720133 56021= 201709042151 METAR KLGA 042151Z 20014G22KT 10SM FEW060 FEW250 27/13 A2986\ RMK AO2 SLP110 T02670128= 201709042251 METAR KLGA 042251Z 20014G20KT 10SM FEW060 FEW250 27/12 A2985\ RMK AO2 SLP108 T02670122= 201709042351 METAR KLGA 042351Z 20012KT 10SM SCT250 26/13 A2985 RMK AO2\ SLP109 T02560133 10278 20256 55006= 201709050051 METAR KLGA 050051Z 21010KT 10SM FEW250 24/14 A2986 RMK AO2\ SLP112 T02440139= 201709050151 METAR KLGA 050151Z 21011KT 10SM FEW250 23/16 A2986 RMK AO2\ SLP110 T02330156= 201709050251 METAR KLGA 050251Z 21009KT 10SM CLR 23/16 A2985 RMK AO2 SLP109\ T02280156 58000= 201709050351 METAR KLGA 050351Z 21009KT 10SM CLR 22/16 A2985 RMK AO2 SLP109\ T02220156= 201709050451 METAR KLGA 050451Z 20007KT 10SM FEW250 22/16 A2984 RMK AO2\ SLP106 T02170161 402780178= 201709050551 METAR KLGA 050551Z 20008KT 10SM FEW250 22/17 A2983 RMK AO2\ SLP099 T02170167 10256 20217 58009= 201709050651 METAR KLGA 050651Z 21008KT 10SM FEW250 22/18 A2982 RMK AO2\ SLP099 T02170178= 201709050751 METAR KLGA 050751Z 21007KT 10SM FEW250 22/18 A2981 RMK AO2\ SLP095 T02170178= 201709050851 METAR KLGA 050851Z 22007KT 10SM FEW250 22/18 A2980 RMK AO2\ SLP092 T02170183 58008= 201709050951 METAR KLGA 050951Z 22006KT 10SM BKN065 22/18 A2981 RMK AO2\ SLP095 T02170183= 201709051051 METAR KLGA 051051Z 21006KT 10SM BKN055 BKN070 22/19 A2982\ RMK AO2 SLP097 T02170189= 201709051151 METAR KLGA 051151Z 21009KT 10SM BKN050 BKN250 22/19 A2982\ RMK AO2 SLP096 T02220189 10222 20217\ 50004= 201709051251 METAR KLGA 051251Z 22009KT 10SM FEW050 FEW250 23/19 A2980\ RMK AO2 SLP091 T02330189= 201709051351 METAR KLGA 051351Z VRB06KT 10SM SCT050 SCT250 26/19 A2981\ RMK AO2 SLP093 T02560194= 201709051451 METAR KLGA 051451Z 20008KT 10SM SCT055 SCT075 BKN250 26/19\ A2980 RMK AO2 SLP091 T02610189 56005= 201709051551 METAR KLGA 051551Z 21005KT 10SM FEW250 28/19 A2979 RMK AO2\ SLP087 T02780194= 201709051651 METAR KLGA 051651Z 18010KT 10SM FEW050 FEW250 28/20 A2977\ RMK AO2 SLP082 T02830200= 201709051751 METAR KLGA 051751Z 17009G17KT 10SM FEW045 FEW250 28/21 A2975\ RMK AO2 SLP074 T02830206 10294 20222\ 58017= 201709051851 METAR KLGA 051851Z 16013KT 10SM FEW045 FEW250 29/21 A2973\ RMK AO2 SLP068 T02890206 $= 201709051951 METAR KLGA 051951Z 16011KT 10SM FEW050 SCT250 29/21 A2973\ RMK AO2 SLP067 T02890211 $= 201709052051 METAR KLGA 052051Z 15012KT 10SM SCT050 BKN250 29/21 A2971\ RMK AO2 SLP060 T02890211 58014 $= 201709052151 METAR KLGA 052151Z 15011KT 10SM FEW050 BKN250 27/22 A2973\ RMK AO2 LTG DSNT NW SLP066 T02720217\ $= 201709052251 METAR KLGA 052251Z 16008KT 10SM SCT050 BKN250 26/22 A2975\ RMK AO2 LTG DSNT N AND NW SLP075\ T02610217 $= 201709052351 METAR KLGA 052351Z 19008KT 10SM SCT050 BKN250 26/22 A2976\ RMK AO2 LTG DSNT W AND NW SLP079\ T02610217 10294 20256 51019 $= 201709060051 METAR KLGA 060051Z 31004KT 10SM SCT085 BKN250 23/19 A2980\ RMK AO2 PK WND 29029/0006 WSHFT 0004\ LTG DSNT NE SLP092 T02280189 $= 201709060151 METAR KLGA 060151Z 00000KT 10SM FEW030 SCT085 BKN130 OVC250\ 23/18 A2982 RMK AO2 SLP099 T02330183\ $= 201709060251 METAR KLGA 060251Z 24008KT 10SM FEW100 SCT130 BKN240 24/17\ A2983 RMK AO2 SLP103 T02390167 51024\ $= 201709060351 METAR KLGA 060351Z 17005KT 10SM BKN140 BKN250 23/18 A2981\ RMK AO2 SLP094 T02330178 $= 201709060451 METAR KLGA 060451Z 19005KT 10SM OVC120 23/18 A2983 RMK AO2\ SLP101 T02330178 402940217 $= 201709060551 METAR KLGA 060551Z VRB05KT 10SM SCT080 OVC100 23/17 A2983\ RMK AO2 SLP102 T02330172 10267 20228\ 55000 $= 201709060651 METAR KLGA 060651Z 33004KT 10SM BKN055 OVC090 23/18 A2982\ RMK AO2 SLP097 T02280178 $= 201709060751 METAR KLGA 060751Z 00000KT 10SM FEW049 FEW065 BKN120 22/17\ A2980 RMK AO2 SLP092 T02170172 $= 201709060851 METAR KLGA 060851Z 05003KT 10SM FEW050 SCT085 OVC110 22/18\ A2981 RMK AO2 SLP093 T02170178 55009\ $= 201709060951 METAR KLGA 060951Z 08004KT 10SM BKN038 BKN100 22/19 A2982\ RMK AO2 SLP098 T02170189 $= 201709061051 METAR KLGA 061051Z VRB04KT 10SM SCT022 BKN038 BKN070 BKN250\ 22/18 A2982 RMK AO2 RAB19E28 SLP098\ P0000 T02220183 $= 201709061151 METAR KLGA 061151Z 32006KT 10SM -RA SCT026 SCT070 OVC140\ 22/19 A2984 RMK AO2 RAB48 SLP103\ P0000 60000 T02170194 10233 20217\ 53010 $= 201709061251 METAR KLGA 061251Z 35005KT 9SM FEW025 FEW095 BKN120 22/19\ A2983 RMK AO2 LTG DSNT E AND SE RAE39\ SLP101 P0001 T02170194 $= 201709061351 METAR KLGA 061351Z 33007KT 10SM -RA BKN016 BKN022 OVC120\ 21/19 A2987 RMK AO2 LTG DSNT SE AND\ S RAB41 SLP116 P0000 T02110194 $= 201709061451 METAR KLGA 061451Z 32010KT 10SM OVC013 19/18 A2988 RMK AO2\ RAE36 SLP118 P0000 60001 T01940178\ 53015= 201709061551 METAR KLGA 061551Z 36009KT 10SM SCT012 OVC018 19/16 A2988\ RMK AO2 RAB18E32 SLP117 P0000 T01890161= 201709061651 METAR KLGA 061651Z 35008KT 10SM OVC019 19/16 A2987 RMK AO2\ SLP116 T01890156= 201709061751 METAR KLGA 061751Z 36012KT 10SM FEW010 OVC018 18/16 A2988\ RMK AO2 RAB08E42 SLP119 P0000 60001\ T01780156 10222 20178 53001= 201709061851 METAR KLGA 061851Z 02007KT 10SM BKN020 OVC060 17/16 A2988\ RMK AO2 RAB16E49 SLP118 P0013 T01720161= 201709061951 METAR KLGA 061951Z 34010KT 10SM FEW012 OVC019 18/17 A2988\ RMK AO2 SLP118 T01780167= 201709062051 METAR KLGA 062051Z 35010KT 10SM OVC011 18/17 A2988 RMK AO2\ RAB00E18 SLP119 P0000 60013 T01780167\ 55000= 201709062151 METAR KLGA 062151Z 35011G19KT 10SM -RA FEW015 OVC021 17/15\ A2990 RMK AO2 RAB50 SLP124 P0000\ T01720150= 201709062251 METAR KLGA 062251Z 06018KT 10SM -RA BKN024 OVC033 18/15 A2988\ RMK AO2 RAE16B45 SLP116 P0000 T01780150= 201709062351 METAR KLGA 062351Z 34007KT 10SM -RA FEW032 FEW041 OVC049\ 18/16 A2989 RMK AO2 RAE03B42 SLP121\ P0000 60013 T01780156 10178 20167\ 51002= 201709070051 METAR KLGA 070051Z 04005KT 8SM -RA OVC055 17/16 A2989 RMK\ AO2 RAE12B33 SLP122 P0004 T01720156= 201709070151 METAR KLGA 070151Z 33006KT 9SM -RA SCT060 BKN075 OVC100 17/17\ A2988 RMK AO2 SLP119 P0012 T01720167= 201709070251 METAR KLGA 070251Z 35006KT 8SM -RA FEW008 BKN065 OVC075 17/17\ A2986 RMK AO2 SLP113 P0007 60023\ T01670167 58008= 201709070351 METAR KLGA 070351Z 03004KT 9SM -RA SCT008 SCT011 OVC070 17/17\ A2986 RMK AO2 SLP112 P0003 T01670167= 201709070451 METAR KLGA 070451Z 06009KT 10SM -RA BKN007 OVC080 17/16 A2983\ RMK AO2 SLP101 P0004 T01670161 402330161= 201709070551 METAR KLGA 070551Z 10010KT 10SM FEW009 OVC085 16/16 A2981\ RMK AO2 RAE0458B25E46 SLP093 P0000\ 60030 T01610161 10178 20161 58020= 201709070651 METAR KLGA 070651Z 25007KT 10SM SCT014 SCT032 OVC100 17/16\ A2984 RMK AO2 RAB17E28 SLP104 P0000\ T01670156= 201709070751 METAR KLGA 070751Z 29009KT 10SM BKN014 OVC021 17/16 A2982\ RMK AO2 RAB0656E46 SLP097 P0000 T01720161= 201709070851 METAR KLGA 070851Z 29010KT 10SM OVC014 16/16 A2983 RMK AO2\ RAB00E09 SLP100 P0000 60000 T01610156\ 51007= 201709070951 METAR KLGA 070951Z 26007KT 10SM FEW013 BKN047 BKN070 16/14\ A2984 RMK AO2 RAB00E09 SLP105 P0000\ T01610144= 201709071051 METAR KLGA 071051Z 27007KT 10SM SCT018 BKN065 16/14 A2986\ RMK AO2 SLP112 T01610139= 201709071151 METAR KLGA 071151Z 27008KT 10SM FEW018 SCT065 17/13 A2987\ RMK AO2 SLP114 60000 70044 T01670133\ 10172 20161 51014= 201709071251 METAR KLGA 071251Z 23006KT 10SM FEW023 SCT065 SCT250 17/14\ A2987 RMK AO2 SLP115 T01720139= 201709071351 METAR KLGA 071351Z 28005KT 10SM BKN021 18/14 A2988 RMK AO2\ SLP118 T01830139= 201709071451 METAR KLGA 071451Z 30010KT 10SM SCT023 19/14 A2989 RMK AO2\ SLP123 T01940139 53008= 201709071551 METAR KLGA 071551Z 30009KT 10SM BKN027 BKN032 19/14 A2990\ RMK AO2 SLP124 T01940139= 201709071651 METAR KLGA 071651Z 31008KT 10SM BKN033 21/14 A2989 RMK AO2\ SLP122 T02060144= 201709071751 METAR KLGA 071751Z 28011KT 10SM SCT033 22/13 A2989 RMK AO2\ SLP120 T02170133 10217 20167 58003= 201709071851 METAR KLGA 071851Z 27012G17KT 10SM SCT040 22/12 A2987 RMK\ AO2 SLP115 T02170117= 201709071951 METAR KLGA 071951Z 25009G18KT 10SM SCT049 23/11 A2987 RMK\ AO2 SLP113 T02280106= 201709072051 METAR KLGA 072051Z 24012KT 10SM SCT055 23/10 A2987 RMK AO2\ SLP115 T02280100 55005= 201709072151 METAR KLGA 072151Z 26009G20KT 10SM SCT055 23/09 A2988 RMK\ AO2 SLP120 T02280094= 201709072251 METAR KLGA 072251Z 27013G20KT 10SM FEW055 22/09 A2991 RMK\ AO2 SLP127 T02220094= 201709072351 METAR KLGA 072351Z 26012G20KT 10SM FEW055 21/09 A2993 RMK\ AO2 SLP135 T02110094 10239 20211\ 53020= 201709080051 METAR KLGA 080051Z 26012KT 10SM CLR 21/09 A2996 RMK AO2 SLP145\ T02060094= 201709080151 METAR KLGA 080151Z 26014G21KT 10SM FEW045 21/10 A2998 RMK\ AO2 SLP153 T02060100= 201709080251 METAR KLGA 080251Z 28009KT 10SM CLR 19/10 A2999 RMK AO2 SLP156\ T01940100 51021= 201709080351 METAR KLGA 080351Z 27011KT 10SM FEW060 19/09 A3001 RMK AO2\ SLP163 T01890089= 201709080451 METAR KLGA 080451Z 25009KT 10SM FEW060 19/09 A3002 RMK AO2\ SLP167 T01890089 402390161= 201709080551 METAR KLGA 080551Z 26008KT 10SM FEW080 18/09 A3002 RMK AO2\ SLP167 T01830094 10211 20183 51010= 201709080651 METAR KLGA 080651Z 25008KT 10SM CLR 18/09 A3003 RMK AO2 SLP170\ T01780094= 201709080751 METAR KLGA 080751Z 25006KT 10SM CLR 17/11 A3004 RMK AO2 SLP172\ T01720106= 201709080851 METAR KLGA 080851Z 26010KT 10SM CLR 17/11 A3005 RMK AO2 SLP174\ T01720106 51007= 201709080951 METAR KLGA 080951Z 26007KT 10SM FEW250 17/10 A3006 RMK AO2\ SLP178 T01720100= 201709081051 METAR KLGA 081051Z 25009KT 10SM FEW100 FEW250 17/10 A3007\ RMK AO2 SLP183 T01670100= 201709081151 METAR KLGA 081151Z 26010KT 10SM FEW075 FEW250 17/10 A3008\ RMK AO2 SLP186 T01720100 10183 20167\ 52012= 201709081251 METAR KLGA 081251Z 27014KT 10SM FEW250 18/10 A3009 RMK AO2\ SLP187 T01780100= 201709081351 METAR KLGA 081351Z 26010KT 10SM SCT250 19/09 A3010 RMK AO2\ SLP192 T01940094= 201709081451 METAR KLGA 081451Z 27011G18KT 10SM FEW047 SCT250 20/09 A3009\ RMK AO2 SLP190 T02000094 50004= 201709081551 METAR KLGA 081551Z 30012G17KT 10SM FEW050 SCT250 21/09 A3009\ RMK AO2 SLP189 T02060089= 201709081651 METAR KLGA 081651Z 31012KT 10SM SCT050 SCT250 22/11 A3009\ RMK AO2 SLP190 T02170106= 201709081751 METAR KLGA 081751Z 26013KT 10SM SCT055 22/09 A3009 RMK AO2\ SLP189 T02170094 10222 20172 57001= 201709081851 METAR KLGA 081851Z 27012G18KT 10SM SCT060 23/09 A3009 RMK\ AO2 SLP188 T02280089= 201709081951 METAR KLGA 081951Z 27015G19KT 10SM SCT055 BKN070 23/08 A3009\ RMK AO2 SLP189 T02280083= 201709082051 METAR KLGA 082051Z 26012KT 10SM FEW060 BKN085 22/08 A3009\ RMK AO2 SLP188 T02220083 56001= 201709082151 METAR KLGA 082151Z 29010KT 10SM FEW060 SCT090 22/09 A3010\ RMK AO2 SLP192 T02170094= 201709082251 METAR KLGA 082251Z 29009KT 10SM FEW060 SCT085 21/10 A3010\ RMK AO2 SLP193 T02110100= 201709082351 METAR KLGA 082351Z 31012KT 10SM FEW060 BKN090 21/11 A3012\ RMK AO2 SLP200 T02060111 10228 20206\ 53011= 201709090051 METAR KLGA 090051Z 31010KT 10SM FEW055 SCT090 19/10 A3015\ RMK AO2 SLP208 T01940100= 201709090151 METAR KLGA 090151Z 32011KT 10SM FEW055 BKN110 19/11 A3016\ RMK AO2 SLP211 T01890111= 201709090251 METAR KLGA 090251Z 32009KT 10SM FEW120 18/10 A3017 RMK AO2\ SLP215 T01780100 51015= 201709090351 METAR KLGA 090351Z 32012KT 10SM CLR 17/10 A3018 RMK AO2 SLP218\ T01720100= 201709090451 METAR KLGA 090451Z 32009KT 10SM CLR 16/11 A3018 RMK AO2 SLP220\ T01610106 402280161= 201709090551 METAR KLGA 090551Z 33007KT 10SM CLR 16/11 A3018 RMK AO2 SLP220\ T01560111 10206 20156 51006= 201709090651 METAR KLGA 090651Z 30009KT 10SM CLR 16/11 A3019 RMK AO2 SLP222\ T01610106= 201709090751 METAR KLGA 090751Z 34009KT 10SM CLR 15/11 A3019 RMK AO2 SLP222\ T01500106= 201709090851 METAR KLGA 090851Z 33006KT 10SM CLR 14/11 A3020 RMK AO2 SLP225\ T01440106 53005= 201709090951 METAR KLGA 090951Z 36005KT 10SM CLR 14/11 A3021 RMK AO2 SLP229\ T01440106= 201709091051 METAR KLGA 091051Z 34006KT 10SM FEW025 15/10 A3023 RMK AO2\ SLP237 T01500100= 201709091151 METAR KLGA 091151Z 33007KT 10SM FEW025 15/09 A3025 RMK AO2\ SLP242 T01500094 10161 20144 53017= 201709091251 METAR KLGA 091251Z 33007KT 10SM CLR 16/09 A3026 RMK AO2 SLP246\ T01560094= 201709091351 METAR KLGA 091351Z 34009KT 10SM CLR 17/09 A3027 RMK AO2 SLP249\ T01720089= 201709091451 METAR KLGA 091451Z 34010KT 10SM FEW040 19/08 A3027 RMK AO2\ SLP249 T01890078 50007= 201709091551 METAR KLGA 091551Z 01008KT 330V040 10SM FEW040 19/09 A3026\ RMK AO2 SLP247 T01940094= 201709091651 METAR KLGA 091651Z 34010G14KT 10SM BKN046 19/09 A3025 RMK\ AO2 SLP244 T01940089= 201709091751 METAR KLGA 091751Z 34007KT 10SM BKN050 BKN055 20/09 A3025\ RMK AO2 SLP244 T02000094 10206 20150\ 56005= 201709091851 METAR KLGA 091851Z 35011KT 10SM FEW055 21/10 A3024 RMK AO2\ SLP240 T02060100= 201709091951 METAR KLGA 091951Z 35013KT 10SM CLR 20/09 A3024 RMK AO2 SLP238\ T02000094= 201709092051 METAR KLGA 092051Z 36010G18KT 10SM BKN050 19/09 A3024 RMK\ AO2 SLP240 T01940094 55003= 201709092151 METAR KLGA 092151Z 36013KT 10SM FEW043 SCT050 18/10 A3025\ RMK AO2 SLP243 T01830100= 201709092251 METAR KLGA 092251Z 33009KT 10SM FEW050 18/09 A3025 RMK AO2\ SLP243 T01830094= 201709092351 METAR KLGA 092351Z 34006KT 10SM FEW050 18/09 A3026 RMK AO2\ SLP247 T01780094 10206 20178 53007= 201709100051 METAR KLGA 100051Z 34007KT 10SM FEW050 18/09 A3028 RMK AO2\ SLP253 T01780094= 201709100151 METAR KLGA 100151Z 33007KT 10SM FEW050 17/10 A3028 RMK AO2\ SLP253 T01720100= 201709100251 METAR KLGA 100251Z 34006KT 10SM FEW055 17/10 A3029 RMK AO2\ SLP255 T01670100 51008= 201709100351 METAR KLGA 100351Z 36008KT 10SM BKN060 17/11 A3029 RMK AO2\ SLP255 T01670106= 201709100451 METAR KLGA 100451Z 35015KT 10SM SCT060 17/11 A3029 RMK AO2\ SLP256 T01670111 402060144= 201709100551 METAR KLGA 100551Z 36012KT 10SM FEW060 16/13 A3029 RMK AO2\ SLP255 T01610128 10178 20161 50000= 201709100651 METAR KLGA 100651Z 36013KT 10SM CLR 16/12 A3029 RMK AO2 SLP255\ T01610117= 201709100751 METAR KLGA 100751Z 36012KT 10SM CLR 16/12 A3029 RMK AO2 SLP257\ T01560117= 201709100851 METAR KLGA 100851Z 36010G16KT 10SM CLR 16/12 A3031 RMK AO2\ SLP262 T01560117 53007= 201709100951 METAR KLGA 100951Z 35011KT 10SM FEW045 16/12 A3032 RMK AO2\ SLP266 T01560117= 201709101051 METAR KLGA 101051Z 02010KT 10SM FEW050 15/11 A3034 RMK AO2\ SLP274 T01500111= 201709101151 METAR KLGA 101151Z 36012KT 10SM FEW050 16/11 A3035 RMK AO2\ SLP278 T01610106 10161 20150 52016= 201709101251 METAR KLGA 101251Z 36013KT 10SM FEW045 17/11 A3035 RMK AO2\ SLP278 T01720106= 201709101351 METAR KLGA 101351Z 36010KT 10SM FEW045 18/11 A3036 RMK AO2\ SLP280 T01830106= 201709101451 METAR KLGA 101451Z 34006KT 10SM FEW037 19/11 A3036 RMK AO2\ SLP279 T01940106 50001= 201709101551 METAR KLGA 101551Z 35009KT 10SM SCT043 20/11 A3035 RMK AO2\ SLP278 T02000111= 201709101651 METAR KLGA 101651Z 34009KT 10SM SCT045 21/11 A3035 RMK AO2\ SLP276 T02110111= 201709101751 METAR KLGA 101751Z 36010KT 10SM FEW049 22/11 A3034 RMK AO2\ SLP273 T02170111 10217 20161 58006= 201709101851 METAR KLGA 101851Z 35010G17KT 10SM BKN050 22/11 A3033 RMK\ AO2 SLP269 T02170106= 201709101951 METAR KLGA 101951Z 36009KT 10SM SCT050 23/09 A3033 RMK AO2\ SLP269 T02280094= 201709102051 METAR KLGA 102051Z 34009KT 10SM FEW060 22/09 A3033 RMK AO2\ SLP271 T02220094 55001= 201709102151 METAR KLGA 102151Z 36012KT 10SM SCT060 22/08 A3033 RMK AO2\ SLP271 T02170078= 201709102251 METAR KLGA 102251Z 35007KT 10SM FEW060 21/08 A3033 RMK AO2\ SLP270 T02110083= 201709102351 METAR KLGA 102351Z 02005KT 10SM CLR 21/08 A3033 RMK AO2 SLP270\ T02060083 10228 20206 55001= 201709110051 METAR KLGA 110051Z 03003KT 10SM FEW065 20/09 A3034 RMK AO2\ SLP274 T02000089= 201709110151 METAR KLGA 110151Z 00000KT 10SM FEW065 19/09 A3035 RMK AO2\ SLP276 T01940094= 201709110251 METAR KLGA 110251Z 04004KT 10SM FEW250 19/09 A3036 RMK AO2\ SLP279 T01890089 51009= 201709110351 METAR KLGA 110351Z 36005KT 10SM CLR 18/10 A3035 RMK AO2 SLP276\ T01830100= 201709110451 METAR KLGA 110451Z 01007KT 10SM CLR 18/11 A3034 RMK AO2 SLP275\ T01830106 402280150= 201709110551 METAR KLGA 110551Z 01007KT 10SM CLR 17/11 A3032 RMK AO2 SLP267\ T01720111 10206 20172 58012= 201709110651 METAR KLGA 110651Z 36006KT 10SM CLR 17/10 A3031 RMK AO2 SLP265\ T01720100= 201709110751 METAR KLGA 110751Z 02007KT 10SM CLR 16/09 A3031 RMK AO2 SLP263\ T01610089= 201709110851 METAR KLGA 110851Z 36005KT 10SM CLR 16/09 A3031 RMK AO2 SLP264\ T01610089 55003= 201709110951 METAR KLGA 110951Z 02003KT 10SM FEW250 16/09 A3032 RMK AO2\ SLP267 T01560089= 201709111051 METAR KLGA 111051Z 36005KT 10SM SCT250 15/09 A3034 RMK AO2\ SLP274 T01500094= 201709111151 METAR KLGA 111151Z 32004KT 10SM FEW085 SCT250 16/11 A3034\ RMK AO2 SLP275 T01560106 10172 20150\ 51010= 201709111251 METAR KLGA 111251Z 01006KT 10SM BKN250 17/10 A3033 RMK AO2\ SLP269 T01720100= 201709111351 METAR KLGA 111351Z VRB03KT 10SM BKN250 19/10 A3033 RMK AO2\ SLP271 T01890100= 201709111451 METAR KLGA 111451Z 35005KT 10SM BKN250 21/09 A3031 RMK AO2\ SLP264 T02060094 58010= 201709111551 METAR KLGA 111551Z 36005KT 10SM BKN250 21/10 A3027 RMK AO2\ SLP251 T02110100= 201709111651 METAR KLGA 111651Z 31006KT 10SM SCT300 22/08 A3025 RMK AO2\ SLP243 T02220083= 201709111751 METAR KLGA 111751Z 32007KT 10SM FEW300 23/08 A3023 RMK AO2\ SLP237 T02330078 10233 20156 56027= 201709111851 METAR KLGA 111851Z 29005KT 10SM FEW250 24/07 A3020 RMK AO2\ SLP228 T02440072= 201709111951 METAR KLGA 111951Z 34004KT 10SM BKN250 26/08 A3019 RMK AO2\ SLP222 T02560078= 201709112051 METAR KLGA 112051Z 31004KT 10SM BKN250 26/08 A3016 RMK AO2\ SLP214 T02560083 56023= 201709112151 METAR KLGA 112151Z 02009KT 10SM BKN250 24/10 A3015 RMK AO2\ SLP209 T02440100= 201709112251 METAR KLGA 112251Z 02007KT 10SM BKN250 23/09 A3014 RMK AO2\ SLP206 T02280089= 201709112351 METAR KLGA 112351Z 01004KT 10SM BKN250 22/11 A3014 RMK AO2\ SLP205 T02170111 10256 20217 56009= 201709120051 METAR KLGA 120051Z 03003KT 10SM BKN250 22/10 A3015 RMK AO2\ SLP209 T02220100= 201709120151 METAR KLGA 120151Z VRB04KT 10SM BKN250 22/11 A3013 RMK AO2\ SLP204 T02220111= 201709120251 METAR KLGA 120251Z 00000KT 10SM BKN250 21/13 A3013 RMK AO2\ SLP203 T02060128 58002= 201709120351 METAR KLGA 120351Z 34003KT 10SM BKN250 21/13 A3011 RMK AO2\ SLP197 T02060133= 201709120451 METAR KLGA 120451Z 23003KT 10SM BKN250 21/11 A3010 RMK AO2\ SLP193 T02060111 402560150= 201709120551 METAR KLGA 120551Z 00000KT 10SM BKN250 20/11 A3009 RMK AO2\ SLP190 T02000111 10222 20200 56013= 201709120651 METAR KLGA 120651Z 35003KT 10SM BKN250 19/12 A3007 RMK AO2\ SLP181 T01940122= 201709120751 METAR KLGA 120751Z 00000KT 10SM BKN250 19/12 A3006 RMK AO2\ SLP179 T01890122= 201709120851 METAR KLGA 120851Z 31003KT 10SM BKN250 19/13 A3006 RMK AO2\ SLP179 T01890128 56011= 201709120951 METAR KLGA 120951Z 01005KT 10SM SCT200 BKN250 18/14 A3005\ RMK AO2 SLP175 T01780139= 201709121051 METAR KLGA 121051Z 00000KT 10SM SCT220 BKN270 18/14 A3006\ RMK AO2 SLP178 T01780144= 201709121151 METAR KLGA 121151Z 03004KT 10SM SCT210 BKN270 18/14 A3005\ RMK AO2 SLP174 T01830139 10200 20172\ 56005= 201709121251 METAR KLGA 121251Z 01003KT 10SM FEW200 BKN250 19/13 A3004\ RMK AO2 SLP172 T01940133= 201709121351 METAR KLGA 121351Z 01005KT 10SM BKN250 21/13 A3004 RMK AO2\ SLP174 T02110133= 201709121451 METAR KLGA 121451Z 31003KT 10SM BKN250 23/14 A3004 RMK AO2\ SLP171 T02280139 58003= 201709121551 METAR KLGA 121551Z 00000KT 10SM BKN250 24/13 A3002 RMK AO2\ SLP165 T02390133= 201709121651 METAR KLGA 121651Z 00000KT 10SM BKN250 25/14 A3000 RMK AO2\ SLP160 T02500139= 201709121751 METAR KLGA 121751Z 32004KT 10SM BKN250 26/13 A2998 RMK AO2\ SLP153 T02560128 10261 20183 58018= 201709121851 METAR KLGA 121851Z 30005KT 10SM BKN250 27/11 A2997 RMK AO2\ SLP148 T02670111= 201709121951 METAR KLGA 121951Z 28006KT 10SM OVC250 28/11 A2995 RMK AO2\ SLP141 T02780111= 201709122051 METAR KLGA 122051Z VRB04KT 10SM OVC250 28/12 A2992 RMK AO2\ SLP133 T02780122 58020= 201709122151 METAR KLGA 122151Z 30004KT 10SM BKN250 27/11 A2992 RMK AO2\ SLP133 T02720111= 201709122251 METAR KLGA 122251Z VRB03KT 10SM BKN250 26/14 A2992 RMK AO2\ SLP130 T02560139= 201709122351 METAR KLGA 122351Z 19007KT 10SM OVC250 24/15 A2992 RMK AO2\ SLP131 T02440150 10278 20244 55003= 201709130051 METAR KLGA 130051Z 21006KT 10SM BKN250 24/16 A2992 RMK AO2\ SLP130 T02440156= 201709130151 METAR KLGA 130151Z 22004KT 10SM OVC250 24/15 A2991 RMK AO2\ SLP128 T02390150= 201709130251 METAR KLGA 130251Z 21005KT 10SM BKN250 23/15 A2991 RMK AO2\ SLP129 T02330150 55002= 201709130351 METAR KLGA 130351Z 23007KT 10SM BKN250 23/15 A2991 RMK AO2\ SLP127 T02280150= 201709130451 METAR KLGA 130451Z 22004KT 10SM SCT250 22/14 A2991 RMK AO2\ SLP127 T02220144 402780172= 201709130551 METAR KLGA 130551Z 00000KT 10SM SCT250 21/16 A2990 RMK AO2\ SLP126 T02110156 10244 20211 56003= 201709130651 METAR KLGA 130651Z 00000KT 10SM SCT250 21/15 A2991 RMK AO2\ SLP127 T02060150= 201709130751 METAR KLGA 130751Z 00000KT 10SM SCT250 20/15 A2990 RMK AO2\ SLP125 T02000150= 201709130851 METAR KLGA 130851Z 00000KT 10SM FEW250 19/16 A2990 RMK AO2\ SLP125 T01940156 58001= 201709130951 METAR KLGA 130951Z 20003KT 10SM FEW250 19/15 A2991 RMK AO2\ SLP128 T01940150= 201709131051 METAR KLGA 131051Z 24005KT 10SM FEW120 SCT250 19/15 A2993\ RMK AO2 SLP133 T01940150= 201709131151 METAR KLGA 131151Z 31005KT 10SM SCT160 SCT250 21/14 A2992\ RMK AO2 SLP132 T02060144 10217 20194\ 50007= 201709131251 METAR KLGA 131251Z 29004KT 10SM SCT160 SCT250 22/14 A2992\ RMK AO2 SLP132 T02170139= 201709131351 METAR KLGA 131351Z 32005KT 10SM FEW160 FEW250 23/15 A2992\ RMK AO2 SLP130 T02330150= 201709131451 METAR KLGA 131451Z 31004KT 10SM FEW170 FEW250 25/14 A2991\ RMK AO2 SLP128 T02500139 58004= 201709131551 METAR KLGA 131551Z 33004KT 10SM FEW170 FEW250 26/11 A2990\ RMK AO2 SLP123 T02610111= 201709131651 METAR KLGA 131651Z 24008KT 10SM SCT170 BKN250 28/13 A2989\ RMK AO2 SLP121 T02780128= 201709131751 METAR KLGA 131751Z 22007KT 190V250 10SM SCT100 BKN250 28/14\ A2987 RMK AO2 SLP114 T02830144 10289\ 20206 58014= 201709131851 METAR KLGA 131851Z 18010KT 10SM FEW050 SCT100 BKN250 28/17\ A2986 RMK AO2 SLP110 T02830167= 201709131951 METAR KLGA 131951Z 17011KT 10SM FEW033 SCT044 BKN090 26/17\ A2985 RMK AO2 RAB36E50 SLP109 P0000\ T02560167= 201709132051 METAR KLGA 132051Z 20006KT 5SM R04/5000VP6000FT -RA SCT037\ BKN070 OVC090 24/19 A2986 RMK AO2\ RAB1957E08B45 CIG 034 R22 SW SLP110\ P0002 60002 T02390194 55004= 201709132151 METAR KLGA 132151Z 24005KT 10SM OVC035 24/19 A2986 RMK AO2\ RAE15B31E40 SLP111 P0000 T02440194= 201709132251 METAR KLGA 132251Z 22006KT 10SM BKN022 OVC028 23/20 A2986\ RMK AO2 SLP112 T02330200= 201709132351 METAR KLGA 132351Z 20007KT 10SM BKN017 OVC022 23/21 A2986\ RMK AO2 SLP112 60002 T02330206 10283\ 20233 51002= 201709140051 METAR KLGA 140051Z 21004KT 10SM OVC019 23/21 A2987 RMK AO2\ SLP114 T02330211= 201709140151 METAR KLGA 140151Z 20007KT 10SM OVC022 23/21 A2986 RMK AO2\ SLP112 T02330211= 201709140251 METAR KLGA 140251Z 21007KT 10SM BKN024 BKN033 23/21 A2987\ RMK AO2 SLP115 T02330206 53002= 201709140351 METAR KLGA 140351Z 21008KT 10SM BKN015 BKN019 23/21 A2987\ RMK AO2 SLP114 T02280206= 201709140451 METAR KLGA 140451Z 20004KT 10SM SCT011 23/21 A2986 RMK AO2\ SLP111 T02280206 402890194= 201709140551 METAR KLGA 140551Z 21005KT 10SM SCT011 22/21 A2986 RMK AO2\ SLP110 T02220206 10233 20222 58004= 201709140651 METAR KLGA 140651Z 21005KT 10SM SCT011 22/21 A2985 RMK AO2\ SLP108 T02170206= 201709140751 METAR KLGA 140751Z 17005KT 10SM OVC017 22/21 A2985 RMK AO2\ SLP107 T02220206= 201709140851 METAR KLGA 140851Z 17006KT 10SM FEW008 BKN017 OVC021 22/21\ A2986 RMK AO2 SLP111 T02170206 53003= 201709140951 METAR KLGA 140951Z 17007KT 9SM SCT004 BKN017 21/21 A2986\ RMK AO2 SLP111 T02110211= 201709141051 METAR KLGA 141051Z 21008KT 10SM SCT008 SCT017 BKN050 BKN250\ 21/21 A2988 RMK AO2 SLP118 T02110206= 201709141151 METAR KLGA 141151Z 21006KT 10SM FEW008 FEW017 BKN045 BKN250\ 22/20 A2988 RMK AO2 SLP119 70002\ T02170200 10222 20211 53008= 201709141251 METAR KLGA 141251Z 19006KT 10SM FEW018 FEW045 OVC140 22/20\ A2988 RMK AO2 SLP118 T02220200= 201709141351 METAR KLGA 141351Z 19007KT 10SM FEW027 OVC140 23/20 A2989\ RMK AO2 SLP122 T02280200= 201709141451 METAR KLGA 141451Z 19006KT 10SM FEW028 BKN130 24/21 A2989\ RMK AO2 SLP122 T02390206 52003= 201709141551 METAR KLGA 141551Z 17005KT 10SM FEW027 FEW110 BKN150 25/21\ A2988 RMK AO2 SLP119 T02500206= 201709141651 METAR KLGA 141651Z 25005KT 10SM FEW036 SCT095 BKN170 27/18\ A2987 RMK AO2 SLP114 T02670178= 201709141751 METAR KLGA 141751Z 21011G14KT 10SM FEW042 SCT095 SCT250 28/18\ A2986 RMK AO2 SLP110 T02830178 10283\ 20217 58011= 201709141851 METAR KLGA 141851Z 15015KT 10SM FEW038 BKN055 BKN180 27/19\ A2984 RMK AO2 SLP106 T02670189= 201709141951 METAR KLGA 141951Z 17010KT 10SM FEW085 FEW110 27/20 A2984\ RMK AO2 SLP104 T02670200= 201709142051 METAR KLGA 142051Z 16011KT 10SM FEW038 SCT085 BKN110 BKN180\ 26/21 A2984 RMK AO2 SLP104 T02610211\ 56006= 201709142151 METAR KLGA 142151Z VRB06KT 10SM FEW040TCU SCT075 BKN100 27/21\ A2984 RMK AO2 SLP104 TCU OHD T02720206= 201709142251 METAR KLGA 142251Z VRB06KT 10SM SCT048 BKN065 BKN100 27/21\ A2986 RMK AO2 SLP111 T02720206= 201709142351 METAR KLGA 142351Z 26010KT 10SM FEW048 BKN100 BKN250 27/18\ A2988 RMK AO2 SLP119 T02720178 10283\ 20256 53015= 201709150051 METAR KLGA 150051Z 23005KT 10SM SCT045 BKN050 BKN110 26/18\ A2990 RMK AO2 SLP125 T02610178= 201709150151 METAR KLGA 150151Z 26006KT 10SM FEW045 BKN110 26/18 A2991\ RMK AO2 SLP128 T02610183= 201709150251 METAR KLGA 150251Z 26009KT 10SM BKN038 BKN049 BKN110 25/18\ A2993 RMK AO2 SLP133 T02500183 52014= 201709150351 METAR KLGA 150351Z 25008KT 10SM SCT065 SCT110 BKN250 25/17\ A2993 RMK AO2 SLP136 T02500172= 201709150451 METAR KLGA 150451Z 25005KT 10SM BKN080 BKN250 24/17 A2994\ RMK AO2 SLP137 T02440167 402830211= 201709150551 METAR KLGA 150551Z 21006KT 10SM BKN080 BKN250 24/18 A2995\ RMK AO2 SLP141 T02390178 10278 20239\ 53007= 201709150651 METAR KLGA 150651Z 22004KT 10SM FEW080 BKN250 23/18 A2995\ RMK AO2 SLP140 T02330178= 201709150751 METAR KLGA 150751Z 20004KT 10SM FEW080 SCT130 SCT250 22/18\ A2995 RMK AO2 SLP141 T02220178= 201709150851 METAR KLGA 150851Z 31005KT 10SM SCT130 SCT250 22/18 A2995\ RMK AO2 SLP143 T02170178 53002= 201709150951 METAR KLGA 150951Z 31006KT 10SM FEW130 BKN240 22/18 A2998\ RMK AO2 SLP151 T02170178= 201709151051 METAR KLGA 151051Z 32004KT 10SM FEW140 FEW250 21/18 A3000\ RMK AO2 SLP160 T02110178= 201709151151 METAR KLGA 151151Z 28004KT 10SM FEW140 FEW250 22/17 A3002\ RMK AO2 SLP164 T02170172 10239 20211\ 51021= 201709151251 METAR KLGA 151251Z 32003KT 10SM FEW140 FEW250 23/18 A3003\ RMK AO2 SLP169 T02280178= 201709151351 METAR KLGA 151351Z 33003KT 10SM FEW250 24/18 A3005 RMK AO2\ SLP175 T02440178= 201709151451 METAR KLGA 151451Z 04005KT 10SM FEW040 FEW250 26/18 A3005\ RMK AO2 SLP175 T02560178 51011= 201709151551 METAR KLGA 151551Z 19007KT 10SM SCT038 27/17 A3004 RMK AO2\ SLP173 T02670172= 201709151651 METAR KLGA 151651Z 18009KT 10SM FEW040 SCT048 27/18 A3004\ RMK AO2 SLP172 T02670178= 201709151751 METAR KLGA 151751Z 18007KT 10SM FEW042 BKN055 27/18 A3003\ RMK AO2 SLP168 T02670178 10278 20217\ 58007= 201709151851 METAR KLGA 151851Z 19008KT 170V240 10SM BKN041 BKN049 BKN070\ 27/18 A3002 RMK AO2 SLP166 T02720178= 201709151951 METAR KLGA 151951Z 14009KT 10SM SCT041 BKN065 BKN250 27/18\ A3002 RMK AO2 SLP165 T02670183= 201709152051 METAR KLGA 152051Z 16009KT 10SM FEW040 BKN060 27/18 A3002\ RMK AO2 SLP167 T02670183 55001= 201709152151 METAR KLGA 152151Z 18008KT 10SM FEW040 SCT080 26/18 A3004\ RMK AO2 SLP172 T02610183= 201709152251 METAR KLGA 152251Z 17008KT 10SM FEW040 BKN080 25/19 A3005\ RMK AO2 SLP176 T02500189= 201709152351 METAR KLGA 152351Z VRB06KT 10SM FEW040 BKN085 26/19 A3006\ RMK AO2 SLP180 T02560189 10278 20244\ 51013= 201709160051 METAR KLGA 160051Z 12006KT 10SM FEW040 BKN060 OVC080 26/19\ A3007 RMK AO2 SLP183 T02560194= 201709160151 METAR KLGA 160151Z 13004KT 10SM FEW040 BKN085 24/21 A3008\ RMK AO2 SLP184 T02440206= 201709160251 METAR KLGA 160251Z 17004KT 10SM SCT070 23/21 A3009 RMK AO2\ SLP188 T02330206 53008= 201709160351 METAR KLGA 160351Z 18003KT 10SM SCT060 23/21 A3009 RMK AO2\ SLP188 T02330211= 201709160451 METAR KLGA 160451Z 18003KT 10SM FEW060 23/21 A3009 RMK AO2\ SLP190 T02330206 402780211= 201709160551 METAR KLGA 160551Z 08004KT 10SM FEW070 23/22 A3009 RMK AO2\ SLP189 T02280217 10261 20228 50001= 201709160651 METAR KLGA 160651Z 06004KT 6SM BR FEW065 22/21 A3009 RMK\ AO2 SLP189 T02170211= 201709160751 METAR KLGA 160751Z 04005KT 6SM BR FEW060 21/21 A3009 RMK\ AO2 SLP190 T02110211= 201709160851 METAR KLGA 160851Z 05005KT 6SM BR BKN005 21/21 A3010 RMK\ AO2 SLP191 T02110206 53002= 201709160951 METAR KLGA 160951Z 05006KT 5SM BR OVC004 21/21 A3011 RMK\ AO2 SLP195 T02110206= 201709161051 METAR KLGA 161051Z 05005KT 1/2SM R04/P6000FT BR OVC003 21/21\ A3013 RMK AO2 SFC VIS 2 SLP203 T02060206= 201709161151 METAR KLGA 161151Z 06007KT 2SM BR OVC005 21/21 A3014 RMK\ AO2 SFC VIS 3 SLP206 T02060206 10228\ 20206 51016= 201709161251 METAR KLGA 161251Z 04007KT 2SM BR OVC005 21/21 A3016 RMK\ AO2 SFC VIS 4 SLP212 T02110206= 201709161351 METAR KLGA 161351Z 08008KT 5SM BR OVC007 22/21 A3016 RMK\ AO2 SLP213 T02170206 $= 201709161451 METAR KLGA 161451Z 07006KT 5SM HZ BKN007 BKN012 23/19 A3016\ RMK AO2 SLP214 T02330189 51008 $= 201709161551 METAR KLGA 161551Z 07007KT 6SM HZ SCT009 BKN015 23/20 A3016\ RMK AO2 SLP212 T02330194 $= 201709161651 METAR KLGA 161651Z 08007KT 6SM HZ FEW010 BKN018 25/20 A3015\ RMK AO2 SLP210 BKN V SCT T02560206\ $= 201709161751 METAR KLGA 161751Z 05008KT 10SM FEW018 SCT025 24/21 A3013\ RMK AO2 SLP204 T02440211 58010= 201709161851 METAR KLGA 161851Z 06008KT 10SM SCT025 26/21 A3012 RMK AO2\ SLP198 T02610206= 201709161951 METAR KLGA 161951Z 05007KT 10SM SCT025 26/21 A3011 RMK AO2\ SLP196 T02610211= 201709162051 METAR KLGA 162051Z 09008KT 10SM SCT025 27/21 A3012 RMK AO2\ SLP198 T02670211 55006= 201709162151 METAR KLGA 162151Z 16006KT 10SM SCT025 SCT070 SCT100 26/20\ A3012 RMK AO2 SLP200 T02560200= 201709162251 METAR KLGA 162251Z 17010KT 10SM FEW030 SCT100 SCT150 23/20\ A3013 RMK AO2 SLP203 T02330200= 201709162351 METAR KLGA 162351Z 20004KT 10SM SCT130 23/20 A3013 RMK AO2\ SLP203 T02280200 10267 20228 51005= 201709170051 METAR KLGA 170051Z 19004KT 10SM FEW100 22/19 A3014 RMK AO2\ SLP204 T02220194= 201709170151 METAR KLGA 170151Z VRB04KT 10SM CLR 22/20 A3014 RMK AO2 SLP204\ T02220200= 201709170251 METAR KLGA 170251Z 00000KT 10SM FEW007 FEW250 22/20 A3014\ RMK AO2 SLP205 T02170200 51002= 201709170351 METAR KLGA 170351Z 21005KT 10SM FEW007 SCT250 22/20 A3014\ RMK AO2 SLP206 T02170200= 201709170451 METAR KLGA 170451Z 00000KT 8SM FEW007 SCT013 SCT200 22/20\ A3014 RMK AO2 SLP205 T02170200 402670206= 201709170551 METAR KLGA 170551Z 00000KT 6SM BR FEW007 SCT013 SCT200 22/20\ A3013 RMK AO2 SLP202 T02170200 10228\ 20217 58003= 201709170651 METAR KLGA 170651Z 15005KT 7SM FEW007 SCT013 SCT200 22/20\ A3013 RMK AO2 SLP201 T02170200= 201709170751 METAR KLGA 170751Z 16004KT 6SM BR BKN010 21/20 A3013 RMK\ AO2 SLP201 T02110200= 201709170851 METAR KLGA 170851Z 14004KT 6SM BR BKN010 21/20 A3013 RMK\ AO2 SLP201 T02060200 51001= 201709170951 METAR KLGA 170951Z 09004KT 3SM BR OVC006 21/20 A3014 RMK\ AO2 SLP206 T02060200= 201709171051 METAR KLGA 171051Z 06005KT 2SM BR SCT006 BKN009 BKN045 BKN250\ 21/19 A3016 RMK AO2 SLP211 T02060194= 201709171151 METAR KLGA 171151Z 05004KT 2SM BR BKN007 BKN045 BKN250 21/19\ A3017 RMK AO2 SLP215 T02060194 10217\ 20206 51014 $= 201709171251 METAR KLGA 171251Z 07004KT 2SM BR BKN008 BKN045 BKN250 21/19\ A3017 RMK AO2 SLP217 T02060194 $= 201709171351 METAR KLGA 171351Z 06006KT 2 1/2SM BR SCT008 BKN011 BKN050\ BKN250 21/19 A3016 RMK AO2 SFC VIS\ 3 SLP214 T02110194 $= 201709171451 METAR KLGA 171451Z 04007KT 5SM HZ SCT008 BKN016 BKN050 BKN250\ 22/19 A3016 RMK AO2 SLP212 T02220194\ 58004 $= 201709171551 METAR KLGA 171551Z 04005KT 7SM FEW016 SCT055 SCT130 BKN250\ 23/19 A3015 RMK AO2 SLP208 T02330194\ $= 201709171651 METAR KLGA 171651Z 06009KT 7SM FEW022 SCT050 SCT250 24/19\ A3014 RMK AO2 SLP205 T02440194 $= 201709171751 METAR KLGA 171751Z 05009KT 7SM FEW020 SCT050 SCT250 25/20\ A3013 RMK AO2 SLP202 T02500200 10250\ 20206 57010 $= 201709171851 METAR KLGA 171851Z 04009KT 10SM SCT050 SCT250 26/19 A3012\ RMK AO2 SLP199 T02610189 $= 201709171951 METAR KLGA 171951Z 05008KT 10SM SCT050 27/18 A3010 RMK AO2\ SLP193 T02670183 $= 201709172051 METAR KLGA 172051Z 15007KT 090V170 10SM SCT050 26/19 A3010\ RMK AO2 SLP191 T02560194 56010 $= 201709172151 METAR KLGA 172151Z 12007KT 080V150 10SM CLR 26/20 A3009 RMK\ AO2 SLP190 T02610200 $= 201709172251 METAR KLGA 172251Z 17009KT 10SM SCT026 23/19 A3009 RMK AO2\ SLP190 T02330194 $= 201709172351 METAR KLGA 172351Z 15008KT 10SM FEW026 22/19 A3010 RMK AO2\ SLP193 T02220189 10272 20222 53002\ $= 201709180051 METAR KLGA 180051Z 18005KT 10SM CLR 22/19 A3012 RMK AO2 SLP198\ T02170189 $= 201709180151 METAR KLGA 180151Z 12005KT 10SM OVC013 22/19 A3012 RMK AO2\ SLP201 T02170189 $= 201709180251 METAR KLGA 180251Z 09004KT 10SM BKN013 BKN023 21/19 A3013\ RMK AO2 SLP202 T02110189 51008 $= 201709180351 METAR KLGA 180351Z 08004KT 10SM BKN013 BKN021 21/19 A3012\ RMK AO2 SLP201 T02060189 $= 201709180451 METAR KLGA 180451Z 03004KT 10SM OVC013 21/19 A3011 RMK AO2\ SLP197 T02110194 402720206 $= 201709180551 METAR KLGA 180551Z 08006KT 10SM OVC010 21/19 A3012 RMK AO2\ SLP198 T02110194 10228 20206 55004\ $= 201709180651 METAR KLGA 180651Z 09007KT 10SM OVC014 21/19 A3011 RMK AO2\ SLP194 T02110189 $= 201709180751 METAR KLGA 180751Z 09007KT 10SM OVC017 21/18 A3009 RMK AO2\ SLP190 T02060183 $= 201709180851 METAR KLGA 180851Z 06008KT 10SM OVC012 21/18 A3009 RMK AO2\ SLP190 T02060183 56008 $= 201709180951 METAR KLGA 180951Z 04006KT 10SM OVC010 21/19 A3009 RMK AO2\ SLP191 T02060189 $= 201709181051 METAR KLGA 181051Z 05011KT 10SM OVC010 21/19 A3011 RMK AO2\ SLP197 T02060194 $= 201709181151 METAR KLGA 181151Z 06009KT 2SM R04/6000VP6000FT -DZ BR BKN008\ OVC013 20/19 A3013 RMK AO2 DZB30RAB40E47\ SLP201 P0000 60000 T02000194 10211\ 20200 51011 $= 201709181251 METAR KLGA 181251Z 05013KT 2 1/2SM -RA BR OVC005 20/19 A3013\ RMK AO2 SFC VIS 3 VIS 2 R22 SW DZE03B15E43RAB43\ SLP202 P0000 T02000194 $= 201709181351 METAR KLGA 181351Z 05011KT 8SM OVC006 21/19 A3013 RMK AO2\ RAE33 SLP203 P0000 T02060189= 201709181451 METAR KLGA 181451Z 05013KT 10SM OVC009 21/19 A3012 RMK AO2\ SLP200 60000 T02110189 58001= 201709181551 METAR KLGA 181551Z 05012KT 10SM FEW008 OVC010 22/19 A3012\ RMK AO2 SLP200 T02170194= 201709181651 METAR KLGA 181651Z 05011KT 10SM OVC011 22/19 A3011 RMK AO2\ SLP196 T02220194= 201709181751 METAR KLGA 181751Z 06012KT 10SM OVC011 22/19 A3010 RMK AO2\ SLP193 60000 T02170189 10228 20200\ 58007= 201709181851 METAR KLGA 181851Z 06011KT 10SM OVC013 22/19 A3010 RMK AO2\ SLP191 T02220194= 201709181951 METAR KLGA 181951Z 06011KT 10SM OVC014 22/19 A3009 RMK AO2\ SLP189 T02220194= 201709182051 METAR KLGA 182051Z 08008KT 10SM BKN014 OVC026 23/19 A3008\ RMK AO2 SLP187 T02280194 58006= 201709182151 METAR KLGA 182151Z 06008KT 10SM FEW015 OVC026 23/19 A3008\ RMK AO2 SLP186 T02330194= 201709182251 METAR KLGA 182251Z 06011KT 10SM OVC019 23/19 A3008 RMK AO2\ SLP187 T02280194= 201709182351 METAR KLGA 182351Z 09010KT 10SM BKN027 BKN036 BKN250 22/19\ A3009 RMK AO2 SLP189 T02220194 10233\ 20217 53002= 201709190051 METAR KLGA 190051Z 06008KT 10SM SCT027 SCT035 BKN150 BKN250\ 22/20 A3009 RMK AO2 SLP190 T02220200= 201709190151 METAR KLGA 190151Z 05008KT 10SM SCT025 BKN031 BKN150 OVC250\ 22/20 A3009 RMK AO2 SLP188 T02170200= 201709190251 METAR KLGA 190251Z 04011KT 10SM OVC015 22/21 A3007 RMK AO2\ SLP184 T02170206 58006= 201709190351 METAR KLGA 190351Z 04012KT 10SM OVC013 22/20 A3007 RMK AO2\ SLP181 T02170200= 201709190451 METAR KLGA 190451Z 04012KT 10SM OVC012 22/19 A3006 RMK AO2\ SLP178 T02170194 402330200= 201709190551 METAR KLGA 190551Z 05014KT 10SM OVC011 22/20 A3005 RMK AO2\ SLP174 T02170200 10222 20217 58009= 201709190651 METAR KLGA 190651Z 05013KT 10SM OVC010 22/20 A3003 RMK AO2\ SLP168 T02170200= 201709190751 METAR KLGA 190751Z 04013KT 10SM OVC010 22/20 A3002 RMK AO2\ SLP167 T02170200= 201709190851 METAR KLGA 190851Z 05014KT 10SM OVC011 22/20 A3001 RMK AO2\ SLP163 T02170200 56012 $= 201709190951 METAR KLGA 190951Z 04013KT 10SM OVC012 22/19 A3001 RMK AO2\ SLP162 T02170194 $= 201709191051 METAR KLGA 191051Z 03013G19KT 10SM OVC014 22/19 A3001 RMK\ AO2 SLP161 T02170194 $= 201709191151 METAR KLGA 191151Z 04014KT 10SM OVC016 22/19 A3000 RMK AO2\ SLP159 T02170189 10217 20217 58004\ $= 201709191251 METAR KLGA 191251Z 04014G21KT 10SM BKN017 BKN150 22/19 A3000\ RMK AO2 SLP160 T02220189 $= 201709191351 METAR KLGA 191351Z 04016KT 10SM BKN020 BKN150 23/19 A3001\ RMK AO2 SLP160 T02280189= 201709191451 METAR KLGA 191451Z 05019G25KT 10SM SCT019 BKN160 23/19 A2999\ RMK AO2 PK WND 04026/1437 SLP157\ T02330189 58003= 201709191551 METAR KLGA 191551Z 06014KT 10SM SCT028 BKN110 23/19 A2999\ RMK AO2 RAB36E46 SLP154 P0000 T02330189= 201709191651 METAR KLGA 191651Z 05015G24KT 10SM SCT026 BKN100 24/18 A2997\ RMK AO2 SLP147 T02440183= 201709191751 METAR KLGA 191751Z 05019G25KT 10SM FEW028 SCT060 OVC100 25/18\ A2994 RMK AO2 PK WND 05027/1733 SLP137\ 60000 T02500183 10256 20217 58020= 201709191851 METAR KLGA 191851Z 05017KT 9SM -RA BKN034 BKN043 OVC050 23/19\ A2992 RMK AO2 RAB05 SLP132 P0000\ T02330194= 201709191951 METAR KLGA 191951Z 04013KT 6SM -RA BR FEW024 BKN060 OVC080\ 22/20 A2991 RMK AO2 SLP127 P0014\ T02170200= 201709192051 METAR KLGA 192051Z 02014G19KT 10SM -RA SCT044 BKN075 OVC120\ 23/19 A2989 RMK AO2 SLP122 P0004\ 60018 T02280194 56015= 201709192151 METAR KLGA 192151Z 02016G21KT 10SM BKN060 OVC075 23/19 A2988\ RMK AO2 RAE2052 SLP119 P0000 T02330189= 201709192251 METAR KLGA 192251Z 03018G24KT 8SM -RA SCT021 BKN032 OVC039\ 23/19 A2988 RMK AO2 PK WND 01027/2213\ RAB50 SLP118 P0000 T02280189= 201709192351 METAR KLGA 192351Z 02013KT 10SM FEW020 BKN031 OVC047 22/19\ A2987 RMK AO2 RAE35 SLP115 P0001\ 60019 T02170189 10256 20206 56007= 201709200051 METAR KLGA 200051Z 03015G23KT 10SM BKN027 OVC055 22/19 A2988\ RMK AO2 RAB23E33 SLP118 P0000 T02220189= 201709200151 METAR KLGA 200151Z 02013G21KT 10SM OVC035 22/19 A2987 RMK\ AO2 SLP116 T02220189= 201709200251 METAR KLGA 200251Z 01011G18KT 10SM SCT029 OVC033 22/19 A2986\ RMK AO2 SLP110 60000 T02220189 58005= 201709200351 METAR KLGA 200351Z 02010KT 10SM SCT029 OVC031 22/19 A2985\ RMK AO2 SLP107 T02220189= 201709200451 METAR KLGA 200451Z 02012KT 10SM OVC034 22/18 A2984 RMK AO2\ SLP106 T02220183 402560206= 201709200551 METAR KLGA 200551Z 02012KT 10SM FEW026 OVC034 22/18 A2984\ RMK AO2 SLP104 60000 T02220183 10233\ 20217 56006 $= 201709200651 METAR KLGA 200651Z 36010KT 10SM BKN030 OVC035 22/18 A2982\ RMK AO2 SLP096 T02220183 $= 201709200751 METAR KLGA 200751Z 01010KT 10SM BKN250 22/18 A2979 RMK AO2\ SLP088 T02170183 $= 201709200851 METAR KLGA 200851Z 01011G18KT 10SM BKN030 BKN250 22/18 A2980\ RMK AO2 SLP091 T02220183 55013 $= 201709200951 METAR KLGA 200951Z 35011G19KT 10SM BKN027 BKN250 22/18 A2981\ RMK AO2 SLP095 T02220183 $= 201709201051 METAR KLGA 201051Z 36013G20KT 10SM BKN028 OVC250 22/18 A2983\ RMK AO2 SLP099 T02170183 $= 201709201151 METAR KLGA 201151Z 36013G23KT 10SM BKN026 BKN250 22/18 A2984\ RMK AO2 SLP104 70019 T02220183 10222\ 20217 53013 $= 201709201251 METAR KLGA 201251Z 36015KT 10SM BKN027 BKN250 22/18 A2986\ RMK AO2 SLP112 T02220183 $= 201709201351 METAR KLGA 201351Z 36016KT 10SM FEW025 BKN250 23/18 A2987\ RMK AO2 SLP114 T02330183 $= 201709201451 METAR KLGA 201451Z 36013G21KT 10SM BKN029 BKN250 24/18 A2987\ RMK AO2 SLP113 T02390183 50009 $= 201709201551 METAR KLGA 201551Z 35014KT 10SM SCT030 BKN250 24/19 A2986\ RMK AO2 SLP111 T02440189 $= 201709201651 METAR KLGA 201651Z 35015G22KT 10SM BKN035 BKN250 25/19 A2987\ RMK AO2 SLP114 T02500189 $= 201709201751 METAR KLGA 201751Z 35016G22KT 10SM BKN038 BKN250 25/19 A2986\ RMK AO2 SLP111 T02500189 10250 20222\ 58003 $= 201709201851 METAR KLGA 201851Z 35013G21KT 10SM BKN036 26/19 A2985 RMK\ AO2 SLP109 T02560189= 201709201951 METAR KLGA 201951Z 34017G24KT 10SM FEW036 BKN250 26/18 A2987\ RMK AO2 PK WND 35026/1929 SLP115\ T02560183= 201709202051 METAR KLGA 202051Z 35012G20KT 10SM OVC040 26/19 A2988 RMK\ AO2 SLP117 T02560189 53007= 201709202151 METAR KLGA 202151Z 36012G22KT 10SM BKN045 OVC095 26/18 A2989\ RMK AO2 SLP120 T02560183= 201709202251 METAR KLGA 202251Z 36014KT 10SM FEW045 SCT150 BKN250 26/18\ A2989 RMK AO2 SLP121 T02560183= 201709202351 METAR KLGA 202351Z 01010KT 10SM FEW150 BKN250 25/18 A2990\ RMK AO2 SLP124 T02500183 10256 20244\ 53007= 201709210051 METAR KLGA 210051Z 35009KT 10SM FEW100 SCT150 BKN250 25/18\ A2991 RMK AO2 SLP127 T02500178= 201709210151 METAR KLGA 210151Z 35010KT 10SM BKN050 BKN150 BKN250 24/18\ A2991 RMK AO2 SLP129 T02440183= 201709210251 METAR KLGA 210251Z 34008KT 10SM FEW046 OVC250 24/18 A2992\ RMK AO2 SLP131 T02440183 51006= 201709210351 METAR KLGA 210351Z 34011KT 10SM BKN250 24/18 A2992 RMK AO2\ SLP133 T02390183= 201709210451 METAR KLGA 210451Z 33009KT 10SM BKN250 23/18 A2993 RMK AO2\ SLP135 T02330178 402560217= 201709210551 METAR KLGA 210551Z 33011KT 10SM OVC250 23/18 A2994 RMK AO2\ SLP137 T02330183 10250 20233 51006= 201709210651 METAR KLGA 210651Z 34009KT 10SM OVC240 23/18 A2993 RMK AO2\ SLP134 T02280183= 201709210751 METAR KLGA 210751Z 35011KT 10SM OVC240 23/19 A2994 RMK AO2\ SLP138 T02280189= 201709210851 METAR KLGA 210851Z 35010G19KT 10SM OVC240 23/18 A2994 RMK\ AO2 SLP140 T02280183 53003= 201709210951 METAR KLGA 210951Z 35012KT 10SM OVC250 23/18 A2995 RMK AO2\ SLP142 T02280183= 201709211051 METAR KLGA 211051Z 33012KT 10SM OVC250 23/18 A2997 RMK AO2\ SLP148 T02280183= 201709211151 METAR KLGA 211151Z 34011KT 10SM FEW150 BKN250 22/18 A2998\ RMK AO2 SLP152 T02220183 10233 20222\ 53013= 201709211251 METAR KLGA 211251Z 34011KT 10SM FEW150 BKN250 23/18 A2999\ RMK AO2 SLP157 T02330183= 201709211351 METAR KLGA 211351Z 36012KT 10SM FEW040 SCT150 BKN250 24/18\ A3001 RMK AO2 SLP161 T02390183= 201709211451 METAR KLGA 211451Z 01010KT 10SM FEW040 SCT150 OVC250 24/18\ A3001 RMK AO2 SLP163 T02440178 51010= 201709211551 METAR KLGA 211551Z 36011KT 10SM FEW040 SCT150 OVC250 26/18\ A3000 RMK AO2 SLP160 T02610178= 201709211651 METAR KLGA 211651Z 03011G18KT 10SM FEW042 BKN180 BKN250 26/17\ A3000 RMK AO2 SLP158 T02610172= 201709211751 METAR KLGA 211751Z 34010KT 10SM FEW038 FEW150 BKN220 26/18\ A2998 RMK AO2 SLP152 T02610178 10261\ 20222 58011= 201709211851 METAR KLGA 211851Z 33009KT 10SM FEW035 SCT160 BKN210 26/18\ A2998 RMK AO2 SLP152 T02610183= 201709211951 METAR KLGA 211951Z 35011KT 10SM FEW035 FEW160 OVC250 26/18\ A2997 RMK AO2 SLP150 T02610178= 201709212051 METAR KLGA 212051Z 36012KT 10SM FEW035 FEW160 OVC250 26/17\ A2999 RMK AO2 SLP154 T02610172 53002= 201709212151 METAR KLGA 212151Z 01009KT 10SM FEW040 FEW170 OVC250 26/17\ A2999 RMK AO2 SLP155 T02560172= 201709212251 METAR KLGA 212251Z 36007KT 10SM FEW040 BKN240 25/18 A2999\ RMK AO2 SLP155 T02500178= 201709212351 METAR KLGA 212351Z 01006KT 10SM BKN250 24/18 A3000 RMK AO2\ SLP159 T02440178 10261 20244 53005= 201709220051 METAR KLGA 220051Z 36009KT 10SM SCT060 BKN250 24/18 A3001\ RMK AO2 SLP162 T02390178 $= 201709220151 METAR KLGA 220151Z 03006KT 10SM SCT050 BKN250 24/18 A3002\ RMK AO2 SLP164 T02390178 $= 201709220251 METAR KLGA 220251Z 03007KT 10SM FEW055 BKN250 23/18 A3001\ RMK AO2 SLP163 T02280183 50004 $= 201709220351 METAR KLGA 220351Z 01008KT 10SM OVC250 23/16 A3000 RMK AO2\ SLP159 T02280156 $= 201709220451 METAR KLGA 220451Z 02010KT 10SM OVC250 22/14 A3000 RMK AO2\ SLP159 T02220139 402610222 $= 201709220551 METAR KLGA 220551Z 02011KT 10SM OVC250 22/11 A3001 RMK AO2\ SLP162 T02170111 10244 20217 55001\ $= 201709220651 METAR KLGA 220651Z 01013KT 10SM OVC250 21/11 A3000 RMK AO2\ SLP157 T02110111 $= 201709220751 METAR KLGA 220751Z 35009KT 10SM BKN250 21/11 A2998 RMK AO2\ SLP153 T02060106 $= 201709220851 METAR KLGA 220851Z 36009KT 10SM BKN070 BKN250 21/10 A2998\ RMK AO2 SLP153 T02060100 55009 $= 201709220951 METAR KLGA 220951Z 36010KT 10SM FEW075 BKN180 20/10 A3000\ RMK AO2 SLP157 T02000100 $= 201709221051 METAR KLGA 221051Z 01013KT 10SM FEW080 BKN180 BKN250 20/10\ A3000 RMK AO2 SLP159 T02000100 $= 201709221151 METAR KLGA 221151Z 36011G20KT 10SM FEW080 BKN180 BKN250 20/11\ A3001 RMK AO2 SLP161 T02000106 10217\ 20200 51008 $= 201709221251 METAR KLGA 221251Z 36012KT 10SM FEW085 SCT180 BKN250 21/10\ A3001 RMK AO2 SLP163 T02110100 $= 201709221351 METAR KLGA 221351Z 35013G21KT 10SM FEW085 FEW180 SCT250 22/10\ A3001 RMK AO2 SLP162 T02170100 $= 201709221451 METAR KLGA 221451Z 34016G23KT 10SM FEW090 FEW180 SCT250 23/11\ A3000 RMK AO2 SLP159 T02280106 58002= 201709221551 METAR KLGA 221551Z 35014G21KT 10SM FEW080 FEW180 SCT250 24/12\ A2999 RMK AO2 SLP154 T02390122= 201709221651 METAR KLGA 221651Z 35017KT 10SM FEW080 FEW180 FEW250 26/13\ A2997 RMK AO2 SLP149 T02560133= 201709221751 METAR KLGA 221751Z 35014KT 10SM FEW080 FEW180 SCT250 26/13\ A2995 RMK AO2 SLP143 T02610133 10261\ 20200 58016= 201709221851 METAR KLGA 221851Z 35012G21KT 10SM FEW080 SCT250 27/14 A2994\ RMK AO2 SLP139 T02670144= 201709221951 METAR KLGA 221951Z 36015G21KT 10SM FEW060 SCT100 SCT250 27/14\ A2994 RMK AO2 SLP137 T02670139= 201709222051 METAR KLGA 222051Z 34017G23KT 10SM FEW060 SCT090 SCT250 27/13\ A2993 RMK AO2 SLP134 T02670133 56009= 201709222151 METAR KLGA 222151Z 35012KT 10SM FEW060 SCT095 SCT250 26/14\ A2993 RMK AO2 SLP136 T02610144= 201709222251 METAR KLGA 222251Z 35013G19KT 10SM FEW060 SCT095 BKN250 26/14\ A2993 RMK AO2 SLP135 T02560144= 201709222351 METAR KLGA 222351Z 36010G17KT 10SM FEW060 SCT095 BKN250 25/13\ A2995 RMK AO2 SLP141 T02500133 10272\ 20250 53006= 201709230051 METAR KLGA 230051Z 36011G17KT 10SM SCT048 SCT100 BKN250 24/13\ A2996 RMK AO2 SLP145 T02440128= 201709230151 METAR KLGA 230151Z 36008KT 10SM FEW048 SCT100 SCT250 23/13\ A2996 RMK AO2 SLP146 T02330133= 201709230251 METAR KLGA 230251Z 36009KT 10SM FEW250 23/14 A2997 RMK AO2\ SLP147 T02280139 51006= 201709230351 METAR KLGA 230351Z 01009KT 10SM FEW250 23/14 A2997 RMK AO2\ SLP150 T02280139= 201709230451 METAR KLGA 230451Z 01007KT 10SM FEW250 22/14 A2998 RMK AO2\ SLP151 T02220139 402720200= 201709230551 METAR KLGA 230551Z 01010KT 10SM OVC030 22/14 A2998 RMK AO2\ SLP151 T02220144 10250 20222 51004= 201709230651 METAR KLGA 230651Z 36011KT 10SM SCT026 22/13 A2997 RMK AO2\ SLP148 T02220133= 201709230751 METAR KLGA 230751Z 36011KT 10SM FEW026 FEW250 22/14 A2997\ RMK AO2 SLP148 T02220139= 201709230851 METAR KLGA 230851Z 34010KT 10SM FEW026 22/14 A2998 RMK AO2\ SLP150 T02170139 55001= 201709230951 METAR KLGA 230951Z 35011KT 10SM FEW026 22/13 A2998 RMK AO2\ SLP152 T02170133= 201709231051 METAR KLGA 231051Z 34006KT 10SM FEW026 FEW250 21/13 A2999\ RMK AO2 SLP156 T02110133= 201709231151 METAR KLGA 231151Z 36007KT 10SM FEW026 FEW200 FEW260 22/13\ A3000 RMK AO2 SLP159 T02170133 10222\ 20211 53008= 201709231251 METAR KLGA 231251Z 34011KT 10SM FEW200 23/14 A3003 RMK AO2\ SLP169 T02280139= 201709231351 METAR KLGA 231351Z 34014G19KT 10SM FEW250 23/13 A3005 RMK\ AO2 SLP175 T02330133= 201709231451 METAR KLGA 231451Z 01010G20KT 10SM FEW060 FEW250 25/13 A3005\ RMK AO2 SLP176 T02500133 51018= 201709231551 METAR KLGA 231551Z 36013G19KT 10SM FEW060 FEW250 27/14 A3004\ RMK AO2 SLP172 T02670139= 201709231651 METAR KLGA 231651Z 36013G20KT 10SM FEW060 FEW120 FEW250 27/13\ A3003 RMK AO2 SLP170 T02720133= 201709231751 METAR KLGA 231751Z 36012KT 10SM FEW060 FEW250 28/11 A3002\ RMK AO2 SLP165 T02830111 10283 20222\ 58012= 201709231851 METAR KLGA 231851Z 35012KT 10SM FEW060 FEW250 29/11 A3000\ RMK AO2 SLP160 T02940106= 201709231951 METAR KLGA 231951Z 36014G20KT 10SM FEW250 29/09 A2999 RMK\ AO2 SLP156 T02940089= 201709232051 METAR KLGA 232051Z 36008KT 10SM FEW250 30/10 A2999 RMK AO2\ SLP156 T03000100 56009= 201709232151 METAR KLGA 232151Z 36008KT 10SM FEW250 29/11 A2999 RMK AO2\ SLP156 T02940111= 201709232251 METAR KLGA 232251Z 36006KT 10SM CLR 28/12 A3000 RMK AO2 SLP159\ T02830117= 201709232351 METAR KLGA 232351Z 36004KT 10SM CLR 27/11 A3002 RMK AO2 SLP164\ T02720111 10300 20272 53008= 201709240051 METAR KLGA 240051Z 34003KT 10SM CLR 27/12 A3002 RMK AO2 SLP166\ T02670122= 201709240151 METAR KLGA 240151Z 36003KT 10SM CLR 25/14 A3003 RMK AO2 SLP167\ T02500144= 201709240251 METAR KLGA 240251Z 35003KT 10SM CLR 24/15 A3003 RMK AO2 SLP170\ T02440150 52005= 201709240351 METAR KLGA 240351Z 00000KT 10SM CLR 24/14 A3003 RMK AO2 SLP170\ T02440139= 201709240451 METAR KLGA 240451Z 01003KT 10SM CLR 23/16 A3003 RMK AO2 SLP169\ T02330156 403000211= 201709240551 METAR KLGA 240551Z 04003KT 10SM CLR 23/14 A3003 RMK AO2 SLP170\ T02280144 10272 20228 53000= 201709240651 METAR KLGA 240651Z 00000KT 10SM CLR 22/17 A3003 RMK AO2 SLP169\ T02220167= 201709240751 METAR KLGA 240751Z 00000KT 10SM CLR 22/16 A3003 RMK AO2 SLP169\ T02220156= 201709240851 METAR KLGA 240851Z 03003KT 10SM CLR 22/16 A3004 RMK AO2 SLP172\ T02220161 53002= 201709240951 METAR KLGA 240951Z 00000KT 10SM CLR 22/15 A3004 RMK AO2 SLP174\ T02220150= 201709241051 METAR KLGA 241051Z 00000KT 10SM CLR 22/16 A3006 RMK AO2 SLP179\ T02170161= 201709241151 METAR KLGA 241151Z 02003KT 10SM CLR 23/16 A3007 RMK AO2 SLP183\ T02280161 10228 20217 53010= 201709241251 METAR KLGA 241251Z 02005KT 10SM CLR 25/17 A3007 RMK AO2 SLP183\ T02500167= 201709241351 METAR KLGA 241351Z 06004KT 10SM CLR 26/17 A3007 RMK AO2 SLP183\ T02610172= 201709241451 METAR KLGA 241451Z 34004KT 10SM CLR 29/18 A3007 RMK AO2 SLP181\ T02890178 58002= 201709241551 METAR KLGA 241551Z 05004KT 10SM CLR 31/18 A3006 RMK AO2 SLP179\ T03060183= 201709241651 METAR KLGA 241651Z 06008KT 10SM CLR 31/18 A3005 RMK AO2 SLP176\ T03060178= 201709241751 METAR KLGA 241751Z 04006KT 10SM CLR 31/18 A3004 RMK AO2 SLP173\ T03110183 10311 20228 58008= 201709241851 METAR KLGA 241851Z VRB04KT 10SM FEW055 32/18 A3003 RMK AO2\ SLP168 T03220183= 201709241951 METAR KLGA 241951Z 02004KT 10SM FEW300 32/18 A3001 RMK AO2\ SLP163 T03220178= 201709242051 METAR KLGA 242051Z 05004KT 10SM FEW055 FEW300 32/18 A3000\ RMK AO2 SLP159 T03170178 56014= 201709242151 METAR KLGA 242151Z 17008KT 10SM FEW049 FEW300 30/18 A3001\ RMK AO2 SLP162 T03000183= 201709242251 METAR KLGA 242251Z 16008KT 10SM FEW042 FEW250 28/17 A3001\ RMK AO2 SLP163 T02830172= 201709242351 METAR KLGA 242351Z 20006KT 10SM FEW250 26/16 A3003 RMK AO2\ SLP169 T02610156 10328 20261 53009= 201709250051 METAR KLGA 250051Z 18006KT 10SM FEW250 25/17 A3004 RMK AO2\ SLP173 T02500172= 201709250151 METAR KLGA 250151Z 18005KT 10SM FEW250 25/17 A3005 RMK AO2\ SLP175 T02500172= 201709250251 METAR KLGA 250251Z 18003KT 10SM FEW250 25/17 A3004 RMK AO2\ SLP174 T02500172 50005= 201709250351 METAR KLGA 250351Z 00000KT 10SM CLR 24/18 A3003 RMK AO2 SLP170\ T02440178= 201709250451 METAR KLGA 250451Z 06004KT 10SM CLR 23/19 A3003 RMK AO2 SLP169\ T02330194 403280217= 201709250551 METAR KLGA 250551Z 07004KT 10SM CLR 23/18 A3002 RMK AO2 SLP164\ T02280183 10267 20228 58010= 201709250651 METAR KLGA 250651Z 06003KT 10SM CLR 23/18 A3001 RMK AO2 SLP162\ T02280183= 201709250751 METAR KLGA 250751Z 06004KT 10SM CLR 22/20 A3001 RMK AO2 SLP161\ T02220200= 201709250851 METAR KLGA 250851Z 00000KT 10SM CLR 22/20 A3001 RMK AO2 SLP162\ T02220200 55002= 201709250951 METAR KLGA 250951Z 00000KT 10SM CLR 22/19 A3002 RMK AO2 SLP166\ T02220189= 201709251051 METAR KLGA 251051Z 05005KT 10SM FEW250 23/19 A3004 RMK AO2\ SLP173 T02280189= 201709251151 METAR KLGA 251151Z 06003KT 10SM FEW250 23/19 A3006 RMK AO2\ SLP178 T02280194 10233 20222 53016= 201709251251 METAR KLGA 251251Z 04005KT 10SM CLR 24/19 A3007 RMK AO2 SLP181\ T02440189= 201709251351 METAR KLGA 251351Z 05007KT 10SM CLR 25/19 A3007 RMK AO2 SLP184\ T02500189= 201709251451 METAR KLGA 251451Z 05007KT 10SM CLR 26/19 A3007 RMK AO2 SLP182\ T02610189 50004= 201709251551 METAR KLGA 251551Z 06008KT 10SM CLR 27/19 A3006 RMK AO2 SLP178\ T02720194= 201709251651 METAR KLGA 251651Z 05008KT 10SM FEW250 28/20 A3005 RMK AO2\ SLP176 T02780200= 201709251751 METAR KLGA 251751Z 05008KT 10SM FEW040 FEW250 28/20 A3003\ RMK AO2 SLP170 T02830200 10289 20228\ 58012= 201709251851 METAR KLGA 251851Z 05008KT 10SM FEW040 FEW250 29/20 A3002\ RMK AO2 SLP165 T02890200= 201709251951 METAR KLGA 251951Z 04010KT 10SM FEW050 29/19 A3001 RMK AO2\ SLP161 T02940194= 201709252051 METAR KLGA 252051Z 05008KT 10SM FEW050 29/19 A3001 RMK AO2\ SLP161 T02890194 56009 $= 201709252151 METAR KLGA 252151Z 16009KT 10SM FEW050 FEW250 28/18 A3001\ RMK AO2 SLP162 T02780183 $= 201709252251 METAR KLGA 252251Z 16011KT 10SM FEW050 FEW250 26/18 A3001\ RMK AO2 SLP164 T02610183 $= 201709252351 METAR KLGA 252351Z 17008KT 10SM CLR 24/18 A3003 RMK AO2 SLP170\ T02440178 10300 20244 53009 $= 201709260051 METAR KLGA 260051Z 14005KT 10SM FEW250 23/18 A3005 RMK AO2\ SLP174 T02280183 $= 201709260151 METAR KLGA 260151Z VRB04KT 10SM FEW250 23/18 A3005 RMK AO2\ SLP174 T02280183 $= 201709260251 METAR KLGA 260251Z 09004KT 10SM SCT250 22/18 A3003 RMK AO2\ SLP169 T02220183 58001 $= 201709260351 METAR KLGA 260351Z 00000KT 10SM SCT250 22/19 A3002 RMK AO2\ SLP166 T02170189 $= 201709260451 METAR KLGA 260451Z 12004KT 10SM SCT250 22/19 A3002 RMK AO2\ SLP166 T02170189 403000217 $= 201709260551 METAR KLGA 260551Z 10005KT 10SM FEW250 22/19 A3004 RMK AO2\ SLP171 T02170189 10244 20217 53002\ $= 201709260651 METAR KLGA 260651Z 16005KT 10SM OVC015 21/19 A3004 RMK AO2\ SLP171 T02110189 $= 201709260751 METAR KLGA 260751Z 08004KT 10SM OVC013 21/19 A3003 RMK AO2\ SLP168 T02110194 $= 201709260851 METAR KLGA 260851Z 03005KT 10SM OVC009 21/19 A3002 RMK AO2\ SLP166 T02060189 58005 $= 201709260951 METAR KLGA 260951Z 08007KT 10SM FEW009 BKN250 21/19 A3002\ RMK AO2 SLP165 T02060194 $= 201709261051 METAR KLGA 261051Z 03005KT 10SM BKN006 OVC250 21/19 A3003\ RMK AO2 SLP170 T02110194 $= 201709261151 METAR KLGA 261151Z 04008KT 10SM OVC004 21/20 A3004 RMK AO2\ SLP171 T02060200 10217 20200 53005\ $= 201709261251 METAR KLGA 261251Z 06007KT 10SM OVC005 22/20 A3005 RMK AO2\ SLP176 T02170200 $= 201709261351 METAR KLGA 261351Z VRB05KT 10SM OVC007 22/20 A3006 RMK AO2\ SLP178 T02170200 $= 201709261451 METAR KLGA 261451Z 03004KT 10SM SCT007 BKN010 BKN250 23/21\ A3005 RMK AO2 SLP176 T02280206 50006\ $= 201709261551 METAR KLGA 261551Z 05005KT 10SM FEW014 BKN250 24/20 A3004\ RMK AO2 SLP171 T02440200 $= 201709261651 METAR KLGA 261651Z 06005KT 10SM FEW019 BKN250 26/20 A3002\ RMK AO2 SLP165 T02560200 $= 201709261751 METAR KLGA 261751Z 05007KT 10SM FEW024 BKN250 27/21 A3000\ RMK AO2 SLP158 T02720211 10272 20206\ 58019 $= 201709261851 METAR KLGA 261851Z 05008KT 10SM FEW030 BKN250 27/21 A2999\ RMK AO2 SLP155 T02670206 $= 201709261951 METAR KLGA 261951Z 05009KT 10SM FEW030 BKN250 26/20 A2998\ RMK AO2 SLP150 T02610200 $= 201709262051 METAR KLGA 262051Z 07005KT 10SM FEW030 BKN250 27/19 A2997\ RMK AO2 SLP148 T02720194 56010 $= 201709262151 METAR KLGA 262151Z 04007KT 10SM FEW030 BKN250 26/19 A2996\ RMK AO2 SLP144 T02560194 $= 201709262251 METAR KLGA 262251Z 17007KT 10SM FEW030 BKN250 24/20 A2997\ RMK AO2 SLP147 T02440200 $= 201709262351 METAR KLGA 262351Z 14006KT 10SM BKN250 24/19 A2998 RMK AO2\ SLP151 T02390194 10272 20239 53003= 201709270051 METAR KLGA 270051Z 14004KT 10SM BKN250 23/19 A2997 RMK AO2\ SLP150 T02330194= 201709270151 METAR KLGA 270151Z 15005KT 10SM BKN250 23/19 A2998 RMK AO2\ SLP153 T02330189= 201709270251 METAR KLGA 270251Z 08005KT 10SM SCT250 23/19 A2997 RMK AO2\ SLP149 T02280194 58002= 201709270351 METAR KLGA 270351Z 04004KT 10SM FEW250 22/19 A2996 RMK AO2\ SLP145 T02220194= 201709270451 METAR KLGA 270451Z 03003KT 10SM FEW250 22/20 A2995 RMK AO2\ SLP140 T02220200 402720200= 201709270551 METAR KLGA 270551Z 05004KT 10SM FEW250 22/19 A2994 RMK AO2\ SLP137 T02220194 10239 20222 56012= 201709270651 METAR KLGA 270651Z 10006KT 10SM FEW010 FEW250 22/20 A2993\ RMK AO2 SLP136 T02170200= 201709270751 METAR KLGA 270751Z 03003KT 10SM FEW019 FEW250 22/20 A2992\ RMK AO2 SLP133 T02170200= 201709270851 METAR KLGA 270851Z 04005KT 10SM FEW019 FEW250 22/21 A2992\ RMK AO2 SLP130 T02170206 58007= 201709270951 METAR KLGA 270951Z 03005KT 10SM BKN006 21/21 A2991 RMK AO2\ SLP129 T02110206= 201709271051 METAR KLGA 271051Z 03006KT 10SM OVC007 22/21 A2993 RMK AO2\ SLP135 T02170206= 201709271151 METAR KLGA 271151Z 04007KT 10SM OVC006 22/21 A2992 RMK AO2\ SLP132 T02170206 10222 20211 50002= 201709271251 METAR KLGA 271251Z 04009KT 10SM FEW005 OVC010 22/21 A2992\ RMK AO2 SLP133 T02220206= 201709271351 METAR KLGA 271351Z 06009KT 10SM BKN009 BKN025 23/21 A2991\ RMK AO2 SLP129 T02330206= 201709271451 METAR KLGA 271451Z 05009KT 10SM FEW009 FEW025 FEW150 25/21\ A2991 RMK AO2 SLP127 T02500211 58005= 201709271551 METAR KLGA 271551Z 06009KT 10SM FEW013 SCT031 BKN150 25/22\ A2990 RMK AO2 SLP125 T02500217= 201709271651 METAR KLGA 271651Z 04009KT 10SM FEW020 FEW033 FEW150 27/22\ A2988 RMK AO2 SLP117 T02670222= 201709271751 METAR KLGA 271751Z 04012KT 10SM FEW024 FEW032TCU 27/23 A2984\ RMK AO2 SLP106 TCU SE-SW T02720228\ 10278 20217 58021= 201709271851 METAR KLGA 271851Z 06012KT 10SM FEW035 28/23 A2982 RMK AO2\ SLP097 T02780228= 201709271951 METAR KLGA 271951Z 05013KT 10SM SCT035 28/22 A2981 RMK AO2\ SLP093 T02830222= 201709272051 METAR KLGA 272051Z 05012KT 10SM SCT065 27/23 A2980 RMK AO2\ SLP090 T02720228 56016= 201709272151 METAR KLGA 272151Z 04011KT 10SM SCT065 26/23 A2979 RMK AO2\ SLP089 T02610228= 201709272251 METAR KLGA 272251Z 04006KT 10SM FEW065 25/23 A2979 RMK AO2\ SLP087 T02500228= 201709272351 METAR KLGA 272351Z 02006KT 10SM SCT065 SCT150 25/23 A2979\ RMK AO2 SLP087 T02500233 10289 20244\ 55002= 201709280051 METAR KLGA 280051Z 07008KT 10SM FEW045 SCT150 BKN250 24/23\ A2979 RMK AO2 SLP087 T02440233= 201709280151 METAR KLGA 280151Z 05006KT 10SM FEW040 FEW150 SCT250 24/23\ A2979 RMK AO2 SLP086 T02390233= 201709280251 METAR KLGA 280251Z 04006KT 10SM FEW010 FEW250 24/23 A2977\ RMK AO2 SLP080 T02390233 58008= 201709280351 METAR KLGA 280351Z 02004KT 1/2SM BR OVC002 23/23 A2974 RMK\ AO2 SFC VIS 2 SLP072 T02280228= 201709280451 METAR KLGA 280451Z 06006KT 1/4SM FG VV002 23/23 A2973 RMK\ AO2 SFC VIS 1/2 SLP067 T02280228\ 402890211 RVRNO= 201709280551 METAR KLGA 280551Z 02005KT 1/4SM BR OVC002 23/23 A2973 RMK\ AO2 SFC VIS 3 SLP068 T02280228 10256\ 20222 55012= 201709280651 METAR KLGA 280651Z 36004KT 2SM BR OVC004 23/23 A2972 RMK\ AO2 SFC VIS 6 SLP063 T02280228= 201709280751 METAR KLGA 280751Z 35006KT 10SM OVC005 23/23 A2971 RMK AO2\ SLP062 T02330228= 201709280851 METAR KLGA 280851Z 33008KT 10SM FEW007 FEW037 SCT250 24/23\ A2971 RMK AO2 SLP059 T02390228 58004= 201709280951 METAR KLGA 280951Z 34008KT 10SM FEW011 SCT017 SCT031 23/22\ A2972 RMK AO2 SLP062 T02330222= 201709281051 METAR KLGA 281051Z 34014KT 10SM SCT017 BKN022 OVC250 23/20\ A2973 RMK AO2 SLP067 T02280200= 201709281151 METAR KLGA 281151Z 33012G21KT 10SM SCT017 SCT024 23/16 A2975\ RMK AO2 SLP073 T02280156 10239 20228\ 53014= 201709281251 METAR KLGA 281251Z 33015KT 10SM FEW023 22/14 A2976 RMK AO2\ SLP076 T02220139= 201709281351 METAR KLGA 281351Z 33018G25KT 10SM FEW250 22/14 A2976 RMK\ AO2 SLP079 T02170139= 201709281451 METAR KLGA 281451Z 33016KT 10SM FEW250 22/13 A2976 RMK AO2\ PK WND 32026/1409 SLP078 T02220128\ 50005= 201709281551 METAR KLGA 281551Z 34016G24KT 10SM FEW047 FEW250 23/11 A2976\ RMK AO2 SLP077 T02280111= 201709281651 METAR KLGA 281651Z 32018KT 10SM FEW250 24/12 A2975 RMK AO2\ SLP075 T02390117= 201709281751 METAR KLGA 281751Z 35019G24KT 10SM FEW050 FEW250 25/11 A2974\ RMK AO2 SLP070 T02500106 10250 20217\ 58008= 201709281851 METAR KLGA 281851Z 33018G24KT 10SM FEW250 25/10 A2974 RMK\ AO2 SLP072 T02500100= 201709281951 METAR KLGA 281951Z 35019G25KT 10SM FEW250 24/10 A2976 RMK\ AO2 PK WND 32029/1933 SLP076 T02440100= 201709282051 METAR KLGA 282051Z 33016G22KT 10SM FEW060 FEW250 24/10 A2978\ RMK AO2 PK WND 33027/2005 SLP083\ T02440100 53013= 201709282151 METAR KLGA 282151Z 34014KT 10SM FEW060 FEW250 23/11 A2980\ RMK AO2 PK WND 31026/2126 SLP091\ T02330106= 201709282251 METAR KLGA 282251Z 32018G24KT 10SM FEW060 FEW250 22/09 A2983\ RMK AO2 PK WND 31027/2219 SLP102\ T02170094= 201709282351 METAR KLGA 282351Z 33020KT 10SM FEW060 FEW250 20/09 A2987\ RMK AO2 PK WND 32026/2252 SLP113\ T02000094 10250 20200 53030= 201709290051 METAR KLGA 290051Z 33017G22KT 10SM FEW250 19/09 A2990 RMK\ AO2 PK WND 33026/0023 SLP125 T01940089= 201709290151 METAR KLGA 290151Z 33016G24KT 10SM FEW250 18/08 A2993 RMK\ AO2 SLP133 T01830078= 201709290251 METAR KLGA 290251Z 34017G24KT 10SM CLR 17/08 A2995 RMK AO2\ SLP140 T01720083 51027= 201709290351 METAR KLGA 290351Z 33013KT 10SM CLR 17/08 A2996 RMK AO2 SLP145\ T01670078= 201709290451 METAR KLGA 290451Z 34011KT 10SM CLR 16/07 A2997 RMK AO2 SLP150\ T01610072 402500161= 201709290551 METAR KLGA 290551Z 33011KT 10SM CLR 16/07 A2999 RMK AO2 SLP155\ T01560072 10200 20156 53015= 201709290651 METAR KLGA 290651Z 33009KT 10SM CLR 16/08 A2999 RMK AO2 SLP155\ T01560078= 201709290751 METAR KLGA 290751Z 33007KT 10SM CLR 15/08 A3000 RMK AO2 SLP158\ T01500078= 201709290851 METAR KLGA 290851Z 34008KT 10SM CLR 14/08 A3000 RMK AO2 SLP160\ T01440083 53005= 201709290951 METAR KLGA 290951Z 35005KT 10SM CLR 14/08 A3001 RMK AO2 SLP163\ T01440083= 201709291051 METAR KLGA 291051Z 02006KT 10SM FEW250 14/08 A3003 RMK AO2\ SLP170 T01440078= 201709291151 METAR KLGA 291151Z 02005KT 10SM FEW250 15/06 A3005 RMK AO2\ SLP175 T01500061 10156 20139 53015= 201709291251 METAR KLGA 291251Z 35006KT 10SM FEW250 16/05 A3006 RMK AO2\ SLP179 T01560050= 201709291351 METAR KLGA 291351Z 34003KT 10SM FEW050 SCT250 17/05 A3007\ RMK AO2 SLP182 T01670050= 201709291451 METAR KLGA 291451Z VRB04KT 10SM FEW050 SCT250 17/06 A3006\ RMK AO2 SLP179 T01720056 50004= 201709291551 METAR KLGA 291551Z VRB05KT 10SM FEW050 FEW250 18/06 A3004\ RMK AO2 SLP174 T01830061= 201709291651 METAR KLGA 291651Z 00000KT 10SM SCT050 BKN250 18/07 A3003\ RMK AO2 SLP170 T01830067= 201709291751 METAR KLGA 291751Z 26006KT 10SM BKN060 BKN250 19/06 A3001\ RMK AO2 SLP162 T01940061 10194 20150\ 58017= 201709291851 METAR KLGA 291851Z 25010KT 10SM BKN060 BKN250 20/06 A3000\ RMK AO2 SLP159 T02000061= 201709291951 METAR KLGA 291951Z 10SM BKN055 BKN250 21/06 A2999 RMK AO2\ SLP156 T02060061= 201709292051 METAR KLGA 292051Z 25010KT 10SM SCT055 SCT250 20/06 A2999\ RMK AO2 SLP155 T02000056 56007= 201709292151 METAR KLGA 292151Z 28010KT 10SM SCT060 SCT250 20/06 A3000\ RMK AO2 SLP158 T02000061= 201709292251 METAR KLGA 292251Z 31008KT 10SM FEW060 SCT250 19/07 A3001\ RMK AO2 SLP162 T01940067= 201709292351 METAR KLGA 292351Z 28005KT 10SM FEW060 FEW250 19/07 A3002\ RMK AO2 SLP164 T01890067 10211 20189\ 51009= 201709300051 METAR KLGA 300051Z 28004KT 10SM FEW060 FEW250 19/06 A3002\ RMK AO2 SLP167 T01890061= 201709300151 METAR KLGA 300151Z 29003KT 10SM FEW060 FEW250 19/07 A3002\ RMK AO2 SLP167 T01890067= 201709300251 METAR KLGA 300251Z 00000KT 10SM FEW100 FEW250 18/07 A3002\ RMK AO2 SLP167 T01830067 51003= 201709300351 METAR KLGA 300351Z 13005KT 10SM BKN095 18/07 A3001 RMK AO2\ SLP163 T01830067= 201709300451 METAR KLGA 300451Z 00000KT 10SM OVC065 18/08 A3002 RMK AO2\ SLP166 T01780078 402110139= 201709300551 METAR KLGA 300551Z 28005KT 10SM BKN065 OVC080 18/09 A3002\ RMK AO2 SLP166 T01830089 10189 20178\ 56001= 201709300651 METAR KLGA 300651Z 02004KT 10SM BKN065 BKN080 BKN110 17/11\ A2999 RMK AO2 RAB19E48 SLP157 P0000\ T01720106= 201709300751 METAR KLGA 300751Z 34004KT 10SM FEW250 17/10 A3000 RMK AO2\ SLP158 T01720100= 201709300851 METAR KLGA 300851Z 30008KT 10SM CLR 16/10 A3001 RMK AO2 SLP162\ 60000 T01610100 55004= 201709300951 METAR KLGA 300951Z 30008KT 10SM FEW100 16/10 A3002 RMK AO2\ SLP167 T01560100= 201709301051 METAR KLGA 301051Z 30009KT 10SM FEW031 BKN041 BKN100 14/10\ A3004 RMK AO2 SLP173 T01440100= 201709301151 METAR KLGA 301151Z 30012KT 10SM FEW030 SCT042 BKN050 15/11\ A3006 RMK AO2 VIS 1/2 R22 SW SLP178\ 60000 T01500106 10183 20144 53017= 201709301251 METAR KLGA 301251Z 30011KT 10SM FEW030 BKN042 BKN050 15/10\ A3007 RMK AO2 VIS 1/4 R22 SW SLP182\ T01500100= 201709301351 METAR KLGA 301351Z 32013KT 10SM FEW025 BKN038 BKN050 16/11\ A3008 RMK AO2 VIS 3/4 R22 SW SLP186\ T01610106= 201709301451 METAR KLGA 301451Z 35013KT 9SM SCT025 BKN035 BKN048 17/11\ A3010 RMK AO2 SLP191 T01670106 53013= 201709301551 METAR KLGA 301551Z 35012KT 9SM SCT031 BKN038 BKN065 16/11\ A3012 RMK AO2 SLP198 T01610111= 201709301651 METAR KLGA 301651Z 34013G21KT 9SM SCT030 BKN043 BKN070 17/11\ A3013 RMK AO2 SLP202 T01720106= 201709301751 METAR KLGA 301751Z 36016KT 9SM FEW030 BKN065 BKN080 17/11\ A3014 RMK AO2 RAB13E24 SLP204 VCSH\ S P0000 60000 T01720106 10172 20144\ 51013= 201709301851 METAR KLGA 301851Z 01015KT 10SM FEW030 BKN075 OVC130 17/10\ A3015 RMK AO2 SLP210 T01670100= 201709301951 METAR KLGA 301951Z 35014KT 10SM BKN032 BKN039 OVC085 17/11\ A3017 RMK AO2 SLP217 T01670111= 201709302051 METAR KLGA 302051Z 35018G23KT 10SM SCT025 BKN055 BKN085 16/10\ A3020 RMK AO2 SLP226 T01560100 53021= 201709302151 METAR KLGA 302151Z 35015G22KT 10SM BKN050 BKN085 15/10 A3023\ RMK AO2 SLP236 T01500100= 201709302251 METAR KLGA 302251Z 36018G26KT 10SM SCT026 SCT049 OVC055 14/10\ A3026 RMK AO2 PK WND 36027/2240 SLP247\ T01390100= 201709302351 METAR KLGA 302351Z 35016G24KT 10SM FEW026 BKN055 BKN090 13/10\ A3028 RMK AO2 PK WND 35026/2314 SLP254\ T01330100 10172 20133 51018=
