 201711010051 METAR KLGA 010051Z 27015KT 10SM FEW250 11/M02 A3018 RMK AO2\ SLP221 T01111022= 201711010151 METAR KLGA 010151Z 29011KT 10SM FEW250 11/M02 A3022 RMK AO2\ SLP231 T01061017= 201711010251 METAR KLGA 010251Z 29014KT 10SM FEW250 10/M02 A3023 RMK AO2\ SLP236 T01001022 51025= 201711010351 METAR KLGA 010351Z 32011KT 10SM FEW250 09/M02 A3024 RMK AO2\ SLP240 T00941017= 201711010451 METAR KLGA 010451Z 33007KT 10SM FEW250 09/M02 A3025 RMK AO2\ SLP245 T00891022 401440089= 201711010551 METAR KLGA 010551Z 32007KT 10SM CLR 09/M02 A3027 RMK AO2\ SLP248 T00891017 10122 20089 51012= 201711010651 METAR KLGA 010651Z 33008KT 10SM BKN250 09/M02 A3027 RMK AO2\ SLP250 T00891017= 201711010751 METAR KLGA 010751Z 01004KT 10SM BKN250 08/M03 A3027 RMK AO2\ SLP250 T00831028= 201711010851 METAR KLGA 010851Z 04007KT 10SM BKN250 08/M01 A3026 RMK AO2\ SLP248 T00831006 58001= 201711010951 METAR KLGA 010951Z 01003KT 10SM BKN250 08/M02 A3029 RMK AO2\ SLP257 T00831017= 201711011051 METAR KLGA 011051Z 01003KT 10SM BKN095 BKN250 08/M02 A3030\ RMK AO2 SLP261 T00831017= 201711011151 METAR KLGA 011151Z 00000KT 10SM OVC080 09/01 A3033 RMK AO2\ SLP269 T00890006 10089 20083 51021= 201711011251 METAR KLGA 011251Z 05005KT 10SM OVC075 10/02 A3035 RMK AO2\ SLP276 T01000017= 201711011351 METAR KLGA 011351Z 06008KT 10SM OVC070 11/03 A3035 RMK AO2\ SLP276 T01060028= 201711011451 METAR KLGA 011451Z 04005KT 10SM OVC060 11/01 A3036 RMK AO2\ SLP279 T01110011 51010= 201711011551 METAR KLGA 011551Z 05007KT 10SM FEW055 OVC060 12/02 A3034\ RMK AO2 SLP274 T01220022= 201711011651 METAR KLGA 011651Z 03007KT 10SM BKN050 OVC060 12/03 A3033\ RMK AO2 SLP270 T01220033= 201711011751 METAR KLGA 011751Z 06008KT 10SM BKN070 OVC140 13/04 A3032\ RMK AO2 SLP266 T01280039 10128 20089\ 56013= 201711011851 METAR KLGA 011851Z 06009KT 10SM FEW050 BKN070 OVC100 13/06\ A3031 RMK AO2 SLP263 T01280056= 201711011951 METAR KLGA 011951Z 06009KT 10SM FEW050 SCT070 OVC100 13/06\ A3029 RMK AO2 SLP257 T01280061= 201711012051 METAR KLGA 012051Z 12009KT 10SM FEW070 BKN100 OVC140 14/02\ A3029 RMK AO2 SLP256 T01440022 56010= 201711012151 METAR KLGA 012151Z 11010KT 10SM OVC110 14/02 A3029 RMK AO2\ SLP255 T01390022= 201711012251 METAR KLGA 012251Z 08009KT 10SM OVC110 14/03 A3029 RMK AO2\ SLP256 T01390028= 201711012351 METAR KLGA 012351Z VRB05KT 10SM FEW040 SCT110 BKN150 13/04\ A3030 RMK AO2 SLP259 T01330039 10144\ 20122 53003= 201711020051 METAR KLGA 020051Z 07006KT 10SM FEW050 SCT110 BKN150 12/05\ A3028 RMK AO2 SLP254 T01220050= 201711020151 METAR KLGA 020151Z 07004KT 10SM BKN031 BKN040 13/07 A3029\ RMK AO2 SLP255 T01280067= 201711020251 METAR KLGA 020251Z 10007KT 10SM BKN024 OVC031 13/08 A3027\ RMK AO2 SLP250 T01330083 58009= 201711020351 METAR KLGA 020351Z 09006KT 10SM BKN018 OVC032 14/10 A3026\ RMK AO2 SLP248 T01390100= 201711020451 METAR KLGA 020451Z 06004KT 10SM OVC012 14/12 A3026 RMK AO2\ SLP248 T01440117 401440083= 201711020551 METAR KLGA 020551Z 10004KT 10SM OVC010 14/12 A3026 RMK AO2\ SLP246 T01440122 10150 20122 56004= 201711020651 METAR KLGA 020651Z 00000KT 10SM OVC008 16/13 A3025 RMK AO2\ SLP244 T01560133= 201711020751 METAR KLGA 020751Z 17003KT 10SM BKN009 BKN017 OVC023 16/14\ A3024 RMK AO2 SLP239 T01610144= 201711020851 METAR KLGA 020851Z 20004KT 10SM FEW006 BKN016 BKN021 16/15\ A3024 RMK AO2 SLP241 T01610150 55005= 201711020951 METAR KLGA 020951Z 18004KT 8SM SCT005 BKN010 BKN014 16/16\ A3025 RMK AO2 SLP242 T01610156= 201711021051 METAR KLGA 021051Z 17005KT 8SM FEW005 BKN010 BKN035 16/15\ A3025 RMK AO2 SLP242 T01610150= 201711021151 METAR KLGA 021151Z 21008KT 10SM BKN008 BKN030 BKN130 16/15\ A3025 RMK AO2 SLP242 T01610150 10161\ 20144 51001= 201711021251 METAR KLGA 021251Z 18006KT 5SM BR BKN008 BKN030 17/16 A3026\ RMK AO2 SLP246 T01670156= 201711021351 METAR KLGA 021351Z 25005KT 6SM BR BKN008 BKN030 BKN200 18/16\ A3027 RMK AO2 SLP251 T01780156= 201711021451 METAR KLGA 021451Z VRB05KT 10SM SCT009 BKN030 BKN200 19/16\ A3027 RMK AO2 SLP250 T01940156 50008= 201711021551 METAR KLGA 021551Z 13007KT 10SM FEW030 BKN120 21/16 A3026\ RMK AO2 SLP246 T02060156= 201711021651 METAR KLGA 021651Z 15011KT 10SM SCT023 BKN150 21/16 A3023\ RMK AO2 SLP237 T02060161= 201711021751 METAR KLGA 021751Z 17010KT 10SM SCT020 SCT150 22/16 A3022\ RMK AO2 SLP232 T02170156 10217 20161\ 58018= 201711021851 METAR KLGA 021851Z 16012KT 10SM SCT025 SCT150 SCT250 22/16\ A3020 RMK AO2 SLP227 T02220156= 201711021951 METAR KLGA 021951Z 18012G19KT 10SM FEW030 FEW150 FEW250 22/15\ A3019 RMK AO2 SLP223 T02170150= 201711022051 METAR KLGA 022051Z 17012KT 10SM FEW030 FEW150 SCT250 22/14\ A3018 RMK AO2 SLP221 T02170144 56011= 201711022151 METAR KLGA 022151Z 18013KT 10SM SCT045 SCT250 20/15 A3019\ RMK AO2 SLP222 T02000150= 201711022251 METAR KLGA 022251Z 17010G18KT 10SM SCT045 BKN250 20/15 A3019\ RMK AO2 SLP221 T02000150= 201711022351 METAR KLGA 022351Z 18008KT 10SM FEW045 BKN250 19/15 A3019\ RMK AO2 SLP222 T01940150 10222 20194\ 51001= 201711030051 METAR KLGA 030051Z 17008KT 10SM FEW100 BKN250 18/16 A3018\ RMK AO2 SLP219 T01830156= 201711030151 METAR KLGA 030151Z 17006KT 10SM FEW090 SCT120 BKN250 18/16\ A3019 RMK AO2 SLP222 T01780156= 201711030251 METAR KLGA 030251Z 19004KT 10SM FEW100 BKN250 17/16 A3018\ RMK AO2 SLP220 T01720156 56002= 201711030351 METAR KLGA 030351Z 18006KT 10SM BKN120 BKN250 17/16 A3017\ RMK AO2 SLP215 T01720156= 201711030451 METAR KLGA 030451Z 18005KT 10SM SCT120 BKN250 17/16 A3015\ RMK AO2 SLP210 T01720156 402220144= 201711030551 METAR KLGA 030551Z 18005KT 10SM FEW120 BKN250 17/15 A3014\ RMK AO2 SLP205 T01670150 10194 20167\ 56016= 201711030651 METAR KLGA 030651Z 18004KT 10SM BKN250 16/15 A3013 RMK AO2\ SLP201 T01610150= 201711030751 METAR KLGA 030751Z 17004KT 10SM BKN250 16/15 A3010 RMK AO2\ SLP193 T01610150= 201711030851 METAR KLGA 030851Z 18004KT 10SM BKN250 16/15 A3008 RMK AO2\ SLP187 T01610150 58018= 201711030951 METAR KLGA 030951Z 17006KT 10SM BKN250 16/15 A3008 RMK AO2\ SLP187 T01560150= 201711031051 METAR KLGA 031051Z 17005KT 10SM BKN250 16/15 A3007 RMK AO2\ SLP183 T01560150= 201711031151 METAR KLGA 031151Z 18006KT 10SM BKN250 16/15 A3007 RMK AO2\ SLP181 T01560150 10167 20156 58006= 201711031251 METAR KLGA 031251Z 20009KT 10SM SCT250 17/15 A3006 RMK AO2\ SLP177 T01720150= 201711031351 METAR KLGA 031351Z 21008KT 10SM FEW031 SCT250 19/15 A3004\ RMK AO2 SLP172 T01890150= 201711031451 METAR KLGA 031451Z 20009KT 10SM FEW045 BKN250 21/14 A3003\ RMK AO2 SLP169 T02060144 56011= 201711031551 METAR KLGA 031551Z 23010G19KT 10SM FEW110 BKN250 22/14 A3002\ RMK AO2 SLP167 T02170144= 201711031651 METAR KLGA 031651Z 23013KT 10SM FEW100 BKN250 22/14 A2998\ RMK AO2 SLP153 T02220139= 201711031751 METAR KLGA 031751Z 24011KT 10SM FEW130 BKN250 23/14 A2996\ RMK AO2 SLP146 T02280139 10233 20156\ 58023= 201711031851 METAR KLGA 031851Z 24010KT 10SM FEW080 SCT110 BKN250 24/14\ A2996 RMK AO2 SLP146 T02390144= 201711031951 METAR KLGA 031951Z 25007KT 220V280 10SM SCT060 SCT130 BKN250\ 24/14 A2996 RMK AO2 SLP144 T02390144= 201711032051 METAR KLGA 032051Z 28010KT 10SM BKN065 BKN250 23/14 A2997\ RMK AO2 SLP149 T02330139 53002= 201711032151 METAR KLGA 032151Z 33011KT 10SM BKN040 BKN055 BKN250 22/14\ A3000 RMK AO2 SLP159 T02170139= 201711032251 METAR KLGA 032251Z 32013KT 10SM FEW060 SCT080 BKN250 19/13\ A3004 RMK AO2 SLP172 T01940133= 201711032351 METAR KLGA 032351Z 32019KT 10SM FEW040 SCT250 17/11 A3008\ RMK AO2 SLP186 T01720111 10239 20172\ 53037= 201711040051 METAR KLGA 040051Z 32017G22KT 10SM FEW040 SCT250 15/07 A3013\ RMK AO2 PK WND 34026/0034 SLP201\ T01500072= 201711040151 METAR KLGA 040151Z 33013KT 10SM FEW040 SCT250 14/05 A3017\ RMK AO2 PK WND 33028/0115 SLP214\ T01390050= 201711040251 METAR KLGA 040251Z 34017KT 10SM FEW250 13/04 A3018 RMK AO2\ SLP220 T01280039 51034= 201711040351 METAR KLGA 040351Z 34015KT 10SM SCT250 12/03 A3020 RMK AO2\ SLP226 T01220033= 201711040451 METAR KLGA 040451Z 36011KT 10SM FEW250 12/03 A3023 RMK AO2\ SLP235 T01170033 402390117= 201711040551 METAR KLGA 040551Z 35011KT 10SM SCT250 11/03 A3023 RMK AO2\ SLP238 T01110028 10172 20111 51018= 201711040651 METAR KLGA 040651Z 36008KT 10SM SCT250 11/02 A3025 RMK AO2\ SLP241 T01060022= 201711040751 METAR KLGA 040751Z 35007KT 10SM CLR 10/03 A3026 RMK AO2 SLP246\ T01000028= 201711040851 METAR KLGA 040851Z 36006KT 10SM BKN250 10/02 A3028 RMK AO2\ SLP254 T01000022 53017= 201711040951 METAR KLGA 040951Z 03008KT 10SM BKN250 09/02 A3029 RMK AO2\ SLP257 T00940022= 201711041051 METAR KLGA 041051Z 03009KT 10SM BKN250 09/02 A3030 RMK AO2\ SLP262 T00940022= 201711041151 METAR KLGA 041151Z 02007KT 10SM BKN250 09/02 A3033 RMK AO2\ SLP271 T00890022 10111 20089 53016= 201711041251 METAR KLGA 041251Z 04011KT 10SM BKN250 09/02 A3035 RMK AO2\ SLP275 T00940017= 201711041351 METAR KLGA 041351Z 03011KT 10SM BKN250 10/01 A3034 RMK AO2\ SLP274 T01000011= 201711041451 METAR KLGA 041451Z 05012KT 10SM BKN250 11/02 A3035 RMK AO2\ SLP277 T01060017 51007= 201711041551 METAR KLGA 041551Z 07012KT 10SM BKN250 12/01 A3034 RMK AO2\ SLP273 T01170006= 201711041651 METAR KLGA 041651Z 04008KT 10SM FEW045 BKN250 12/02 A3033\ RMK AO2 SLP271 T01170017= 201711041751 METAR KLGA 041751Z 05008KT 10SM BKN250 12/02 A3031 RMK AO2\ SLP263 T01220022 10122 20089 58014= 201711041851 METAR KLGA 041851Z 04009KT 10SM BKN250 13/02 A3030 RMK AO2\ SLP261 T01280022= 201711041951 METAR KLGA 041951Z 06007KT 10SM BKN250 13/01 A3031 RMK AO2\ SLP262 T01280006= 201711042051 METAR KLGA 042051Z 04006KT 10SM BKN250 13/01 A3031 RMK AO2\ SLP262 T01280006 56001= 201711042151 METAR KLGA 042151Z 07007KT 10SM BKN250 13/02 A3030 RMK AO2\ SLP261 T01280017= 201711042251 METAR KLGA 042251Z 11008KT 10SM BKN250 12/04 A3031 RMK AO2\ SLP264 T01170044= 201711042351 METAR KLGA 042351Z 10008KT 10SM BKN250 12/05 A3031 RMK AO2\ SLP263 T01170050 10133 20117 53001= 201711050051 METAR KLGA 050051Z 08006KT 10SM BKN250 11/06 A3032 RMK AO2\ SLP266 T01110056= 201711050151 METAR KLGA 050151Z 08010KT 10SM CLR 11/06 A3029 RMK AO2 SLP258\ T01110061= 201711050251 METAR KLGA 050251Z 07008KT 10SM OVC039 12/06 A3031 RMK AO2\ SLP263 T01170061 55000= 201711050351 METAR KLGA 050351Z 07010KT 10SM FEW030 OVC039 12/07 A3031\ RMK AO2 SLP265 T01170067= 201711050451 METAR KLGA 050451Z 09010KT 10SM SCT033 OVC043 12/07 A3033\ RMK AO2 SLP270 T01170067 401330089= 201711050551 METAR KLGA 050551Z 08010KT 10SM -RA OVC075 11/08 A3031 RMK\ AO2 RAB09 SLP264 P0001 60001 T01110078\ 10122 20111 50000= 201711050651 METAR KLGA 050651Z 07012KT 10SM -RA FEW070 BKN090 OVC110\ 11/08 A3028 RMK AO2 SLP253 P0000\ T01110083= 201711050751 METAR KLGA 050751Z 09008KT 10SM BKN090 OVC110 12/08 A3028\ RMK AO2 RAE34 SLP255 P0001 T01170083= 201711050851 METAR KLGA 050851Z 07008KT 10SM OVC085 12/08 A3028 RMK AO2\ SLP255 60001 T01170083 56009= 201711050951 METAR KLGA 050951Z 08009KT 10SM FEW029 BKN038 OVC080 12/08\ A3029 RMK AO2 RAB39E51 SLP256 P0000\ T01170083= 201711051051 METAR KLGA 051051Z 08007KT 10SM FEW049 OVC070 12/08 A3028\ RMK AO2 SLP254 T01170083= 201711051151 METAR KLGA 051151Z 09009KT 10SM BKN025 BKN033 OVC060 12/09\ A3028 RMK AO2 SLP254 60001 70002\ T01170089 10117 20111 58001= 201711051251 METAR KLGA 051251Z 08007KT 10SM BKN022 BKN033 BKN060 13/09\ A3028 RMK AO2 SLP253 T01280089= 201711051351 METAR KLGA 051351Z 06006KT 10SM FEW013 BKN017 OVC026 13/09\ A3027 RMK AO2 SLP250 T01280094= 201711051451 METAR KLGA 051451Z 09009KT 10SM BKN015 OVC020 14/11 A3026\ RMK AO2 SLP245 T01390106 58009= 201711051551 METAR KLGA 051551Z 06009KT 8SM -DZ BKN010 OVC014 13/11 A3024\ RMK AO2 DZB09 SLP238 P0000 T01330111= 201711051651 METAR KLGA 051651Z 04008KT 8SM -RA BKN008 OVC014 13/12 A3021\ RMK AO2 DZE1554RAB1554E17B45 SLP230\ P0000 T01330117= 201711051751 METAR KLGA 051751Z 06007KT 2SM -RA BR BKN008 OVC010 13/12\ A3018 RMK AO2 SFC VIS 4 SLP220 P0000\ 60000 T01330122 10144 20117 58024= 201711051851 METAR KLGA 051851Z 05009KT 1 1/2SM R04/5500VP6000FT -RA BR\ BKN007 OVC010 14/13 A3016 RMK AO2\ SFC VIS 3 SLP211 P0001 T01390128= 201711051951 METAR KLGA 051951Z 03004KT 1 1/2SM R04/4500V5000FT -RA BR\ BKN005 OVC011 14/14 A3014 RMK AO2\ SLP206 P0003 T01440139= 201711052051 METAR KLGA 052051Z 07003KT 2 1/2SM BR SCT005 BKN009 OVC018\ 15/14 A3011 RMK AO2 SFC VIS 3 RAE38\ SLP197 P0003 60007 T01500144 56014= 201711052151 METAR KLGA 052151Z 00000KT 10SM OVC009 16/15 A3011 RMK AO2\ SLP196 P0001 T01560150= 201711052251 METAR KLGA 052251Z 13008KT 10SM BKN010 BKN018 OVC037 16/14\ A3010 RMK AO2 SLP191 T01610144= 201711052351 METAR KLGA 052351Z 15005KT 10SM OVC008 16/15 A3008 RMK AO2\ SLP184 60008 T01610150 10161 20133\ 58014= 201711060051 METAR KLGA 060051Z 18004KT 10SM SCT007 OVC028 16/16 A3007\ RMK AO2 SLP183 T01610156= 201711060151 METAR KLGA 060151Z 17004KT 10SM OVC009 17/16 A3006 RMK AO2\ SLP179 T01670156= 201711060251 METAR KLGA 060251Z 19004KT 10SM OVC005 16/16 A3006 RMK AO2\ SLP177 T01610156 58006= 201711060351 METAR KLGA 060351Z 19007KT 10SM BKN005 16/15 A3003 RMK AO2\ SLP170 T01610150= 201711060451 METAR KLGA 060451Z 19006KT 10SM BKN006 16/15 A3003 RMK AO2\ SLP168 T01560150 401670111= 201711060551 METAR KLGA 060551Z 18007KT 10SM SCT006 OVC025 16/15 A3000\ RMK AO2 SLP157 T01560150 10167 20156\ 56013= 201711060651 METAR KLGA 060651Z 20006KT 10SM BKN008 OVC022 16/14 A2999\ RMK AO2 SLP154 T01560144= 201711060751 METAR KLGA 060751Z 19008KT 10SM SCT008 BKN013 OVC022 16/14\ A2998 RMK AO2 SLP150 T01560144= 201711060851 METAR KLGA 060851Z 18008KT 10SM OVC010 16/15 A2995 RMK AO2\ SLP141 T01610150 58016= 201711060951 METAR KLGA 060951Z 18009KT 10SM OVC013 16/15 A2994 RMK AO2\ SLP139 T01610150= 201711061051 METAR KLGA 061051Z 20008KT 9SM OVC011 17/15 A2993 RMK AO2\ SLP133 T01670150= 201711061151 METAR KLGA 061151Z 19009KT 10SM OVC014 17/16 A2992 RMK AO2\ DZB03E47 SLP130 P0000 60000 70008\ T01720156 10172 20156 58011= 201711061251 METAR KLGA 061251Z 20007KT 7SM -DZ OVC014 17/16 A2992 RMK\ AO2 DZB18 SLP131 P0000 T01720156= 201711061351 METAR KLGA 061351Z 22009KT 10SM OVC014 18/16 A2992 RMK AO2\ DZE46 SLP132 P0000 T01780156= 201711061451 METAR KLGA 061451Z 25010G18KT 10SM SCT012 OVC016 18/15 A2992\ RMK AO2 SLP131 60000 T01780150 50001= 201711061551 METAR KLGA 061551Z 24011KT 10SM FEW017 BKN023 OVC140 18/15\ A2990 RMK AO2 SLP124 T01780150= 201711061651 METAR KLGA 061651Z 23008KT 10SM OVC022 18/14 A2989 RMK AO2\ SLP122 T01830144= 201711061751 METAR KLGA 061751Z 23007KT 10SM FEW021 BKN085 OVC140 19/14\ A2987 RMK AO2 SLP115 60000 T01890144\ 10189 20172 58016= 201711061851 METAR KLGA 061851Z 23008KT 10SM FEW025 OVC090 19/14 A2988\ RMK AO2 SLP117 T01890144= 201711061951 METAR KLGA 061951Z 24009KT 10SM FEW024 BKN070 OVC085 19/14\ A2990 RMK AO2 SLP124 T01890144= 201711062051 METAR KLGA 062051Z 24005KT 10SM FEW075 BKN110 18/15 A2988\ RMK AO2 RAB1955E38 SLP119 P0000 60000\ T01830150 50003= 201711062151 METAR KLGA 062151Z 25011G16KT 10SM FEW080 FEW100 SCT120 BKN150\ BKN250 19/14 A2990 RMK AO2 RAB28E41\ SLP126 P0000 T01890144= 201711062251 METAR KLGA 062251Z 32016KT 10SM FEW025 SCT035 BKN045 BKN150\ 16/12 A2995 RMK AO2 PK WND 28027/2217\ SLP143 T01610117= 201711062351 METAR KLGA 062351Z 32013KT 10SM FEW025 FEW150 14/09 A3000\ RMK AO2 SLP159 60000 T01390094 10189\ 20139 53040= 201711070051 METAR KLGA 070051Z 33013KT 10SM BKN025 BKN150 13/08 A3002\ RMK AO2 SLP166 T01330078= 201711070151 METAR KLGA 070151Z 33015KT 10SM OVC024 12/06 A3007 RMK AO2\ SLP181 T01170061= 201711070251 METAR KLGA 070251Z 32013KT 10SM FEW025 BKN150 11/05 A3009\ RMK AO2 SLP189 T01060050 51024= 201711070351 METAR KLGA 070351Z 33010KT 10SM FEW040 FEW150 09/04 A3010\ RMK AO2 SLP192 T00940039= 201711070451 METAR KLGA 070451Z 34011KT 10SM FEW200 09/03 A3010 RMK AO2\ SLP194 T00940033 401890089= 201711070551 METAR KLGA 070551Z 34010KT 10SM CLR 09/03 A3012 RMK AO2 SLP200\ T00890028 10139 20089 53010= 201711070651 METAR KLGA 070651Z 33007KT 10SM CLR 08/02 A3012 RMK AO2 SLP200\ T00830022= 201711070751 METAR KLGA 070751Z 36007KT 10SM CLR 08/02 A3014 RMK AO2 SLP205\ T00780022= 201711070851 METAR KLGA 070851Z 02008KT 10SM CLR 07/02 A3015 RMK AO2 SLP209\ T00720022 53010= 201711070951 METAR KLGA 070951Z 03008KT 10SM CLR 07/02 A3017 RMK AO2 SLP216\ T00720017= 201711071051 METAR KLGA 071051Z 01007KT 10SM CLR 07/01 A3018 RMK AO2 SLP218\ T00670011= 201711071151 METAR KLGA 071151Z 04010KT 10SM FEW140 FEW250 07/01 A3019\ RMK AO2 SLP223 T00670011 10089 20067\ 51013= 201711071251 METAR KLGA 071251Z 02012KT 10SM BKN160 BKN250 07/01 A3020\ RMK AO2 SLP227 T00720011= 201711071351 METAR KLGA 071351Z 04008KT 10SM FEW050 FEW120 SCT160 SCT250\ 08/01 A3021 RMK AO2 SLP231 T00830006= 201711071451 METAR KLGA 071451Z 05011KT 10SM FEW035 SCT100 BKN160 BKN250\ 09/02 A3022 RMK AO2 SLP233 T00940017\ 51011= 201711071551 METAR KLGA 071551Z 04009KT 10SM OVC031 10/01 A3021 RMK AO2\ SLP229 T01000011= 201711071651 METAR KLGA 071651Z 35009KT 10SM BKN031 BKN038 OVC150 09/02\ A3020 RMK AO2 SLP225 T00890017= 201711071751 METAR KLGA 071751Z 36009KT 10SM SCT031 BKN036 BKN110 OVC160\ 09/02 A3019 RMK AO2 SLP222 T00940022\ 10106 20067 56012= 201711071851 METAR KLGA 071851Z 02015KT 10SM FEW035 OVC100 09/02 A3010\ RMK AO2 PRESFR SLP193 T00940017= 201711071951 METAR KLGA 071951Z 36008KT 10SM OVC034 09/01 A3017 RMK AO2\ SLP214 T00890011= 201711072051 METAR KLGA 072051Z 36014G18KT 10SM -RA OVC055 09/01 A3014\ RMK AO2 RAB27 SLP206 P0000 60000\ T00890011 56015= 201711072151 METAR KLGA 072151Z 36010G18KT 8SM RA OVC060 06/03 A3013 RMK\ AO2 SLP202 P0007 T00610028= 201711072251 METAR KLGA 072251Z 35009G16KT 5SM -RA BR OVC070 06/03 A3014\ RMK AO2 PRESRR SLP206 P0012 T00560033= 201711072351 METAR KLGA 072351Z 01009KT 8SM RA SCT010 SCT030 OVC060 06/03\ A3017 RMK AO2 SLP217 P0014 60033\ T00560033 10094 20056 53010= 201711080051 METAR KLGA 080051Z 01011KT 10SM -RA OVC041 06/03 A3017 RMK\ AO2 SLP217 P0008 T00560033= 201711080151 METAR KLGA 080151Z 02011KT 10SM -RA FEW010 SCT045 OVC060\ 06/03 A3018 RMK AO2 SLP218 P0005\ T00560033= 201711080251 METAR KLGA 080251Z 02011KT 9SM -RA SCT010 BKN020 OVC045 05/03\ A3018 RMK AO2 SLP218 P0007 60020\ T00500033 52001= 201711080351 METAR KLGA 080351Z 01011KT 10SM -RA SCT011 BKN043 OVC050\ 06/04 A3017 RMK AO2 SLP215 P0004\ T00560039= 201711080451 METAR KLGA 080451Z 02010KT 10SM -RA SCT010 BKN015 OVC050\ 05/03 A3017 RMK AO2 SLP215 P0003\ T00500033 401060050= 201711080551 METAR KLGA 080551Z 01011KT 10SM SCT011 BKN017 OVC090 04/03\ A3017 RMK AO2 RAE03 SLP214 P0000\ 60027 T00440028 10056 20044 56003= 201711080651 METAR KLGA 080651Z 01011KT 10SM OVC015 04/03 A3017 RMK AO2\ SLP215 T00440028= 201711080751 METAR KLGA 080751Z 01015G18KT 10SM OVC018 04/03 A3016 RMK\ AO2 SLP214 T00440028= 201711080851 METAR KLGA 080851Z 04010KT 10SM FEW016 OVC023 05/02 A3018\ RMK AO2 SLP220 T00500022 53006= 201711080951 METAR KLGA 080951Z 02009KT 10SM FEW015 OVC025 05/02 A3020\ RMK AO2 SLP226 T00500022= 201711081051 METAR KLGA 081051Z 36011KT 10SM FEW015 OVC028 05/02 A3021\ RMK AO2 SLP230 T00500022= 201711081151 METAR KLGA 081151Z 36009KT 10SM FEW023 BKN034 OVC044 04/01\ A3025 RMK AO2 SLP241 70060 T00440011\ 10050 20044 53021= 201711081251 METAR KLGA 081251Z 01009KT 10SM FEW017 BKN022 OVC030 05/01\ A3026 RMK AO2 SLP247 T00500011= 201711081351 METAR KLGA 081351Z 01010KT 10SM FEW015 OVC019 06/01 A3027\ RMK AO2 SLP248 T00560011= 201711081451 METAR KLGA 081451Z 02009KT 10SM OVC019 06/02 A3026 RMK AO2\ SLP247 T00610017 50006= 201711081551 METAR KLGA 081551Z 03008KT 10SM OVC020 07/02 A3026 RMK AO2\ SLP245 T00670022= 201711081651 METAR KLGA 081651Z 02008KT 10SM BKN021 08/03 A3025 RMK AO2\ SLP242 T00780028= 201711081751 METAR KLGA 081751Z 06008KT 10SM BKN025 09/03 A3023 RMK AO2\ SLP236 T00890028 10089 20044 58012= 201711081851 METAR KLGA 081851Z 06006KT 10SM SCT025 09/03 A3023 RMK AO2\ SLP235 T00940028= 201711081951 METAR KLGA 081951Z 06007KT 10SM BKN025 BKN045 09/02 A3023\ RMK AO2 SLP236 T00940022= 201711082051 METAR KLGA 082051Z 06007KT 10SM OVC032 09/02 A3023 RMK AO2\ SLP238 T00940022 53002= 201711082151 METAR KLGA 082151Z 04006KT 10SM OVC038 09/03 A3024 RMK AO2\ SLP240 T00940028= 201711082251 METAR KLGA 082251Z 10007KT 10SM BKN025 OVC045 09/03 A3026\ RMK AO2 SLP245 T00940028 $= 201711082351 METAR KLGA 082351Z 08007KT 060V120 10SM OVC042 09/02 A3026\ RMK AO2 SLP247 T00890022 10100 20083\ 53009 $= 201711090051 METAR KLGA 090051Z 04007KT 10SM OVC041 09/03 A3027 RMK AO2\ SLP249 T00940028 $= 201711090151 METAR KLGA 090151Z 03009KT 10SM SCT040 08/03 A3027 RMK AO2\ SLP249 T00830028 $= 201711090251 METAR KLGA 090251Z 03008KT 10SM FEW040 08/03 A3026 RMK AO2\ SLP245 T00780033 58002 $= 201711090351 METAR KLGA 090351Z 02006KT 10SM FEW010 FEW035 07/03 A3024\ RMK AO2 SLP240 T00720033 $= 201711090451 METAR KLGA 090451Z 02003KT 10SM FEW020 07/02 A3025 RMK AO2\ SLP242 T00670022 401000044 $= 201711090551 METAR KLGA 090551Z 01006KT 10SM FEW010 07/02 A3024 RMK AO2\ SLP239 T00670017 10094 20067 56006\ $= 201711090651 METAR KLGA 090651Z 04005KT 10SM FEW010 07/02 A3024 RMK AO2\ SLP240 T00670022 $= 201711090751 METAR KLGA 090751Z 02005KT 10SM FEW010 06/03 A3023 RMK AO2\ SLP235 T00610028 $= 201711090851 METAR KLGA 090851Z 03007KT 10SM FEW030 06/03 A3023 RMK AO2\ SLP235 T00610028 58005 $= 201711090951 METAR KLGA 090951Z 04006KT 10SM FEW250 06/03 A3024 RMK AO2\ SLP240 T00560028 $= 201711091051 METAR KLGA 091051Z 01005KT 10SM SCT044 06/03 A3024 RMK AO2\ SLP239 T00560028 $= 201711091151 METAR KLGA 091151Z 03005KT 10SM FEW027 BKN042 06/02 A3024\ RMK AO2 SLP240 T00560022 10067 20056\ 51005 $= 201711091251 METAR KLGA 091251Z 04006KT 10SM FEW042 BKN130 07/02 A3023\ RMK AO2 SLP238 T00670022 $= 201711091351 METAR KLGA 091351Z 05006KT 10SM FEW040 BKN130 08/03 A3022\ RMK AO2 SLP234 T00780028 $= 201711091451 METAR KLGA 091451Z 05008KT 10SM FEW043 FEW080 SCT120 09/04\ A3020 RMK AO2 SLP226 T00940039 58014= 201711091551 METAR KLGA 091551Z 05008KT 10SM FEW042 FEW120 11/03 A3018\ RMK AO2 SLP218 T01060033= 201711091651 METAR KLGA 091651Z 05007KT 10SM FEW042 SCT120 12/03 A3013\ RMK AO2 SLP204 T01170033= 201711091751 METAR KLGA 091751Z 05007KT 10SM BKN041 11/03 A3011 RMK AO2\ SLP194 T01110033 10122 20056 58032= 201711091851 METAR KLGA 091851Z 05007KT 10SM BKN042 BKN110 12/04 A3008\ RMK AO2 SLP187 T01170039= 201711091951 METAR KLGA 091951Z 06008KT 10SM BKN039 BKN110 12/05 A3007\ RMK AO2 SLP183 T01220050= 201711092051 METAR KLGA 092051Z 10006KT 10SM SCT037 SCT047 BKN090 BKN250\ 13/04 A3006 RMK AO2 SLP179 T01330044\ 56015= 201711092151 METAR KLGA 092151Z 16007KT 10SM BKN043 BKN065 BKN250 12/04\ A3005 RMK AO2 RAB25E38 SLP176 P0000\ T01170039= 201711092251 METAR KLGA 092251Z 14008KT 10SM BKN045 BKN090 12/06 A3004\ RMK AO2 SLP173 T01170056= 201711092351 METAR KLGA 092351Z VRB06KT 10SM BKN075 12/07 A3003 RMK AO2\ SLP168 60000 T01220067 10133 20111\ 58011= 201711100051 METAR KLGA 100051Z 16006KT 10SM BKN042 BKN080 12/07 A3001\ RMK AO2 SLP162 T01170072= 201711100151 METAR KLGA 100151Z 19008KT 10SM BKN040 OVC080 12/07 A2999\ RMK AO2 SLP156 T01220072= 201711100251 METAR KLGA 100251Z 20008KT 10SM OVC042 13/08 A2998 RMK AO2\ SLP151 T01280078 56017= 201711100351 METAR KLGA 100351Z 22008KT 10SM BKN038 OVC050 13/08 A2996\ RMK AO2 SLP145 T01280078= 201711100451 METAR KLGA 100451Z 24013G19KT 10SM -RA FEW022 BKN028 OVC048\ 12/08 A2995 RMK AO2 RAB39 SLP142\ P0000 T01170083 401330056= 201711100551 METAR KLGA 100551Z 26013G20KT 9SM -RA BKN017 BKN028 OVC039\ 11/08 A2994 RMK AO2 RAE29B50 SLP138\ P0000 60000 T01110078 10128 20111\ 56013= 201711100651 METAR KLGA 100651Z 26008KT 10SM FEW022 11/07 A2993 RMK AO2\ RAE00 SLP136 P0000 T01060067= 201711100751 METAR KLGA 100751Z 23009KT 10SM FEW020 10/06 A2993 RMK AO2\ SLP134 T01000056= 201711100851 METAR KLGA 100851Z 27014G20KT 10SM FEW020 09/05 A2994 RMK\ AO2 SLP138 60000 T00940050 55000= 201711100951 METAR KLGA 100951Z 30018G26KT 10SM SCT020 BKN033 OVC041 08/02\ A2999 RMK AO2 PK WND 31028/0924 SLP155\ T00830017= 201711101051 METAR KLGA 101051Z 32022G32KT 10SM FEW040 SCT060 07/00 A3002\ RMK AO2 PK WND 32032/1046 SLP167\ T00670000= 201711101151 METAR KLGA 101151Z 32015G30KT 10SM FEW039 SCT050 05/M03 A3008\ RMK AO2 PK WND 33031/1140 PRESRR\ SLP187 60000 T00501033 10111 20050\ 53049= 201711101251 METAR KLGA 101251Z 33018G26KT 10SM FEW045 SCT250 04/M06 A3014\ RMK AO2 PK WND 31034/1211 SLP206\ T00391056= 201711101351 METAR KLGA 101351Z 32022G30KT 10SM FEW050 SCT220 04/M07 A3017\ RMK AO2 PK WND 32030/1312 SLP216\ T00391072= 201711101451 METAR KLGA 101451Z 32019G27KT 10SM SCT055 BKN220 04/M06 A3020\ RMK AO2 PK WND 32031/1438 SLP225\ T00391061 51038= 201711101551 METAR KLGA 101551Z 31022G29KT 10SM SCT055 BKN250 03/M09 A3022\ RMK AO2 PK WND 32032/1524 SLP234\ T00331089= 201711101651 METAR KLGA 101651Z 31024G32KT 10SM SCT055 BKN250 03/M09 A3023\ RMK AO2 PK WND 31033/1623 SLP234\ T00331094= 201711101751 METAR KLGA 101751Z 31023G31KT 10SM FEW055 BKN250 02/M09 A3024\ RMK AO2 PK WND 29033/1709 SLP241\ T00221094 10050 20022 51016= 201711101851 METAR KLGA 101851Z 32020G28KT 10SM FEW055 BKN250 03/M11 A3025\ RMK AO2 PK WND 32031/1828 SLP244\ T00281111= 201711101951 METAR KLGA 101951Z 34018G30KT 10SM FEW055 SCT250 03/M11 A3027\ RMK AO2 PK WND 33033/1854 SLP249\ T00281111= 201711102051 METAR KLGA 102051Z 33020G31KT 10SM FEW055 SCT250 02/M11 A3031\ RMK AO2 PK WND 33032/2027 SLP263\ T00221106 53022= 201711102151 METAR KLGA 102151Z 33020KT 10SM FEW055 SCT250 01/M11 A3036\ RMK AO2 PK WND 32028/2114 SLP279\ T00111111= 201711102251 METAR KLGA 102251Z 33017G24KT 10SM FEW050 FEW250 00/M12 A3041\ RMK AO2 PK WND 32029/2215 SLP297\ T00001117= 201711102351 METAR KLGA 102351Z 32023G28KT 10SM FEW250 M01/M12 A3044 RMK\ AO2 PK WND 34028/2349 SLP308 T10061117\ 10033 21006 51046= 201711110051 METAR KLGA 110051Z 32018KT 10SM CLR M01/M12 A3047 RMK AO2\ PK WND 32030/0035 SLP318 T10111117= 201711110151 METAR KLGA 110151Z 33017G24KT 10SM CLR M02/M12 A3049 RMK\ AO2 PK WND 32030/0124 SLP324 T10171122= 201711110251 METAR KLGA 110251Z 33014G25KT 10SM CLR M02/M12 A3051 RMK\ AO2 PK WND 32026/0208 SLP329 T10221122\ 51021= 201711110351 METAR KLGA 110351Z 32014G20KT 10SM CLR M02/M12 A3050 RMK\ AO2 SLP328 T10221117= 201711110451 METAR KLGA 110451Z 34012G20KT 10SM CLR M03/M12 A3051 RMK\ AO2 SLP329 T10281117 401171028= 201711110551 METAR KLGA 110551Z 31015G25KT 10SM CLR M02/M09 A3049 RMK\ AO2 PK WND 31027/0537 SLP325 T10221094\ 11006 21028 58004= 201711110651 METAR KLGA 110651Z 31010G18KT 10SM CLR M03/M11 A3050 RMK\ AO2 SLP327 T10281106= 201711110751 METAR KLGA 110751Z 32016KT 10SM CLR M03/M09 A3049 RMK AO2\ SLP324 T10281089= 201711110851 METAR KLGA 110851Z 31018G24KT 10SM CLR M03/M09 A3052 RMK\ AO2 PK WND 30027/0817 SLP333 T10281089\ 53008= 201711110951 METAR KLGA 110951Z 33010G19KT 10SM CLR M03/M09 A3053 RMK\ AO2 SLP337 T10281094= 201711111051 METAR KLGA 111051Z 31011KT 10SM FEW200 FEW250 M03/M09 A3053\ RMK AO2 SLP338 T10281089= 201711111151 METAR KLGA 111151Z 32009KT 10SM FEW200 SCT250 M03/M10 A3055\ RMK AO2 SLP343 T10331100 11022 21033\ 53009= 201711111251 METAR KLGA 111251Z 33009KT 10SM FEW200 SCT250 M02/M11 A3056\ RMK AO2 SLP349 T10221106= 201711111351 METAR KLGA 111351Z 35008KT 320V020 10SM FEW200 FEW250 M02/M11\ A3057 RMK AO2 SLP352 T10171106= 201711111451 METAR KLGA 111451Z 35009KT 10SM FEW200 FEW250 00/M10 A3057\ RMK AO2 SLP352 T00001100 50009= 201711111551 METAR KLGA 111551Z 36010KT 10SM FEW250 01/M11 A3058 RMK AO2\ SLP353 T00111111= 201711111651 METAR KLGA 111651Z 34010KT 10SM FEW250 02/M11 A3055 RMK AO2\ SLP344 T00171111= 201711111751 METAR KLGA 111751Z 36009KT 10SM FEW250 03/M12 A3053 RMK AO2\ SLP336 T00281117 10028 21033 58016= 201711111851 METAR KLGA 111851Z 02009KT 10SM BKN250 03/M13 A3050 RMK AO2\ SLP328 T00281128= 201711111951 METAR KLGA 111951Z VRB04KT 10SM BKN250 03/M12 A3050 RMK AO2\ SLP329 T00331122= 201711112051 METAR KLGA 112051Z 36005KT 10SM BKN250 03/M12 A3050 RMK AO2\ SLP328 T00331122 56008= 201711112151 METAR KLGA 112151Z 35005KT 10SM BKN250 03/M12 A3052 RMK AO2\ SLP334 T00281122= 201711112251 METAR KLGA 112251Z 32007KT 10SM BKN250 03/M12 A3053 RMK AO2\ SLP338 T00281117= 201711112351 METAR KLGA 112351Z 01005KT 10SM BKN250 03/M12 A3054 RMK AO2\ SLP340 T00281122 10039 20028 51012= 201711120051 METAR KLGA 120051Z 01005KT 10SM OVC250 02/M13 A3054 RMK AO2\ SLP342 T00221133= 201711120151 METAR KLGA 120151Z 04004KT 10SM OVC250 02/M12 A3053 RMK AO2\ SLP336 T00221117= 201711120251 METAR KLGA 120251Z 09003KT 10SM OVC250 02/M12 A3051 RMK AO2\ SLP332 T00221117 58008= 201711120351 METAR KLGA 120351Z 08003KT 10SM BKN200 02/M09 A3051 RMK AO2\ SLP330 T00221094= 201711120451 METAR KLGA 120451Z 11004KT 10SM BKN200 02/M09 A3051 RMK AO2\ SLP331 T00221094 400391033= 201711120551 METAR KLGA 120551Z 09006KT 10SM BKN200 02/M11 A3049 RMK AO2\ SLP324 T00171106 10028 20017 58009= 201711120651 METAR KLGA 120651Z 00000KT 10SM SCT250 02/M07 A3050 RMK AO2\ SLP326 T00171072= 201711120751 METAR KLGA 120751Z 12004KT 10SM SCT250 02/M08 A3049 RMK AO2\ SLP326 T00221078= 201711120851 METAR KLGA 120851Z 11003KT 10SM SCT250 02/M08 A3050 RMK AO2\ SLP326 T00221078 51003= 201711120951 METAR KLGA 120951Z 12004KT 10SM FEW200 SCT250 02/M06 A3050\ RMK AO2 SLP326 T00171061= 201711121051 METAR KLGA 121051Z 09003KT 10SM FEW200 BKN250 02/M06 A3049\ RMK AO2 SLP324 T00171056= 201711121151 METAR KLGA 121151Z 00000KT 10SM FEW090 SCT210 BKN250 02/M04\ A3051 RMK AO2 SLP330 T00221044 10028\ 20011 53003= 201711121251 METAR KLGA 121251Z 00000KT 10SM FEW029 FEW090 SCT210 BKN250\ 03/M05 A3050 RMK AO2 SLP329 T00331050= 201711121351 METAR KLGA 121351Z 19003KT 10SM FEW038 FEW090 SCT210 BKN250\ 04/M07 A3049 RMK AO2 SLP326 T00391067= 201711121451 METAR KLGA 121451Z 23005KT 10SM FEW030 FEW090 SCT210 BKN250\ 06/M09 A3049 RMK AO2 SLP322 T00561094\ 58007= 201711121551 METAR KLGA 121551Z 29004KT 10SM FEW010 SCT031 SCT090 BKN210\ BKN250 06/M08 A3048 RMK AO2 SLP321\ FU FEW010 FU PLUME N DRFTG NE T00611083= 201711121651 METAR KLGA 121651Z 23005KT 10SM SCT034 SCT090 BKN210 BKN250\ 07/M06 A3045 RMK AO2 SLP311 T00671056= 201711121751 METAR KLGA 121751Z 24006KT 10SM FEW034 SCT090 BKN210 BKN250\ 08/M06 A3043 RMK AO2 SLP303 T00781056\ 10078 20022 58019= 201711121851 METAR KLGA 121851Z 22008KT 10SM FEW034 FEW090 SCT230 SCT250\ 08/M04 A3042 RMK AO2 SLP300 ACSL\ S T00831039= 201711121951 METAR KLGA 121951Z 24007KT 10SM FEW035 SCT250 08/M04 A3041\ RMK AO2 SLP296 T00831044= 201711122051 METAR KLGA 122051Z 21007KT 10SM FEW170 BKN250 08/M04 A3041\ RMK AO2 SLP296 T00831039 56007= 201711122151 METAR KLGA 122151Z 22005KT 10SM FEW170 BKN250 08/M03 A3040\ RMK AO2 SLP295 T00781033= 201711122251 METAR KLGA 122251Z 17008KT 10SM BKN150 BKN250 07/M02 A3040\ RMK AO2 SLP293 T00671022= 201711122351 METAR KLGA 122351Z 17007KT 10SM BKN150 BKN250 07/M02 A3040\ RMK AO2 SLP294 T00671022 10083 20067\ 55001= 201711130051 METAR KLGA 130051Z 21004KT 10SM BKN150 BKN250 07/M03 A3041\ RMK AO2 SLP296 T00721028= 201711130151 METAR KLGA 130151Z 00000KT 10SM SCT150 BKN250 07/M02 A3041\ RMK AO2 SLP296 T00671017= 201711130251 METAR KLGA 130251Z 00000KT 10SM BKN150 BKN250 07/M02 A3041\ RMK AO2 SLP296 T00671017 50002= 201711130351 METAR KLGA 130351Z 06004KT 10SM BKN150 BKN250 07/M01 A3039\ RMK AO2 SLP291 T00721006= 201711130451 METAR KLGA 130451Z 02005KT 10SM BKN120 07/M01 A3039 RMK AO2\ SLP290 T00721006 400830011= 201711130551 METAR KLGA 130551Z 01004KT 10SM FEW120 OVC140 07/M01 A3038\ RMK AO2 SLP287 T00721011 10072 20067\ 56009= 201711130651 METAR KLGA 130651Z 02005KT 10SM FEW120 OVC140 07/M03 A3036\ RMK AO2 SLP279 T00721033= 201711130751 METAR KLGA 130751Z 03006KT 10SM FEW020 OVC140 07/M01 A3035\ RMK AO2 SLP276 T00721011= 201711130851 METAR KLGA 130851Z 02006KT 10SM BKN090 OVC110 07/M01 A3035\ RMK AO2 SLP278 T00721006 55008= 201711130951 METAR KLGA 130951Z 04005KT 10SM FEW035 BKN090 OVC150 07/01\ A3036 RMK AO2 SLP278 T00720006= 201711131051 METAR KLGA 131051Z 03007KT 10SM FEW060 OVC080 07/01 A3033\ RMK AO2 SLP270 T00720006= 201711131151 METAR KLGA 131151Z 04007KT 10SM BKN031 OVC075 08/02 A3033\ RMK AO2 SLP269 T00780017 10083 20072\ 58009= 201711131251 METAR KLGA 131251Z 04008KT 10SM -RA FEW017 BKN033 OVC040\ 07/01 A3034 RMK AO2 RAB25 SLP274\ P0001 T00720011= 201711131351 METAR KLGA 131351Z 03008KT 10SM -RA FEW024 BKN050 OVC060\ 07/01 A3034 RMK AO2 SLP274 P0002\ T00670011= 201711131451 METAR KLGA 131451Z 03008KT 10SM -RA FEW027 BKN035 OVC041\ 07/02 A3035 RMK AO2 SLP275 P0000\ 60003 T00670017 51006= 201711131551 METAR KLGA 131551Z 04008KT 10SM -RA FEW027 SCT043 OVC055\ 07/03 A3034 RMK AO2 SLP273 P0001\ T00670033= 201711131651 METAR KLGA 131651Z 04009KT 10SM FEW028 SCT065 OVC080 07/04\ A3030 RMK AO2 RAE35 SLP260 P0001\ T00720044= 201711131751 METAR KLGA 131751Z 03009KT 10SM FEW045 OVC065 08/04 A3028\ RMK AO2 SLP254 60005 T00780039 10078\ 20061 58022= 201711131851 METAR KLGA 131851Z 01006KT 10SM FEW043 OVC060 08/04 A3027\ RMK AO2 SLP251 T00830039= 201711131951 METAR KLGA 131951Z 01007KT 10SM FEW035 OVC060 09/03 A3027\ RMK AO2 SLP250 T00940033= 201711132051 METAR KLGA 132051Z 02009KT 10SM FEW035 OVC060 10/03 A3027\ RMK AO2 SLP249 T01000033 56005= 201711132151 METAR KLGA 132151Z 01006KT 10SM FEW025 BKN055 09/03 A3027\ RMK AO2 SLP250 T00890033= 201711132251 METAR KLGA 132251Z 01008KT 10SM FEW055 07/03 A3029 RMK AO2\ SLP256 T00720028= 201711132351 METAR KLGA 132351Z 36010KT 10SM FEW055 07/02 A3030 RMK AO2\ SLP261 T00720017 10100 20072 53012= 201711140051 METAR KLGA 140051Z 01009KT 10SM SCT048 SCT250 07/02 A3031\ RMK AO2 SLP264 T00670017= 201711140151 METAR KLGA 140151Z 02009KT 10SM FEW055 06/01 A3032 RMK AO2\ SLP265 T00610006= 201711140251 METAR KLGA 140251Z 36007KT 10SM FEW055 BKN250 06/M01 A3031\ RMK AO2 SLP264 T00611006 50003= 201711140351 METAR KLGA 140351Z 02007KT 10SM CLR 06/M01 A3030 RMK AO2\ SLP259 T00561006= 201711140451 METAR KLGA 140451Z 36010KT 10SM CLR 06/M02 A3030 RMK AO2\ SLP259 T00561017 401000056= 201711140551 METAR KLGA 140551Z 02007KT 10SM CLR 05/M01 A3029 RMK AO2\ SLP256 T00501011 10072 20050 56007= 201711140651 METAR KLGA 140651Z 36009KT 10SM CLR 05/M01 A3030 RMK AO2\ SLP259 T00501006= 201711140751 METAR KLGA 140751Z 34009KT 10SM CLR 05/M01 A3029 RMK AO2\ SLP257 T00501006= 201711140851 METAR KLGA 140851Z 35009KT 10SM CLR 05/00 A3029 RMK AO2 SLP257\ T00500000 51001= 201711140951 METAR KLGA 140951Z 01007KT 10SM FEW250 04/00 A3030 RMK AO2\ SLP259 T00440000= 201711141051 METAR KLGA 141051Z 02007KT 10SM FEW250 04/00 A3031 RMK AO2\ SLP264 T00390000= 201711141151 METAR KLGA 141151Z 01006KT 10SM FEW045 SCT150 BKN250 04/M01\ A3032 RMK AO2 SLP268 70005 T00391006\ 10050 20039 53010= 201711141251 METAR KLGA 141251Z 35010KT 10SM SCT025 BKN250 04/00 A3033\ RMK AO2 SLP271 T00440000= 201711141351 METAR KLGA 141351Z 01009KT 10SM FEW017 SCT055 BKN220 06/01\ A3034 RMK AO2 SLP272 T00560006= 201711141451 METAR KLGA 141451Z 02010KT 10SM FEW020 SCT055 BKN220 06/01\ A3034 RMK AO2 SLP273 T00610006 51005= 201711141551 METAR KLGA 141551Z 02007KT 10SM SCT025 BKN060 BKN220 07/01\ A3033 RMK AO2 SLP270 T00670006= 201711141651 METAR KLGA 141651Z 05008KT 10SM BKN023 BKN060 OVC210 07/01\ A3031 RMK AO2 SLP263 T00720011= 201711141751 METAR KLGA 141751Z 04006KT 10SM SCT026 BKN060 BKN210 08/02\ A3029 RMK AO2 SLP258 T00830017 10083\ 20039 58015= 201711141851 METAR KLGA 141851Z 05010KT 10SM BKN029 OVC060 08/02 A3028\ RMK AO2 SLP253 T00830017= 201711141951 METAR KLGA 141951Z 05010KT 10SM BKN030 OVC060 08/02 A3028\ RMK AO2 SLP252 T00830017= 201711142051 METAR KLGA 142051Z 05008KT 10SM OVC029 08/02 A3028 RMK AO2\ SLP254 T00780017 55004= 201711142151 METAR KLGA 142151Z 03008KT 10SM SCT026 BKN060 07/02 A3029\ RMK AO2 SLP256 T00720017= 201711142251 METAR KLGA 142251Z 02008KT 10SM FEW023 BKN060 07/02 A3030\ RMK AO2 SLP260 T00670017= 201711142351 METAR KLGA 142351Z 03007KT 10SM SCT023 BKN060 07/02 A3030\ RMK AO2 SLP261 T00670017 10083 20067\ 51007= 201711150051 METAR KLGA 150051Z 03010KT 10SM OVC060 06/01 A3031 RMK AO2\ SLP262 T00610011= 201711150151 METAR KLGA 150151Z 02009KT 10SM OVC060 06/01 A3031 RMK AO2\ SLP262 T00610011= 201711150251 METAR KLGA 150251Z 02009KT 10SM SCT030 BKN060 BKN250 06/01\ A3030 RMK AO2 SLP261 T00560011 50000= 201711150351 METAR KLGA 150351Z 02008KT 10SM BKN055 06/00 A3029 RMK AO2\ SLP257 T00560000= 201711150451 METAR KLGA 150451Z 02008KT 10SM OVC060 05/M01 A3030 RMK AO2\ SLP260 T00501006 400830039= 201711150551 METAR KLGA 150551Z 36006KT 10SM BKN060 05/M01 A3030 RMK AO2\ SLP259 T00501006 10067 20050 56002= 201711150651 METAR KLGA 150651Z 01007KT 10SM BKN060 05/M01 A3029 RMK AO2\ SLP257 T00501011= 201711150751 METAR KLGA 150751Z 03008KT 10SM OVC055 04/M01 A3029 RMK AO2\ SLP258 T00441006= 201711150851 METAR KLGA 150851Z 01006KT 10SM BKN055 04/M01 A3030 RMK AO2\ SLP259 T00391011 55000= 201711150951 METAR KLGA 150951Z 02005KT 10SM FEW055 03/M01 A3030 RMK AO2\ SLP260 T00331011= 201711151051 METAR KLGA 151051Z 02007KT 10SM FEW055 03/M01 A3030 RMK AO2\ SLP258 T00331011= 201711151151 METAR KLGA 151151Z 04008KT 10SM FEW055 FEW250 03/M01 A3030\ RMK AO2 SLP261 T00331011 10050 20033\ 53002= 201711151251 METAR KLGA 151251Z 04007KT 10SM FEW055 FEW250 04/M01 A3031\ RMK AO2 SLP265 T00441011= 201711151351 METAR KLGA 151351Z 05009KT 10SM FEW028 FEW055 FEW250 06/00\ A3031 RMK AO2 SLP263 T00610000= 201711151451 METAR KLGA 151451Z 05009KT 10SM FEW019 FEW250 07/01 A3029\ RMK AO2 SLP258 T00720011 58003= 201711151551 METAR KLGA 151551Z 05007KT 10SM FEW023 SCT250 08/01 A3027\ RMK AO2 SLP250 T00780011= 201711151651 METAR KLGA 151651Z 04009KT 10SM FEW026 BKN250 09/02 A3024\ RMK AO2 SLP238 T00890017= 201711151751 METAR KLGA 151751Z 05008KT 10SM SCT035 BKN250 09/02 A3020\ RMK AO2 SLP228 T00890022 10089 20033\ 58030= 201711151851 METAR KLGA 151851Z 04008KT 10SM BKN043 BKN250 09/02 A3018\ RMK AO2 SLP220 T00940017= 201711151951 METAR KLGA 151951Z 04005KT 10SM BKN045 BKN250 09/02 A3017\ RMK AO2 SLP217 T00940017= 201711152051 METAR KLGA 152051Z 03005KT 10SM BKN047 BKN250 09/02 A3017\ RMK AO2 SLP217 T00890017 55010= 201711152151 METAR KLGA 152151Z 06006KT 10SM BKN043 BKN250 09/01 A3016\ RMK AO2 SLP213 T00940011= 201711152251 METAR KLGA 152251Z 13008KT 10SM FEW037 OVC047 10/02 A3015\ RMK AO2 SLP209 T01000017= 201711152351 METAR KLGA 152351Z 12009KT 10SM OVC047 09/02 A3014 RMK AO2\ SLP206 T00940022 10106 20083 56012= 201711160051 METAR KLGA 160051Z 11014KT 10SM OVC040 09/02 A3011 RMK AO2\ SLP195 T00940022= 201711160151 METAR KLGA 160151Z 11009KT 10SM BKN045 09/02 A3010 RMK AO2\ SLP192 T00940022= 201711160251 METAR KLGA 160251Z 11009KT 10SM BKN036 OVC050 09/03 A3008\ RMK AO2 SLP187 T00940028 56019= 201711160351 METAR KLGA 160351Z 12007KT 10SM SCT036 OVC050 10/04 A3006\ RMK AO2 SLP178 T01000039= 201711160451 METAR KLGA 160451Z 12007KT 10SM BKN034 OVC050 10/04 A3004\ RMK AO2 SLP171 T01000044 401060033= 201711160551 METAR KLGA 160551Z 14008KT 10SM OVC055 11/06 A3001 RMK AO2\ SLP161 T01110056 10111 20089 58025= 201711160651 METAR KLGA 160651Z 15007KT 10SM BKN033 OVC060 11/06 A2999\ RMK AO2 SLP156 T01110061= 201711160751 METAR KLGA 160751Z 17009KT 10SM SCT027 OVC060 12/06 A2996\ RMK AO2 SLP146 T01170061= 201711160851 METAR KLGA 160851Z 16008KT 10SM -RA SCT044 BKN055 OVC090\ 12/07 A2993 RMK AO2 RAB29 SLP135\ P0000 60000 T01170072 58026= 201711160951 METAR KLGA 160951Z 17010KT 10SM FEW023 SCT036 OVC100 12/08\ A2991 RMK AO2 RAE0853 SLP128 P0000\ T01170078= 201711161051 METAR KLGA 161051Z 21008KT 4SM R04/6000VP6000FT RA BR FEW021\ BKN030 OVC038 11/09 A2989 RMK AO2\ RAB00 CIG 023 R22 SW SLP122 P0014\ T01110089= 201711161151 METAR KLGA 161151Z 21008KT 3SM +RA BR BKN011 OVC020 11/10\ A2988 RMK AO2 SLP119 P0056 60070\ 70070 T01110100 10122 20111 56016= 201711161251 METAR KLGA 161251Z 21009KT 10SM FEW012 SCT041 OVC048 12/10\ A2987 RMK AO2 RAE50 SLP115 P0008\ T01170100= 201711161351 METAR KLGA 161351Z 23008KT 10SM FEW019 OVC050 12/09 A2986\ RMK AO2 SLP111 T01170089= 201711161451 METAR KLGA 161451Z 23010KT 10SM FEW025 BKN055 BKN090 12/07\ A2984 RMK AO2 SLP104 60008 T01170072\ 58015= 201711161551 METAR KLGA 161551Z 23007KT 10SM FEW025 BKN055 12/07 A2982\ RMK AO2 RAB18E28 SLP097 P0000 T01220072= 201711161651 METAR KLGA 161651Z 24007KT 10SM BKN070 13/07 A2978 RMK AO2\ SLP083 T01280072= 201711161751 METAR KLGA 161751Z 26013G19KT 10SM SCT037 BKN070 13/06 A2976\ RMK AO2 SLP077 60008 T01330056 10133\ 20111 56027= 201711161851 METAR KLGA 161851Z 26013G27KT 10SM SCT045 SCT075 14/02 A2974\ RMK AO2 PK WND 29027/1846 SLP071\ T01440022= 201711161951 METAR KLGA 161951Z 26017G26KT 9SM -RA SCT045 BKN055 BKN070\ 12/04 A2977 RMK AO2 PK WND 30030/1930\ RAB34 SLP079 P0000 T01170039= 201711162051 METAR KLGA 162051Z 27015G25KT 10SM FEW075 SCT095 12/03 A2978\ RMK AO2 PK WND 27030/2015 RAE1957\ SLP083 P0000 60000 T01170028 53005= 201711162151 METAR KLGA 162151Z 30019G27KT 10SM FEW045 FEW075 FEW095 11/01\ A2981 RMK AO2 PK WND 31029/2138 SLP093\ T01060011= 201711162251 METAR KLGA 162251Z 28014G20KT 10SM FEW045 11/01 A2983 RMK\ AO2 PK WND 29026/2224 SLP100 T01060011= 201711162351 METAR KLGA 162351Z 30019G30KT 10SM FEW045 10/01 A2984 RMK\ AO2 PK WND 30030/2346 SLP106 60000\ T01000006 10150 20100 51023= 201711170051 METAR KLGA 170051Z 29014G25KT 10SM FEW045 09/01 A2986 RMK\ AO2 PK WND 29030/0005 SLP111 T00940011= 201711170151 METAR KLGA 170151Z 28011G21KT 10SM FEW045 09/02 A2987 RMK\ AO2 PK WND 28026/0108 SLP115 T00890017= 201711170251 METAR KLGA 170251Z 30012G22KT 10SM -RA BKN037 BKN047 BKN060\ 09/01 A2989 RMK AO2 RAB48 SLP121\ P0000 60000 T00890011 53016= 201711170351 METAR KLGA 170351Z 30016G23KT 10SM FEW028 SCT034 SCT075 08/02\ A2989 RMK AO2 RAE10 SLP122 P0000\ T00780017= 201711170451 METAR KLGA 170451Z 29010KT 10SM FEW044 SCT075 07/02 A2990\ RMK AO2 SLP125 T00720017 401500072= 201711170551 METAR KLGA 170551Z 30017G23KT 10SM FEW045 07/01 A2992 RMK\ AO2 SLP130 60000 T00720006 10100\ 20072 53008= 201711170651 METAR KLGA 170651Z 30014KT 10SM FEW050 FEW070 07/M01 A2993\ RMK AO2 PK WND 31028/0625 SLP134\ T00671006= 201711170751 METAR KLGA 170751Z 30015G21KT 10SM SCT050 07/M01 A2994 RMK\ AO2 PK WND 32028/0732 SLP137 T00671011= 201711170851 METAR KLGA 170851Z 30017G24KT 10SM BKN048 07/M02 A2995 RMK\ AO2 PK WND 30027/0834 SLP143 T00671017\ 53013= 201711170951 METAR KLGA 170951Z 30020G28KT 10SM SCT046 06/M02 A2998 RMK\ AO2 PK WND 32030/0918 SLP153 T00611022= 201711171051 METAR KLGA 171051Z 30023G31KT 10SM SCT040 06/M02 A3000 RMK\ AO2 PK WND 30033/1036 SLP157 T00611022= 201711171151 METAR KLGA 171151Z 31017G32KT 10SM SCT040 06/M02 A3001 RMK\ AO2 PK WND 33034/1128 SLP162 70008\ T00561022 10072 20050 51019= 201711171251 METAR KLGA 171251Z 31020G27KT 10SM SCT040 06/M02 A3004 RMK\ AO2 PK WND 32034/1201 SLP171 T00561022= 201711171351 METAR KLGA 171351Z 31022G29KT 10SM FEW040 06/M02 A3005 RMK\ AO2 PK WND 31032/1321 SLP175 T00611022= 201711171451 METAR KLGA 171451Z 30017G27KT 10SM FEW040 06/M03 A3008 RMK\ AO2 PK WND 31029/1430 SLP184 T00611028\ 51022= 201711171551 METAR KLGA 171551Z 30017G22KT 10SM FEW040 07/M03 A3006 RMK\ AO2 SLP180 T00671028= 201711171651 METAR KLGA 171651Z 32018G24KT 10SM FEW045 07/M04 A3005 RMK\ AO2 SLP174 T00721039= 201711171751 METAR KLGA 171751Z 30019G23KT 10SM FEW045 FEW250 08/M04 A3005\ RMK AO2 SLP176 T00831044 10083 20050\ 55008= 201711171851 METAR KLGA 171851Z 30015G23KT 10SM FEW250 09/M06 A3005 RMK\ AO2 SLP175 T00891061= 201711171951 METAR KLGA 171951Z 29018G24KT 10SM FEW250 09/M06 A3005 RMK\ AO2 PK WND 31026/1914 SLP177 T00891061= 201711172051 METAR KLGA 172051Z 31019KT 10SM FEW250 09/M07 A3006 RMK AO2\ SLP179 T00941067 53003= 201711172151 METAR KLGA 172151Z 32016KT 10SM FEW250 08/M08 A3006 RMK AO2\ SLP177 T00831078= 201711172251 METAR KLGA 172251Z 31016KT 10SM FEW250 08/M07 A3007 RMK AO2\ SLP182 T00781067= 201711172351 METAR KLGA 172351Z 31015KT 10SM SCT250 07/M07 A3008 RMK AO2\ SLP185 T00721072 10094 20072 53006= 201711180051 METAR KLGA 180051Z 30015KT 10SM FEW250 06/M07 A3007 RMK AO2\ SLP183 T00611072= 201711180151 METAR KLGA 180151Z 33012KT 10SM FEW250 06/M07 A3007 RMK AO2\ SLP183 T00611072= 201711180251 METAR KLGA 180251Z 29010KT 10SM FEW250 06/M08 A3009 RMK AO2\ SLP187 T00561078 53002= 201711180351 METAR KLGA 180351Z 29006KT 10SM FEW180 05/M09 A3007 RMK AO2\ SLP183 T00501089= 201711180451 METAR KLGA 180451Z 29010KT 10SM FEW250 05/M08 A3007 RMK AO2\ SLP182 T00501078 400940050= 201711180551 METAR KLGA 180551Z 31008KT 10SM CLR 04/M08 A3004 RMK AO2\ SLP172 T00441083 10072 20044 58015= 201711180651 METAR KLGA 180651Z 30005KT 10SM FEW250 04/M08 A3005 RMK AO2\ SLP174 T00391078= 201711180751 METAR KLGA 180751Z 00000KT 10SM SCT250 04/M08 A3001 RMK AO2\ PRESFR SLP162 T00391078= 201711180851 METAR KLGA 180851Z 00000KT 10SM FEW250 03/M08 A3000 RMK AO2\ SLP159 T00281078 58014= 201711180951 METAR KLGA 180951Z 21003KT 10SM FEW250 03/M07 A3000 RMK AO2\ SLP160 T00281067= 201711181051 METAR KLGA 181051Z 16003KT 10SM BKN250 03/M06 A3000 RMK AO2\ SLP157 T00281061= 201711181151 METAR KLGA 181151Z 20005KT 10SM FEW150 BKN260 04/M06 A2998\ RMK AO2 SLP153 ACSL W T00391061 10044\ 20022 58006= 201711181251 METAR KLGA 181251Z 00000KT 10SM FEW150 BKN260 05/M03 A2997\ RMK AO2 SLP147 T00501033= 201711181351 METAR KLGA 181351Z 00000KT 10SM FEW170 SCT210 BKN260 06/M03\ A2995 RMK AO2 SLP141 T00611033= 201711181451 METAR KLGA 181451Z 21007KT 10SM BKN140 OVC210 08/M02 A2992\ RMK AO2 SLP132 T00781017 58021= 201711181551 METAR KLGA 181551Z 20013G20KT 10SM FEW120 BKN140 OVC210 09/M01\ A2988 RMK AO2 SLP117 T00891006= 201711181651 METAR KLGA 181651Z 19013G20KT 10SM FEW120 BKN140 BKN210 09/M01\ A2982 RMK AO2 SLP098 T00891006= 201711181751 METAR KLGA 181751Z 18012G19KT 10SM FEW120 BKN170 BKN210 10/01\ A2977 RMK AO2 SLP082 T01000011 10100\ 20039 58050= 201711181851 METAR KLGA 181851Z 18011G17KT 10SM -RA OVC090 11/03 A2971\ RMK AO2 RAB37 SLP062 P0000 T01060033= 201711181951 METAR KLGA 181951Z 18013G20KT 10SM -RA OVC095 11/04 A2968\ RMK AO2 RAE16B43 SLP049 P0000 T01110039= 201711182051 METAR KLGA 182051Z 20009KT 10SM FEW075 OVC095 11/04 A2966\ RMK AO2 RAE26 SLP045 P0001 60001\ T01110039 56037= 201711182151 METAR KLGA 182151Z 19004KT 10SM -RA FEW070 OVC095 11/05 A2964\ RMK AO2 RAB2057 SLP036 P0001 T01060050= 201711182251 METAR KLGA 182251Z 00000KT 9SM -RA BKN080 OVC090 10/06 A2963\ RMK AO2 SLP032 P0003 T01000061= 201711182351 METAR KLGA 182351Z 22004KT 8SM RA OVC095 11/07 A2961 RMK\ AO2 SLP027 P0004 60009 T01060072\ 10111 20100 56017= 201711190051 METAR KLGA 190051Z 20009KT 10SM -RA OVC060 11/07 A2958 RMK\ AO2 RAE16B47 CIG 050 R22 SW SLP016\ P0002 T01060072= 201711190151 METAR KLGA 190151Z 18007KT 10SM SCT060 BKN090 11/07 A2954\ RMK AO2 RAE49 SLP001 P0001 T01060072= 201711190251 METAR KLGA 190251Z 18005KT 10SM -RA SCT060 BKN110 11/08 A2950\ RMK AO2 RAB0158E15B42 SLP989 P0000\ 60003 T01110078 58039= 201711190351 METAR KLGA 190351Z 18007KT 10SM FEW080 BKN110 13/10 A2944\ RMK AO2 RAE11B32E45 SLP968 P0000\ T01280100= 201711190451 METAR KLGA 190451Z 18006KT 10SM FEW060 BKN190 13/10 A2940\ RMK AO2 SLP957 T01330100 401330022= 201711190551 METAR KLGA 190551Z 19008KT 10SM FEW060 BKN190 14/10 A2936\ RMK AO2 SLP942 60003 T01390100 10139\ 20100 56047= 201711190651 METAR KLGA 190651Z 19010KT 10SM -RA FEW075 SCT120 BKN180\ 14/11 A2932 RMK AO2 RAB45 SLP928\ P0000 T01440106= 201711190751 METAR KLGA 190751Z 20014G25KT 10SM -RA BKN033 OVC060 16/11\ A2931 RMK AO2 SLP924 P0001 T01560111= 201711190851 METAR KLGA 190851Z 21015G24KT 10SM -RA SCT023 SCT070 OVC095\ 15/12 A2927 RMK AO2 PK WND 20027/0840\ SLP912 P0001 60002 T01500122 56030= 201711190951 METAR KLGA 190951Z 21015G22KT 10SM -RA SCT023 BKN070 OVC095\ 15/13 A2924 RMK AO2 PK WND 21026/0857\ SLP902 P0010 T01500128= 201711191051 METAR KLGA 191051Z 21018G26KT 10SM -RA BKN017 OVC022 15/13\ A2923 RMK AO2 PK WND 21026/1035 SLP898\ P0006 T01500133= 201711191151 METAR KLGA 191151Z 22017G30KT 7SM -RA FEW010 SCT015 OVC024\ 14/12 A2922 RMK AO2 PK WND 21030/1148\ SLP895 P0003 60021 70033 T01440117\ 10156 20139 56017= 201711191251 METAR KLGA 191251Z 26023G31KT 10SM -RA SCT013 BKN038 BKN065\ 14/11 A2924 RMK AO2 PK WND 25031/1221\ SLP903 P0002 T01440106= 201711191351 METAR KLGA 191351Z 27022G35KT 10SM FEW031 BKN040 BKN100 BKN200\ 12/04 A2931 RMK AO2 PK WND 26038/1313\ RAE00 SLP926 P0000 T01220044= 201711191451 METAR KLGA 191451Z 29024G31KT 10SM FEW036 BKN043 BKN055 BKN190\ 12/02 A2938 RMK AO2 PK WND 28035/1414\ PRESRR SLP948 60002 T01170022 53053= 201711191551 METAR KLGA 191551Z 29028G36KT 10SM FEW040 BKN048 11/01 A2943\ RMK AO2 PK WND 30038/1533 SLP966\ T01060006= 201711191651 METAR KLGA 191651Z 30025G35KT 10SM FEW041 BKN048 11/M01 A2948\ RMK AO2 PK WND 31038/1623 SLP983\ T01061006= 201711191751 METAR KLGA 191751Z 30024G32KT 10SM FEW042 BKN050 11/00 A2949\ RMK AO2 PK WND 30035/1659 SLP987\ 60002 T01060000 10144 20100 51039= 201711191851 METAR KLGA 191851Z 30028G36KT 10SM FEW045 BKN050 10/M01 A2952\ RMK AO2 PK WND 31037/1833 SLP996\ T01001006= 201711191951 METAR KLGA 191951Z 31017G30KT 10SM FEW040 BKN049 09/00 A2956\ RMK AO2 PK WND 28038/1852 SLP008\ T00940000= 201711192051 METAR KLGA 192051Z 32025G33KT 10SM FEW040 SCT048 09/M02 A2959\ RMK AO2 PK WND 30035/2028 SLP021\ T00891017 53034= 201711192151 METAR KLGA 192151Z 30017G24KT 10SM SCT050 08/M03 A2962 RMK\ AO2 PK WND 33028/2122 SLP031 T00831028= 201711192251 METAR KLGA 192251Z 30014KT 10SM SCT060 08/M03 A2966 RMK AO2\ PK WND 31029/2211 SLP045 T00831028= 201711192351 METAR KLGA 192351Z 30011KT 10SM SCT070 08/M03 A2969 RMK AO2\ SLP053 T00831033 10106 20078 51032= 201711200051 METAR KLGA 200051Z 30012KT 10SM BKN075 08/M03 A2971 RMK AO2\ SLP061 T00781028= 201711200151 METAR KLGA 200151Z 29012G20KT 10SM OVC080 08/M03 A2973 RMK\ AO2 SLP068 T00781028= 201711200251 METAR KLGA 200251Z 28010G21KT 10SM FEW050 SCT095 07/M02 A2975\ RMK AO2 SLP074 T00721017 51021= 201711200351 METAR KLGA 200351Z 29011KT 10SM -RA SCT028 BKN047 OVC060\ 04/01 A2978 RMK AO2 PK WND 30039/0323\ RAB23 CIG 027 R22 SW SLP085 P0000\ T00440006= 201711200451 METAR KLGA 200451Z 28013G20KT 10SM OVC090 06/M01 A2979 RMK\ AO2 RAE0352 SLP089 P0000 T00561006\ 401560044= 201711200551 METAR KLGA 200551Z 27014KT 10SM SCT070 BKN090 06/M02 A2981\ RMK AO2 SLP095 60000 T00561022 10083\ 20044 53010= 201711200651 METAR KLGA 200651Z 28013KT 10SM OVC075 06/M03 A2984 RMK AO2\ SLP105 T00561033= 201711200751 METAR KLGA 200751Z 29012KT 10SM OVC080 05/M03 A2987 RMK AO2\ SLP114 T00501033= 201711200851 METAR KLGA 200851Z 29013G21KT 10SM FEW049 BKN080 04/M04 A2990\ RMK AO2 SLP125 T00441039 53029= 201711200951 METAR KLGA 200951Z 27012KT 10SM FEW048 BKN075 04/M04 A2993\ RMK AO2 SLP135 T00391044= 201711201051 METAR KLGA 201051Z 26012KT 10SM FEW045 BKN075 04/M04 A2996\ RMK AO2 SLP146 T00391039= 201711201151 METAR KLGA 201151Z 27014G21KT 9SM -SN FEW014 BKN036 OVC065\ 04/M03 A2999 RMK AO2 SNB46 SLP155\ VIS NW-N 1 1/2 931000 P0000 60000\ 70002 T00391028 10056 20039 51030= 201711201251 METAR KLGA 201251Z 26010G18KT 10SM FEW036 BKN046 BKN055 03/M05\ A3002 RMK AO2 SNE11 SLP164 P0000\ T00331050= 201711201351 METAR KLGA 201351Z 26014G23KT 10SM FEW035 BKN060 04/M04 A3004\ RMK AO2 SLP171 T00391044= 201711201451 METAR KLGA 201451Z 26012G20KT 10SM SCT043 SCT055 BKN070 05/M04\ A3004 RMK AO2 SLP172 60000 T00501044\ 51017= 201711201551 METAR KLGA 201551Z 28012G22KT 10SM BKN055 06/M05 A3004 RMK\ AO2 SLP170 T00561050= 201711201651 METAR KLGA 201651Z 27017G23KT 10SM SCT060 07/M06 A3002 RMK\ AO2 SLP164 T00721056= 201711201751 METAR KLGA 201751Z 28015G20KT 10SM FEW065 08/M06 A3001 RMK\ AO2 PK WND 26026/1658 SLP161 931000\ 60000 T00831061 10083 20028 58011= 201711201851 METAR KLGA 201851Z 26017G25KT 10SM FEW060 08/M06 A3002 RMK\ AO2 PK WND 29026/1829 SLP165 T00831061= 201711201951 METAR KLGA 201951Z 29012G23KT 10SM FEW060 SCT250 09/M06 A3003\ RMK AO2 PK WND 30028/1922 SLP168\ T00891056= 201711202051 METAR KLGA 202051Z 26018G23KT 10SM SCT065 SCT250 08/M06 A3006\ RMK AO2 SLP177 T00831056 53017= 201711202151 METAR KLGA 202151Z 23011G16KT 10SM SCT060 BKN250 08/M04 A3007\ RMK AO2 SLP182 T00781044= 201711202251 METAR KLGA 202251Z 24012G20KT 10SM FEW060 BKN250 08/M04 A3009\ RMK AO2 SLP188 T00781044= 201711202351 METAR KLGA 202351Z 24010G20KT 10SM SCT250 08/M04 A3010 RMK\ AO2 SLP192 T00781044 10089 20078\ 51015= 201711210051 METAR KLGA 210051Z 24014G19KT 10SM SCT250 07/M05 A3011 RMK\ AO2 SLP195 T00721050= 201711210151 METAR KLGA 210151Z 25012G21KT 10SM SCT250 08/M05 A3011 RMK\ AO2 PK WND 24026/0108 SLP195 T00781050= 201711210251 METAR KLGA 210251Z 26012G19KT 10SM FEW250 08/M05 A3011 RMK\ AO2 SLP196 T00831050 51004= 201711210351 METAR KLGA 210351Z 22012KT 10SM FEW250 07/M04 A3013 RMK AO2\ SLP202 T00671039= 201711210451 METAR KLGA 210451Z 22007KT 10SM FEW250 07/M04 A3013 RMK AO2\ SLP202 T00671039 400890028= 201711210551 METAR KLGA 210551Z 23009KT 10SM FEW250 06/M04 A3012 RMK AO2\ SLP200 T00611039 10083 20061 50004= 201711210651 METAR KLGA 210651Z 24012KT 10SM FEW250 07/M03 A3012 RMK AO2\ SLP200 T00671028= 201711210751 METAR KLGA 210751Z 24011KT 10SM FEW250 07/M02 A3012 RMK AO2\ SLP201 T00721022= 201711210851 METAR KLGA 210851Z 24013G21KT 10SM SCT250 07/M02 A3012 RMK\ AO2 SLP198 T00721017 58002= 201711210951 METAR KLGA 210951Z 23008KT 10SM BKN250 06/M01 A3011 RMK AO2\ SLP196 T00611011= 201711211051 METAR KLGA 211051Z 23013KT 10SM SCT250 07/M01 A3012 RMK AO2\ SLP200 T00671011= 201711211151 METAR KLGA 211151Z 21007KT 10SM SCT250 07/M02 A3013 RMK AO2\ SLP202 T00671017 10072 20061 53004= 201711211251 METAR KLGA 211251Z 21010KT 10SM FEW140 SCT250 08/M01 A3014\ RMK AO2 SLP205 T00781006= 201711211351 METAR KLGA 211351Z 21015G19KT 10SM FEW170 FEW250 09/00 A3013\ RMK AO2 SLP203 T00890000= 201711211451 METAR KLGA 211451Z 20013KT 10SM FEW250 11/M01 A3012 RMK AO2\ SLP199 T01111006 58002= 201711211551 METAR KLGA 211551Z 21016G21KT 10SM BKN250 12/M01 A3011 RMK\ AO2 SLP195 T01221011= 201711211651 METAR KLGA 211651Z 22014G22KT 10SM BKN250 13/M01 A3008 RMK\ AO2 SLP185 T01331011= 201711211751 METAR KLGA 211751Z 21013G20KT 10SM SCT250 14/M01 A3005 RMK\ AO2 SLP175 T01391011 10144 20067\ 58025= 201711211851 METAR KLGA 211851Z 21012KT 10SM BKN250 15/M02 A3004 RMK AO2\ SLP171 T01501017= 201711211951 METAR KLGA 211951Z 22011G17KT 10SM BKN250 15/M02 A3002 RMK\ AO2 SLP164 T01501017= 201711212051 METAR KLGA 212051Z 18012KT 10SM BKN250 14/M01 A3002 RMK AO2\ SLP164 T01391011 56010= 201711212151 METAR KLGA 212151Z 16007KT 10SM BKN250 13/04 A3002 RMK AO2\ SLP164 T01330039= 201711212251 METAR KLGA 212251Z 18005KT 10SM BKN250 12/04 A3003 RMK AO2\ SLP168 T01220039= 201711212351 METAR KLGA 212351Z 19006KT 10SM BKN250 12/04 A3004 RMK AO2\ SLP173 T01170039 10150 20117 53009= 201711220051 METAR KLGA 220051Z 17006KT 10SM BKN250 12/03 A3005 RMK AO2\ SLP175 T01170033= 201711220151 METAR KLGA 220151Z 19005KT 10SM BKN250 11/03 A3005 RMK AO2\ SLP175 T01110033= 201711220251 METAR KLGA 220251Z 19008KT 10SM BKN250 11/04 A3004 RMK AO2\ SLP173 T01110044 50000= 201711220351 METAR KLGA 220351Z 20008KT 10SM SCT200 BKN250 12/04 A3004\ RMK AO2 SLP170 T01170044= 201711220451 METAR KLGA 220451Z 19008KT 10SM BKN210 BKN250 12/05 A3002\ RMK AO2 SLP165 T01170050 401500061= 201711220751 METAR KLGA 220751Z 16005KT 10SM OVC190 11/06 A2997 RMK AO2\ SLP147 T01110061= 201711220851 METAR KLGA 220851Z 15003 10SM FEW045 SCT140 OVC200 11/06\ A2994 RMK AO2 SLP139 T01110061 58018= 201711220951 METAR KLGA 220951Z 16004KT 10SM SCT039 BKN080 OVC120 12/07\ A2993 RMK AO2 SLP133 T01170072= 201711221051 METAR KLGA 221051Z 00000KT 10SM -RA SCT022 BKN050 OVC095\ 11/08 A2990 RMK AO2 RAB05E17B45 SLP125\ P0000 T01060083= 201711221151 METAR KLGA 221151Z 00000KT 10SM -RA OVC020 12/09 A2991 RMK\ AO2 SLP128 P0000 60000 T01170089\ 10122 20106 55012= 201711221251 METAR KLGA 221251Z 23004KT 3SM RA BR FEW010 BKN018 OVC039\ 12/10 A2989 RMK AO2 SFC VIS 4 SLP122\ P0006 T01220100= 201711221351 METAR KLGA 221351Z 31006KT 7SM -RA FEW016 SCT021 OVC070 13/11\ A2989 RMK AO2 SLP121 P0006 T01280106= 201711221451 METAR KLGA 221451Z 31009KT 10SM FEW033 OVC070 11/09 A2989\ RMK AO2 RAE33 SLP120 P0004 60016\ T01060089 56008= 201711221551 METAR KLGA 221551Z 35005KT 10SM OVC055 12/07 A2988 RMK AO2\ SLP118 T01170072= 201711221651 METAR KLGA 221651Z 32009KT 10SM FEW036 BKN070 OVC090 11/07\ A2988 RMK AO2 RAB00E13B37E49 SLP118\ P0000 T01110072= 201711221751 METAR KLGA 221751Z 32018KT 10SM FEW023 SCT035 BKN110 11/06\ A2987 RMK AO2 RAB02E29 SLP113 P0000\ 60016 T01110056 10128 20106 58006= 201711221851 METAR KLGA 221851Z 30018KT 10SM SCT035 SCT070 11/04 A2988\ RMK AO2 SLP117 T01110039= 201711221951 METAR KLGA 221951Z 31017G24KT 10SM OVC037 11/02 A2989 RMK\ AO2 SLP122 T01060022= 201711222051 METAR KLGA 222051Z 33018G22KT 10SM BKN050 09/00 A2994 RMK\ AO2 PK WND 31030/2025 SLP137 T00940000\ 53023= 201711222151 METAR KLGA 222151Z 31022G28KT 10SM BKN050 08/M01 A2996 RMK\ AO2 PK WND 32031/2121 SLP146 T00781006= 201711222251 METAR KLGA 222251Z 32019G27KT 10SM BKN045 07/M02 A2999 RMK\ AO2 PK WND 31030/2213 SLP155 T00721017= 201711222351 METAR KLGA 222351Z 32016G25KT 10SM OVC041 06/M02 A3001 RMK\ AO2 PK WND 33027/2324 SLP162 T00611022\ 10117 20061 51026= 201711230051 METAR KLGA 230051Z AUTO 30021G26KT 10SM CLR 06/M03 A3004\ RMK AO2 PK WND 30026/0050 SLP171\ T00561028= 201711230151 METAR KLGA 230151Z 32018G25KT 10SM FEW045 04/M04 A3005 RMK\ AO2 PK WND 31028/0055 SLP175 T00441039= 201711230251 METAR KLGA 230251Z 31016KT 10SM CLR 04/M04 A3006 RMK AO2\ SLP180 T00391044 51018= 201711230351 METAR KLGA 230351Z 30017G24KT 10SM CLR 03/M05 A3007 RMK AO2\ SLP183 T00331050= 201711230451 METAR KLGA 230451Z 30012G22KT 10SM CLR 03/M06 A3009 RMK AO2\ SLP187 T00281061 401280028= 201711230551 METAR KLGA 230551Z 30014KT 10SM CLR 02/M06 A3008 RMK AO2\ SLP185 T00221061 10061 20022 50005= 201711230651 METAR KLGA 230651Z 30010G18KT 10SM CLR 02/M06 A3009 RMK AO2\ SLP190 T00221061= 201711230751 METAR KLGA 230751Z 32017KT 10SM CLR 02/M06 A3009 RMK AO2\ SLP189 T00171061= 201711230851 METAR KLGA 230851Z 32015G22KT 10SM CLR 02/M06 A3008 RMK AO2\ SLP184 T00171056 58001= 201711230951 METAR KLGA 230951Z 32012KT 10SM CLR 01/M06 A3008 RMK AO2\ SLP185 T00111056= 201711231051 METAR KLGA 231051Z 32012KT 10SM CLR 01/M06 A3009 RMK AO2\ SLP189 T00111061= 201711231151 METAR KLGA 231151Z 29009KT 10SM FEW250 01/M07 A3011 RMK AO2\ SLP196 70016 T00111067 10022 20011\ 53013= 201711231251 METAR KLGA 231251Z 33009KT 10SM FEW250 02/M06 A3012 RMK AO2\ SLP197 T00171061= 201711231351 METAR KLGA 231351Z 32009KT 10SM FEW035 FEW250 02/M06 A3012\ RMK AO2 SLP199 T00221061= 201711231451 METAR KLGA 231451Z 32007KT 10SM FEW250 03/M07 A3012 RMK AO2\ SLP198 T00281067 50001= 201711231551 METAR KLGA 231551Z 32008KT 10SM FEW250 04/M06 A3010 RMK AO2\ SLP191 T00391061= 201711231651 METAR KLGA 231651Z 34007KT 10SM FEW250 04/M07 A3007 RMK AO2\ SLP181 T00441067= 201711231751 METAR KLGA 231751Z 31006KT 10SM FEW250 06/M07 A3005 RMK AO2\ SLP175 T00561072 10056 20011 56022= 201711231851 METAR KLGA 231851Z 32005KT 10SM FEW250 06/M07 A3003 RMK AO2\ SLP167 T00611072= 201711231951 METAR KLGA 231951Z 33005KT 10SM FEW250 07/M08 A3001 RMK AO2\ SLP163 T00671078= 201711232051 METAR KLGA 232051Z 26006KT 10SM FEW250 07/M08 A3001 RMK AO2\ SLP162 T00671078 56014= 201711232151 METAR KLGA 232151Z 25004KT 10SM FEW250 06/M08 A3001 RMK AO2\ SLP162 T00611078= 201711232251 METAR KLGA 232251Z 28007KT 10SM FEW250 06/M07 A3001 RMK AO2\ SLP163 T00611067= 201711232351 METAR KLGA 232351Z 27008KT 10SM BKN180 BKN250 06/M07 A3002\ RMK AO2 SLP165 T00611072 10072 20056\ 53003= 201711240051 METAR KLGA 240051Z 27007KT 10SM FEW180 SCT250 06/M07 A3001\ RMK AO2 SLP162 T00561067= 201711240151 METAR KLGA 240151Z 28006KT 10SM FEW200 FEW250 06/M06 A3002\ RMK AO2 SLP164 T00561056= 201711240251 METAR KLGA 240251Z 30008KT 10SM FEW250 04/M06 A3004 RMK AO2\ SLP172 T00441056 53007= 201711240351 METAR KLGA 240351Z 30006KT 10SM FEW250 04/M06 A3004 RMK AO2\ SLP172 T00441056= 201711240451 METAR KLGA 240451Z 30008KT 10SM FEW250 04/M06 A3004 RMK AO2\ SLP172 T00391061 400720011= 201711240551 METAR KLGA 240551Z 29007KT 10SM FEW250 04/M06 A3004 RMK AO2\ SLP170 T00391061 10061 20039 58002= 201711240651 METAR KLGA 240651Z 29005KT 10SM CLR 04/M06 A3003 RMK AO2\ SLP169 T00391056= 201711240751 METAR KLGA 240751Z 28005KT 10SM CLR 04/M06 A3004 RMK AO2\ SLP170 T00391056= 201711240851 METAR KLGA 240851Z 30008KT 10SM CLR 04/M05 A3003 RMK AO2\ SLP169 T00391050 58001= 201711240951 METAR KLGA 240951Z 27007KT 10SM CLR 04/M06 A3003 RMK AO2\ SLP169 T00391056= 201711241051 METAR KLGA 241051Z 25003KT 10SM CLR 03/M06 A3004 RMK AO2\ SLP171 T00331061= 201711241151 METAR KLGA 241151Z 31003KT 10SM FEW045 03/M06 A3005 RMK AO2\ SLP176 T00331056 10044 20033 53007= 201711241251 METAR KLGA 241251Z 00000KT 10SM FEW050 05/M05 A3006 RMK AO2\ SLP179 T00501050= 201711241351 METAR KLGA 241351Z 32006KT 10SM CLR 05/M06 A3005 RMK AO2\ SLP176 T00501056= 201711241451 METAR KLGA 241451Z 00000KT 10SM CLR 07/M04 A3005 RMK AO2\ SLP176 T00671044 50000= 201711241551 METAR KLGA 241551Z 34003KT 10SM CLR 08/M05 A3004 RMK AO2\ SLP173 T00781050= 201711241651 METAR KLGA 241651Z 20006KT 10SM CLR 09/M06 A3002 RMK AO2\ SLP166 T00891061= 201711241751 METAR KLGA 241751Z 23008KT 10SM CLR 09/M07 A3001 RMK AO2\ SLP161 T00941072 10094 20028 58015= 201711241851 METAR KLGA 241851Z 21007KT 10SM CLR 11/M06 A2998 RMK AO2\ SLP152 T01061056= 201711241951 METAR KLGA 241951Z 20007KT 10SM CLR 11/M06 A2996 RMK AO2\ SLP145 T01061061= 201711242051 METAR KLGA 242051Z 21005KT 10SM FEW250 11/M06 A2995 RMK AO2\ SLP143 T01061061 56018= 201711242151 METAR KLGA 242151Z 17008KT 10SM FEW250 08/M02 A2996 RMK AO2\ SLP146 T00831022= 201711242251 METAR KLGA 242251Z 18006KT 10SM FEW250 08/M01 A2997 RMK AO2\ SLP147 T00831006= 201711242351 METAR KLGA 242351Z 19005KT 10SM CLR 09/M03 A2997 RMK AO2\ SLP148 T00891028 10106 20083 51006= 201711250051 METAR KLGA 250051Z 19005KT 10SM CLR 08/M03 A2997 RMK AO2\ SLP148 T00831028= 201711250151 METAR KLGA 250151Z 21007KT 10SM CLR 08/M01 A2996 RMK AO2\ SLP145 T00831011= 201711250251 METAR KLGA 250251Z 21008KT 10SM CLR 08/00 A2995 RMK AO2 SLP142\ T00830000 58006= 201711250351 METAR KLGA 250351Z 20008KT 10SM CLR 08/M01 A2995 RMK AO2\ SLP140 T00781006= 201711250451 METAR KLGA 250451Z 21006KT 10SM CLR 07/M02 A2993 RMK AO2\ SLP135 T00721017 401060028= 201711250551 METAR KLGA 250551Z 22007KT 10SM CLR 07/M02 A2992 RMK AO2\ SLP131 T00671022 10089 20067 58011= 201711250651 METAR KLGA 250651Z 22006KT 10SM CLR 07/M01 A2990 RMK AO2\ SLP123 T00671006= 201711250751 METAR KLGA 250751Z 21005KT 10SM CLR 06/00 A2989 RMK AO2 SLP120\ T00610000= 201711250851 METAR KLGA 250851Z 21005KT 10SM CLR 06/00 A2987 RMK AO2 SLP114\ T00610000 56017= 201711250951 METAR KLGA 250951Z 21004KT 10SM CLR 06/M01 A2986 RMK AO2\ SLP110 T00611006= 201711251051 METAR KLGA 251051Z 21005KT 10SM CLR 06/M01 A2984 RMK AO2\ SLP105 T00611006= 201711251151 METAR KLGA 251151Z 19003KT 10SM FEW130 FEW250 06/M01 A2983\ RMK AO2 SLP102 T00561011 10072 20056\ 56013= 201711251251 METAR KLGA 251251Z 21005KT 10SM FEW130 SCT250 07/01 A2982\ RMK AO2 SLP097 T00670006= 201711251351 METAR KLGA 251351Z 20009KT 10SM FEW130 SCT260 08/01 A2982\ RMK AO2 SLP097 T00830006= 201711251451 METAR KLGA 251451Z 21008KT 10SM FEW150 BKN260 10/M01 A2980\ RMK AO2 SLP090 T01001006 58011= 201711251551 METAR KLGA 251551Z 20010KT 10SM FEW130 SCT210 BKN260 11/00\ A2977 RMK AO2 SLP080 T01060000= 201711251651 METAR KLGA 251651Z 21010KT 10SM FEW130 FEW210 SCT260 12/M01\ A2974 RMK AO2 SLP069 T01171006= 201711251751 METAR KLGA 251751Z 19013G17KT 10SM FEW210 SCT260 13/M01 A2969\ RMK AO2 SLP054 T01281006 10128 20056\ 58037= 201711251851 METAR KLGA 251851Z 23008KT 10SM SCT220 SCT260 14/M01 A2969\ RMK AO2 SLP054 T01391006= 201711251951 METAR KLGA 251951Z 24007KT 10SM SCT220 BKN260 14/00 A2967\ RMK AO2 SLP048 T01440000= 201711252051 METAR KLGA 252051Z 18006KT 10SM BKN210 BKN260 13/04 A2967\ RMK AO2 SLP046 T01330044 58007= 201711252151 METAR KLGA 252151Z 21007KT 10SM BKN200 BKN260 13/03 A2967\ RMK AO2 SLP047 T01330033= 201711252251 METAR KLGA 252251Z 25009KT 10SM BKN100 BKN200 BKN260 14/01\ A2968 RMK AO2 SLP051 T01390011= 201711252351 METAR KLGA 252351Z 26012G17KT 10SM SCT110 BKN200 BKN260 14/01\ A2968 RMK AO2 SLP052 T01390011 10144\ 20128 53006= 201711260051 METAR KLGA 260051Z 26009KT 10SM FEW110 SCT200 BKN260 13/01\ A2970 RMK AO2 SLP058 T01330006= 201711260151 METAR KLGA 260151Z 28007KT 10SM FEW110 SCT200 BKN260 13/01\ A2971 RMK AO2 SLP060 T01280011= 201711260251 METAR KLGA 260251Z 27009KT 10SM FEW075 SCT110 BKN250 13/01\ A2971 RMK AO2 SLP060 T01280011 51008= 201711260351 METAR KLGA 260351Z 26010KT 10SM BKN070 BKN110 BKN250 12/01\ A2972 RMK AO2 SLP064 T01220011= 201711260451 METAR KLGA 260451Z 30009KT 10SM SCT085 BKN110 BKN250 12/02\ A2973 RMK AO2 SLP067 T01170017 401440056= 201711260551 METAR KLGA 260551Z 30011KT 10SM BKN090 12/02 A2975 RMK AO2\ SLP075 T01170017 10139 20117 53016= 201711260651 METAR KLGA 260651Z 32014KT 10SM FEW065 SCT090 11/03 A2978\ RMK AO2 SLP084 T01060028= 201711260751 METAR KLGA 260751Z 29011G23KT 10SM SCT075 BKN090 10/01 A2979\ RMK AO2 SLP088 T01000006= 201711260851 METAR KLGA 260851Z 30018KT 10SM SCT080 09/00 A2981 RMK AO2\ SLP094 T00940000 51019= 201711260951 METAR KLGA 260951Z 29013KT 10SM FEW080 09/01 A2983 RMK AO2\ SLP102 T00890006= 201711261051 METAR KLGA 261051Z 30015G22KT 10SM FEW080 09/01 A2986 RMK\ AO2 SLP111 T00890006= 201711261151 METAR KLGA 261151Z 27011KT 10SM FEW080 08/01 A2988 RMK AO2\ SLP119 T00830006 10117 20083 52024= 201711261251 METAR KLGA 261251Z 29013G18KT 10SM SCT050 08/00 A2991 RMK\ AO2 SLP129 T00830000= 201711261351 METAR KLGA 261351Z 31017KT 10SM SCT039 BKN050 08/01 A2995\ RMK AO2 PK WND 32027/1334 SLP140\ T00780011= 201711261451 METAR KLGA 261451Z 30016G25KT 10SM SCT045 BKN050 BKN250 08/M02\ A2996 RMK AO2 PK WND 30030/1435 SLP145\ T00781022 51026= 201711261551 METAR KLGA 261551Z 30021G28KT 10SM SCT045 BKN250 07/M03 A2997\ RMK AO2 PK WND 30028/1540 SLP148\ T00721028= 201711261651 METAR KLGA 261651Z 32014G20KT 10SM FEW049 FEW065 SCT250 08/M03\ A2995 RMK AO2 PK WND 32026/1603 SLP142\ T00831028= 201711261751 METAR KLGA 261751Z 31017G20KT 10SM FEW050 SCT250 08/M04 A2995\ RMK AO2 SLP141 T00831039 10089 20072\ 58004= 201711261851 METAR KLGA 261851Z 30015G26KT 10SM FEW050 SCT220 SCT260 08/M03\ A2993 RMK AO2 PK WND 31026/1846 SLP134\ T00831028= 201711261951 METAR KLGA 261951Z 32012KT 10SM FEW044 SCT200 BKN250 08/M03\ A2994 RMK AO2 SLP139 T00781033= 201711262051 METAR KLGA 262051Z 31010KT 10SM FEW044 SCT180 BKN250 08/M03\ A2995 RMK AO2 SLP142 T00781033 53001= 201711262151 METAR KLGA 262151Z 32015KT 10SM FEW047 BKN210 BKN250 08/M03\ A2996 RMK AO2 SLP145 T00781033= 201711262251 METAR KLGA 262251Z 31012KT 10SM FEW044 SCT210 BKN250 07/M04\ A2997 RMK AO2 SLP148 T00721039= 201711262351 METAR KLGA 262351Z 30009KT 10SM FEW044 SCT170 BKN250 07/M05\ A2998 RMK AO2 SLP151 T00671050 10089\ 20067 51009= 201711270051 METAR KLGA 270051Z 30011KT 10SM FEW170 SCT250 06/M04 A2999\ RMK AO2 SLP154 T00611044= 201711270151 METAR KLGA 270151Z 29009KT 10SM FEW170 FEW250 06/M04 A2999\ RMK AO2 SLP156 T00561039= 201711270251 METAR KLGA 270251Z 26013KT 10SM FEW170 FEW250 06/M04 A2998\ RMK AO2 SLP151 T00611044 58001= 201711270351 METAR KLGA 270351Z 26011G18KT 10SM FEW170 FEW250 06/M05 A2997\ RMK AO2 SLP147 T00561050= 201711270451 METAR KLGA 270451Z 26014G18KT 10SM BKN200 06/M04 A2997 RMK\ AO2 SLP148 T00561044 401170056= 201711270551 METAR KLGA 270551Z 26009KT 10SM BKN200 06/M04 A2996 RMK AO2\ SLP146 T00561044 10067 20056 56005= 201711270651 METAR KLGA 270651Z 26010KT 10SM SCT200 BKN250 06/M04 A2997\ RMK AO2 SLP147 T00561044= 201711270751 METAR KLGA 270751Z 25012G17KT 10SM SCT180 BKN250 06/M04 A2995\ RMK AO2 SLP142 T00561044= 201711270851 METAR KLGA 270851Z 26014G21KT 10SM CLR 06/M05 A2995 RMK AO2\ SLP143 T00561050 58003= 201711270951 METAR KLGA 270951Z 26011G20KT 10SM BKN210 06/M04 A2996 RMK\ AO2 SLP146 T00561044= 201711271051 METAR KLGA 271051Z 27018G26KT 10SM SCT250 06/M04 A2999 RMK\ AO2 PK WND 27026/1050 SLP154 T00611044= 201711271151 METAR KLGA 271151Z 27014KT 10SM FEW170 06/M04 A3001 RMK AO2\ SLP162 T00561039 10061 20056 53020= 201711271251 METAR KLGA 271251Z 26013G20KT 10SM FEW100 07/M04 A3004 RMK\ AO2 SLP172 T00671039= 201711271351 METAR KLGA 271351Z 26012G22KT 10SM FEW100 BKN250 07/M03 A3005\ RMK AO2 PK WND 26028/1312 SLP175\ T00721033= 201711271451 METAR KLGA 271451Z 29015G20KT 10SM FEW100 SCT250 08/M02 A3005\ RMK AO2 PK WND 27026/1355 SLP174\ T00781022 50012= 201711271551 METAR KLGA 271551Z 30014G23KT 10SM FEW050 BKN250 09/M02 A3004\ RMK AO2 SLP172 T00891022= 201711271651 METAR KLGA 271651Z 31017G26KT 10SM FEW050 BKN250 09/M02 A3003\ RMK AO2 PK WND 31026/1634 SLP169\ T00941022= 201711271751 METAR KLGA 271751Z 30015G21KT 10SM FEW055 SCT250 10/M02 A3003\ RMK AO2 PK WND 31028/1711 SLP169\ T01001022 10100 20056 55005= 201711271851 METAR KLGA 271851Z 30016KT 10SM FEW055 SCT250 11/M03 A3003\ RMK AO2 SLP169 T01061028= 201711271951 METAR KLGA 271951Z 31017G22KT 10SM FEW055 SCT250 11/M03 A3003\ RMK AO2 SLP170 T01111028= 201711272051 METAR KLGA 272051Z 32012KT 10SM FEW055 SCT250 11/M03 A3007\ RMK AO2 SLP184 T01061028 53014= 201711272151 METAR KLGA 272151Z 32012KT 10SM SCT250 10/M03 A3010 RMK AO2\ SLP192 T01001033= 201711272251 METAR KLGA 272251Z 35011KT 10SM FEW250 09/M04 A3014 RMK AO2\ SLP205 T00941044= 201711272351 METAR KLGA 272351Z 35009G17KT 10SM CLR 08/M04 A3018 RMK AO2\ SLP221 T00831039 10111 20083 53037= 201711280051 METAR KLGA 280051Z 35007KT 10SM CLR 07/M03 A3021 RMK AO2\ SLP230 T00721033= 201711280151 METAR KLGA 280151Z 34008KT 10SM BKN250 07/M04 A3023 RMK AO2\ SLP236 T00671039= 201711280251 METAR KLGA 280251Z 34010KT 10SM BKN250 06/M04 A3025 RMK AO2\ SLP243 T00611044 51022= 201711280351 METAR KLGA 280351Z 34006KT 10SM SCT250 06/M05 A3028 RMK AO2\ SLP255 T00561050= 201711280451 METAR KLGA 280451Z 34007KT 10SM FEW250 06/M05 A3030 RMK AO2\ SLP261 T00561050 401110056= 201711280551 METAR KLGA 280551Z 35007KT 10SM FEW250 05/M04 A3030 RMK AO2\ SLP260 T00501044 10083 20050 50018= 201711280651 METAR KLGA 280651Z 02005KT 10SM SCT200 04/M04 A3033 RMK AO2\ SLP268 T00441044= 201711280751 METAR KLGA 280751Z 03005KT 10SM BKN250 04/M05 A3035 RMK AO2\ SLP275 T00441050= 201711280851 METAR KLGA 280851Z 04007KT 10SM FEW200 BKN250 04/M03 A3036\ RMK AO2 SLP279 T00391028 51019= 201711280951 METAR KLGA 280951Z 04008KT 10SM BKN250 03/M03 A3037 RMK AO2\ SLP285 T00331028= 201711281051 METAR KLGA 281051Z 11006KT 10SM SCT250 03/M03 A3041 RMK AO2\ SLP296 T00281033= 201711281151 METAR KLGA 281151Z 10007KT 10SM FEW250 03/M04 A3042 RMK AO2\ SLP299 T00331039 10050 20028 51020= 201711281251 METAR KLGA 281251Z 09009KT 10SM SCT250 03/M04 A3044 RMK AO2\ SLP306 T00281039= 201711281351 METAR KLGA 281351Z 10009KT 10SM BKN250 04/M04 A3044 RMK AO2\ SLP307 T00391039= 201711281451 METAR KLGA 281451Z 04006KT 10SM BKN250 06/M05 A3046 RMK AO2\ SLP313 T00561050 51015= 201711281551 METAR KLGA 281551Z 12007KT 10SM SCT250 07/M04 A3044 RMK AO2\ SLP307 T00671039= 201711281651 METAR KLGA 281651Z 14008KT 10SM FEW250 09/M01 A3042 RMK AO2\ SLP299 T00941011= 201711281751 METAR KLGA 281751Z 15010G18KT 10SM FEW045 FEW250 10/01 A3039\ RMK AO2 SLP289 T01000006 10100 20028\ 58024= 201711281851 METAR KLGA 281851Z 15012KT 10SM SCT030 SCT250 11/02 A3037\ RMK AO2 SLP283 T01060017= 201711281951 METAR KLGA 281951Z 17012KT 10SM BKN029 11/03 A3035 RMK AO2\ SLP277 T01060033= 201711282051 METAR KLGA 282051Z 17011G17KT 10SM OVC030 11/04 A3033 RMK\ AO2 SLP269 T01110044 58020= 201711282151 METAR KLGA 282151Z 16009KT 10SM SCT023 11/06 A3031 RMK AO2\ SLP263 T01110061= 201711282251 METAR KLGA 282251Z 17010KT 10SM FEW023 12/07 A3029 RMK AO2\ SLP257 T01170072= 201711282351 METAR KLGA 282351Z 18010KT 10SM CLR 12/07 A3027 RMK AO2 SLP250\ T01170067 10117 20100 57019= 201711290051 METAR KLGA 290051Z 20010KT 10SM CLR 12/06 A3028 RMK AO2 SLP253\ T01170061= 201711290151 METAR KLGA 290151Z 19008G16KT 10SM CLR 12/06 A3027 RMK AO2\ SLP249 T01170061= 201711290251 METAR KLGA 290251Z 21008KT 10SM CLR 12/06 A3026 RMK AO2 SLP245\ T01170061 58005= 201711290351 METAR KLGA 290351Z 20008KT 10SM FEW250 11/07 A3023 RMK AO2\ SLP236 T01110067= 201711290451 METAR KLGA 290451Z 20009KT 10SM FEW250 11/07 A3019 RMK AO2\ SLP223 T01060067 401170028= 201711290551 METAR KLGA 290551Z 21014KT 10SM FEW250 11/07 A3015 RMK AO2\ SLP208 T01060067 10117 20100 58038= 201711290651 METAR KLGA 290651Z 21010KT 10SM FEW250 11/07 A3015 RMK AO2\ SLP209 T01060072= 201711290751 METAR KLGA 290751Z 22006KT 10SM FEW250 11/07 A3012 RMK AO2\ SLP199 T01060072= 201711290851 METAR KLGA 290851Z 23008KT 10SM FEW250 11/07 A3010 RMK AO2\ SLP194 T01060072 58014= 201711290951 METAR KLGA 290951Z 22009KT 10SM CLR 10/07 A3008 RMK AO2 SLP187\ T01000072= 201711291051 METAR KLGA 291051Z 22008KT 10SM CLR 09/07 A3007 RMK AO2 SLP181\ T00940067= 201711291151 METAR KLGA 291151Z 22007KT 10SM SCT085 09/07 A3008 RMK AO2\ SLP185 T00940067 10111 20094 55008= 201711291251 METAR KLGA 291251Z 23011KT 10SM SCT090 11/04 A3007 RMK AO2\ SLP183 T01060044= 201711291351 METAR KLGA 291351Z 25010KT 10SM BKN090 12/03 A3008 RMK AO2\ SLP185 T01170033= 201711291451 METAR KLGA 291451Z 27014G18KT 10SM FEW085 SCT250 13/02 A3008\ RMK AO2 SLP186 T01280017 53001= 201711291551 METAR KLGA 291551Z 26011KT 10SM FEW250 15/01 A3007 RMK AO2\ SLP181 T01500006= 201711291651 METAR KLGA 291651Z 26012KT 10SM FEW250 17/00 A3005 RMK AO2\ SLP175 T01670000= 201711291751 METAR KLGA 291751Z 29010KT 10SM FEW250 17/00 A3005 RMK AO2\ SLP176 T01720000 10172 20094 55010= 201711291851 METAR KLGA 291851Z 31013KT 10SM FEW250 17/01 A3005 RMK AO2\ SLP174 T01720006= 201711291951 METAR KLGA 291951Z 32016KT 10SM SCT250 17/M03 A3008 RMK AO2\ PK WND 32026/1900 SLP185 T01721028= 201711292051 METAR KLGA 292051Z 32012KT 10SM FEW250 15/M03 A3012 RMK AO2\ PK WND 32028/2026 SLP199 T01501033\ 53023= 201711292151 METAR KLGA 292151Z 33010KT 10SM CLR 13/M03 A3017 RMK AO2\ SLP217 T01331028= 201711292251 METAR KLGA 292251Z 32016KT 10SM CLR 12/M02 A3020 RMK AO2\ SLP227 T01171017= 201711292351 METAR KLGA 292351Z 33010KT 10SM FEW250 11/M02 A3025 RMK AO2\ SLP241 T01061022 10178 20106 51042= 201711300051 METAR KLGA 300051Z 33009G17KT 10SM FEW250 10/M02 A3027 RMK\ AO2 SLP250 T01001022= 201711300151 METAR KLGA 300151Z 35008KT 10SM CLR 09/M02 A3029 RMK AO2\ SLP256 T00891022= 201711300251 METAR KLGA 300251Z 02011KT 10SM CLR 08/M03 A3029 RMK AO2\ SLP258 T00831028 51017= 201711300351 METAR KLGA 300351Z 04008KT 10SM CLR 07/M03 A3032 RMK AO2\ SLP265 T00721028= 201711300451 METAR KLGA 300451Z 01007KT 10SM CLR 07/M03 A3032 RMK AO2\ SLP265 T00671028 401780067= 201711300551 METAR KLGA 300551Z 03008KT 10SM CLR 06/M03 A3030 RMK AO2\ SLP260 T00611033 10106 20061 50002= 201711300651 METAR KLGA 300651Z 04009KT 10SM CLR 06/M03 A3031 RMK AO2\ SLP262 T00561028= 201711300751 METAR KLGA 300751Z 02007KT 10SM CLR 05/M03 A3033 RMK AO2\ SLP270 T00501033= 201711300851 METAR KLGA 300851Z VRB05KT 10SM FEW250 04/M03 A3033 RMK AO2\ SLP271 T00441028 51012= 201711300951 METAR KLGA 300951Z 36004KT 10SM SCT250 04/M03 A3035 RMK AO2\ SLP278 T00441033= 201711301051 METAR KLGA 301051Z 02006KT 10SM BKN250 04/M03 A3034 RMK AO2\ SLP274 T00441028= 201711301151 METAR KLGA 301151Z 04010KT 10SM BKN250 04/M03 A3032 RMK AO2\ SLP267 T00441028 10061 20044 58005= 201711301251 METAR KLGA 301251Z 09009KT 10SM OVC240 04/M02 A3034 RMK AO2\ SLP273 T00441022= 201711301351 METAR KLGA 301351Z 07012KT 10SM OVC230 05/M02 A3032 RMK AO2\ SLP267 T00501022= 201711301451 METAR KLGA 301451Z 05004KT 10SM BKN220 OVC250 05/M02 A3032\ RMK AO2 SLP267 T00501022 50000= 201711301551 METAR KLGA 301551Z 04005KT 10SM SCT032 BKN230 06/M02 A3029\ RMK AO2 SLP258 T00611022= 201711301651 METAR KLGA 301651Z 06006KT 10SM BKN034 BKN230 07/M02 A3026\ RMK AO2 SLP248 T00671017= 201711301751 METAR KLGA 301751Z 05005KT 10SM FEW030 BKN250 08/M01 A3022\ RMK AO2 SLP233 T00781011 10078 20044\ 58034= 201711301851 METAR KLGA 301851Z 05007KT 10SM FEW032 FEW065 BKN250 08/01\ A3018 RMK AO2 SLP220 T00830011= 201711301951 METAR KLGA 301951Z 05008KT 10SM BKN075 BKN250 08/02 A3015\ RMK AO2 SLP209 T00830017= 201711302051 METAR KLGA 302051Z 04008KT 10SM FEW035 SCT075 SCT250 08/03\ A3012 RMK AO2 SLP198 T00830028 56035= 201711302151 METAR KLGA 302151Z 03005KT 10SM FEW035 SCT075 SCT250 09/04\ A3009 RMK AO2 SLP189 T00890039= 201711302251 METAR KLGA 302251Z 04004KT 10SM FEW035 SCT075 BKN250 08/04\ A3008 RMK AO2 SLP185 T00830039= 201711302351 METAR KLGA 302351Z VRB03KT 10SM FEW035 SCT075 BKN250 09/05\ A3006 RMK AO2 SLP179 T00940050 10094\ 20078 56019=
