 201705010051 METAR KLGA 010051Z 10013KT 10SM FEW020 BKN025 OVC070 13/03\ A3017 RMK AO2 SLP217 T01280033= 201705010151 METAR KLGA 010151Z 10009KT 10SM FEW017 BKN023 OVC070 13/04\ A3019 RMK AO2 SLP224 T01280044= 201705010251 METAR KLGA 010251Z 09009KT 10SM OVC020 13/05 A3015 RMK AO2\ SLP210 T01280050 58011= 201705010351 METAR KLGA 010351Z 09009KT 10SM OVC019 12/06 A3015 RMK AO2\ SLP210 T01220056= 201705010451 METAR KLGA 010451Z 09008KT 10SM OVC014 12/08 A3015 RMK AO2\ SLP208 T01170078 402060117= 201705010551 METAR KLGA 010551Z 06009KT 5SM HZ OVC007 11/08 A3012 RMK\ AO2 SLP198 T01110083 10139 20111\ 58011= 201705010651 METAR KLGA 010651Z 05009KT 3SM BR OVC005 11/09 A3009 RMK\ AO2 SLP189 T01060089= 201705010751 METAR KLGA 010751Z 05011KT 2 1/2SM BR OVC003 11/09 A3005\ RMK AO2 SLP177 T01060089= 201705010851 METAR KLGA 010851Z 06010KT 2 1/2SM BR OVC003 11/09 A3003\ RMK AO2 SLP170 T01060089 56028= 201705010951 METAR KLGA 010951Z 04008KT 1 1/4SM -DZ BR OVC003 10/09 A3002\ RMK AO2 SFC VIS 2 DZB42 SLP165 P0000\ T01000089= 201705011051 METAR KLGA 011051Z 04009KT 1/2SM BR OVC003 10/09 A3001 RMK\ AO2 SFC VIS 3/4 DZE0957 SLP162 P0000\ T01000089= 201705011151 METAR KLGA 011151Z 04008KT 1/2SM BR OVC003 10/09 A3001 RMK\ AO2 SFC VIS 3/4 SLP162 60000 T01000089\ 10111 20100 55008= 201705011251 METAR KLGA 011251Z 05008KT 1/2SM BR OVC002 11/09 A3002 RMK\ AO2 SFC VIS 3/4 SLP165 T01060094= 201705011351 METAR KLGA 011351Z 07006KT 1 1/2SM BR OVC003 11/09 A3000\ RMK AO2 SFC VIS 2 SLP158 T01110094= 201705011451 METAR KLGA 011451Z 04006KT 2 1/2SM BR OVC003 12/09 A2999\ RMK AO2 SLP154 T01170094 58008= 201705011551 METAR KLGA 011551Z 05008KT 3SM HZ SCT004 OVC010 13/11 A2997\ RMK AO2 SFC VIS 6 SLP147 T01330106= 201705011651 METAR KLGA 011651Z 05008KT 7SM BKN016 BKN030 15/11 A2993\ RMK AO2 SLP136 T01500106= 201705011751 METAR KLGA 011751Z 05010KT 10SM FEW022 SCT040 16/11 A2989\ RMK AO2 PRESFR SLP121 T01560111 10167\ 20100 58034= 201705011851 METAR KLGA 011851Z 04015KT 10SM CLR 18/12 A2985 RMK AO2 PRESFR\ SLP108 T01830117= 201705011951 METAR KLGA 011951Z 05011KT 10SM FEW020 SCT250 17/11 A2983\ RMK AO2 SLP101 T01720111= 201705012051 METAR KLGA 012051Z 05014KT 10SM SCT060 SCT250 17/11 A2979\ RMK AO2 SLP087 T01670111 58034= 201705012151 METAR KLGA 012151Z 05011KT 10SM FEW060 SCT250 17/12 A2977\ RMK AO2 SLP079 T01720122= 201705012251 METAR KLGA 012251Z VRB05KT 10SM FEW060 SCT250 23/16 A2972\ RMK AO2 SLP062 T02280156= 201705012351 METAR KLGA 012351Z 18011G22KT 10SM SCT060 SCT250 23/15 A2971\ RMK AO2 SLP061 T02280150 10228 20144\ 56026= 201705020051 METAR KLGA 020051Z 17014KT 10SM FEW060 SCT250 19/14 A2971\ RMK AO2 SLP061 T01940144= 201705020151 METAR KLGA 020151Z 17012KT 10SM FEW060 SCT250 19/14 A2971\ RMK AO2 SLP060 T01890144= 201705020251 METAR KLGA 020251Z 17013G21KT 10SM SCT150 SCT250 18/15 A2967\ RMK AO2 SLP045 T01780150 58016= 201705020351 METAR KLGA 020351Z 17011KT 10SM BKN160 BKN250 18/15 A2964\ RMK AO2 SLP037 T01830150= 201705020451 METAR KLGA 020451Z 17009KT 10SM BKN180 OVC250 18/15 A2963\ RMK AO2 SLP034 T01830150 402280100= 201705020551 METAR KLGA 020551Z 17008KT 10SM FEW030 OVC190 18/15 A2962\ RMK AO2 SLP029 T01780150 10228 20172\ 56017= 201705020651 METAR KLGA 020651Z 18005KT 10SM OVC190 17/14 A2960 RMK AO2\ LTG DSNT S SLP023 T01720144= 201705020751 METAR KLGA 020751Z 16006KT 10SM SCT032 SCT100 BKN110 OVC130\ 19/16 A2958 RMK AO2 PRESFR SLP015\ T01940156= 201705020851 METAR KLGA 020851Z 19015G22KT 10SM FEW026 SCT090 BKN190 22/17\ A2957 RMK AO2 RAB0755E06 SLP013 P0000\ 60000 T02170172 56010= 201705020951 METAR KLGA 020951Z 18010KT 10SM BKN018 BKN024 OVC200 19/16\ A2958 RMK AO2 SLP017 T01940161= 201705021051 METAR KLGA 021051Z 18010KT 10SM FEW015 SCT020 BKN033 BKN250\ 19/16 A2957 RMK AO2 SLP014 T01940161= 201705021151 METAR KLGA 021151Z 18006KT 9SM -RA BKN017 BKN033 20/16 A2958\ RMK AO2 RAB49 SLP015 P0000 60000\ T02000161 10217 20167 51002= 201705021251 METAR KLGA 021251Z 32007KT 10SM SCT040 SCT250 22/15 A2958\ RMK AO2 RAE08 SLP016 P0000 T02220150= 201705021351 METAR KLGA 021351Z 32005KT 10SM SCT029 SCT040 BKN250 22/14\ A2956 RMK AO2 SLP010 T02170139= 201705021451 METAR KLGA 021451Z 26013KT 10SM SCT034 SCT046 SCT250 24/13\ A2956 RMK AO2 SLP010 60000 T02390128\ 58005= 201705021551 METAR KLGA 021551Z 28009G21KT 10SM SCT055 SCT070 BKN250 24/10\ A2956 RMK AO2 SLP011 T02440100= 201705021651 METAR KLGA 021651Z 26017G21KT 10SM BKN060 BKN080 26/09 A2956\ RMK AO2 PK WND 27029/1637 SLP011\ T02560089= 201705021751 METAR KLGA 021751Z 26017G25KT 10SM BKN065 BKN080 24/09 A2957\ RMK AO2 PK WND 26027/1725 SLP013\ 60000 T02440089 10256 20200 53003= 201705021851 METAR KLGA 021851Z 25024G31KT 10SM SCT060 25/08 A2957 RMK\ AO2 PK WND 26031/1807 SLP013 T02500078= 201705021951 METAR KLGA 021951Z 25018G30KT 10SM SCT070 24/07 A2957 RMK\ AO2 PK WND 27030/1949 SLP013 T02440067= 201705022051 METAR KLGA 022051Z 25026G35KT 10SM SCT080 24/02 A2959 RMK\ AO2 PK WND 25035/2051 SLP020 T02440022\ 53007= 201705022151 METAR KLGA 022151Z 27027G37KT 10SM FEW080 23/01 A2963 RMK\ AO2 PK WND 27037/2145 SLP035 T02330006= 201705022251 METAR KLGA 022251Z 27015G22KT 10SM FEW100 23/01 A2965 RMK\ AO2 PK WND 26035/2202 SLP041 T02280011= 201705022351 METAR KLGA 022351Z 26015G25KT 10SM BKN110 22/02 A2967 RMK\ AO2 PK WND 26029/2336 SLP047 T02220022\ 10256 20222 51027= 201705030051 METAR KLGA 030051Z 26014G24KT 10SM OVC120 22/02 A2970 RMK\ AO2 PK WND 26026/0012 SLP058 T02170022= 201705030151 METAR KLGA 030151Z 31016G24KT 10SM BKN120 20/02 A2974 RMK\ AO2 PK WND 30027/0120 SLP070 T02000022= 201705030251 METAR KLGA 030251Z 28016G23KT 10SM OVC110 19/02 A2976 RMK\ AO2 PK WND 30026/0225 SLP079 T01940017\ 51032= 201705030351 METAR KLGA 030351Z 29010KT 10SM OVC110 19/02 A2977 RMK AO2\ SLP079 T01890017= 201705030451 METAR KLGA 030451Z 27013G18KT 10SM OVC100 18/02 A2978 RMK\ AO2 SLP083 T01830022 402560167= 201705030551 METAR KLGA 030551Z 29010G20KT 10SM OVC110 18/03 A2978 RMK\ AO2 SLP083 T01780028 10222 20172\ 51004= 201705030651 METAR KLGA 030651Z 27008KT 10SM OVC100 17/03 A2978 RMK AO2\ SLP083 T01720028= 201705030751 METAR KLGA 030751Z 26011G20KT 10SM SCT075 OVC090 17/03 A2979\ RMK AO2 SLP086 T01720028= 201705030851 METAR KLGA 030851Z 27015G22KT 10SM OVC095 17/03 A2980 RMK\ AO2 PK WND 26027/0837 SLP090 T01720028\ 53007= 201705030951 METAR KLGA 030951Z 28011KT 10SM SCT095 17/03 A2981 RMK AO2\ PK WND 26027/0904 SLP094 T01670028= 201705031051 METAR KLGA 031051Z 28013G23KT 10SM FEW095 17/03 A2983 RMK\ AO2 SLP102 T01670028= 201705031151 METAR KLGA 031151Z 29012G20KT 10SM FEW075 FEW095 17/03 A2984\ RMK AO2 SLP103 T01670028 10178 20161\ 51013= 201705031251 METAR KLGA 031251Z 29013G22KT 10SM FEW075 SCT095 17/03 A2985\ RMK AO2 PK WND 30030/1222 SLP108\ T01720028= 201705031351 METAR KLGA 031351Z 30017G24KT 10SM SCT060 BKN100 16/04 A2987\ RMK AO2 SLP115 T01610039= 201705031451 METAR KLGA 031451Z 30013G25KT 10SM BKN060 16/01 A2988 RMK\ AO2 PK WND 30026/1435 SLP118 T01610011\ 51015= 201705031551 METAR KLGA 031551Z 25015G21KT 10SM BKN060 18/00 A2988 RMK\ AO2 SLP119 T01780000= 201705031651 METAR KLGA 031651Z 31013G22KT 10SM BKN070 17/01 A2991 RMK\ AO2 SLP127 T01670011= 201705031751 METAR KLGA 031751Z 31013KT 10SM BKN070 17/02 A2992 RMK AO2\ SLP132 T01720022 10189 20161 53014= 201705031851 METAR KLGA 031851Z 31018G25KT 10SM BKN065 19/01 A2993 RMK\ AO2 PK WND 29027/1839 SLP134 T01890011= 201705031951 METAR KLGA 031951Z 32021G26KT 10SM FEW070 18/02 A2994 RMK\ AO2 PK WND 29032/1902 SLP138 T01830017= 201705032051 METAR KLGA 032051Z 31017G25KT 10SM FEW060 18/02 A2996 RMK\ AO2 PK WND 32028/2006 SLP144 T01830017\ 53013= 201705032151 METAR KLGA 032151Z 34016G26KT 10SM FEW060 18/00 A2998 RMK\ AO2 PK WND 32030/2139 SLP152 T01780000= 201705032251 METAR KLGA 032251Z 33019KT 10SM FEW060 FEW250 17/00 A3000\ RMK AO2 SLP159 T01670000= 201705032351 METAR KLGA 032351Z 33014KT 10SM CLR 16/00 A3002 RMK AO2 SLP166\ T01610000 10194 20161 51022= 201705040051 METAR KLGA 040051Z 33015KT 10SM CLR 16/M01 A3011 RMK AO2\ PRESRR SLP197 T01561006= 201705040151 METAR KLGA 040151Z 34011KT 10SM FEW250 15/M01 A3016 RMK AO2\ SLP214 T01501006= 201705040251 METAR KLGA 040251Z 34009KT 10SM CLR 14/00 A3020 RMK AO2 SLP225\ T01390000 51059= 201705040351 METAR KLGA 040351Z 35009KT 10SM SCT250 13/00 A3020 RMK AO2\ SLP226 T01330000= 201705040451 METAR KLGA 040451Z 35009KT 10SM FEW250 13/00 A3020 RMK AO2\ SLP226 T01280000 401940128= 201705040551 METAR KLGA 040551Z 36008KT 10SM CLR 13/00 A3020 RMK AO2 SLP227\ T01280000 10161 20128 51003= 201705040651 METAR KLGA 040651Z 35005KT 10SM CLR 12/01 A3022 RMK AO2 SLP232\ T01220006= 201705040751 METAR KLGA 040751Z 36004KT 10SM FEW250 12/01 A3022 RMK AO2\ SLP233 T01220006= 201705040851 METAR KLGA 040851Z 04003KT 10SM FEW250 12/01 A3023 RMK AO2\ SLP236 T01170006 51009= 201705040951 METAR KLGA 040951Z 05005KT 10SM FEW200 FEW250 11/02 A3024\ RMK AO2 SLP239 T01060022= 201705041051 METAR KLGA 041051Z 06005KT 10SM FEW200 SCT250 12/03 A3026\ RMK AO2 SLP245 T01170033= 201705041151 METAR KLGA 041151Z 06007KT 10SM FEW200 SCT250 12/02 A3027\ RMK AO2 SLP251 T01220022 10128 20106\ 53015= 201705041251 METAR KLGA 041251Z 05008KT 10SM FEW150 SCT250 13/02 A3029\ RMK AO2 SLP256 T01330022= 201705041351 METAR KLGA 041351Z 04009KT 10SM FEW150 SCT250 14/03 A3028\ RMK AO2 SLP254 T01440028= 201705041451 METAR KLGA 041451Z 04009KT 10SM FEW130 SCT250 16/02 A3027\ RMK AO2 SLP250 T01560022 58001= 201705041551 METAR KLGA 041551Z 05009KT 10SM FEW090 FEW130 SCT250 17/01\ A3027 RMK AO2 SLP249 T01670011= 201705041651 METAR KLGA 041651Z 12009G18KT 10SM FEW100 SCT210 BKN230 18/M03\ A3025 RMK AO2 SLP244 T01831028= 201705041751 METAR KLGA 041751Z 16010G18KT 10SM FEW100 SCT220 BKN250 17/M03\ A3024 RMK AO2 SLP238 T01721028 10189\ 20122 58012 $= 201705041851 METAR KLGA 041851Z 15012G19KT 10SM FEW100 SCT220 BKN250 17/M02\ A3022 RMK AO2 SLP233 T01671022 $= 201705041951 METAR KLGA 041951Z 15013G19KT 10SM FEW100 BKN250 17/M01 A3021\ RMK AO2 SLP229 T01671011= 201705042051 METAR KLGA 042051Z 15012KT 10SM FEW100 BKN250 16/00 A3020\ RMK AO2 SLP228 T01560000 56010= 201705042151 METAR KLGA 042151Z 16010G18KT 10SM FEW100 BKN250 14/02 A3020\ RMK AO2 SLP225 T01440022= 201705042251 METAR KLGA 042251Z 14010KT 10SM FEW100 BKN250 13/04 A3019\ RMK AO2 SLP222 T01330039= 201705042351 METAR KLGA 042351Z 15010KT 10SM BKN170 BKN250 13/03 A3018\ RMK AO2 SLP219 T01330033 10183 20133\ 58009= 201705050051 METAR KLGA 050051Z 12012KT 10SM FEW050 BKN150 BKN250 13/04\ A3016 RMK AO2 SLP213 T01330039= 201705050151 METAR KLGA 050151Z 12009KT 10SM FEW050 BKN150 BKN250 13/04\ A3016 RMK AO2 SLP213 T01280039= 201705050251 METAR KLGA 050251Z 13011KT 10SM BKN200 OVC250 13/04 A3013\ RMK AO2 SLP202 T01280044 58017= 201705050351 METAR KLGA 050351Z 11009KT 10SM BKN200 OVC250 13/05 A3012\ RMK AO2 SLP199 T01280050= 201705050451 METAR KLGA 050451Z 11008KT 10SM OVC130 13/06 A3010 RMK AO2\ SLP193 T01280056 401890106= 201705050551 METAR KLGA 050551Z 10009KT 10SM BKN039 OVC075 13/06 A3009\ RMK AO2 SLP188 T01280061 10139 20122\ 58015= 201705050651 METAR KLGA 050651Z 08008KT 10SM SCT020 BKN039 OVC095 12/08\ A3004 RMK AO2 RAB10E42 SLP173 P0000\ T01220078= 201705050751 METAR KLGA 050751Z 07010KT 10SM OVC016 12/08 A3002 RMK AO2\ RAB0657E29 SLP165 P0000 T01220078= 201705050851 METAR KLGA 050851Z 09010KT 10SM OVC011 12/08 A2999 RMK AO2\ RAB07E24 SLP155 P0000 60000 T01220083\ 56032= 201705050951 METAR KLGA 050951Z 07011KT 10SM OVC013 12/09 A2996 RMK AO2\ SLP144 T01220089= 201705051051 METAR KLGA 051051Z 06009KT 10SM -RA BKN014 BKN020 OVC030\ 13/09 A2994 RMK AO2 RAB02E19B38 SLP137\ P0000 T01280094= 201705051151 METAR KLGA 051151Z 06011KT 10SM -RA SCT014 OVC028 13/10 A2991\ RMK AO2 SLP129 P0001 60001 70001\ T01280100 10133 20117 56027= 201705051251 METAR KLGA 051251Z 08013G20KT 10SM FEW012 BKN015 OVC033 14/10\ A2987 RMK AO2 RAE33 PRESFR SLP115\ P0002 T01390100= 201705051351 METAR KLGA 051351Z 07013KT 9SM -RA SCT015 OVC031 15/11 A2982\ RMK AO2 RAB00 SLP096 P0000 T01500106= 201705051451 METAR KLGA 051451Z 09017G25KT 2 1/2SM -RA FEW009 BKN012 OVC027\ 15/12 A2978 RMK AO2 SFC VIS 4 SLP085\ P0005 60007 T01500117 56043= 201705051551 METAR KLGA 051551Z 05018KT 1 1/2SM R04/4000VP6000FT +RA BR\ FEW004 BKN009 OVC020 13/12 A2971\ RMK AO2 LTG DSNT E SLP061 P0060 T01330117= 201705051651 METAR KLGA 051651Z 10011G19KT 3SM RA BR OVC007 14/13 A2967\ RMK AO2 SFC VIS 5 SLP047 P0038 T01440133= 201705051751 METAR KLGA 051751Z 01011KT 1SM R04/4000VP6000FT +TSRA BR\ SCT005 SCT014 OVC019 12/11 A2968\ RMK AO2 PK WND 33028/1722 WSHFT 1709\ SFC VIS 1 1/2 TSB38 SLP051 OCNL LTGIC\ OHD-N TS OHD-N MOV N P0092 60197\ T01220111 10156 20122 55035= 201705051851 METAR KLGA 051851Z 07020KT 2SM -RA BR BKN011 BKN055 OVC075\ 13/12 A2958 RMK AO2 SFC VIS 3 PRESFR\ SLP018 TSE1759 P0026 T01330117 $= 201705051951 METAR KLGA 051951Z 35007KT 6SM BR BKN007 OVC018 14/13 A2961\ RMK AO2 RAE10B31E41 SLP028 P0001\ T01390128 $= 201705052051 METAR KLGA 052051Z 05007KT 6SM BR OVC006 14/13 A2959 RMK\ AO2 RAB16E28 SLP019 P0000 60027 T01440128\ 56031 $= 201705052151 METAR KLGA 052151Z 05010KT 3/4SM R04/P6000FT BR OVC003 14/13\ A2958 RMK AO2 SFC VIS 2 PRESFR SLP015\ T01440128 $= 201705052251 METAR KLGA 052251Z 15005KT 2 1/2SM BR BKN008 OVC013 17/16\ A2958 RMK AO2 SFC VIS 4 SLP018 T01670156\ $= 201705052351 METAR KLGA 052351Z 15007KT 6SM HZ OVC011 17/14 A2957 RMK\ AO2 SLP013 60027 T01670139 10167\ 20128 58002 $= 201705060051 METAR KLGA 060051Z 12009KT 6SM HZ OVC007 17/14 A2955 RMK\ AO2 SLP005 T01670139 $= 201705060151 METAR KLGA 060151Z 12010KT 7SM OVC007 16/14 A2954 RMK AO2\ SLP002 T01610139 $= 201705060251 METAR KLGA 060251Z 13010KT 2 1/2SM -RA BR OVC005 16/14 A2953\ RMK AO2 RAB19 SLP000 P0001 60001\ T01610139 58007 $= 201705060351 METAR KLGA 060351Z 15015KT 7SM OVC005 17/14 A2951 RMK AO2\ RAE00B24E46 SLP993 P0001 T01670144\ $= 201705060451 METAR KLGA 060451Z 17015G24KT 1SM R04/P6000FT -DZ BR OVC003\ 16/14 A2950 RMK AO2 SFC VIS 1 1/2\ DZB34 SLP990 P0000 T01560139 401780117\ $= 201705060551 METAR KLGA 060551Z 18008KT 3SM BR OVC002 16/14 A2947 RMK\ AO2 SFC VIS 4 DZE48RAB48E49 SLP979\ P0001 60003 T01560139 10178 20150\ 56014 $= 201705060651 METAR KLGA 060651Z 15014G29KT 1SM R04/P6000FT -RA BR OVC003\ 17/16 A2943 RMK AO2 PK WND 18029/0648\ SFC VIS 5 RAB0559E15B36 SLP964 P0003\ T01670156 $= 201705060751 METAR KLGA 060751Z 16014G22KT 2SM BR OVC003 17/16 A2941 RMK\ AO2 PK WND 16034/0721 SFC VIS 6 RAE19\ SLP959 P0001 T01720156 $= 201705060851 METAR KLGA 060851Z 17014G24KT 7SM OVC004 17/16 A2940 RMK\ AO2 PK WND 17027/0840 SLP954 60004\ T01720156 56025 $= 201705060951 METAR KLGA 060951Z 17016G23KT 7SM OVC005 16/14 A2939 RMK\ AO2 SLP952 T01610144 $= 201705061051 METAR KLGA 061051Z 17013G20KT 7SM OVC006 16/14 A2940 RMK\ AO2 PK WND 16028/1021 SLP957 T01560139\ $= 201705061151 METAR KLGA 061151Z 17012KT 7SM OVC006 16/13 A2941 RMK AO2\ SLP960 60004 70231 T01560133 10172\ 20156 53005 $= 201705061251 METAR KLGA 061251Z 16012G16KT 10SM FEW006 SCT011 SCT050 BKN230\ 17/13 A2940 RMK AO2 SLP957 T01670133\ $= 201705061351 METAR KLGA 061351Z 17016G28KT 10SM FEW015 SCT050 BKN260 17/11\ A2941 RMK AO2 PK WND 16029/1333 SLP959\ T01670106 $= 201705061451 METAR KLGA 061451Z 17018G28KT 10SM FEW050 SCT250 18/11 A2942\ RMK AO2 PK WND 16030/1433 SLP961\ T01780111 53001 $= 201705061551 METAR KLGA 061551Z 18016G30KT 10SM FEW047 BKN055 BKN250 18/11\ A2941 RMK AO2 PK WND 17030/1542 SLP958\ T01830106 $= 201705061651 METAR KLGA 061651Z 16022G28KT 10SM SCT047 BKN065 BKN250 19/11\ A2940 RMK AO2 PK WND 17029/1603 SLP956\ T01890111 $= 201705061751 METAR KLGA 061751Z 17017G26KT 10SM FEW045 SCT055 SCT250 19/11\ A2941 RMK AO2 PK WND 15026/1716 SLP958\ T01890111 10194 20156 55003 $= 201705061851 METAR KLGA 061851Z 17019G27KT 10SM BKN045 BKN070 BKN250 17/11\ A2941 RMK AO2 PK WND 17030/1839 SLP957\ T01720111 $= 201705061951 METAR KLGA 061951Z 17015G23KT 10SM SCT050 BKN080 BKN250 17/11\ A2939 RMK AO2 PK WND 17028/1858 SLP951\ T01720111 $= 201705062051 METAR KLGA 062051Z 16015G21KT 10SM FEW025 BKN075 BKN250 17/12\ A2939 RMK AO2 SLP952 T01720117 55005= 201705062151 METAR KLGA 062151Z 18013KT 10SM FEW045 SCT075 BKN150 18/12\ A2937 RMK AO2 SLP946 T01780117= 201705062251 METAR KLGA 062251Z 16013KT 10SM FEW030 BKN055 BKN150 17/12\ A2937 RMK AO2 SLP947 T01720117= 201705062351 METAR KLGA 062351Z 18013G20KT 10SM VCTS -RA FEW070 BKN090\ BKN110 17/12 A2938 RMK AO2 LTG DSNT\ N AND NW RAB51 SLP950 P0000 60000\ T01670117 10194 20167 55003= 201705070051 METAR KLGA 070051Z 26012KT 10SM BKN026 BKN034 OVC080 16/10\ A2942 RMK AO2 RAE24 SLP963 P0001\ T01610100= 201705070151 METAR KLGA 070151Z 24014G23KT 10SM FEW025 BKN075 OVC100 16/07\ A2945 RMK AO2 SLP973 T01560072= 201705070251 METAR KLGA 070251Z 24011G20KT 10SM FEW025 SCT075 BKN250 14/07\ A2947 RMK AO2 SLP979 60001 T01440072\ 51029= 201705070351 METAR KLGA 070351Z 23011G19KT 10SM FEW026 BKN100 BKN250 13/07\ A2949 RMK AO2 SLP984 T01330072= 201705070451 METAR KLGA 070451Z 23010G18KT 10SM BKN024 13/07 A2949 RMK\ AO2 SLP988 T01330067 401940133= 201705070551 METAR KLGA 070551Z 23009G18KT 10SM SCT024 BKN055 13/07 A2951\ RMK AO2 SLP993 60001 T01330067 10167\ 20133 53014= 201705070651 METAR KLGA 070651Z 22010G17KT 10SM SCT024 BKN038 13/07 A2952\ RMK AO2 SLP998 T01330067= 201705070751 METAR KLGA 070751Z 23015G22KT 10SM SCT026 BKN055 13/06 A2954\ RMK AO2 SLP003 T01280061= 201705070851 METAR KLGA 070851Z 25013KT 10SM SCT028 BKN055 13/06 A2955\ RMK AO2 SLP005 T01280056 51012= 201705070951 METAR KLGA 070951Z 23013KT 10SM SCT032 SCT050 12/05 A2957\ RMK AO2 SLP012 T01220050= 201705071051 METAR KLGA 071051Z 25013G21KT 10SM SCT030 SCT050 SCT090 12/04\ A2961 RMK AO2 SLP025 T01220044= 201705071151 METAR KLGA 071151Z 23014G20KT 10SM BKN030 BKN036 BKN090 13/04\ A2963 RMK AO2 SLP033 70001 T01280044\ 10133 20122 53028= 201705071251 METAR KLGA 071251Z 25008KT 10SM BKN032 BKN034 BKN090 13/04\ A2963 RMK AO2 SLP034 T01330044= 201705071351 METAR KLGA 071351Z 24015KT 10SM SCT034 BKN045 BKN090 13/03\ A2964 RMK AO2 SLP036 T01330033= 201705071451 METAR KLGA 071451Z 24008KT 10SM SCT044 BKN055 BKN090 BKN170\ 14/03 A2965 RMK AO2 SLP040 T01390028\ 53006= 201705071551 METAR KLGA 071551Z 23010KT 10SM BKN043 BKN055 13/03 A2965\ RMK AO2 SLP040 VCSH W-N T01330033= 201705071651 METAR KLGA 071651Z 22010KT 10SM SCT045 BKN065 14/03 A2964\ RMK AO2 SLP038 VCSH NE AND W-NW T01390028= 201705071751 METAR KLGA 071751Z 22014KT 8SM -RA FEW035 BKN041 BKN055 13/05\ A2965 RMK AO2 RAB47 SLP039 P0000\ 60000 T01280050 10144 20128 55001= 201705071851 METAR KLGA 071851Z 26012KT 10SM -RA BKN039 BKN050 OVC070\ 14/04 A2964 RMK AO2 RAE11B41 SLP038\ P0000 T01390044= 201705071951 METAR KLGA 071951Z 27017G26KT 10 -RA SCT040 OVC048 13/04\ A2966 RMK AO2 PK WND 26026/1949 RAE15B38\ SLP042 P0000 T01280039= 201705072051 METAR KLGA 072051Z 27015G21KT 10SM -RA SCT031 BKN055 OVC070\ 12/06 A2967 RMK AO2 RAE13B46 SLP046\ P0000 60000 T01220056 53007= 201705072151 METAR KLGA 072151Z 30012G23KT 10SM FEW031 BKN055 OVC070 12/04\ A2969 RMK AO2 RAE48 SLP053 P0000\ T01170044= 201705072251 METAR KLGA 072251Z 29013G23KT 10SM FEW033 BKN065 BKN250 12/03\ A2971 RMK AO2 SLP059 T01220033= 201705072351 METAR KLGA 072351Z 31013KT 10SM FEW038 SCT060 BKN090 12/04\ A2973 RMK AO2 CIG 060 R22 SW SLP066\ 60000 T01170039 10139 20117 51020= 201705080051 METAR KLGA 080051Z 29014G20KT 10SM FEW048 BKN070 OVC110 12/03\ A2976 RMK AO2 SLP078 T01170033= 201705080151 METAR KLGA 080151Z 30013KT 10SM OVC095 11/03 A2979 RMK AO2\ SLP087 T01110028= 201705080251 METAR KLGA 080251Z 29011KT 10SM BKN090 BKN250 11/03 A2979\ RMK AO2 SLP088 T01110033 51022= 201705080351 METAR KLGA 080351Z 30012KT 10SM BKN095 11/03 A2978 RMK AO2\ SLP084 T01060028= 201705080451 METAR KLGA 080451Z 31012KT 10SM SCT110 11/03 A2979 RMK AO2\ SLP089 T01060028 401440106= 201705080551 METAR KLGA 080551Z 30012KT 10SM SCT110 10/02 A2980 RMK AO2\ SLP092 T01000022 10117 20100 53004= 201705080651 METAR KLGA 080651Z 28009KT 10SM FEW120 10/03 A2981 RMK AO2\ SLP095 T01000028= 201705080751 METAR KLGA 080751Z 31013KT 10SM FEW120 09/02 A2982 RMK AO2\ SLP098 T00940017= 201705080851 METAR KLGA 080851Z 31010KT 10SM BKN080 BKN120 09/02 A2982\ RMK AO2 SLP098 T00940017 51006= 201705080951 METAR KLGA 080951Z 31009KT 10SM FEW090 09/02 A2984 RMK AO2\ SLP103 T00890017= 201705081051 METAR KLGA 081051Z 29009KT 10SM FEW100 09/01 A2986 RMK AO2\ SLP110 T00940011= 201705081151 METAR KLGA 081151Z 28011G19KT 10SM FEW040 FEW100 10/01 A2986\ RMK AO2 SLP112 T01000011 10100 20089\ 51014= 201705081251 METAR KLGA 081251Z 29017G22KT 10SM SCT100 11/M01 A2987 RMK\ AO2 SLP114 T01061011= 201705081351 METAR KLGA 081351Z 31018G24KT 10SM FEW100 12/M02 A2987 RMK\ AO2 SLP114 T01171017= 201705081451 METAR KLGA 081451Z 32020G25KT 10SM SCT090 SCT130 12/M01 A2988\ RMK AO2 PK WND 33026/1355 SLP119\ T01171006 53006= 201705081551 METAR KLGA 081551Z 29017KT 10SM BKN090 BKN110 13/M02 A2989\ RMK AO2 PK WND 29027/1502 SLP120\ T01281017= 201705081651 METAR KLGA 081651Z 29014G22KT 10SM BKN055 13/M01 A2987 RMK\ AO2 SLP115 T01331006= 201705081751 METAR KLGA 081751Z 30015G22KT 10SM SCT060 BKN110 14/M02 A2985\ RMK AO2 SLP109 T01391022 10144 20100\ 58009= 201705081851 METAR KLGA 081851Z 29012G20KT 10SM BKN070 BKN110 BKN250 16/M03\ A2985 RMK AO2 SLP109 T01561028= 201705081951 METAR KLGA 081951Z 31013G21KT 10SM BKN075 BKN250 16/M03 A2985\ RMK AO2 SLP108 T01561033= 201705082051 METAR KLGA 082051Z 31012KT 10SM BKN075 BKN250 15/M02 A2986\ RMK AO2 SLP112 T01501022 53003= 201705082151 METAR KLGA 082151Z 28008KT 10SM SCT075 BKN090 BKN250 16/M02\ A2987 RMK AO2 SLP115 T01561022= 201705082251 METAR KLGA 082251Z VRB06KT 10SM SCT070 BKN085 BKN250 16/M02\ A2988 RMK AO2 SLP117 T01611022= 201705082351 METAR KLGA 082351Z 27007KT 10SM BKN080 BKN095 BKN250 15/M01\ A2989 RMK AO2 SLP121 T01501011 10167\ 20139 53009= 201705090051 METAR KLGA 090051Z 07007KT 10SM SCT075 BKN090 14/M01 A2990\ RMK AO2 SLP124 T01391006= 201705090151 METAR KLGA 090151Z 10009KT 10SM BKN085 BKN110 14/M01 A2991\ RMK AO2 SLP128 T01391011= 201705090251 METAR KLGA 090251Z 13009KT 10SM SCT090 OVC100 14/M01 A2991\ RMK AO2 SLP127 T01391011 50006= 201705090351 METAR KLGA 090351Z 04013KT 10SM OVC100 13/03 A2992 RMK AO2\ SLP131 T01280033= 201705090451 METAR KLGA 090451Z 05016KT 10SM OVC095 12/02 A2992 RMK AO2\ SLP132 T01220017 401670089= 201705090551 METAR KLGA 090551Z 04012KT 10SM OVC100 12/04 A2991 RMK AO2\ SLP129 T01170039 10156 20117 50002= 201705090651 METAR KLGA 090651Z 03011KT 10SM FEW110 SCT250 11/04 A2991\ RMK AO2 SLP129 T01060039= 201705090751 METAR KLGA 090751Z 03011KT 10SM BKN180 09/02 A2992 RMK AO2\ SLP131 T00940017= 201705090851 METAR KLGA 090851Z 02009KT 10SM BKN023 09/03 A2993 RMK AO2\ SLP135 T00940028 53006= 201705090951 METAR KLGA 090951Z 04009KT 10SM SCT023 SCT150 BKN250 09/02\ A2994 RMK AO2 SLP137 T00940022= 201705091051 METAR KLGA 091051Z 06010KT 10SM FEW080 BKN130 BKN250 10/03\ A2994 RMK AO2 SLP139 T01000028= 201705091151 METAR KLGA 091151Z 07008KT 10SM FEW025 BKN100 BKN250 11/03\ A2996 RMK AO2 SLP145 T01060028 10117\ 20094 53010= 201705091251 METAR KLGA 091251Z 06006KT 10SM FEW027 FEW100 BKN250 12/03\ A2998 RMK AO2 SLP150 T01170028= 201705091351 METAR KLGA 091351Z 05005KT 10SM FEW028 FEW110 BKN250 13/04\ A2999 RMK AO2 SLP155 T01280039= 201705091451 METAR KLGA 091451Z 06006KT 10SM SCT032 SCT120 BKN250 13/03\ A2998 RMK AO2 SLP150 T01330033 50005= 201705091551 METAR KLGA 091551Z 05009KT 10SM SCT070 SCT120 SCT250 14/02\ A2997 RMK AO2 SLP147 T01440022= 201705091651 METAR KLGA 091651Z VRB05G17KT 10SM SCT070 SCT250 16/01 A2996\ RMK AO2 SLP145 T01610011= 201705091751 METAR KLGA 091751Z 33009KT 10SM SCT070 BKN250 16/M02 A2996\ RMK AO2 SLP143 T01611017 10172 20106\ 56007= 201705091851 METAR KLGA 091851Z 05012KT 10SM BKN080 BKN250 16/02 A2994\ RMK AO2 SLP138 T01610022= 201705091951 METAR KLGA 091951Z 06012KT 10SM BKN080 16/02 A2993 RMK AO2\ SLP135 T01610017= 201705092051 METAR KLGA 092051Z 06009KT 10SM FEW060 BKN080 BKN250 16/00\ A2993 RMK AO2 SLP135 T01560000 56009= 201705092151 METAR KLGA 092151Z 04011KT 10SM FEW060 BKN080 BKN250 15/03\ A2994 RMK AO2 SLP139 T01500033= 201705092251 METAR KLGA 092251Z 05008KT 10SM FEW060 BKN080 BKN250 14/04\ A2996 RMK AO2 SLP144 T01440039= 201705092351 METAR KLGA 092351Z VRB04KT 10SM FEW060 SCT080 BKN200 BKN250\ 14/06 A2998 RMK AO2 SLP150 T01440056\ 10178 20139 53016= 201705100051 METAR KLGA 100051Z 12006KT 10SM SCT100 BKN200 BKN250 13/06\ A2999 RMK AO2 SLP156 T01330056= 201705100151 METAR KLGA 100151Z 13004KT 10SM FEW060 SCT100 BKN180 BKN250\ 13/04 A3000 RMK AO2 SLP158 T01330044= 201705100251 METAR KLGA 100251Z 11007KT 10SM OVC160 13/03 A2999 RMK AO2\ SLP154 T01330028 50003= 201705100351 METAR KLGA 100351Z 13005KT 10SM BKN170 BKN250 13/03 A2999\ RMK AO2 SLP154 T01280033= 201705100451 METAR KLGA 100451Z 09005KT 10 BKN160 BKN250 13/04 2999 RMK\ AO2 SLP154 T01280044 401780094= 201705100551 METAR KLGA 100551Z 05005KT 10SM FEW039 SCT085 OVC160 12/06\ A2999 RMK AO2 SLP155 T01220056 `10139\ 20122 53002= 201705100651 METAR KLGA 100651Z 06005KT 10SM OVC090 12/06 A2999 RMK AO2\ SLP155 T01170061= 201705100751 METAR KLGA 100751Z 04005KT 10SM OVC085 11/06 A2999 RMK AO2\ SLP156 T01110061= 201705100851 METAR KLGA 100851Z 05006KT 10SM OVC110 11/03 A2999 RMK AO2\ SLP154 T01110033= 201705100951 METAR KLGA 100951Z 04005KT 10SM BKN100 A300 RMK AO2 SLP159\ T01110022= 201705101051 METAR KLGA 101051Z 04008KT 10SM BKN110 11/03 A3002 RMK AO2\ SLP165 T01110033= 201705101151 METAR KLGA 101151Z 05008KT 10SM BKN100 12/02 A3003 RMK AO2\ SLP169 T01170022 10122 20111 51014= 201705101251 METAR KLGA 101251Z 05005KT 10SM BKN100 12/02 A3004 RMK AO2\ SLP171 T01220022= 201705101351 METAR KLGA 101351Z 07005KT 10SM FEW035 SCT090 13/02 A3003\ RMK AO2 SLP169 T01330017= 201705101451 METAR KLGA 101451Z 06005KT 10SM FEW048 SCT095 14/02 A3002\ RMK AO2 SLP166 T01390022 58003= 201705101551 METAR KLGA 101551Z 06007G18KT 10SM SCT050 15/02 A3001 RMK\ AO2 SLP162 T01500022= 201705101651 METAR KLGA 101651Z 05010KT 10SM BKN060 BKN250 16/02 A2999\ RMK AO2 SLP157 T01560022= 201705101751 METAR KLGA 101751Z 06003KT 10SM BKN065 BKN250 17/03 A2999\ RMK AO2 SLP155 T01670028 10167 20111\ 56010= 201705101851 METAR KLGA 101851Z 05006KT 10SM FEW070 17/02 A2999 RMK AO2\ SLP154 T01720022= 201705101951 METAR KLGA 101951Z 09007KT 10SM SCT060 BKN250 17/02 A2999\ RMK AO2 SLP154 T01720017= 201705102051 METAR KLGA 102051Z 09007KT 10SM BKN070 BKN250 18/02 A2999\ RMK AO2 SLP155 T01780017 55001= 201705102151 METAR KLGA 102151Z 19009KT 10SM BKN070 BKN250 17/04 A2999\ RMK AO2 SLP157 T01670044= 201705102251 METAR KLGA 102251Z 19011KT 10SM SCT070 SCT250 15/04 A3000\ RMK AO2 SLP160 T01500044= 201705102351 METAR KLGA 102351Z 19006KT 10SM FEW070 BKN250 14/04 A3001\ RMK AO2 SLP163 T01390039 10183 20139\ 53008= 201705110051 METAR KLGA 110051Z VRB05KT 10SM FEW070 SCT250 13/04 A3003\ RMK AO2 SLP170 T01330044= 201705110151 METAR KLGA 110151Z 18003KT 10SM SCT250 13/05 A3006 RMK AO2\ SLP179 T01330050= 201705110251 METAR KLGA 110251Z 16003KT 10SM FEW020 SCT250 13/06 A3005\ RMK AO2 SLP177 T01280056 50014= 201705110351 METAR KLGA 110351Z 00000KT 10SM FEW020 FEW250 13/05 A3005\ RMK AO2 SLP176 T01280050= 201705110451 METAR KLGA 110451Z 03003KT 10SM SCT250 12/05 A3004 RMK AO2\ SLP173 T01220050 401830111= 201705110551 METAR KLGA 110551Z 01005KT 10SM BKN250 12/02 A3003 RMK AO2\ SLP170 T01220022 10139 20122 58007= 201705110651 METAR KLGA 110651Z 36004KT 10SM BKN250 12/02 A3001 RMK AO2\ SLP163 T01220017= 201705110751 METAR KLGA 110751Z 01004KT 10SM FEW200 BKN250 12/01 A3002\ RMK AO2 SLP164 T01170011= 201705110851 METAR KLGA 110851Z 36007KT 10SM FEW200 SCT250 12/02 A3002\ RMK AO2 SLP164 T01170022 56006= 201705110951 METAR KLGA 110951Z 02005KT 10SM BKN055 BKN150 BKN250 11/03\ A3003 RMK AO2 SLP169 T01110028= 201705111051 METAR KLGA 111051Z 04006KT 10SM BKN060 BKN250 12/02 A3003\ RMK AO2 SLP167 T01170022= 201705111151 METAR KLGA 111151Z 04007KT 10SM FEW060 BKN250 13/02 A3002\ RMK AO2 SLP164 T01330022 10133 20111\ 50000= 201705111251 METAR KLGA 111251Z 05009KT 10SM FEW120 BKN250 13/02 A3001\ RMK AO2 SLP162 T01330022 $= 201705111351 METAR KLGA 111351Z 05008KT 10SM FEW065 FEW120 BKN250 14/02\ A3000 RMK AO2 SLP157 T01440022 $= 201705111451 METAR KLGA 111451Z 06008KT 10SM FEW065 BKN250 15/01 A3000\ RMK AO2 SLP159 T01500011 55005 $= 201705111551 METAR KLGA 111551Z 04008KT 10SM FEW060 FEW130 BKN250 16/01\ A2999 RMK AO2 SLP154 T01560011 $= 201705111651 METAR KLGA 111651Z 05009G14KT 10SM FEW060 FEW130 BKN250 17/01\ A2997 RMK AO2 SLP149 T01670006 $= 201705111751 METAR KLGA 111751Z 05009KT 10SM FEW060 FEW100 OVC250 17/02\ A2996 RMK AO2 SLP146 T01720017 10172\ 20133 56013 $= 201705111851 METAR KLGA 111851Z 05010KT 10SM FEW060 SCT100 OVC250 17/02\ A2995 RMK AO2 SLP142 T01720017 $= 201705111951 METAR KLGA 111951Z 05009KT 10SM FEW060 SCT100 OVC250 17/02\ A2995 RMK AO2 SLP142 T01670017 $= 201705112051 METAR KLGA 112051Z 17008KT 10SM FEW060 BKN200 BKN250 16/03\ A2995 RMK AO2 SLP142 T01610033 56004\ $= 201705112151 METAR KLGA 112151Z 18006KT 10SM FEW060 BKN220 BKN250 16/03\ A2996 RMK AO2 SLP145 T01560033 $= 201705112251 METAR KLGA 112251Z 17011KT 10SM FEW060 BKN220 BKN250 15/03\ A2998 RMK AO2 SLP150 T01500033 $= 201705112351 METAR KLGA 112351Z 17009KT 10SM FEW060 SCT220 BKN250 14/03\ A2999 RMK AO2 SLP154 T01440033 10178\ 20144 53012 $= 201705120051 METAR KLGA 120051Z VRB05KT 10SM FEW140 SCT210 BKN250 14/04\ A3000 RMK AO2 SLP159 T01390039 $= 201705120151 METAR KLGA 120151Z 19006KT 10SM FEW140 BKN250 13/05 A3001\ RMK AO2 SLP161 T01280050 $= 201705120251 METAR KLGA 120251Z 19005KT 10SM FEW210 BKN250 13/05 A3002\ RMK AO2 SLP164 T01280050 51009 $= 201705120351 METAR KLGA 120351Z 18004KT 10SM SCT210 BKN250 12/05 A3003\ RMK AO2 SLP167 T01220050 $= 201705120451 METAR KLGA 120451Z 00000KT 10SM FEW210 BKN250 12/05 A3003\ RMK AO2 SLP170 T01220050 401780111\ $= 201705120551 METAR KLGA 120551Z 10007KT 10SM FEW210 BKN250 12/06 A3004\ RMK AO2 SLP171 T01170056 10144 20117\ 51007 $= 201705120651 METAR KLGA 120651Z 09006KT 10SM FEW210 SCT250 11/06 A3005\ RMK AO2 SLP174 T01110056 $= 201705120751 METAR KLGA 120751Z 08004KT 10SM FEW010 FEW210 SCT250 11/06\ A3004 RMK AO2 SLP173 T01110061 $= 201705120851 METAR KLGA 120851Z 04003KT 10SM FEW010 FEW210 SCT250 11/07\ A3004 RMK AO2 SLP171 T01110067 50000\ $= 201705120951 METAR KLGA 120951Z 04003KT 10SM FEW015 SCT050 SCT250 11/07\ A3005 RMK AO2 SLP174 T01110067 $= 201705121051 METAR KLGA 121051Z 04004KT 10SM FEW019 FEW050 SCT250 12/07\ A3007 RMK AO2 SLP182 T01170067 $= 201705121151 METAR KLGA 121151Z 04005KT 10SM FEW019 FEW130 BKN250 13/07\ A3007 RMK AO2 SLP183 T01280067 10128\ 20111 51012 $= 201705121251 METAR KLGA 121251Z 06006KT 10SM SCT025 SCT250 13/07 A3008\ RMK AO2 SLP184 T01330067= 201705121351 METAR KLGA 121351Z 05009KT 10SM SCT032 BKN250 14/06 A3007\ RMK AO2 SLP182 T01440061= 201705121451 METAR KLGA 121451Z 05011KT 10SM FEW036 SCT250 16/06 A3006\ RMK AO2 SLP180 T01560061 58002= 201705121551 METAR KLGA 121551Z 04010KT 10SM SCT040 SCT250 16/05 A3006\ RMK AO2 SLP178 T01610050= 201705121651 METAR KLGA 121651Z 06010G17KT 10SM SCT043 SCT250 17/05 A3005\ RMK AO2 SLP174 T01720050= 201705121751 METAR KLGA 121751Z 19010KT 10SM BKN044 BKN250 17/06 A3004\ RMK AO2 SLP171 T01670056 10178 20128\ 57009= 201705121851 METAR KLGA 121851Z 18013G17KT 10SM BKN048 BKN250 16/05 A3003\ RMK AO2 SLP168 T01610050= 201705121951 METAR KLGA 121951Z 19012G19KT 10SM FEW040 15/04 A3003 RMK\ AO2 SLP168 T01500044= 201705122051 METAR KLGA 122051Z 18009KT 10SM FEW045 BKN250 15/04 A3003\ RMK AO2 SLP168 T01500044 56004= 201705122151 METAR KLGA 122151Z 17008KT 10SM FEW048 FEW100 BKN250 15/04\ A3002 RMK AO2 SLP167 T01500044= 201705122251 METAR KLGA 122251Z 18007KT 10SM FEW048 FEW100 BKN250 14/04\ A3003 RMK AO2 SLP168 T01390044= 201705122351 METAR KLGA 122351Z 16009KT 10SM FEW048 FEW100 BKN250 13/04\ A3003 RMK AO2 SLP169 T01330044 10167\ 20133 53001= 201705130051 METAR KLGA 130051Z 17009KT 10SM FEW048 FEW100 BKN220 13/05\ A3002 RMK AO2 SLP166 T01330050= 201705130151 METAR KLGA 130151Z 14007KT 10SM FEW040 FEW100 BKN220 13/06\ A3002 RMK AO2 SLP166 T01280056= 201705130251 METAR KLGA 130251Z 14009KT 10SM SCT025 OVC037 13/07 A3002\ RMK AO2 CIG 023 R22 SW SLP167 T01280067\ 55002= 201705130351 METAR KLGA 130351Z 14005KT 10SM OVC025 13/07 A3002 RMK AO2\ SLP165 T01280067= 201705130451 METAR KLGA 130451Z 11007KT 10SM OVC018 13/07 A3000 RMK AO2\ SLP159 T01280072 401780111= 201705130551 METAR KLGA 130551Z 10010KT 10SM OVC018 13/07 A2998 RMK AO2\ SLP152 T01280072 10139 20128 58015= 201705130651 METAR KLGA 130651Z 12009KT 10SM -RA OVC020 12/07 A2998 RMK\ AO2 RAB51 SLP150 P0000 T01220067= 201705130751 METAR KLGA 130751Z 11010KT 10SM -RA FEW020 BKN027 OVC055\ 12/07 A2996 RMK AO2 SLP146 P0000\ T01170072= 201705130851 METAR KLGA 130851Z 11008KT 10SM -RA SCT060 OVC080 12/07 A2995\ RMK AO2 SLP142 P0001 60001 T01170072\ 58011= 201705130951 METAR KLGA 130951Z 07007KT 10SM -RA SCT024 OVC080 11/08 A2994\ RMK AO2 SLP138 P0002 T01110078= 201705131051 METAR KLGA 131051Z 09010KT 8SM -RA FEW037 BKN075 OVC090 11/08\ A2994 RMK AO2 SLP137 P0005 T01110083= 201705131151 METAR KLGA 131151Z 08008KT 10SM -RA BKN010 BKN024 OVC070\ 11/08 A2993 RMK AO2 SLP135 P0005\ 60013 70013 T01110083 10128 20111\ 56007= 201705131251 METAR KLGA 131251Z 06010KT 10SM -RA OVC011 11/08 A2993 RMK\ AO2 SLP135 P0003 T01110083= 201705131351 METAR KLGA 131351Z 07011KT 7SM -RA BKN009 OVC014 11/08 A2993\ RMK AO2 SLP135 P0007 T01110083= 201705131451 METAR KLGA 131451Z 06011KT 7SM -RA BKN009 OVC013 12/09 A2991\ RMK AO2 SLP129 P0008 60018 T01170089\ 58006= 201705131551 METAR KLGA 131551Z 07016KT 8SM -RA BKN009 OVC015 12/09 A2990\ RMK AO2 SLP123 P0005 T01170094= 201705131651 METAR KLGA 131651Z 08012KT 6SM -RA BKN009 OVC014 12/09 A2988\ RMK AO2 SLP118 P0005 T01220094= 201705131751 METAR KLGA 131751Z 07016KT 6SM -RA BR FEW009 BKN020 OVC065\ 12/09 A2986 RMK AO2 SLP110 P0015\ 60043 T01170094 10122 20106 58019= 201705131851 METAR KLGA 131851Z 06014KT 2 1/2SM RA BKN010 OVC019 12/09\ A2984 RMK AO2 SFC VIS 3 SLP104 P0015\ T01170089= 201705131951 METAR KLGA 131951Z 06013KT 2 1/2SM RA BKN009 BKN012 OVC023\ 12/09 A2983 RMK AO2 SLP100 P0016\ T01170089= 201705132051 METAR KLGA 132051Z 07019KT 2 1/2SM -RA BR BKN007 BKN013 OVC023\ 11/08 A2981 RMK AO2 SFC VIS 3 SLP095\ P0008 60039 T01060083 57015= 201705132151 METAR KLGA 132151Z 05022G28KT 1 1/2SM R04/5500VP6000FT RA\ BKN005 BKN023 OVC034 11/08 A2981\ RMK AO2 PK WND 05029/2129 SFC VIS\ 2 SLP095 P0012 T01060078= 201705132251 METAR KLGA 132251Z 03016KT 1 1/2SM -RA BR BKN005 BKN023 OVC034\ 09/07 A2980 RMK AO2 PK WND 05030/2153\ SFC VIS 3 SLP089 P0023 T00940072= 201705132351 METAR KLGA 132351Z 03023G29KT 2SM -RA SCT010 BKN029 OVC049\ 09/06 A2980 RMK AO2 PK WND 03029/2346\ SLP090 P0012 60086 T00890061 10117\ 20089 58005= 201705140051 METAR KLGA 140051Z 04018KT 5SM -RA FEW019 FEW029 OVC037 09/06\ A2980 RMK AO2 PK WND 03030/2359 SLP090\ P0004 T00940061= 201705140151 METAR KLGA 140151Z 03015KT 4SM -RA BR SCT009 OVC039 09/07\ A2979 RMK AO2 PK WND 05030/0127 CIG\ 030 R22 SW SLP089 P0004 T00890067= 201705140251 METAR KLGA 140251Z 03014G20KT 4SM -RA BR BKN009 OVC025 09/07\ A2978 RMK AO2 SLP085 P0013 60021\ T00890067 58005= 201705140351 METAR KLGA 140351Z 04014G21KT 5SM -RA SCT010 BKN020 OVC049\ 10/07 A2975 RMK AO2 PRESFR SLP074\ P0009 T01000072= 201705140451 METAR KLGA 140451Z 35011KT 10SM -RA OVC010 09/07 A2974 RMK\ AO2 PK WND 04026/0406 SLP069 P0002\ T00940072 401280083= 201705140551 METAR KLGA 140551Z 35009KT 10SM SCT070 BKN085 OVC110 09/07\ A2972 RMK AO2 RAE0453 SLP062 P0000\ 60032 T00890067 10100 20083 58012= 201705140651 METAR KLGA 140651Z 35014KT 10SM FEW013 OVC040 10/07 A2970\ RMK AO2 SLP058 T01000067= 201705140751 METAR KLGA 140751Z 35010KT 10SM OVC046 10/06 A2970 RMK AO2\ SLP057 T01000061= 201705140851 METAR KLGA 140851Z 33012KT 10SM SCT016 OVC060 10/06 A2970\ RMK AO2 SLP057 T01000061 55005= 201705140951 METAR KLGA 140951Z 32015KT 10SM BKN095 10/06 A2970 RMK AO2\ SLP058 T01000056= 201705141051 METAR KLGA 141051Z 32013KT 10SM FEW017 SCT065 BKN095 10/06\ A2971 RMK AO2 SLP062 T01000061= 201705141151 METAR KLGA 141151Z 32007KT 10SM FEW020 SCT050 SCT090 SCT170\ 11/06 A2971 RMK AO2 SLP062 VIRGA\ E-SE 70161 T01060056 10106 20089\ 51005= 201705141251 METAR KLGA 141251Z 32012KT 10SM FEW019 SCT090 SCT170 12/07\ A2972 RMK AO2 SLP062 T01220067= 201705141351 METAR KLGA 141351Z 32012KT 10SM FEW026 SCT090 SCT170 13/07\ A2969 RMK AO2 SLP054 T01330067= 201705141451 METAR KLGA 141451Z 32012KT 10SM SCT031 SCT090 SCT170 15/07\ A2968 RMK AO2 SLP049 T01500072 58013= 201705141551 METAR KLGA 141551Z 30013KT 10SM SCT035 SCT090 BKN170 17/07\ A2966 RMK AO2 SLP044 T01670072= 201705141651 METAR KLGA 141651Z 33012KT 10SM SCT040 SCT090 BKN170 17/07\ A2963 RMK AO2 SLP033 T01720072= 201705141751 METAR KLGA 141751Z 28012G19KT 10SM FEW045 SCT055 BKN090 BKN170\ 20/07 A2960 RMK AO2 SLP023 T02000067\ 10200 20106 58026= 201705141851 METAR KLGA 141851Z 31017KT 10SM FEW055 SCT120 BKN250 20/07\ A2958 RMK AO2 SLP017 T02000067= 201705141951 METAR KLGA 141951Z 31013KT 10SM -RA FEW044 SCT075 SCT085\ SCT200 19/08 A2957 RMK AO2 RAB19\ SLP013 P0001 T01890078= 201705142051 METAR KLGA 142051Z 29015G22KT 10SM FEW080 SCT100 19/06 A2956\ RMK AO2 RAE1952 SLP010 P0000 60001\ T01940061 56013= 201705142151 METAR KLGA 142151Z 31015KT 10SM SCT050CB SCT065 BKN080 17/07\ A2957 RMK AO2 PK WND 31039/2059 LTG\ DSNT SE RAB02E26 SLP014 CB OHD-NE\ MOV SE P0000 T01720067= 201705142251 METAR KLGA 142251Z 33008KT 10SM FEW050 SCT120 SCT200 18/07\ A2957 RMK AO2 SLP013 T01830067= 201705142351 METAR KLGA 142351Z 33006KT 10SM FEW050 SCT110 BKN200 18/06\ A2957 RMK AO2 SLP011 60001 T01780061\ 10211 20161 50002= 201705150051 METAR KLGA 150051Z 31011KT 10SM FEW050 BKN090 BKN200 17/07\ A2958 RMK AO2 SLP018 T01720067= 201705150151 METAR KLGA 150151Z 30018G28KT 10SM FEW050 BKN095 16/04 A2960\ RMK AO2 PK WND 31031/0117 SLP025\ T01610044= 201705150251 METAR KLGA 150251Z 31018G29KT 10SM SCT120 15/04 A2962 RMK\ AO2 PK WND 31030/0228 SLP030 T01500044\ 51019= 201705150351 METAR KLGA 150351Z 30021G26KT 10SM FEW095 14/05 A2963 RMK\ AO2 PK WND 30028/0334 SLP034 T01440050= 201705150451 METAR KLGA 150451Z 30015G23KT 10SM FEW095 13/05 A2963 RMK\ AO2 SLP035 T01330050 402110083= 201705150551 METAR KLGA 150551Z 29015KT 10SM FEW050 13/06 A2963 RMK AO2\ SLP034 T01330056 10178 20133 50004= 201705150651 METAR KLGA 150651Z 29014G22KT 10SM FEW050 FEW100 14/06 A2962\ RMK AO2 PK WND 29027/0634 SLP031\ T01390056= 201705150751 METAR KLGA 150751Z 30017G21KT 10SM FEW050 FEW100 14/06 A2962\ RMK AO2 SLP030 T01390061= 201705150851 METAR KLGA 150851Z 30012KT 10SM FEW050 14/06 A2963 RMK AO2\ SLP033 T01390061 55002= 201705150951 METAR KLGA 150951Z 30017G25KT 10SM BKN055 BKN150 14/07 A2964\ RMK AO2 SLP036 T01440067= 201705151051 METAR KLGA 151051Z 31017G23KT 10SM FEW027 BKN060 BKN180 14/07\ A2966 RMK AO2 PK WND 30027/1030 SLP043\ T01440072= 201705151151 METAR KLGA 151151Z 31017G25KT 10SM FEW035 BKN042 BKN180 15/07\ A2968 RMK AO2 PK WND 31027/1111 SLP050\ 70001 T01500067 10150 20122 53017= 201705151251 METAR KLGA 151251Z 31017G26KT 10SM FEW040 FEW070 BKN230 16/07\ A2969 RMK AO2 PK WND 32034/1238 SLP054\ T01560067= 201705151351 METAR KLGA 151351Z 30025G41KT 10SM SCT042 BKN050 BKN230 16/06\ A2970 RMK AO2 PK WND 30041/1351 SLP058\ T01610056= 201705151451 METAR KLGA 151451Z 30025G32KT 10SM SCT045 BKN250 17/06 A2972\ RMK AO2 PK WND 31034/1431 SLP063\ T01670056 53013= 201705151551 METAR KLGA 151551Z 30020G29KT 10SM SCT046 BKN250 17/06 A2972\ RMK AO2 PK WND 32032/1508 SLP063\ T01720056= 201705151651 METAR KLGA 151651Z 31020G32KT 10SM FEW050 SCT060 BKN250 18/06\ A2972 RMK AO2 PK WND 32032/1642 SLP064\ T01780061= 201705151751 METAR KLGA 151751Z 31022G33KT 10SM FEW050 SCT060 BKN250 19/06\ A2973 RMK AO2 PK WND 32033/1749 SLP067\ T01890056 10189 20150 53004= 201705151851 METAR KLGA 151851Z 32022G30KT 10SM SCT055 19/06 A2973 RMK\ AO2 PK WND 32033/1836 SLP066 T01940061= 201705151951 METAR KLGA 151951Z 32022G31KT 10SM SCT060 BKN250 20/06 A2973\ RMK AO2 PK WND 32031/1941 SLP067\ T02000056= 201705152051 METAR KLGA 152051Z 32017G31KT 10SM SCT060 SCT250 21/05 A2973\ RMK AO2 PK WND 31038/2005 SLP069\ T02060050 53001= 201705152151 METAR KLGA 152151Z 32017G30KT 10SM FEW065 SCT250 21/06 A2976\ RMK AO2 PK WND 32034/2141 SLP079\ T02060056= 201705152251 METAR KLGA 152251Z 32022G30KT 10SM FEW065 SCT250 20/06 A2979\ RMK AO2 PK WND 32031/2208 SLP088\ T02000056= 201705152351 METAR KLGA 152351Z 32020KT 10SM FEW065 SCT250 19/06 A2982\ RMK AO2 PK WND 32030/2305 SLP098\ T01940056 10211 20189 53030= 201705160051 METAR KLGA 160051Z 32016KT 10SM FEW065 SCT250 19/06 A2986\ RMK AO2 PK WND 30028/2359 SLP113\ T01890061= 201705160151 METAR KLGA 160151Z 32018G25KT 10SM FEW065 FEW250 18/06 A2988\ RMK AO2 SLP117 T01830061= 201705160251 METAR KLGA 160251Z 31012KT 10SM CLR 18/07 A2989 RMK AO2 SLP122\ T01780067 51023= 201705160351 METAR KLGA 160351Z 30011KT 10SM CLR 17/06 A2992 RMK AO2 SLP132\ T01720061= 201705160451 METAR KLGA 160451Z 30011KT 10SM CLR 17/07 A2993 RMK AO2 SLP133\ T01720067 402110122= 201705160551 METAR KLGA 160551Z 32008KT 10SM CLR 17/07 A2993 RMK AO2 SLP134\ T01670067 10194 20167 51012= 201705160651 METAR KLGA 160651Z 30007KT 10SM CLR 16/08 A2992 RMK AO2 SLP132\ T01610078= 201705160751 METAR KLGA 160751Z 29014KT 10SM CLR 16/07 A2994 RMK AO2 SLP137\ T01610072= 201705160851 METAR KLGA 160851Z 29012KT 10SM CLR 17/07 A2995 RMK AO2 SLP142\ T01670072 53008= 201705160951 METAR KLGA 160951Z 30012KT 10SM FEW250 16/07 A2997 RMK AO2\ SLP149 T01610072= 201705161051 METAR KLGA 161051Z 31008KT 10SM BKN250 16/08 A2999 RMK AO2\ SLP156 T01560078= 201705161151 METAR KLGA 161151Z 31008KT 10SM BKN250 17/07 A3000 RMK AO2\ SLP160 T01720072 10172 20150 51018= 201705161251 METAR KLGA 161251Z 31009KT 10SM BKN250 18/07 A3002 RMK AO2\ SLP164 T01830072= 201705161351 METAR KLGA 161351Z 32009KT 10SM BKN250 21/07 A3001 RMK AO2\ SLP164 T02060072= 201705161451 METAR KLGA 161451Z 30014KT 10SM BKN250 21/07 A3001 RMK AO2\ SLP163 T02110067 50003= 201705161551 METAR KLGA 161551Z 31012KT 10SM FEW140 BKN250 22/07 A3001\ RMK AO2 SLP162 T02170072= 201705161651 METAR KLGA 161651Z 00000KT 10SM FEW140 BKN250 24/08 A3000\ RMK AO2 SLP158 T02390078= 201705161751 METAR KLGA 161751Z 27008KT 230V310 10SM FEW180 BKN250 25/07\ A2998 RMK AO2 SLP152 T02500067 10256\ 20172 58012= 201705161851 METAR KLGA 161851Z VRB05G20KT 10SM FEW200 BKN250 26/07 A2998\ RMK AO2 SLP151 T02610072= 201705161951 METAR KLGA 161951Z 29009KT 10SM FEW130 BKN250 28/07 A2996\ RMK AO2 SLP144 T02780067= 201705162051 METAR KLGA 162051Z 28007KT 10SM FEW130 BKN250 28/05 A2994\ RMK AO2 SLP138 T02780050 58014= 201705162151 METAR KLGA 162151Z 24008KT 10SM BKN130 BKN250 28/06 A2993\ RMK AO2 SLP136 T02780056= 201705162251 METAR KLGA 162251Z 24009KT 10SM BKN130 BKN250 27/07 A2993\ RMK AO2 SLP136 T02720072= 201705162351 METAR KLGA 162351Z 26009KT 10SM SCT130 BKN250 27/06 A2995\ RMK AO2 SLP140 T02670061 10283 20250\ 53002= 201705170051 METAR KLGA 170051Z 00000KT 10SM SCT130 SCT250 26/07 A2995\ RMK AO2 SLP143 T02560072= 201705170151 METAR KLGA 170151Z 27003KT 10SM SCT130 SCT250 25/06 A2997\ RMK AO2 SLP148 T02500056= 201705170251 METAR KLGA 170251Z 00000KT 10SM FEW130 SCT250 23/08 A2997\ RMK AO2 SLP148 T02280083 51008= 201705170351 METAR KLGA 170351Z 00000KT 10SM BKN200 22/09 A2998 RMK AO2\ SLP152 T02220089= 201705170451 METAR KLGA 170451Z 21006KT 10SM SCT200 23/08 A2998 RMK AO2\ SLP150 T02330078 402830150= 201705170551 METAR KLGA 170551Z 23006KT 10SM FEW250 22/08 A2997 RMK AO2\ SLP150 T02220078 10267 20200 50001= 201705170651 METAR KLGA 170651Z 20005KT 10SM FEW250 22/08 A2998 RMK AO2\ SLP150 T02170083= 201705170751 METAR KLGA 170751Z 20003KT 10SM SCT250 21/09 A2998 RMK AO2\ SLP153 T02060089= 201705170851 METAR KLGA 170851Z 20004KT 10SM SCT250 19/10 A3000 RMK AO2\ SLP158 T01940100 53008= 201705170951 METAR KLGA 170951Z 00000KT 10SM SCT250 19/11 A3000 RMK AO2\ SLP160 T01940106= 201705171051 METAR KLGA 171051Z 19006KT 10SM SCT250 21/11 A3001 RMK AO2\ SLP162 T02060111= 201705171151 METAR KLGA 171151Z 22010KT 10SM FEW250 22/11 A3001 RMK AO2\ SLP162 T02220111 10222 20189 51004= 201705171251 METAR KLGA 171251Z 22007KT 10SM FEW250 24/11 A3001 RMK AO2\ SLP162 T02390111= 201705171351 METAR KLGA 171351Z 23008KT 10SM FEW250 26/12 A3000 RMK AO2\ SLP160 T02560117= 201705171451 METAR KLGA 171451Z 22007KT 10SM FEW250 27/13 A2999 RMK AO2\ SLP154 T02720128 58008= 201705171551 METAR KLGA 171551Z 22009KT 10SM FEW250 30/13 A2997 RMK AO2\ SLP148 T03000133= 201705171651 METAR KLGA 171651Z 21013KT 10SM FEW080 FEW250 32/14 A2995\ RMK AO2 SLP141 T03170139= 201705171751 METAR KLGA 171751Z 24010G19KT 10SM FEW080 33/14 A2993 RMK\ AO2 SLP135 T03330144 10333 20222\ 56019= 201705171851 METAR KLGA 171851Z 17014G18KT 10SM FEW080 33/16 A2991 RMK\ AO2 SLP128 T03330156= 201705171951 METAR KLGA 171951Z 16012G20KT 10SM FEW080 33/16 A2989 RMK\ AO2 SLP121 T03280161= 201705172051 METAR KLGA 172051Z 22013KT 10SM SCT250 34/14 A2988 RMK AO2\ SLP120 T03440144 56015= 201705172151 METAR KLGA 172151Z 19009KT 10SM SCT250 33/16 A2988 RMK AO2\ SLP118 T03280156= 201705172251 METAR KLGA 172251Z 20010KT 10SM SCT250 32/16 A2988 RMK AO2\ SLP118 T03220156= 201705172351 METAR KLGA 172351Z 20007KT 10SM SCT250 32/16 A2989 RMK AO2\ SLP122 T03170161 10344 20317 53003= 201705180051 METAR KLGA 180051Z 23010KT 10SM SCT250 31/16 A2991 RMK AO2\ SLP127 T03110161= 201705180151 METAR KLGA 180151Z 23010KT 10SM BKN250 31/16 A2992 RMK AO2\ SLP131 T03110161= 201705180251 METAR KLGA 180251Z 23011KT 10SM BKN250 30/17 A2993 RMK AO2\ SLP133 T03000167 51011= 201705180351 METAR KLGA 180351Z 23012KT 10SM BKN240 29/17 A2992 RMK AO2\ SLP132 T02940172= 201705180451 METAR KLGA 180451Z 22011KT 10SM BKN250 29/17 A2991 RMK AO2\ SLP128 T02890172 403440189= 201705180551 METAR KLGA 180551Z 22009KT 10SM BKN250 28/18 A2991 RMK AO2\ SLP127 T02830178 10317 20283 56006= 201705180651 METAR KLGA 180651Z 22008KT 10SM BKN250 28/17 A2990 RMK AO2\ SLP123 T02780172= 201705180751 METAR KLGA 180751Z 24009G18KT 10SM BKN250 28/17 A2990 RMK\ AO2 SLP126 T02780172= 201705180851 METAR KLGA 180851Z 23009KT 10SM BKN250 27/17 A2991 RMK AO2\ SLP129 T02720172 53002= 201705180951 METAR KLGA 180951Z 21006KT 10SM BKN200 OVC250 27/17 A2992\ RMK AO2 SLP132 T02670172= 201705181051 METAR KLGA 181051Z 23007KT 10SM BKN250 27/17 A2994 RMK AO2\ SLP137 T02670172= 201705181151 METAR KLGA 181151Z 23008KT 10SM BKN250 28/17 A2995 RMK AO2\ SLP142 T02830172 10283 20267 53013= 201705181251 METAR KLGA 181251Z 22007KT 10SM BKN250 29/17 A2994 RMK AO2\ SLP140 T02940172= 201705181351 METAR KLGA 181351Z 22007KT 10SM FEW090 BKN250 31/17 A2993\ RMK AO2 SLP135 T03110167= 201705181451 METAR KLGA 181451Z 25009G15KT 10SM FEW090 SCT250 33/14 A2992\ RMK AO2 SLP131 T03280144 58011= 201705181551 METAR KLGA 181551Z 21008KT 10SM FEW090 SCT250 33/16 A2990\ RMK AO2 SLP125 T03330156= 201705181651 METAR KLGA 181651Z 23010G20KT 10SM FEW090 SCT250 34/15 A2988\ RMK AO2 SLP119 T03440150= 201705181751 METAR KLGA 181751Z 23012G19KT 10SM FEW060 SCT250 36/14 A2987\ RMK AO2 SLP114 T03560144 10356 20278\ 56016= 201705181851 METAR KLGA 181851Z 22010G22KT 10SM SCT090 BKN250 36/14 A2985\ RMK AO2 SLP109 T03560139= 201705181951 METAR KLGA 181951Z 21017G24KT 10SM SCT080 SCT100 SCT250 36/14\ A2984 RMK AO2 SLP104 T03560139= 201705182051 METAR KLGA 182051Z 23013G20KT 10SM FEW065 SCT085 SCT250 36/14\ A2984 RMK AO2 SLP103 T03560139 56011= 201705182151 METAR KLGA 182151Z 24014G20KT 10SM FEW065 SCT250 35/14 A2982\ RMK AO2 SLP098 T03500139= 201705182251 METAR KLGA 182251Z 20018G23KT 10SM FEW065 FEW100 FEW250 34/16\ A2981 RMK AO2 SLP095 T03440156= 201705182351 METAR KLGA 182351Z 18009KT 10SM FEW110 FEW250 33/16 A2982\ RMK AO2 SLP099 T03280161 10361 20328\ 55004= 201705190051 METAR KLGA 190051Z 18009KT 10SM FEW100 FEW250 32/17 A2983\ RMK AO2 SLP101 T03170167= 201705190151 METAR KLGA 190151Z 23015G24KT 10SM FEW250 32/17 A2985 RMK\ AO2 SLP107 T03170167= 201705190251 METAR KLGA 190251Z 22010G21KT 10SM FEW250 31/17 A2985 RMK\ AO2 SLP106 T03060172 50007= 201705190351 METAR KLGA 190351Z 22014G20KT 10SM BKN250 29/17 A2985 RMK\ AO2 SLP107 T02940172= 201705190451 METAR KLGA 190451Z 23008KT 10SM BKN250 29/17 A2986 RMK AO2\ SLP110 T02940172 403610267= 201705190551 METAR KLGA 190551Z 22011KT 10SM BKN250 29/18 A2984 RMK AO2\ SLP106 T02890178 10333 20289 58001= 201705190651 METAR KLGA 190651Z 22010KT 10SM BKN250 28/18 A2985 RMK AO2\ SLP106 T02830178= 201705190751 METAR KLGA 190751Z 24010G17KT 10SM SCT250 28/18 A2985 RMK\ AO2 SLP106 T02780183= 201705190851 METAR KLGA 190851Z 23013G18KT 10SM FEW250 27/18 A2985 RMK\ AO2 SLP109 T02720183 53003= 201705190951 METAR KLGA 190951Z 24014KT 10SM FEW200 FEW250 27/18 A2986\ RMK AO2 SLP112 T02670183= 201705191051 METAR KLGA 191051Z 23011KT 10SM FEW250 27/18 A2988 RMK AO2\ SLP117 T02720183= 201705191151 METAR KLGA 191151Z 24008KT 10SM FEW250 28/18 A2989 RMK AO2\ SLP121 T02830183 10289 20267 51012= 201705191251 METAR KLGA 191251Z 25012G18KT 10SM CLR 29/18 A2990 RMK AO2\ SLP124 T02940178= 201705191351 METAR KLGA 191351Z 27011G15KT 10SM CLR 31/17 A2988 RMK AO2\ SLP118 T03060172= 201705191451 METAR KLGA 191451Z 28009KT 10SM CLR 32/16 A2988 RMK AO2 SLP117\ T03220161 58004= 201705191551 METAR KLGA 191551Z 25015G19KT 10SM FEW075 33/16 A2987 RMK\ AO2 SLP114 T03330156= 201705191651 METAR KLGA 191651Z 29011G20KT 10SM FEW065 SCT250 34/16 A2985\ RMK AO2 SLP108 T03390156= 201705191751 METAR KLGA 191751Z 26012G18KT 10SM FEW065 34/16 A2984 RMK\ AO2 SLP104 T03440156 10344 20283\ 58013= 201705191851 METAR KLGA 191851Z 24014KT 10SM FEW065 35/16 A2983 RMK AO2\ SLP101 T03500161= 201705191951 METAR KLGA 191951Z 27013G21KT 10SM FEW065 SCT250 35/14 A2982\ RMK AO2 LTG DSNT N SLP098 T03500144= 201705192051 METAR KLGA 192051Z 36009KT 10SM FEW060 SCT080 BKN250 33/16\ A2983 RMK AO2 WSHFT 2015 SLP100 CB\ DSNT E MOV E T03280156 55004= 201705192151 METAR KLGA 192151Z VRB04KT 10SM FEW080 SCT100 BKN250 33/15\ A2982 RMK AO2 SLP099 T03330150= 201705192251 METAR KLGA 192251Z 25012G19KT 10SM SCT090 BKN250 34/13 A2984\ RMK AO2 SLP103 T03440128= 201705192351 METAR KLGA 192351Z 25010KT 10SM SCT080 BKN250 33/14 A2985\ RMK AO2 SLP108 T03330139 10356 20317\ 53008= 201705200051 METAR KLGA 200051Z 01013G18KT 10SM FEW060 SCT250 28/14 A2993\ RMK AO2 PK WND 35027/0008 WSHFT 0002\ SLP134 T02780144= 201705200151 METAR KLGA 200151Z 02010KT 10SM FEW060 SCT250 27/13 A2996\ RMK AO2 SLP146 T02670128= 201705200251 METAR KLGA 200251Z 02013KT 10SM BKN250 24/11 A2999 RMK AO2\ SLP157 T02390106 51049= 201705200351 METAR KLGA 200351Z 35015G21KT 10SM FEW070 BKN250 22/10 A3003\ RMK AO2 SLP170 T02170100= 201705200451 METAR KLGA 200451Z 03014G20KT 10SM SCT080 OVC250 20/10 A3005\ RMK AO2 SLP177 T02000100 403560200= 201705200551 METAR KLGA 200551Z 03015G23KT 10SM BKN080 OVC250 19/10 A3008\ RMK AO2 SLP185 T01890100 10339 20189\ 51028= 201705200651 METAR KLGA 200651Z 02013G20KT 10SM SCT090 SCT110 OVC250 18/09\ A3010 RMK AO2 SLP193 T01780094= 201705200751 METAR KLGA 200751Z 03011KT 10SM FEW100 BKN250 18/08 A3011\ RMK AO2 SLP197 T01780083= 201705200851 METAR KLGA 200851Z 04013G18KT 10SM BKN075 BKN250 17/09 A3013\ RMK AO2 SLP201 T01720089 51016= 201705200951 METAR KLGA 200951Z 04011KT 10SM BKN060 BKN100 BKN250 17/06\ A3018 RMK AO2 PRESRR SLP220 T01720061= 201705201051 METAR KLGA 201051Z 06013KT 8SM -RA FEW050 BKN065 BKN100 BKN250\ 16/07 A3022 RMK AO2 RAB45 SLP232\ P0001 T01610067= 201705201151 METAR KLGA 201151Z 04013G18KT 10SM FEW040 BKN060 BKN100 BKN250\ 17/06 A3023 RMK AO2 RAE12 SLP235\ P0000 60001 70001 T01670056 10189\ 20161 51034= 201705201251 METAR KLGA 201251Z 04011KT 10SM FEW050 OVC060 17/06 A3025\ RMK AO2 SLP244 T01670061= 201705201351 METAR KLGA 201351Z 04013KT 10SM BKN070 BKN180 18/06 A3028\ RMK AO2 SLP252 T01780056= 201705201451 METAR KLGA 201451Z 04014KT 10SM -RA FEW035 FEW070 BKN110\ BKN180 17/07 A3029 RMK AO2 RAB49\ SLP255 P0000 60000 T01720067 51021= 201705201551 METAR KLGA 201551Z 05013KT 10SM FEW050 SCT070 BKN090 OVC180\ 17/06 A3029 RMK AO2 RAE1458 SLP257\ P0000 T01720061= 201705201651 METAR KLGA 201651Z 09008KT 10SM FEW050 SCT075 OVC090 18/04\ A3029 RMK AO2 SLP257 T01780039= 201705201751 METAR KLGA 201751Z 05007KT 10SM BKN075 OVC090 18/03 A3029\ RMK AO2 SLP257 60000 T01830033 10189\ 20167 51002= 201705201851 METAR KLGA 201851Z 03005KT 10SM SCT080 OVC110 19/05 A3029\ RMK AO2 SLP258 T01890050= 201705201951 METAR KLGA 201951Z VRB03KT 10SM FEW075 BKN090 BKN250 19/04\ A3029 RMK AO2 SLP257 T01890039= 201705202051 METAR KLGA 202051Z 21006KT 10SM FEW080 BKN150 18/06 A3029\ RMK AO2 SLP258 T01830056 52000= 201705202151 METAR KLGA 202151Z 17010KT 10SM SCT080 OVC150 18/06 A3029\ RMK AO2 SLP257 T01780056= 201705202251 METAR KLGA 202251Z 18008KT 10SM SCT080 BKN130 BKN250 17/05\ A3030 RMK AO2 SLP258 T01720050= 201705202351 METAR KLGA 202351Z 20009KT 10SM SCT080 SCT130 BKN250 17/04\ A3030 RMK AO2 SLP259 T01670044 10194\ 20167 53002= 201705210051 METAR KLGA 210051Z 19009KT 10SM FEW085 SCT130 BKN250 16/05\ A3030 RMK AO2 SLP261 T01560050= 201705210151 METAR KLGA 210151Z 18008KT 10SM FEW090 SCT130 BKN250 16/04\ A3032 RMK AO2 SLP265 T01560044= 201705210251 METAR KLGA 210251Z 18007KT 10SM FEW130 BKN250 16/06 A3033\ RMK AO2 SLP269 T01560056 53010= 201705210351 METAR KLGA 210351Z 18007KT 10SM FEW130 SCT250 15/06 A3033\ RMK AO2 SLP271 T01500056= 201705210451 METAR KLGA 210451Z 19009KT 10SM FEW250 14/06 A3034 RMK AO2\ SLP274 T01440061 402000144= 201705210551 METAR KLGA 210551Z 18006KT 10SM FEW250 14/07 A3032 RMK AO2\ SLP266 T01440067 10167 20144 58003= 201705210651 METAR KLGA 210651Z 18005KT 10SM FEW250 14/07 A3032 RMK AO2\ SLP268 T01390067= 201705210751 METAR KLGA 210751Z 00000KT 10SM FEW250 14/07 A3033 RMK AO2\ SLP269 T01390072= 201705210851 METAR KLGA 210851Z 00000KT 10SM FEW250 14/06 A3033 RMK AO2\ SLP271 T01440056 53005= 201705210951 METAR KLGA 210951Z 33003KT 10SM FEW150 BKN250 14/06 A3035\ RMK AO2 SLP277 T01440061= 201705211051 METAR KLGA 211051Z 04003KT 10SM FEW033 SCT090 SCT150 BKN250\ 15/07 A3036 RMK AO2 SLP281 T01500067= 201705211151 METAR KLGA 211151Z 06005KT 10SM FEW090 SCT170 BKN250 16/08\ A3036 RMK AO2 SLP279 T01560083 10156\ 20139 50008= 201705211251 METAR KLGA 211251Z 05007KT 10SM FEW090 SCT170 BKN250 17/08\ A3037 RMK AO2 SLP284 T01670078= 201705211351 METAR KLGA 211351Z 12007KT 10SM FEW090 SCT180 BKN250 19/M01\ A3037 RMK AO2 SLP285 T01891006= 201705211451 METAR KLGA 211451Z 11009G15KT 10SM FEW090 SCT190 BKN250 19/M01\ A3038 RMK AO2 SLP285 T01941011 51006= 201705211551 METAR KLGA 211551Z 12009KT 10SM FEW090 SCT170 BKN250 20/M01\ A3036 RMK AO2 SLP282 T02001006= 201705211651 METAR KLGA 211651Z 12011G18KT 10SM FEW090 FEW170 BKN250 21/M01\ A3035 RMK AO2 SLP276 T02061006= 201705211751 METAR KLGA 211751Z 19013G19KT 10SM FEW100 FEW170 BKN250 21/M01\ A3034 RMK AO2 SLP273 T02111006 10217\ 20150 56012= 201705211851 METAR KLGA 211851Z 18014G19KT 10SM FEW150 SCT250 21/M01 A3033\ RMK AO2 SLP272 T02061006= 201705211951 METAR KLGA 211951Z 18014G20KT 10SM FEW150 FEW250 19/M01 A3032\ RMK AO2 SLP266 T01941006= 201705212051 METAR KLGA 212051Z 17013KT 10SM FEW150 SCT250 19/00 A3029\ RMK AO2 SLP257 T01890000 58016= 201705212151 METAR KLGA 212151Z 17012KT 10SM FEW150 SCT250 18/01 A3029\ RMK AO2 SLP255 T01830006= 201705212251 METAR KLGA 212251Z 16010KT 10SM FEW250 17/03 A3029 RMK AO2\ SLP256 T01720028= 201705212351 METAR KLGA 212351Z 18010KT 10SM BKN130 BKN250 16/02 A3028\ RMK AO2 SLP252 T01610022 10211 20161\ 58005= 201705220051 METAR KLGA 220051Z 17008KT 10SM OVC065 16/03 A3027 RMK AO2\ SLP250 T01610033= 201705220151 METAR KLGA 220151Z 16008KT 10SM OVC060 16/03 A3027 RMK AO2\ SLP251 T01610033= 201705220251 METAR KLGA 220251Z 16010KT 10SM OVC060 16/05 A3026 RMK AO2\ SLP247 T01560050 58006= 201705220351 METAR KLGA 220351Z 18010KT 10SM SCT060 OVC070 16/06 A3025\ RMK AO2 SLP244 T01560061= 201705220451 METAR KLGA 220451Z 17008KT 10SM SCT055 OVC075 16/07 A3023\ RMK AO2 SLP235 T01560067 402170139= 201705220551 METAR KLGA 220551Z 16009KT 10SM -RA OVC050 15/08 A3021 RMK\ AO2 RAB21 SLP228 P0000 60000 T01500083\ 10161 20150 58019= 201705220651 METAR KLGA 220651Z 18007KT 10SM OVC055 15/08 A3020 RMK AO2\ RAE06 SLP226 P0000 T01500083= 201705220751 METAR KLGA 220751Z 15006KT 10SM -RA BKN055 OVC070 15/09 A3018\ RMK AO2 RAB0654 SLP221 P0001 T01500089= 201705220851 METAR KLGA 220851Z 06004KT 7SM -RA FEW055 BKN090 OVC110 14/10\ A3018 RMK AO2 SLP218 P0010 60011\ T01390100 58010= 201705220951 METAR KLGA 220951Z 12007KT 10SM -RA BKN037 OVC110 14/11 A3017\ RMK AO2 RAE0854B14 SLP215 P0000 T01440106= 201705221051 METAR KLGA 221051Z 11006KT 10SM FEW027 OVC033 16/10 A3016\ RMK AO2 RAE0958 SLP214 P0000 T01560100= 201705221151 METAR KLGA 221151Z 12007KT 10SM FEW015 OVC025 14/09 A3016\ RMK AO2 SLP214 60011 70011 T01440094\ 10156 20139 56003= 201705221251 METAR KLGA 221251Z 15008KT 7SM -RA FEW013 BKN025 OVC049 15/09\ A3016 RMK AO2 RAB48 SLP212 P0000\ T01500094= 201705221351 METAR KLGA 221351Z 12009KT 2 1/2SM -RA FEW009 OVC012 14/11\ A3014 RMK AO2 SFC VIS 3 SLP207 P0000\ T01440111= 201705221451 METAR KLGA 221451Z 12010KT 3SM -RA BR OVC007 14/12 A3012\ RMK AO2 SLP199 P0003 60003 T01390117\ 56014= 201705221551 METAR KLGA 221551Z 11009KT 2SM -RA BKN007 BKN012 OVC017 16/12\ A3009 RMK AO2 SLP189 P0004 T01560122= 201705221651 METAR KLGA 221651Z 11006KT 5SM -RA OVC006 16/13 A3007 RMK\ AO2 SLP184 P0003 T01560128= 201705221751 METAR KLGA 221751Z 11006KT 10SM -RA OVC006 16/14 A3005 RMK\ AO2 SLP175 P0006 60016 T01610139\ 10161 20139 56024= 201705221851 METAR KLGA 221851Z 17008KT 4SM RA BR OVC006 16/14 A3002 RMK\ AO2 SLP165 P0006 T01610144= 201705221951 METAR KLGA 221951Z 18007KT 1 1/2SM R04/5000VP6000FT RA BR\ OVC006 16/14 A3000 RMK AO2 SFC VIS\ 2 SLP159 P0016 T01560144= 201705222051 METAR KLGA 222051Z 18007KT 4SM -RA BR BKN006 OVC010 16/15\ A2998 RMK AO2 SLP151 P0009 60031\ T01610150 56014= 201705222151 METAR KLGA 222151Z 17006KT 5SM -RA BR BKN006 OVC010 17/15\ A2996 RMK AO2 SLP145 P0005 T01670150= 201705222251 METAR KLGA 222251Z 18005KT 5SM BR BKN006 OVC010 16/15 A2996\ RMK AO2 RAE34 SLP146 P0001 T01610150= 201705222351 METAR KLGA 222351Z 20005KT 5SM BR BKN005 OVC016 16/15 A2996\ RMK AO2 SLP146 60037 T01610150 10167\ 20156 55005= 201705230051 METAR KLGA 230051Z 00000KT 6SM BR BKN007 BKN016 16/16 A2995\ RMK AO2 SLP143 T01610156 $= 201705230151 METAR KLGA 230151Z 27007KT 7SM BKN007 BKN016 17/15 A2996\ RMK AO2 SLP146 T01670150 $= 201705230251 METAR KLGA 230251Z 31006KT 9SM FEW009 BKN011 BKN015 OVC250\ 16/15 A2995 RMK AO2 SLP142 T01610150\ 58001 $= 201705230351 METAR KLGA 230351Z 34008KT 9SM OVC009 17/14 A2994 RMK AO2\ SLP140 T01670144 $= 201705230451 METAR KLGA 230451Z 32008KT 10SM OVC013 16/14 A2995 RMK AO2\ SLP141 T01610139 401720139 $= 201705230551 METAR KLGA 230551Z 33012KT 10SM OVC010 16/14 A2994 RMK AO2\ SLP139 T01560139 10172 20156 57003\ $= 201705230651 METAR KLGA 230651Z 34007KT 10SM OVC014 16/14 A2992 RMK AO2\ SLP133 T01610139 $= 201705230751 METAR KLGA 230751Z 02004KT 10SM FEW015 BKN250 16/13 A2993\ RMK AO2 SLP134 T01560133 $= 201705230851 METAR KLGA 230851Z 01007KT 10SM BKN015 BKN250 16/13 A2993\ RMK AO2 SLP135 T01560133 55004 $= 201705230951 METAR KLGA 230951Z 05005KT 10SM FEW014 FEW030 BKN250 15/12\ A2994 RMK AO2 SLP137 T01500122 $= 201705231051 METAR KLGA 231051Z 03008KT 10SM FEW015 BKN250 16/12 A2996\ RMK AO2 SLP145 T01560117 $= 201705231151 METAR KLGA 231151Z 05005KT 10SM BKN250 16/11 A2995 RMK AO2\ SLP143 70053 T01560106 10161 20150\ 50008 $= 201705231251 METAR KLGA 231251Z 05007KT 10SM BKN250 16/10 A2995 RMK AO2\ SLP143 T01610100 $= 201705231351 METAR KLGA 231351Z 08007KT 10SM OVC230 17/09 A2995 RMK AO2\ SLP141 T01670094 $= 201705231451 METAR KLGA 231451Z 06004KT 10SM FEW150 OVC230 17/09 A2996\ RMK AO2 SLP143 T01720089 53001= 201705231551 METAR KLGA 231551Z 00000KT 10SM FEW160 OVC200 18/09 A2993\ RMK AO2 SLP134 T01830089= 201705231651 METAR KLGA 231651Z 04004KT 10SM OVC180 19/09 A2992 RMK AO2\ SLP132 T01890089= 201705231751 METAR KLGA 231751Z 30006KT 10SM OVC160 20/08 A2990 RMK AO2\ SLP126 T02000083 10200 20156 56018= 201705231851 METAR KLGA 231851Z 00000KT 10SM OVC160 21/08 A2989 RMK AO2\ SLP120 T02060083= 201705231951 METAR KLGA 231951Z 03004KT 10SM BKN160 OVC250 21/07 A2986\ RMK AO2 SLP112 T02060072= 201705232051 METAR KLGA 232051Z 04004KT 10SM BKN160 OVC250 21/08 A2985\ RMK AO2 SLP107 T02060078 56019= 201705232151 METAR KLGA 232151Z 00000KT 10SM BKN160 OVC250 21/06 A2983\ RMK AO2 SLP100 T02110061= 201705232251 METAR KLGA 232251Z 00000KT 10SM BKN160 OVC250 21/08 A2982\ RMK AO2 SLP098 T02060083= 201705232351 METAR KLGA 232351Z 18006KT 10SM BKN160 OVC250 19/09 A2983\ RMK AO2 SLP099 T01940089 10211 20194\ 55007= 201705240051 METAR KLGA 240051Z 17006KT 10SM BKN140 OVC250 19/09 A2982\ RMK AO2 SLP098 T01890094= 201705240151 METAR KLGA 240151Z 18008KT 10SM BKN140 OVC250 18/09 A2983\ RMK AO2 SLP102 T01780089= 201705240251 METAR KLGA 240251Z 19005KT 10SM BKN140 OVC250 17/08 A2982\ RMK AO2 SLP096 T01720083 58003= 201705240351 METAR KLGA 240351Z 10003KT 10SM BKN180 OVC250 17/09 A2978\ RMK AO2 SLP084 T01670089= 201705240451 METAR KLGA 240451Z 06004KT 10SM OVC180 16/10 A2976 RMK AO2\ SLP077 T01610100 402110150= 201705240551 METAR KLGA 240551Z 05005KT 10SM FEW120 OVC140 16/11 A2974\ RMK AO2 SLP071 T01560106 10194 20156\ 56025= 201705240651 METAR KLGA 240651Z 08003KT 10SM OVC120 16/11 A2975 RMK AO2\ SLP072 T01560106= 201705240751 METAR KLGA 240751Z 13006KT 10SM BKN110 16/09 A2974 RMK AO2\ SLP070 T01610094= 201705240851 METAR KLGA 240851Z 13006KT 10SM -RA OVC110 15/11 A2972 RMK\ AO2 RAB42 SLP064 P0000 60000 T01500106\ 58007= 201705240951 METAR KLGA 240951Z 11004KT 10SM -RA OVC110 14/12 A2972 RMK\ AO2 SLP065 P0003 T01440117= 201705241051 METAR KLGA 241051Z 04004KT 10SM FEW070 BKN085 OVC110 14/12\ A2974 RMK AO2 RAE43 SLP070 P0000\ T01440117= 201705241151 METAR KLGA 241151Z 05007KT 10SM OVC100 15/12 A2973 RMK AO2\ SLP069 60003 70003 T01500117 10161\ 20139 50004= 201705241251 METAR KLGA 241251Z 05008KT 10SM FEW017 BKN080 OVC110 15/12\ A2975 RMK AO2 SLP073 T01500122= 201705241351 METAR KLGA 241351Z 05010KT 10SM FEW018 OVC085 16/11 A2975\ RMK AO2 SLP073 T01560106= 201705241451 METAR KLGA 241451Z 05007KT 10SM FEW020 OVC075 16/11 A2977\ RMK AO2 SLP080 T01610111 53011= 201705241551 METAR KLGA 241551Z 06009KT 10SM FEW025 BKN085 18/12 A2975\ RMK AO2 SLP075 T01830122= 201705241651 METAR KLGA 241651Z 04015KT 10SM FEW028 BKN085 18/11 A2976\ RMK AO2 SLP078 T01830106= 201705241751 METAR KLGA 241751Z 06011G20KT 10SM FEW030 BKN080 19/11 A2975\ RMK AO2 SLP073 T01940106 10200 20150\ 58006= 201705241851 METAR KLGA 241851Z 05011KT 10SM FEW030 BKN085 19/08 A2975\ RMK AO2 SLP073 T01940083= 201705241951 METAR KLGA 241951Z 04011KT 10SM FEW030 BKN090 19/08 A2976\ RMK AO2 SLP079 T01890083= 201705242051 METAR KLGA 242051Z 04012KT 10SM BKN041 BKN090 19/09 A2978\ RMK AO2 SLP084 T01940094 53010= 201705242151 METAR KLGA 242151Z 04007KT 10SM BKN029 BKN075 BKN250 19/10\ A2977 RMK AO2 SLP080 T01890100= 201705242251 METAR KLGA 242251Z 19007KT 10SM BKN029 OVC041 19/12 A2977\ RMK AO2 SLP081 T01890117= 201705242351 METAR KLGA 242351Z 15005KT 10SM FEW029 SCT090 BKN250 18/09\ A2979 RMK AO2 SLP087 T01830094 10206\ 20183 53007= 201705250051 METAR KLGA 250051Z 14010KT 10SM FEW030 FEW075 BKN250 17/10\ A2981 RMK AO2 SLP093 T01720100= 201705250151 METAR KLGA 250151Z 11012KT 10SM FEW075 BKN250 16/09 A2981\ RMK AO2 SLP095 T01610094= 201705250251 METAR KLGA 250251Z 10012KT 10SM OVC250 16/11 A2981 RMK AO2\ SLP096 T01560106 51008= 201705250351 METAR KLGA 250351Z 08008KT 10SM FEW011 OVC250 16/11 A2982\ RMK AO2 SLP096 T01560106= 201705250451 METAR KLGA 250451Z 09010KT 10SM SCT019 OVC250 15/11 A2980\ RMK AO2 SLP091 T01500106 402060139= 201705250551 METAR KLGA 250551Z 09012KT 10SM FEW020 OVC031 15/11 A2979\ RMK AO2 SLP088 T01500106 10183 20150\ 58007= 201705250651 METAR KLGA 250651Z 09013KT 10SM OVC016 14/11 A2977 RMK AO2\ SLP080 T01440106= 201705250751 METAR KLGA 250751Z 09011KT 7SM -DZ OVC014 14/11 A2975 RMK\ AO2 DZB46 SLP074 P0000 T01390111= 201705250851 METAR KLGA 250851Z 08006KT 10SM -RA OVC011 14/12 A2974 RMK\ AO2 DZE05RAB05 SLP071 P0001 60001\ T01390117 56017= 201705250951 METAR KLGA 250951Z 06010KT 10SM -RA OVC009 14/12 A2972 RMK\ AO2 SLP064 P0002 T01390122= 201705251051 METAR KLGA 251051Z 06012KT 6SM -RA BR OVC007 14/12 A2971\ RMK AO2 SLP059 P0002 T01390122= 201705251151 METAR KLGA 251151Z 06011KT 6SM -RA BR OVC007 14/13 A2969\ RMK AO2 SLP055 P0005 60010 70010\ T01390128 10150 20133 56016= 201705251251 METAR KLGA 251251Z 07011KT 2 1/2SM -RA BR FEW007 BKN009 OVC014\ 14/13 A2967 RMK AO2 SFC VIS 3 SLP046\ P0009 T01390128= 201705251351 METAR KLGA 251351Z 07014KT 2SM R04/5500VP6000FT -RA BR SCT007\ BKN011 OVC014 14/13 A2964 RMK AO2\ SLP036 P0013 T01440128= 201705251451 METAR KLGA 251451Z 07011KT 3SM -RA BR OVC008 14/13 A2964\ RMK AO2 SLP037 P0006 60028 T01440133\ 55018= 201705251551 METAR KLGA 251551Z 05011KT 1 1/2SM R04/5000VP6000FT RA BR\ BKN005 OVC007 14/13 A2962 RMK AO2\ SLP030 P0007 T01390133= 201705251651 METAR KLGA 251651Z 05013KT 1 1/4SM R04/4000VP6000FT RA BR\ BKN004 OVC007 14/13 A2960 RMK AO2\ SLP022 P0016 T01390133= 201705251751 METAR KLGA 251751Z 05017KT 1 1/2SM -RA BR BKN004 BKN007 OVC010\ 14/13 A2958 RMK AO2 SFC VIS 2 SLP018\ P0004 60055 T01390128 10150 20139\ 56020= 201705251851 METAR KLGA 251851Z 05017KT 1 1/2SM -RA BR FEW004 BKN007 OVC010\ 14/13 A2957 RMK AO2 SFC VIS 2 SLP014\ P0003 T01390133= 201705251951 METAR KLGA 251951Z 05015KT 2 1/2SM BR BKN005 OVC010 14/13\ A2956 RMK AO2 RAE31 SLP008 P0001\ T01440133= 201705252051 METAR KLGA 252051Z 05017KT 1 1/2SM BR OVC005 14/13 A2953\ RMK AO2 SFC VIS 2 SLP999 60004 T01390133\ 58019= 201705252151 METAR KLGA 252151Z 05013KT 2SM BR OVC004 14/13 A2955 RMK\ AO2 SFC VIS 3 SLP005 T01390133= 201705252251 METAR KLGA 252251Z 04013KT 3/4SM R04/5000V5500FT -DZ BR OVC003\ 14/13 A2953 RMK AO2 DZB07 SLP000\ P0000 T01390133= 201705252351 METAR KLGA 252351Z 05014KT 1/2SM R04/P6000FT -DZ BR OVC003\ 14/13 A2953 RMK AO2 SFC VIS 1 SLP999\ P0001 60005 T01390133 10144 20139\ 58001= 201705260051 METAR KLGA 260051Z 04015KT 1 1/4SM -DZ BR BKN003 OVC005 14/13\ A2949 RMK AO2 SFC VIS 2 SLP987 P0000\ T01390133= 201705260151 METAR KLGA 260151Z 06017KT 2 1/2SM -DZ BR SCT003 OVC005 14/13\ A2949 RMK AO2 SFC VIS 3 SLP986 P0000\ T01390133= 201705260251 METAR KLGA 260251Z 06017KT 2 1/2SM -DZ OVC005 14/13 A2948\ RMK AO2 SFC VIS 8 LTG DSNT NE AND\ SW AND W SLP982 P0000 60000 T01390133\ 56016= 201705260351 METAR KLGA 260351Z 01014KT 1/2SM R04/5500VP6000FT +TSRA BR\ SCT005 OVC007CB 14/13 A2947 RMK AO2\ SFC VIS 2 LTG DSNT ALQDS DZE22RAB42\ TSB35E50B51 SLP979 OCNL LTGIC OHD-W-N-E\ TS OHD-W-N-E MOV N P0004 T01390133= 201705260451 METAR KLGA 260451Z 02013KT 10SM OVC008 14/13 A2949 RMK AO2\ WSHFT 0345 LTG DSNT SE SLP984 RAE31\ TSE37 P0013 T01440128 401500133= 201705260551 METAR KLGA 260551Z 36010KT 10SM -RA FEW009 BKN027 OVC090\ 14/13 A2945 RMK AO2 RAB0454E25B38\ SLP972 P0000 60017 T01440133 10144\ 20139 58010= 201705260651 METAR KLGA 260651Z 34005KT 10SM -RA BKN018 OVC090 14/13 A2945\ RMK AO2 SLP974 P0001 T01440128= 201705260751 METAR KLGA 260751Z 34005KT 10SM OVC016 14/12 A2948 RMK AO2\ RAE47 SLP982 P0002 T01390122= 201705260851 METAR KLGA 260851Z 32006KT 10SM -RA BKN013 OVC018 14/13 A2950\ RMK AO2 RAB01 SLP988 P0007 60010\ T01390128 53016= 201705260951 METAR KLGA 260951Z 33006KT 5SM -RA BR BKN006 OVC015 14/13\ A2952 RMK AO2 RAE0852B25 SLP998 P0001\ T01390128= 201705261051 METAR KLGA 261051Z 32004KT 10SM -RA SCT009 BKN024 OVC032\ 14/13 A2954 RMK AO2 SLP004 P0001\ T01390128= 201705261151 METAR KLGA 261151Z 29006KT 10SM BKN016 BKN028 OVC120 14/13\ A2957 RMK AO2 RAE1052 SLP012 P0000\ 60012 70089 T01440128 10144 20139\ 53014= 201705261251 METAR KLGA 261251Z 32009KT 10SM SCT012 BKN021 OVC041 16/13\ A2958 RMK AO2 SLP017 T01610133= 201705261351 METAR KLGA 261351Z 29008KT 10SM SCT012 BKN021 OVC041 17/13\ A2958 RMK AO2 SLP017 T01720128= 201705261451 METAR KLGA 261451Z 28007KT 10SM BKN021 BKN028 BKN070 19/14\ A2958 RMK AO2 SLP016 T01940139 50004= 201705261551 METAR KLGA 261551Z 29010KT 10SM SCT022 BKN042 BKN080 21/14\ A2958 RMK AO2 SLP016 T02110139= 201705261651 METAR KLGA 261651Z 29016G21KT 10SM FEW025 SCT041 BKN060 23/12\ A2957 RMK AO2 SLP013 T02330122= 201705261751 METAR KLGA 261751Z 28013G21KT 10SM FEW047 SCT075 24/12 A2958\ RMK AO2 PK WND 26031/1733 SLP017\ T02440117 10244 20144 53001= 201705261851 METAR KLGA 261851Z 31018G23KT 10SM FEW050 BKN075 22/11 A2960\ RMK AO2 SLP025 T02220111= 201705261951 METAR KLGA 261951Z 30015KT 10SM FEW050 BKN090 23/12 A2961\ RMK AO2 SLP026 T02330117= 201705262051 METAR KLGA 262051Z 29013KT 10SM FEW050 BKN095 23/11 A2962\ RMK AO2 SLP029 T02330111 51012= 201705262151 METAR KLGA 262151Z 26012KT 10SM FEW050 FEW080 SCT100 SCT250\ 24/11 A2963 RMK AO2 SLP033 T02440111= 201705262251 METAR KLGA 262251Z 30016G23KT 10SM FEW055 SCT095 SCT250 24/11\ A2965 RMK AO2 SLP040 T02390106= 201705262351 METAR KLGA 262351Z 31012KT 10SM BKN050 BKN090 BKN250 22/12\ A2968 RMK AO2 SLP052 T02170117 10244\ 20217 53023= 201705270051 METAR KLGA 270051Z 33016G21KT 10SM FEW049 FEW090 SCT250 21/11\ A2972 RMK AO2 SLP063 T02110111= 201705270151 METAR KLGA 270151Z 33014G22KT 10SM FEW060 SCT100 20/11 A2976\ RMK AO2 SLP077 T02000111= 201705270251 METAR KLGA 270251Z 31008KT 10SM FEW060 19/12 A2978 RMK AO2\ SLP084 T01890117 51033= 201705270351 METAR KLGA 270351Z 32010KT 10SM FEW045 18/12 A2980 RMK AO2\ SLP089 T01830117= 201705270451 METAR KLGA 270451Z 30010KT 10SM FEW050 18/12 A2981 RMK AO2\ SLP093 T01830117 402440139= 201705270551 METAR KLGA 270551Z 30009KT 10SM CLR 17/12 A2981 RMK AO2 SLP095\ T01720117 10222 20172 51010= 201705270651 METAR KLGA 270651Z 29009KT 10SM CLR 17/12 A2981 RMK AO2 SLP095\ T01720117= 201705270751 METAR KLGA 270751Z 29011KT 10SM CLR 17/12 A2982 RMK AO2 SLP097\ T01720117= 201705270851 METAR KLGA 270851Z 29012KT 10SM SCT045 17/12 A2983 RMK AO2\ SLP103 T01720117 53008= 201705270951 METAR KLGA 270951Z 30012KT 10SM SCT075 17/12 A2985 RMK AO2\ SLP108 T01670122= 201705271051 METAR KLGA 271051Z 31007KT 10SM FEW025 FEW045 SCT075 SCT250\ 17/12 A2987 RMK AO2 SLP113 T01720122= 201705271151 METAR KLGA 271151Z 33008KT 10SM FEW035 FEW045 FEW080 SCT250\ 18/12 A2987 RMK AO2 SLP114 T01830122\ 10183 20167 51012= 201705271251 METAR KLGA 271251Z 33008KT 10SM FEW030 SCT090 SCT250 19/12\ A2987 RMK AO2 SLP114 T01890122= 201705271351 METAR KLGA 271351Z 31004KT 10SM SCT040 BKN250 20/12 A2987\ RMK AO2 SLP116 T02000117= 201705271451 METAR KLGA 271451Z 30004KT 10SM SCT038 BKN250 22/12 A2986\ RMK AO2 SLP112 T02170117 58002= 201705271551 METAR KLGA 271551Z 31006KT 10SM FEW040 BKN065 BKN250 22/12\ A2986 RMK AO2 SLP112 T02170117= 201705271651 METAR KLGA 271651Z VRB03KT 10SM FEW040 BKN055 22/12 A2986\ RMK AO2 SLP111 T02220117= 201705271751 METAR KLGA 271751Z 31004KT 10SM FEW040 BKN055 BKN070 22/12\ A2986 RMK AO2 SLP112 T02170117 10222\ 20183 55000= 201705271851 METAR KLGA 271851Z 31003KT 10SM OVC050 22/12 A2986 RMK AO2\ SLP111 T02170117= 201705271951 METAR KLGA 271951Z 35004KT 10SM BKN050 22/12 A2986 RMK AO2\ SLP111 T02170117= 201705272051 METAR KLGA 272051Z 16008KT 10SM OVC047 21/13 A2986 RMK AO2\ SLP112 T02110128 55000= 201705272151 METAR KLGA 272151Z 16006KT 10SM BKN047 OVC055 21/13 A2986\ RMK AO2 SLP112 T02110128= 201705272251 METAR KLGA 272251Z 14005KT 10SM OVC047 21/13 A2987 RMK AO2\ SLP115 T02060133= 201705272351 METAR KLGA 272351Z 12009KT 10SM FEW050 OVC065 20/13 A2988\ RMK AO2 SLP117 T02000128 10222 20200\ 53005= 201705280051 METAR KLGA 280051Z VRB04KT 10SM SCT070 18/13 A2989 RMK AO2\ SLP123 T01830128= 201705280151 METAR KLGA 280151Z 13006KT 10SM OVC075 17/13 A2992 RMK AO2\ SLP130 T01720128= 201705280251 METAR KLGA 280251Z 13005KT 10SM BKN070 BKN250 17/13 A2992\ RMK AO2 SLP132 T01720133 51015= 201705280351 METAR KLGA 280351Z 12004KT 10SM OVC075 17/13 A2992 RMK AO2\ SLP131 T01670133= 201705280451 METAR KLGA 280451Z 15005KT 10SM FEW050 SCT075 17/13 A2990\ RMK AO2 SLP125 T01670133 402220167= 201705280551 METAR KLGA 280551Z 12005KT 10SM BKN075 17/13 A2990 RMK AO2\ SLP126 T01670133 10200 20167 55006= 201705280651 METAR KLGA 280651Z 10004KT 10SM BKN075 16/13 A2990 RMK AO2\ SLP125 T01610133= 201705280751 METAR KLGA 280751Z 09005KT 10SM CLR 16/13 A2989 RMK AO2 SLP120\ T01560133= 201705280851 METAR KLGA 280851Z 08004KT 10SM SCT075 15/13 A2990 RMK AO2\ SLP125 T01500133 55000= 201705280951 METAR KLGA 280951Z 07003KT 7SM OVC006 15/13 A2990 RMK AO2\ SLP126 T01500133= 201705281051 METAR KLGA 281051Z 08004KT 2 1/2SM BR OVC004 15/14 A2992\ RMK AO2 SFC VIS 4 SLP133 T01500139= 201705281151 METAR KLGA 281151Z 11005KT 2 1/2SM BR OVC006 16/14 A2994\ RMK AO2 SFC VIS 5 SLP139 T01560139\ 10167 20144 53014= 201705281251 METAR KLGA 281251Z 12004KT 2 1/2SM BR OVC008 17/14 A2994\ RMK AO2 SFC VIS 5 SLP140 T01670144= 201705281351 METAR KLGA 281351Z 13008KT 7SM BKN015 20/14 A2993 RMK AO2\ SLP134 T02000144= 201705281451 METAR KLGA 281451Z VRB05KT 10SM SCT015 BKN250 21/14 A2993\ RMK AO2 SLP135 T02060139 55005= 201705281551 METAR KLGA 281551Z 18010KT 10SM FEW020 SCT045 BKN250 21/14\ A2994 RMK AO2 SLP139 T02060139= 201705281651 METAR KLGA 281651Z 16011G17KT 10SM FEW015 SCT055 OVC250 21/13\ A2996 RMK AO2 SLP146 T02060128= 201705281751 METAR KLGA 281751Z 16013G18KT 10SM FEW015 SCT070 BKN250 21/13\ A2997 RMK AO2 SLP147 T02060133 10211\ 20156 51012= 201705281851 METAR KLGA 281851Z 17008G16KT 10SM FEW015 FEW070 SCT220 BKN260\ 21/12 A2993 RMK AO2 SLP136 T02060122= 201705281951 METAR KLGA 281951Z 16008KT 10SM FEW020 FEW070 SCT220 BKN260\ 21/12 A2992 RMK AO2 SLP132 T02110117= 201705282051 METAR KLGA 282051Z 16012KT 10SM FEW020 FEW070 SCT230 BKN260\ 21/11 A2993 RMK AO2 SLP136 T02060106\ 55010= 201705282151 METAR KLGA 282151Z 14009KT 10SM FEW020 FEW070 SCT200 OVC250\ 19/09 A2995 RMK AO2 SLP141 T01940089= 201705282251 METAR KLGA 282251Z 14011G17KT 10SM SCT070 BKN200 OVC250 19/09\ A2994 RMK AO2 SLP138 T01890089= 201705282351 METAR KLGA 282351Z 14009KT 10SM SCT070 BKN180 OVC250 18/09\ A2994 RMK AO2 SLP139 T01830094 10217\ 20183 51003= 201705290051 METAR KLGA 290051Z 12008KT 10SM FEW070 BKN150 OVC200 17/10\ A2994 RMK AO2 SLP137 T01720100= 201705290151 METAR KLGA 290151Z 12007KT 10SM FEW050 FEW075 OVC120 17/10\ A2993 RMK AO2 SLP136 T01720100= 201705290251 METAR KLGA 290251Z 11012KT 10SM FEW050 BKN140 17/10 A2993\ RMK AO2 SLP133 T01670100 58005= 201705290351 METAR KLGA 290351Z 11010KT 10SM OVC046 17/11 A2991 RMK AO2\ SLP129 T01670106= 201705290451 METAR KLGA 290451Z 11009KT 10SM OVC046 17/11 A2990 RMK AO2\ SLP125 T01670106 402170144= 201705290551 METAR KLGA 290551Z 10010KT 10SM BKN046 OVC100 16/12 A2989\ RMK AO2 RAB02E44 SLP121 P0001 60001\ T01610117 10183 20161 56013= 201705290651 METAR KLGA 290651Z 08009KT 10SM BKN050 OVC060 16/11 A2988\ RMK AO2 SLP118 T01610106= 201705290751 METAR KLGA 290751Z 07008KT 10SM -RA OVC050 15/12 A2987 RMK\ AO2 RAB06 SLP115 P0000 T01500122= 201705290851 METAR KLGA 290851Z 07009KT 8SM -RA BKN050 BKN070 OVC110 14/12\ A2988 RMK AO2 SLP116 P0006 60006\ T01440117 55005= 201705290951 METAR KLGA 290951Z 06009KT 7SM -RA FEW015 BKN050 OVC070 14/12\ A2989 RMK AO2 SLP120 P0003 T01390122= 201705291051 METAR KLGA 291051Z 06009KT 7SM -RA SCT015 BKN050 OVC080 14/12\ A2989 RMK AO2 SLP123 P0003 T01390122= 201705291151 METAR KLGA 291151Z 06009KT 7SM OVC015 14/12 A2989 RMK AO2\ RAE30 SLP123 P0000 60012 70013 T01390122\ 10161 20139 51006= 201705291251 METAR KLGA 291251Z 07009KT 10SM -RA OVC014 14/12 A2990 RMK\ AO2 RAB23E32B49 SLP126 P0000 T01440122= 201705291351 METAR KLGA 291351Z 08009KT 10SM FEW014 SCT021 OVC042 15/12\ A2991 RMK AO2 RAE10 SLP128 P0000\ T01500117= 201705291451 METAR KLGA 291451Z 05007KT 10SM -RA BKN018 BKN025 OVC043\ 15/11 A2993 RMK AO2 RAB1355E08B27\ SLP136 P0000 60000 T01500111 53013= 201705291551 METAR KLGA 291551Z 04012KT 5SM -RA BR SCT012 BKN019 OVC029\ 14/12 A2995 RMK AO2 RAE01B39 SLP142\ P0001 T01390117= 201705291651 METAR KLGA 291651Z 05013KT 9SM -RA BKN008 OVC015 14/12 A2998\ RMK AO2 RAE02B23 SLP151 P0002 T01390117= 201705291751 METAR KLGA 291751Z 05014KT 10SM BKN015 BKN030 OVC050 14/12\ A2998 RMK AO2 RAE1655 SLP153 P0000\ 60003 T01390122 10156 20133 51017= 201705291851 METAR KLGA 291851Z 04013KT 10SM BKN015 BKN023 OVC030 14/11\ A3000 RMK AO2 SLP160 T01390111= 201705291951 METAR KLGA 291951Z 04010KT 10SM SCT010 BKN019 OVC028 14/12\ A3002 RMK AO2 SLP164 T01440117= 201705292051 METAR KLGA 292051Z 05009KT 10SM SCT010 BKN019 OVC024 14/11\ A3002 RMK AO2 SLP167 T01390111 51014= 201705292151 METAR KLGA 292151Z 05008KT 10SM SCT010 OVC017 14/11 A3004\ RMK AO2 SLP172 T01390111= 201705292251 METAR KLGA 292251Z 05008KT 10SM OVC017 14/11 A3006 RMK AO2\ SLP178 T01390111= 201705292351 METAR KLGA 292351Z 06007KT 10SM BKN013 OVC018 14/12 A3006\ RMK AO2 SLP180 T01440117 10150 20133\ 51014= 201705300051 METAR KLGA 300051Z 07009KT 10SM BKN013 OVC020 14/12 A3006\ RMK AO2 SLP180 T01440117= 201705300151 METAR KLGA 300151Z 11007KT 10SM BKN013 OVC024 15/12 A3008\ RMK AO2 SLP186 T01500117= 201705300251 METAR KLGA 300251Z 07006KT 10SM OVC015 14/12 A3009 RMK AO2\ SLP190 T01440117 53009= 201705300351 METAR KLGA 300351Z 15005KT 10SM OVC013 14/11 A3009 RMK AO2\ SLP190 T01440111= 201705300451 METAR KLGA 300451Z 17005KT 10SM OVC015 14/12 A3012 RMK AO2\ SLP198 T01440117 401670133= 201705300551 METAR KLGA 300551Z 15008KT 10SM FEW011 OVC016 13/11 A3012\ RMK AO2 SLP198 T01330111 10150 20133\ 50008= 201705300651 METAR KLGA 300651Z 15007KT 10SM OVC018 13/11 A3012 RMK AO2\ SLP200 T01330106= 201705300751 METAR KLGA 300751Z 17006KT 10SM SCT012 BKN020 OVC034 13/11\ A3012 RMK AO2 SLP200 T01330106= 201705300851 METAR KLGA 300851Z 16006KT 10SM OVC010 13/11 A3014 RMK AO2\ SLP205 T01330111 53007= 201705300951 METAR KLGA 300951Z 15007KT 10SM OVC008 13/11 A3015 RMK AO2\ SLP208 T01280111= 201705301051 METAR KLGA 301051Z 14009KT 8SM OVC006 13/11 A3015 RMK AO2\ SLP210 T01280111= 201705301151 METAR KLGA 301151Z 16008KT 10SM OVC008 13/11 A3016 RMK AO2\ SLP213 70003 T01330111 10144 20128\ 53008= 201705301251 METAR KLGA 301251Z 12007KT 10SM OVC009 14/11 A3017 RMK AO2\ SLP216 T01390111= 201705301351 METAR KLGA 301351Z 11008KT 10SM FEW009 OVC013 16/12 A3017\ RMK AO2 SLP216 T01560117= 201705301451 METAR KLGA 301451Z 11007KT 10SM BKN014 OVC031 16/12 A3016\ RMK AO2 SLP213 T01610117 58000= 201705301551 METAR KLGA 301551Z 14008KT 10SM OVC015 16/11 A3017 RMK AO2\ SLP215 T01610111= 201705301651 METAR KLGA 301651Z 14009KT 110V180 10SM OVC016 17/12 A3016\ RMK AO2 SLP214 T01670117= 201705301751 METAR KLGA 301751Z 16011KT 10SM OVC016 16/12 A3014 RMK AO2\ SLP206 T01560117 10178 20133 58007= 201705301851 METAR KLGA 301851Z 14007KT 100V160 7SM RA BKN011 BKN085 16/12\ A3012 RMK AO2 RAB30 SLP199 P0000\ T01560122= 201705301951 METAR KLGA 301951Z 13007KT 10SM BKN014 OVC019 16/12 A3012\ RMK AO2 RAE07 SLP199 P0001 T01560122= 201705302051 METAR KLGA 302051Z 12012KT 10SM OVC017 16/12 A3010 RMK AO2\ SLP193 60001 T01610117 56014= 201705302151 METAR KLGA 302151Z 14009KT 10SM OVC015 16/12 A3011 RMK AO2\ SLP197 T01560117= 201705302251 METAR KLGA 302251Z 13009KT 10SM OVC015 15/12 A3011 RMK AO2\ SLP196 T01500117= 201705302351 METAR KLGA 302351Z 15005KT 10SM OVC012 15/12 A3011 RMK AO2\ SLP196 60001 T01500122 10167 20150\ 51003= 201705310051 METAR KLGA 310051Z 13006KT 2 1/2SM BR OVC007 14/13 A3011\ RMK AO2 SFC VIS 5 SLP197 T01440128= 201705310151 METAR KLGA 310151Z 14005KT 2SM BR OVC005 14/13 A3012 RMK\ AO2 SFC VIS 4 SLP199 T01440133= 201705310251 METAR KLGA 310251Z 12005KT 2SM -DZ BR OVC005 14/14 A3011\ RMK AO2 SFC VIS 2 1/2 DZB07 SLP197\ P0000 60000 T01440139 58000= 201705310351 METAR KLGA 310351Z 15005KT 2SM BR OVC005 14/14 A3010 RMK\ AO2 SFC VIS 5 DZE21RAB21E42 SLP191\ P0001 T01440139= 201705310451 METAR KLGA 310451Z 11005KT 2SM BR OVC004 14/14 A3009 RMK\ AO2 SFC VIS 6 DZB00E50 SLP187 P0001\ T01440139 401780128= 201705310551 METAR KLGA 310551Z 10005KT 2SM BR OVC004 15/14 A3006 RMK\ AO2 SFC VIS 6 SLP179 60002 T01500139\ 10156 20144 58018= 201705310651 METAR KLGA 310651Z 09007KT 2SM -DZ BR OVC003 14/14 A3004\ RMK AO2 SFC VIS 4 DZB51 SLP173 P0000\ T01440139= 201705310751 METAR KLGA 310751Z 10004KT 2SM -DZ BR OVC003 15/14 A3003\ RMK AO2 SFC VIS 4 SLP169 P0000 T01500144= 201705310851 METAR KLGA 310851Z 06006KT 2SM -DZ BR OVC003 15/14 A3003\ RMK AO2 SFC VIS 2 1/2 SLP167 P0000\ 60000 T01500144 56012= 201705310951 METAR KLGA 310951Z 01005KT 1 1/2SM -DZ BR OVC002 14/14 A3004\ RMK AO2 SFC VIS 2 1/2 SLP173 P0000\ T01440144= 201705311051 METAR KLGA 311051Z 03006KT 1SM R04/P6000FT -RA BR BKN005\ OVC011 14/14 A3005 RMK AO2 SFC VIS\ 2 SLP177 DZE01B12E14RAB01E12B14 P0002\ T01440139= 201705311151 METAR KLGA 311151Z 06008KT 2 1/2SM -RA BR OVC007 14/14 A3005\ RMK AO2 SFC VIS 6 SLP176 P0003 60005\ 70008 T01440139 10150 20144 50009= 201705311251 METAR KLGA 311251Z 04006KT 5SM -DZ BR BKN012 OVC018 16/14\ A3006 RMK AO2 RAE13DZB51 SLP178 P0000\ T01560139= 201705311351 METAR KLGA 311351Z 06009KT 7SM BKN007 OVC011 16/14 A3005\ RMK AO2 DZE02B25E47 SLP175 P0000\ T01560144= 201705311451 METAR KLGA 311451Z 06008KT 10SM FEW007 SCT013 SCT045 BKN140\ OVC250 17/14 A3002 RMK AO2 SLP166\ 60000 T01670144 58010= 201705311551 METAR KLGA 311551Z 04008KT 10SM FEW009 BKN230 18/15 A3001\ RMK AO2 SLP163 T01830150= 201705311651 METAR KLGA 311651Z 04006KT 10SM FEW012 FEW140 SCT230 19/16\ A3000 RMK AO2 SLP157 T01940156= 201705311751 METAR KLGA 311751Z 05005KT 10SM SCT028 SCT140 BKN240 22/16\ A2998 RMK AO2 SLP153 60000 T02220161\ 10228 20144 58014= 201705311851 METAR KLGA 311851Z 20006KT 10SM SCT026 BKN150 OVC250 23/17\ A2997 RMK AO2 SLP148 T02330167= 201705311951 METAR KLGA 311951Z 23006KT 10SM SCT035 BKN150 OVC250 24/16\ A2994 RMK AO2 SLP139 T02390156= 201705312051 METAR KLGA 312051Z 21011KT 10SM SCT035 SCT150 BKN250 24/14\ A2992 RMK AO2 SLP132 T02440144 58021= 201705312151 METAR KLGA 312151Z 20007KT 10SM FEW150 SCT250 25/16 A2991\ RMK AO2 SLP128 T02500156= 201705312251 METAR KLGA 312251Z 17009KT 10SM FEW045 SCT250 23/16 A2991\ RMK AO2 SLP129 T02330161= 201705312351 METAR KLGA 312351Z 18007KT 10SM FEW050 SCT250 21/16 A2992\ RMK AO2 SLP130 T02060156 10256 20206\ 55002=
