 201705010051 METAR KEWR 010051Z 09007KT 10SM OVC024 12/05 A3018 RMK AO2 SLP221 T01170050 $= 201705010151 METAR KEWR 010151Z 11008KT 10SM OVC021 12/06 A3019 RMK AO2 SLP221 T01170056 $= 201705010251 METAR KEWR 010251Z 09006KT 10SM OVC018 12/07 A3016 RMK AO2 SLP213 T01170067 58011 $= 201705010351 METAR KEWR 010351Z 11008KT 10SM OVC016 11/07 A3016 RMK AO2 SLP211 T01110072 $= 201705010451 METAR KEWR 010451Z 09006KT 10SM SCT005 OVC009 11/09 A3014 RMK AO2 SLP205 T01060089 402060106 $= 201705010551 METAR KEWR 010551Z 05006KT 5SM BR SCT005 OVC007 11/09 A3011 RMK AO2 SLP195 T01060094 10117 20106 58017 $= 201705010651 METAR KEWR 010651Z 05005KT 5SM BR OVC005 11/10 A3008 RMK AO2 SLP187 T01060100 $= 201705010751 METAR KEWR 010751Z 04007KT 5SM BR OVC005 11/10 A3005 RMK AO2 SLP176 T01060100 $= 201705010851 METAR KEWR 010851Z 02007KT 7SM OVC005 10/09 A3003 RMK AO2 SLP170 T01000094 56026 $= 201705010951 METAR KEWR 010951Z 04003KT 6SM BR OVC005 10/09 A3002 RMK AO2 SLP166 T01000094 $= 201705011051 METAR KEWR 011051Z 05004KT 5SM BR BKN003 OVC005 11/09 A3001 RMK AO2 SLP161 T01060094 $= 201705011151 METAR KEWR 011151Z 03004KT 3SM BR BKN003 OVC006 11/10 A3001 RMK AO2 SFC VIS 4 SLP161 T01060100 10106 20100 56008 $= 201705011251 METAR KEWR 011251Z VRB03KT 3SM BR BKN003 OVC006 11/11 A3001 RMK AO2 SFC VIS 4 SLP162 T01110106 $= 201705011351 METAR KEWR 011351Z VRB03KT 3SM BR BKN003 OVC006 12/11 A3000 RMK AO2 SFC VIS 4 SLP157 T01170106 $= 201705011451 METAR KEWR 011451Z 09004KT 3SM BR BKN004 OVC007 12/11 A2999 RMK AO2 SFC VIS 4 SLP154 CIG 003V005 T01220106 58007 $= 201705011551 METAR KEWR 011551Z 04004KT 3SM BR BKN005 OVC010 14/12 A2996 RMK AO2 SFC VIS 4 SLP146 CIG 004V006 T01390117 $= 201705011651 METAR KEWR 011651Z 05003KT 6SM HZ FEW009 BKN012 BKN038 16/13 A2993 RMK AO2 SLP135 T01610128 $= 201705011751 METAR KEWR 011751Z 08006KT 9SM FEW018 SCT040 18/13 A2989 RMK AO2 SLP119 T01830133 10183 20106 58026 $= 201705011851 METAR KEWR 011851Z 07009KT 10SM FEW020 FEW050 SCT250 21/15 A2986 RMK AO2 SLP109 T02060150 $= 201705011951 METAR KEWR 011951Z 07007KT 10SM FEW020 FEW055 SCT250 21/14 A2981 RMK AO2 SLP094 T02110144 $= 201705012051 METAR KEWR 012051Z 07007KT 10SM FEW020 FEW050 BKN250 21/15 A2977 RMK AO2 SLP081 T02110150 58039 $= 201705012151 METAR KEWR 012151Z 09007KT 10SM FEW023 FEW060 BKN250 22/15 A2974 RMK AO2 SLP071 T02170150 $= 201705012251 METAR KEWR 012251Z 00000KT 10SM FEW035 SCT060 BKN250 23/16 A2971 RMK AO2 SLP061 T02280161 $= 201705012351 METAR KEWR 012351Z 17007KT 10SM FEW035 BKN055 BKN250 23/17 A2971 RMK AO2 SLP062 T02280167 10239 20183 55019 $= 201705020051 METAR KEWR 020051Z 17011KT 10SM FEW055 SCT250 23/16 A2970 RMK AO2 SLP056 T02330161 $= 201705020151 METAR KEWR 020151Z 17010KT 10SM FEW055 SCT150 BKN250 22/16 A2969 RMK AO2 SLP052 T02220156 $= 201705020251 METAR KEWR 020251Z 18011G19KT 10SM FEW050 SCT140 SCT170 BKN250 22/16 A2966 RMK AO2 SLP043 T02170161 58019 $= 201705020351 METAR KEWR 020351Z 17009KT 10SM FEW060 BKN160 BKN250 22/17 A2962 RMK AO2 SLP031 T02170167 $= 201705020451 METAR KEWR 020451Z 18011KT 10SM FEW020 SCT160 BKN220 22/17 A2962 RMK AO2 SLP030 T02170167 402390100 $= 201705020551 METAR KEWR 020551Z 19009KT 10SM FEW020 FEW140 OVC200 22/17 A2960 RMK AO2 SLP024 T02170172 10233 20217 56019 $= 201705020651 METAR KEWR 020651Z 19012KT 10SM BKN032 OVC190 22/17 A2959 RMK AO2 LTG DSNT SE AND S SLP021 T02220172 $= 201705020751 METAR KEWR 020751Z 19012G19KT 10SM SCT028 BKN040 BKN160 OVC250 22/17 A2958 RMK AO2 RAB13E27B42E51 SLP016 P0000 T02220172 $= 201705020851 METAR KEWR 020851Z 20017G22KT 10SM SCT025 SCT040 BKN210 22/17 A2957 RMK AO2 SLP013 60000 T02170172 56010 $= 201705020951 METAR KEWR 020951Z 19015G22KT 10SM OVC020 22/18 A2958 RMK AO2 SLP015 T02170178 $= 201705021051 METAR KEWR 021051Z 21015G20KT 10SM SCT020 BKN030TCU BKN250 21/18 A2958 RMK AO2 SLP015 TCU W-N VCSH W-N T02110178 $= 201705021151 METAR KEWR 021151Z 27007KT 10SM FEW020 BKN040TCU BKN080 BKN250 21/16 A2959 RMK AO2 RAB17E36 SLP019 TCU E-SE VCSH E-SE P0000 60000 T02060161 10222 20200 53006 $= 201705021251 METAR KEWR 021251Z 29011KT 10SM FEW040 SCT080 BKN250 22/15 A2958 RMK AO2 SLP016 T02220150 $= 201705021351 METAR KEWR 021351Z 29007KT 10SM FEW040 BKN250 23/14 A2957 RMK AO2 SLP012 T02280139 $= 201705021451 METAR KEWR 021451Z 27014G20KT 10SM SCT045 BKN055 BKN250 23/11 A2958 RMK AO2 SLP015 T02280106 55004 $= 201705021551 METAR KEWR 021551Z 26018G25KT 10SM FEW045 BKN055 BKN250 24/10 A2957 RMK AO2 SLP014 T02440100 $= 201705021651 METAR KEWR 021651Z 28018KT 10SM SCT050 BKN070 BKN250 23/11 A2958 RMK AO2 PK WND 27028/1602 SLP015 T02280106 $= 201705021751 METAR KEWR 021751Z 25020G27KT 10SM SCT055 BKN070 23/09 A2958 RMK AO2 PK WND 24030/1736 SLP017 T02330094 10244 20206 53002 $= 201705021851 METAR KEWR 021851Z 27020G27KT 10SM SCT060 BKN070 23/09 A2958 RMK AO2 PK WND 24033/1817 SLP017 T02330089 $= 201705021951 METAR KEWR 021951Z 24026G38KT 10SM SCT070 24/04 A2958 RMK AO2 PK WND 24038/1950 SLP017 T02390044 $= 201705022051 METAR KEWR 022051Z 25023G37KT 10SM SCT080 23/03 A2961 RMK AO2 PK WND 26043/2031 SLP026 T02330033 53009 $= 201705022151 METAR KEWR 022151Z 26026G36KT 10SM SCT080 22/01 A2965 RMK AO2 PK WND 25047/2101 SLP039 T02170006 $= 201705022251 METAR KEWR 022251Z 27023G31KT 10SM SCT090 21/02 A2966 RMK AO2 PK WND 27035/2157 SLP043 T02110017 $= 201705022351 METAR KEWR 022351Z 26012KT 10SM BKN110 21/02 A2968 RMK AO2 PK WND 25027/2252 SLP049 T02060022 10244 20206 51023 $= 201705030051 METAR KEWR 030051Z 27015G22KT 10SM BKN110 20/02 A2971 RMK AO2 SLP062 T02000022 $= 201705030151 METAR KEWR 030151Z 31012G20KT 10SM BKN120 19/01 A2975 RMK AO2 SLP074 T01940011 $= 201705030251 METAR KEWR 030251Z 29010KT 10SM OVC110 18/02 A2977 RMK AO2 SLP081 T01830017 51032 $= 201705030351 METAR KEWR 030351Z 28011KT 10SM OVC110 18/02 A2978 RMK AO2 SLP082 T01780017 $= 201705030451 METAR KEWR 030451Z 27008KT 10SM OVC110 17/02 A2979 RMK AO2 SLP087 T01720022 402440172 $= 201705030551 METAR KEWR 030551Z 28009G17KT 10SM FEW080 OVC110 17/03 A2979 RMK AO2 SLP086 T01670028 10206 20167 50005 $= 201705030651 METAR KEWR 030651Z 25008KT 10SM FEW080 OVC100 16/03 A2979 RMK AO2 SLP087 T01610028 $= 201705030751 METAR KEWR 030751Z 26008KT 10SM FEW080 OVC100 16/03 A2980 RMK AO2 SLP090 T01610033 $= 201705030851 METAR KEWR 030851Z 27014KT 10SM OVC090 16/03 A2981 RMK AO2 SLP093 T01610028 53007 $= 201705030950 METAR KEWR 030950Z 26013KT 10SM BKN095 15/03 A2982 RMK AO2 SLP098 T01500028 $= 201705031051 METAR KEWR 031051Z 26017G26KT 10SM FEW075 SCT095 16/02 A2985 RMK AO2 PK WND 27026/1042 SLP106 T01560022 $= 201705031151 METAR KEWR 031151Z 27014KT 10SM FEW075 SCT095 16/03 A2985 RMK AO2 SLP108 51015 T01610028 10167 20150 $= 201705031251 METAR KEWR 031251Z 28020G28KT 10SM FEW075 SCT100 17/03 A2986 RMK AO2 PK WND 27028/1242 SLP112 T01670028 $= 201705031351 METAR KEWR 031351Z 28021G26KT 10SM SCT055 17/01 A2988 RMK AO2 PK WND 27027/1255 SLP119 T01720011 $= 201705031451 METAR KEWR 031451Z 29012G23KT 10SM BKN060 17/01 A2989 RMK AO2 PK WND 28029/1433 SLP121 T01670011 51013 $= 201705031551 METAR KEWR 031551Z 27017KT 10SM BKN060 17/01 A2990 RMK AO2 PK WND 29026/1516 SLP125 T01720011 $= 201705031651 METAR KEWR 031651Z 28015G25KT 10SM BKN060 17/01 A2993 RMK AO2 SLP134 T01670006 $= 201705031751 METAR KEWR 031751Z 29016G27KT 10SM BKN065 18/02 A2993 RMK AO2 PK WND 28027/1749 SLP135 T01780017 10178 20161 51014 $= 201705031851 METAR KEWR 031851Z 31018G25KT 10SM BKN070 18/02 A2994 RMK AO2 PK WND 27026/1811 SLP138 T01830022 $= 201705031951 METAR KEWR 031951Z 31017G23KT 10SM SCT060 19/01 A2995 RMK AO2 PK WND 30026/1914 SLP141 T01940006 $= 201705032051 METAR KEWR 032051Z 31021G28KT 10SM SCT070 SCT250 18/00 A2997 RMK AO2 PK WND 32031/2015 SLP148 T01830000 53013 $= 201705032151 METAR KEWR 032151Z 33017G25KT 10SM FEW070 FEW250 18/M02 A2999 RMK AO2 PK WND 33028/2133 SLP156 T01831017 $= 201705032251 METAR KEWR 032251Z 33017G25KT 10SM FEW250 17/M03 A3000 RMK AO2 PK WND 31031/2215 SLP160 T01721028 $= 201705032351 METAR KEWR 032351Z 35016KT 10SM FEW250 16/M03 A3003 RMK AO2 SLP170 T01561028 10194 20156 $= 201705040051 METAR KEWR 040051Z 33011KT 10SM FEW250 15/M03 A3013 RMK AO2 PRESRR SLP201 T01501028 $= 201705040151 METAR KEWR 040151Z 33013KT 10SM CLR 14/M02 A3017 RMK AO2 SLP216 T01441022 $= 201705040251 METAR KEWR 040251Z 34008KT 10SM CLR 13/M02 A3020 RMK AO2 SLP227 T01331017 51058 $= 201705040351 METAR KEWR 040351Z 34007KT 10SM FEW250 12/M01 A3021 RMK AO2 SLP228 T01221011 $= 201705040451 METAR KEWR 040451Z 36009KT 10SM FEW250 11/M01 A3021 RMK AO2 SLP228 T01111006 401940094 $= 201705040551 METAR KEWR 040551Z 02007KT 10SM FEW250 10/00 A3021 RMK AO2 SLP229 T01000000 10156 20094 52002 $= 201705040651 METAR KEWR 040651Z 03007KT 10SM FEW250 08/00 A3022 RMK AO2 SLP233 T00830000 $= 201705040751 METAR KEWR 040751Z 02005KT 10SM FEW250 07/01 A3023 RMK AO2 SLP236 T00720006 $= 201705040851 METAR KEWR 040851Z 02007KT 10SM FEW250 07/01 A3023 RMK AO2 SLP235 T00670006 50006 $= 201705040951 METAR KEWR 040951Z 02005KT 10SM SCT250 07/01 A3024 RMK AO2 SLP239 T00720006 $= 201705041051 METAR KEWR 041051Z 02006KT 10SM SCT250 09/02 A3025 RMK AO2 SLP242 T00940022 $= 201705041151 METAR KEWR 041151Z 04006KT 10SM SCT250 12/02 A3027 RMK AO2 SLP249 T01170017 10117 20067 53014 $= 201705041251 METAR KEWR 041251Z 11006KT 10SM FEW150 SCT250 14/00 A3029 RMK AO2 SLP255 T01390000 $= 201705041351 METAR KEWR 041351Z 09007KT 10SM FEW130 SCT250 14/M01 A3028 RMK AO2 SLP252 T01441011 $= 201705041451 METAR KEWR 041451Z 13009KT 10SM FEW110 BKN250 16/M03 A3028 RMK AO2 SLP253 T01561033 51003 $= 201705041551 METAR KEWR 041551Z 14012G18KT 10SM FEW110 BKN250 16/M03 A3027 RMK AO2 SLP251 T01561033 $= 201705041651 METAR KEWR 041651Z 14009G19KT 10SM FEW100 SCT220 BKN250 15/M03 A3026 RMK AO2 SLP247 T01501033 $= 201705041751 METAR KEWR 041751Z 13010G18KT 10SM FEW100 SCT220 BKN250 16/M02 A3024 RMK AO2 SLP239 T01561022 10161 20117 58014 $= 201705041851 METAR KEWR 041851Z 14014G17KT 10SM FEW060 FEW100 BKN250 14/M01 A3023 RMK AO2 SLP236 T01441006 $= 201705041951 METAR KEWR 041951Z 17009KT 10SM FEW100 SCT200 BKN250 15/01 A3021 RMK AO2 SLP230 T01500006 $= 201705042051 METAR KEWR 042051Z 14011KT 10SM FEW090 SCT200 BKN250 13/02 A3020 RMK AO2 SLP227 T01330022 57012 $= 201705042151 METAR KEWR 042151Z 12012G16KT 10SM FEW090 BKN200 BKN250 13/04 A3020 RMK AO2 SLP224 T01280044 $= 201705042251 METAR KEWR 042251Z 13008KT 10SM FEW090 BKN180 OVC250 12/06 A3019 RMK AO2 SLP222 T01220056 $= 201705042351 METAR KEWR 042351Z 12007KT 10SM SCT075 BKN150 OVC240 12/05 A3017 RMK AO2 SLP216 T01170050 10156 20117 58011 $= 201705050051 METAR KEWR 050051Z 13011KT 10SM SCT070 BKN150 OVC240 12/06 A3016 RMK AO2 SLP212 T01170056 $= 201705050151 METAR KEWR 050151Z 12009KT 10SM FEW030 SCT070 OVC140 12/05 A3016 RMK AO2 SLP212 T01170050 $= 201705050251 METAR KEWR 050251Z 11009KT 10SM FEW030 FEW070 BKN140 OVC200 12/06 A3013 RMK AO2 SLP201 T01170056 58015 $= 201705050351 METAR KEWR 050351Z 09009KT 10SM OVC160 12/06 A3011 RMK AO2 SLP197 T01170061 $= 201705050451 METAR KEWR 050451Z 11009KT 10SM OVC140 12/07 A3010 RMK AO2 SLP192 T01170067 401610067 $= 201705050551 METAR KEWR 050551Z 09008G15KT 10SM -RA FEW035 OVC090 12/07 A3006 RMK AO2 RAB35 SLP178 P0000 60000 T01170072 10117 20117 58022 $= 201705050651 METAR KEWR 050651Z 10008G14KT 10SM -RA FEW015 BKN029 OVC100 12/08 A3003 RMK AO2 SLP169 P0000 T01170083 $= 201705050751 METAR KEWR 050751Z 06010KT 10SM -RA BKN015 BKN040 OVC090 12/08 A3000 RMK AO2 RAE06B49 SLP159 P0000 T01170083 $= 201705050851 METAR KEWR 050851Z 08009KT 10SM OVC015 12/09 A2998 RMK AO2 RAE21 SLP152 P0000 60000 T01220089 56026 $= 201705050951 METAR KEWR 050951Z 08008G17KT 10SM -RA BKN016 OVC030 13/09 A2995 RMK AO2 RAB44 SLP140 P0000 T01280094 $= 201705051051 METAR KEWR 051051Z 07009KT 10SM -RA BKN015 OVC029 13/09 A2991 RMK AO2 SLP129 BKN V SCT P0000 T01280094 $= 201705051151 METAR KEWR 051151Z 09013G20KT 8SM -RA SCT015 OVC025 13/10 A2990 RMK AO2 SLP123 P0001 60001 70001 T01280100 10128 20117 56029 $= 201705051251 METAR KEWR 051251Z 08013G21KT 10SM -RA SCT014 BKN028 OVC045 13/11 A2985 RMK AO2 SLP108 SCT V BKN P0003 T01330106 $= 201705051351 METAR KEWR 051351Z 07013G20KT 5SM -RA BR SCT013 OVC027 13/11 A2979 RMK AO2 SLP088 SCT V BKN P0003 T01330111 $= 201705051451 METAR KEWR 051451Z 08012G23KT 4SM -RA BR BKN008 OVC015 13/12 A2975 RMK AO2 PRESFR SLP075 CIG 007V010 P0012 60018 T01330122 56048 $= 201705051551 METAR KEWR 051551Z 08012G20KT 3/4SM R04R/2000V5000FT +TSRA BR OVC007CB 13/12 A2971 RMK AO2 LTG DSNT E TSB50 PRESFR SLP060 OCNL LTGICCG OHD TS OHD MOV N P0069 T01330122 $= 201705051651 METAR KEWR 051651Z 02010KT 1 1/2SM R04R/2400V5500FT +RA BR SCT003 BKN006 OVC015 12/12 A2969 RMK AO2 SLP054 TSE06 CIG 005V009 P0087 T01220122 $= 201705051751 METAR KEWR 051751Z 04010KT 4SM +RA BR SCT003 BKN006 OVC038 12/12 A2965 RMK AO2 LTG DSNT NE SLP038 CIG 005V008 P0114 60288 T01170117 10139 20117 58025 $= 201705051851 METAR KEWR 051851Z 07013G22KT 10SM SCT005 SCT013 OVC022 14/14 A2955 RMK AO2 RAE50 PRESFR SLP007 SCT013 V BKN P0016 T01390139 $= 201705051951 METAR KEWR 051951Z 03005KT 10SM OVC006 15/14 A2962 RMK AO2 SLP029 T01500144 $= 201705052051 METAR KEWR 052051Z 02007KT 8SM OVC006 15/14 A2959 RMK AO2 SLP019 60016 T01500144 56020 $= 201705052151 METAR KEWR 052151Z 05008KT 6SM BR OVC006 15/14 A2957 RMK AO2 SLP011 T01500144 $= 201705052251 METAR KEWR 052251Z 07005KT 5SM BR BKN004 OVC006 16/15 A2957 RMK AO2 SLP011 T01560150 $= 201705052351 METAR KEWR 052351Z 11005KT 8SM FEW006 BKN013 BKN020 OVC150 16/15 A2954 RMK AO2 SLP004 60016 T01560150 10156 20117 58015 $= 201705060051 METAR KEWR 060051Z 11010KT 7SM FEW006 BKN013 OVC022 15/14 A2954 RMK AO2 SLP002 T01500144 $= 201705060151 METAR KEWR 060151Z 10008KT 5SM BR OVC005 14/14 A2952 RMK AO2 SLP996 T01440144 $= 201705060251 METAR KEWR 060251Z 12007KT 4SM -RA BR BKN003 OVC006 14/14 A2952 RMK AO2 DZB05E41RAB41 SLP996 P0000 60000 T01390139 55008 $= 201705060351 METAR KEWR 060351Z 13010KT 1 1/2SM -DZ BR OVC002 14/14 A2951 RMK AO2 SFC VIS 2 1/2 RAE34DZB34 SLP991 P0000 T01390139 $= 201705060451 METAR KEWR 060451Z 14008KT 1SM R04R/P6000FT -DZ BR OVC002 13/13 A2949 RMK AO2 TWR VIS 1 1/2 SLP986 P0000 T01330133 401560117 $= 201705060551 METAR KEWR 060551Z 12006KT 1 1/2SM -RA BR OVC003 14/14 A2946 RMK AO2 SFC VIS 3 DZE31RAB31 SLP977 P0004 60004 T01390139 10156 20133 58019 $= 201705060651 METAR KEWR 060651Z 14007KT 4SM -RA BR OVC004 15/15 A2943 RMK AO2 SLP964 P0006 T01500150 $= 201705060751 METAR KEWR 060751Z 14006KT 3SM -DZ BR OVC003 15/15 A2940 RMK AO2 RAE26DZB26 SLP956 P0000 T01500150 $= 201705060851 METAR KEWR 060851Z 13007KT 5SM -DZ BR OVC004 15/15 A2938 RMK AO2 SLP949 P0000 60006 T01500150 56027 $= 201705060951 METAR KEWR 060951Z 14006KT 4SM BR OVC004 14/14 A2938 RMK AO2 DZE0858 SLP947 P0000 T01440144 $= 201705061051 METAR KEWR 061051Z 13006KT 3SM BR OVC003 14/14 A2939 RMK AO2 SLP951 T01440144 $= 201705061151 METAR KEWR 061151Z 15006KT 5SM BR SCT005 BKN012 OVC055 15/15 A2940 RMK AO2 SLP955 60006 70314 T01500150 10150 20139 53006 $= 201705061251 METAR KEWR 061251Z 10008KT 7SM FEW012 SCT044 SCT060 BKN240 14/14 A2938 RMK AO2 SLP950 T01440144 $= 201705061351 METAR KEWR 061351Z 17016G22KT 10SM FEW032 SCT050 BKN250 16/11 A2939 RMK AO2 SLP953 T01560106 $= 201705061451 METAR KEWR 061451Z 17014G20KT 10SM FEW035 SCT044 BKN065 BKN250 17/10 A2940 RMK AO2 SLP954 T01720100 55001 $= 201705061551 METAR KEWR 061551Z 19013KT 10SM FEW030 BKN041 BKN050 18/09 A2939 RMK AO2 SLP952 T01780094 $= 201705061651 METAR KEWR 061651Z 18012KT 10SM FEW033 SCT041 BKN060 19/10 A2939 RMK AO2 SLP952 T01890100 $= 201705061751 METAR KEWR 061751Z 14012KT 10SM BKN039 BKN048 BKN060 17/11 A2939 RMK AO2 SLP952 T01720111 10189 20144 56002 $= 201705061851 METAR KEWR 061851Z 13010G19KT 10SM FEW029 BKN041 BKN060 17/12 A2939 RMK AO2 RAB1755E05 SLP950 P0000 T01670117 $= 201705061951 METAR KEWR 061951Z 14007KT 10SM FEW029 BKN043 BKN060 17/12 A2938 RMK AO2 RAB39E49 SLP947 P0000 T01670117 $= 201705062051 METAR KEWR 062051Z 13009KT 10SM FEW029 SCT045 BKN070 18/12 A2938 RMK AO2 SLP949 60000 T01780122 55003 $= 201705062151 METAR KEWR 062151Z 19009KT 10SM FEW038 BKN050 BKN080 18/11 A2937 RMK AO2 SLP944 T01830106 $= 201705062251 METAR KEWR 062251Z 19011KT 10SM FEW035 SCT050 BKN080 BKN160 18/11 A2936 RMK AO2 SLP942 T01780111 $= 201705062351 METAR KEWR 062351Z 23016KT 10SM FEW034 BKN045 BKN075 BKN160 16/10 A2939 RMK AO2 WSHFT 2312 LTG DSNT N AND NE SLP953 OCNL LTGIC DSNT NE CB DSNT NE MOV NE 60000 T01560100 10183 20156 53004 $= 201705070051 METAR KEWR 070051Z 24015G21KT 10SM SCT050 BKN075 BKN110 14/08 A2943 RMK AO2 PK WND 24026/2358 SLP966 T01390083 $= 201705070151 METAR KEWR 070151Z 23015G23KT 10SM SCT050 SCT075 BKN110 13/08 A2947 RMK AO2 SLP978 T01280078 $= 201705070251 METAR KEWR 070251Z 23013KT 10SM FEW030 BKN049 BKN075 12/08 A2949 RMK AO2 SLP985 T01220078 51031 $= 201705070351 METAR KEWR 070351Z 22012KT 10SM FEW022 BKN049 12/07 A2949 RMK AO2 SLP987 T01170072 $= 201705070451 METAR KEWR 070451Z 22011G18KT 10SM FEW022 SCT030 BKN049 12/07 A2950 RMK AO2 SLP989 T01170072 401890117 $= 201705070551 METAR KEWR 070551Z 22011KT 10SM FEW022 SCT036 BKN055 12/07 A2952 RMK AO2 SLP995 T01170072 10156 20117 53011 $= 201705070651 METAR KEWR 070651Z 22013G19KT 10SM FEW022 SCT042 BKN060 12/07 A2953 RMK AO2 SLP000 T01170067 $= 201705070751 METAR KEWR 070751Z 22011G21KT 10SM FEW024 SCT046 BKN055 12/07 A2955 RMK AO2 SLP005 T01170067 $= 201705070851 METAR KEWR 070851Z 24013G20KT 10SM FEW024 SCT040 OVC055 11/06 A2956 RMK AO2 SLP008 T01110061 51013 $= 201705070951 METAR KEWR 070951Z 23010KT 10SM FEW024 BKN055 11/05 A2958 RMK AO2 SLP015 T01060050 $= 201705071051 METAR KEWR 071051Z 23011KT 10SM FEW026 FEW055 11/05 A2960 RMK AO2 SLP024 T01060050 $= 201705071151 METAR KEWR 071151Z 24012KT 10SM SCT026 SCT055 12/05 A2963 RMK AO2 SLP032 T01170050 10117 20100 53024 $= 201705071251 METAR KEWR 071251Z 23012G19KT 10SM SCT028 BKN036 BKN049 12/05 A2964 RMK AO2 SLP035 T01170050 $= 201705071351 METAR KEWR 071351Z 27012KT 10SM FEW030 BKN040 BKN049 13/04 A2965 RMK AO2 SLP039 T01280044 $= 201705071451 METAR KEWR 071451Z 23013G20KT 10SM FEW034 BKN040 OVC060 12/04 A2966 RMK AO2 SLP041 T01170039 51009 $= 201705071551 METAR KEWR 071551Z 23012KT 10SM FEW036 BKN045 BKN065 12/04 A2965 RMK AO2 RAB05E40 SLP041 P0000 T01220039 $= 201705071651 METAR KEWR 071651Z 25007KT 10SM -RA FEW032 BKN042 OVC060 11/06 A2965 RMK AO2 RAB42 SLP041 P0000 T01110056 $= 201705071751 METAR KEWR 071751Z 24015G20KT 10SM SCT040 BKN060 BKN100 13/03 A2964 RMK AO2 RAE00 SLP037 VCSH N P0000 60000 T01330033 10144 20111 58004 $= 201705071851 METAR KEWR 071851Z 28015KT 10SM -RA FEW030 BKN038 OVC060 11/05 A2966 RMK AO2 RAB1759 SLP043 P0000 T01110050 $= 201705071951 METAR KEWR 071951Z 24015G20KT 10SM -RA FEW024 BKN036 OVC070 13/04 A2966 RMK AO2 SLP044 P0000 T01280044 $= 201705072051 METAR KEWR 072051Z 29015G23KT 10SM -RA FEW028 SCT040 BKN070 12/04 A2968 RMK AO2 PK WND 29026/2013 RAE32B49 SLP050 P0000 60000 T01220044 53013 $= 201705072151 METAR KEWR 072151Z 30017G22KT 10SM SCT030 SCT060 BKN090 BKN250 12/03 A2970 RMK AO2 RAE05 SLP057 P0000 T01170028 $= 201705072251 METAR KEWR 072251Z 29011KT 10SM -RA SCT025 BKN040 BKN120 BKN250 11/04 A2972 RMK AO2 RAB49 SLP063 P0000 T01110039 $= 201705072351 METAR KEWR 072351Z 27012KT 10SM FEW020 SCT045 BKN080 BKN250 11/03 A2974 RMK AO2 RAE30 SLP071 P0000 60000 T01060033 10133 20106 53021 $= 201705080051 METAR KEWR 080051Z 28010KT 10SM FEW027 SCT075 BKN110 BKN250 10/04 A2978 RMK AO2 SLP083 T01000039 $= 201705080151 METAR KEWR 080151Z 26008KT 10SM FEW100 BKN140 BKN250 10/04 A2980 RMK AO2 SLP091 T01000039 $= 201705080251 METAR KEWR 080251Z 26009KT 10SM BKN100 OVC140 09/04 A2980 RMK AO2 SLP091 T00940039 51020 $= 201705080351 METAR KEWR 080351Z 29007KT 10SM BKN100 OVC140 09/03 A2979 RMK AO2 SLP088 T00940033 $= 201705080451 METAR KEWR 080451Z 26007KT 10SM SCT100 09/03 A2981 RMK AO2 SLP093 T00890028 401440089 $= 201705080551 METAR KEWR 080551Z 26005KT 10SM SCT100 BKN250 08/03 A2982 RMK AO2 SLP096 T00780028 10106 20078 53004 $= 201705080651 METAR KEWR 080651Z 24004KT 10SM SCT100 BKN250 08/03 A2982 RMK AO2 SLP098 T00780028 $= 201705080751 METAR KEWR 080751Z 28008KT 10SM SCT075 BKN090 08/03 A2983 RMK AO2 SLP101 T00780033 $= 201705080851 METAR KEWR 080851Z 30007KT 10SM FEW039 SCT090 07/02 A2983 RMK AO2 RAB28E34 SLP102 P0000 60000 T00720022 51006 $= 201705080951 METAR KEWR 080951Z 26006KT 10SM FEW039 SCT090 07/02 A2985 RMK AO2 SLP107 T00670022 $= 201705081051 METAR KEWR 081051Z 24008KT 10SM FEW039 SCT090 08/03 A2987 RMK AO2 SLP114 T00780028 $= 201705081151 METAR KEWR 081151Z 27008KT 10SM FEW040 SCT100 09/02 A2988 RMK AO2 SLP117 60000 T00890022 10089 20061 51016 $= 201705081251 METAR KEWR 081251Z 30013G21KT 10SM FEW050 FEW100 11/M02 A2989 RMK AO2 SLP120 T01061022 $= 201705081351 METAR KEWR 081351Z 31017G21KT 10SM FEW055 FEW100 SCT140 12/M02 A2989 RMK AO2 PK WND 29026/1312 SLP122 T01171022 $= 201705081451 METAR KEWR 081451Z 32012G21KT 10SM SCT055 SCT080 BKN100 12/M02 A2990 RMK AO2 PK WND 32026/1407 SLP124 T01171017 51007 $= 201705081551 METAR KEWR 081551Z 30012G30KT 10SM SCT055 BKN095 BKN110 12/M02 A2990 RMK AO2 PK WND 28030/1548 SLP124 T01221017 $= 201705081651 METAR KEWR 081651Z 30014G22KT 10SM BKN055 BKN095 BKN250 13/M01 A2988 RMK AO2 SLP118 T01331011 $= 201705081751 METAR KEWR 081751Z 27011G19KT 10SM BKN060 BKN110 BKN250 14/M02 A2986 RMK AO2 PK WND 28026/1726 SLP112 T01391017 10150 20089 58012 $= 201705081851 METAR KEWR 081851Z 27013G25KT 10SM BKN065 BKN110 BKN250 14/M03 A2986 RMK AO2 SLP110 T01441028 $= 201705081951 METAR KEWR 081951Z 26014KT 10SM BKN070 BKN250 14/M03 A2986 RMK AO2 SLP110 T01391033 $= 201705082051 METAR KEWR 082051Z 27013G22KT 10SM FEW065 BKN080 BKN250 15/M02 A2987 RMK AO2 SLP113 T01501022 53001 $= 201705082151 METAR KEWR 082151Z 27011KT 10SM FEW065 BKN080 BKN250 14/M02 A2987 RMK AO2 SLP116 T01441022 $= 201705082251 METAR KEWR 082251Z 27012KT 10SM FEW065 SCT080 BKN250 14/M02 A2988 RMK AO2 SLP117 T01391022 $= 201705082351 METAR KEWR 082351Z 28005KT 10SM FEW070 BKN090 BKN250 13/M02 A2989 RMK AO2 SLP121 VIRGA T01331022 10156 20133 53008 $= 201705090051 METAR KEWR 090051Z 00000KT 10SM SCT080 BKN100 BKN250 13/M02 A2990 RMK AO2 SLP123 T01331022 $= 201705090151 METAR KEWR 090151Z 16003KT 10SM BKN080 BKN100 BKN250 13/M02 A2991 RMK AO2 SLP128 T01331017 $= 201705090251 METAR KEWR 090251Z 14005KT 10SM BKN080 BKN100 13/00 A2990 RMK AO2 SLP125 T01280000 50004 $= 201705090351 METAR KEWR 090351Z 21003KT 10SM BKN100 11/02 A2991 RMK AO2 SLP128 T01110017 $= 201705090451 METAR KEWR 090451Z 36010KT 10SM BKN100 11/02 A2992 RMK AO2 SLP130 T01110022 401560061 $= 201705090551 METAR KEWR 090551Z 01010KT 10SM SCT110 09/01 A2991 RMK AO2 SLP129 T00940006 10139 20094 50004 $= 201705090651 METAR KEWR 090651Z 01011KT 10SM FEW110 08/01 A2991 RMK AO2 SLP129 T00830011 $= 201705090751 METAR KEWR 090751Z 01009KT 10SM FEW110 SCT250 08/01 A2992 RMK AO2 SLP131 T00830011 $= 201705090851 METAR KEWR 090851Z 03011KT 10SM FEW110 BKN150 BKN250 08/01 A2993 RMK AO2 SLP136 T00780011 53006 $= 201705090951 METAR KEWR 090951Z 03007KT 10SM FEW020 BKN130 BKN240 08/02 A2994 RMK AO2 SLP136 T00780017 $= 201705091051 METAR KEWR 091051Z 36007KT 10SM FEW020 BKN130 BKN240 08/02 A2995 RMK AO2 SLP141 T00830022 $= 201705091151 METAR KEWR 091151Z 34004KT 10SM FEW100 SCT130 SCT160 OVC250 09/02 A2997 RMK AO2 SLP148 T00940022 10100 20072 53013 $= 201705091251 METAR KEWR 091251Z VRB03KT 10SM FEW025 FEW130 FEW160 BKN250 11/02 A2998 RMK AO2 SLP151 T01110022 $= 201705091351 METAR KEWR 091351Z 27006KT 10SM R04R/5000VP6000FT FEW025 FEW130 FEW160 BKN250 13/02 A2999 RMK AO2 SLP154 T01280022 $= 201705091451 METAR KEWR 091451Z 10SM SCT040 SCT130 BKN250 14/01 A2998 RMK AO2 SLP150 T01390006 50002 $= 201705091551 METAR KEWR 091551Z 27007KT 10SM SCT060 SCT120 BKN250 14/M02 A2997 RMK AO2 SLP148 T01441017 $= 201705091651 METAR KEWR 091651Z 30007KT 10SM FEW065 SCT120 BKN250 15/M02 A2996 RMK AO2 SLP145 T01501022 $= 201705091751 METAR KEWR 091751Z 34004KT 10SM FEW065 FEW120 BKN250 17/M03 A2996 RMK AO2 SLP143 T01671033 10167 20094 57007 $= 201705091851 METAR KEWR 091851Z 27012G18KT 10SM BKN070 BKN250 16/M03 A2994 RMK AO2 SLP138 T01611028 $= 201705091951 METAR KEWR 091951Z 35008KT 10SM BKN070 BKN250 16/M03 A2993 RMK AO2 SLP133 T01611033 $= 201705092051 METAR KEWR 092051Z 32010KT 10SM BKN075 BKN250 17/M03 A2993 RMK AO2 SLP133 T01721028 56010 $= 201705092151 METAR KEWR 092151Z 30006KT 10SM FEW060 BKN080 BKN250 16/M03 A2994 RMK AO2 SLP138 T01561028= 201705092251 METAR KEWR 092251Z 01010KT 10SM FEW060 BKN080 BKN250 16/M02 A2995 RMK AO2 SLP141 T01561017= 201705092351 METAR KEWR 092351Z 12006KT 10SM FEW060 SCT085 BKN190 BKN250 13/05 A2997 RMK AO2 SLP148 T01280050 10178 20128 53015= 201705100051 METAR KEWR 100051Z 11008KT 10SM FEW060 FEW085 BKN190 BKN250 13/04 A2999 RMK AO2 SLP155 T01280044= 201705100151 METAR KEWR 100151Z 12006KT 10SM FEW085 BKN180 BKN250 12/04 A2999 RMK AO2 SLP155 T01220044= 201705100251 METAR KEWR 100251Z 14004KT 10SM FEW085 BKN180 BKN250 12/03 A2999 RMK AO2 SLP154 T01220028 50006= 201705100351 METAR KEWR 100351Z 12003KT 10SM CLR 12/02 A2998 RMK AO2 SLP153 T01220017= 201705100451 METAR KEWR 100451Z VRB04KT 10SM SCT140 BKN170 BKN250 12/02 A2999 RMK AO2 SLP154 T01220022 401780072= 201705100551 METAR KEWR 100551Z 00000KT 10SM SCT130 BKN170 BKN250 12/03 A2999 RMK AO2 SLP155 T01170028 10128 20117 53001= 201705100651 METAR KEWR 100651Z 02006KT 10SM SCT085 BKN170 BKN250 11/04 A2999 RMK AO2 SLP156 T01060044= 201705100751 METAR KEWR 100751Z 02006KT 10SM SCT085 BKN110 BKN170 10/05 A2999 RMK AO2 SLP156 T01000050= 201705100851 METAR KEWR 100851Z 03005KT 10SM BKN085 BKN110 BKN170 09/04 A2999 RMK AO2 SLP153 T00940039 58001= 201705100951 METAR KEWR 100951Z 02006KT 10SM SCT085 OVC100 09/03 A3000 RMK AO2 SLP157 T00940033= 201705101051 METAR KEWR 101051Z 36006KT 10SM BKN100 10/03 A3002 RMK AO2 SLP165 T01000028= 201705101151 METAR KEWR 101151Z 02006KT 10SM BKN100 11/03 A3003 RMK AO2 SLP169 T01060033 10122 20094 52016= 201705101251 METAR KEWR 101251Z 36006KT 10SM FEW035 BKN100 12/03 A3004 RMK AO2 SLP171 T01220033= 201705101351 METAR KEWR 101351Z VRB03KT 10SM FEW035 BKN130 13/03 A3003 RMK AO2 SLP167 T01280033= 201705101451 METAR KEWR 101451Z VRB03KT 10SM SCT040 SCT130 13/03 A3002 RMK AO2 SLP164 T01330033 58005= 201705101551 METAR KEWR 101551Z 10SM SCT055 BKN250 17/03 A3001 RMK AO2 SLP161 T01670028= 201705101651 METAR KEWR 101651Z 08007KT 10SM SCT055 BKN250 17/02 A2999 RMK AO2 SLP154 T01670022= 201705101751 METAR KEWR 101751Z 08006KT 10SM BKN065 OVC250 16/04 A2999 RMK AO2 SLP153 T01560039 10178 20106 56011= 201705101851 METAR KEWR 101851Z 08006KT 10SM SCT070 SCT230 BKN260 18/03 A2998 RMK AO2 SLP152 T01780028= 201705101951 METAR KEWR 101951Z 09005KT 10SM FEW070 SCT220 BKN250 17/04 A2998 RMK AO2 SLP153 T01670039= 201705102051 METAR KEWR 102051Z 15008KT 10SM FEW070 SCT220 BKN250 15/05 A2999 RMK AO2 SLP156 T01500050 53003 $= 201705102151 METAR KEWR 102151Z VRB06KT 10SM SCT080 SCT230 BKN260 14/04 A3000 RMK AO2 SLP157 T01390044 $= 201705102251 METAR KEWR 102251Z 11004KT 10SM FEW070 SCT220 BKN260 14/04 A3001 RMK AO2 SLP161 T01440044 $= 201705102351 METAR KEWR 102351Z VRB05KT 10SM FEW070 FEW220 BKN260 13/06 A3001 RMK AO2 SLP163 T01330056 10178 20133 53006 $= 201705110051 METAR KEWR 110051Z 18005KT 10SM FEW200 SCT250 12/05 A3003 RMK AO2 SLP169 T01220050 $= 201705110151 METAR KEWR 110151Z 00000KT 10SM FEW070 FEW250 12/05 A3005 RMK AO2 SLP176 T01220050 $= 201705110251 METAR KEWR 110251Z 00000KT 10SM FEW070 SCT250 12/06 A3006 RMK AO2 SLP178 T01170056 51015 $= 201705110351 METAR KEWR 110351Z 00000KT 10SM FEW020 FEW070 BKN250 12/06 A3005 RMK AO2 SLP176 T01170056 $= 201705110451 METAR KEWR 110451Z 00000KT 10SM FEW020 BKN250 11/06 A3004 RMK AO2 SLP173 T01110056 401780094 $= 201705110551 METAR KEWR 110551Z 33004KT 10SM FEW020 BKN250 11/06 A3004 RMK AO2 SLP172 T01060056 10133 20100 57006 $= 201705110651 METAR KEWR 110651Z 34003KT 10SM BKN250 10/03 A3002 RMK AO2 SLP164 T01000028 $= 201705110751 METAR KEWR 110751Z 02007KT 10SM BKN250 09/02 A3002 RMK AO2 SLP165 T00890022 $= 201705110851 METAR KEWR 110851Z 01006KT 10SM SCT150 BKN250 09/02 A3002 RMK AO2 SLP164 T00890022 56007 $= 201705110951 METAR KEWR 110951Z 02008KT 10SM SCT160 BKN250 08/02 A3003 RMK AO2 SLP170 T00780022 $= 201705111051 METAR KEWR 111051Z 02008KT 10SM BKN055 BKN250 09/03 A3003 RMK AO2 SLP169 T00890028 $= 201705111151 METAR KEWR 111151Z 01010KT 10SM SCT055 BKN250 11/03 A3002 RMK AO2 SLP164 T01110033 10111 20078 58001 $= 201705111251 METAR KEWR 111251Z 05009KT 10SM FEW055 BKN250 13/04 A3001 RMK AO2 SLP161 T01280039 $= 201705111351 METAR KEWR 111351Z 02007KT 10SM FEW050 BKN220 OVC250 14/03 A2999 RMK AO2 SLP155 T01390033= 201705111451 METAR KEWR 111451Z 03006KT 10SM FEW050 FEW150 BKN220 BKN250 14/02 A3000 RMK AO2 SLP157 T01440022 55007= 201705111551 METAR KEWR 111551Z VRB03KT 10SM FEW050 BKN230 BKN260 15/02 A2998 RMK AO2 SLP152 T01500017= 201705111651 METAR KEWR 111651Z 10006KT 10SM FEW055 BKN230 OVC260 16/01 A2997 RMK AO2 SLP149 T01610011= 201705111751 METAR KEWR 111751Z VRB06KT 10SM FEW055 BKN210 OVC250 16/01 A2996 RMK AO2 SLP144 T01610006 10161 20111 56013= 201705111851 METAR KEWR 111851Z 15007KT 110V170 10SM FEW060 BKN200 OVC250 16/03 A2995 RMK AO2 SLP141 T01560033= 201705111951 METAR KEWR 111951Z 16007KT 10SM FEW060 BKN200 BKN250 14/03 A2995 RMK AO2 SLP142 T01440028= 201705112051 METAR KEWR 112051Z 14007KT 10SM FEW060 BKN200 OVC250 14/02 A2996 RMK AO2 SLP144 T01440022 55001= 201705112151 METAR KEWR 112151Z 14010KT 10SM FEW060 BKN200 BKN250 14/03 A2997 RMK AO2 SLP148 T01440033= 201705112251 METAR KEWR 112251Z 14008KT 10SM FEW060 FEW140 SCT210 BKN250 13/03 A2998 RMK AO2 SLP152 T01330028= 201705112351 METAR KEWR 112351Z 12008KT 10SM FEW120 SCT210 BKN260 13/03 A2999 RMK AO2 SLP155 T01280033 10167 20128 51011= 201705120051 METAR KEWR 120051Z 13007KT 10SM FEW120 SCT210 BKN260 12/04 A3000 RMK AO2 SLP159 T01220044= 201705120151 METAR KEWR 120151Z VRB03KT 10SM FEW140 SCT210 BKN260 12/05 A3001 RMK AO2 SLP162 T01170050= 201705120251 METAR KEWR 120251Z 18004KT 10SM FEW200 BKN260 11/06 A3002 RMK AO2 SLP165 T01110056 51010= 201705120351 METAR KEWR 120351Z 00000KT 10SM FEW200 BKN250 11/06 A3003 RMK AO2 SLP167 T01110056= 201705120451 METAR KEWR 120451Z 00000KT 10SM SCT200 BKN250 11/06 A3004 RMK AO2 SLP171 T01060056 401670078= 201705120551 METAR KEWR 120551Z 10003KT 10SM FEW180 BKN250 11/06 A3003 RMK AO2 SLP169 T01110056 10128 20094 50004= 201705120651 METAR KEWR 120651Z 00000KT 10SM FEW040 SCT180 BKN250 11/06 A3004 RMK AO2 SLP173 T01060056= 201705120751 METAR KEWR 120751Z 00000KT 10SM SCT020 BKN040 BKN180 11/07 A3005 RMK AO2 SLP174 T01110067= 201705120851 METAR KEWR 120851Z 02005KT 10SM SCT020 SCT040 BKN200 08/05 A3004 RMK AO2 SLP173 T00780050 50004= 201705120951 METAR KEWR 120951Z 32005KT 10SM FEW020 FEW100 SCT250 09/06 A3005 RMK AO2 SLP177 T00890061= 201705121051 METAR KEWR 121051Z 03005KT 10SM FEW015 BKN250 10/07 A3007 RMK AO2 SLP181 T01000067= 201705121151 METAR KEWR 121151Z 35003KT 10SM FEW020 BKN250 12/07 A3007 RMK AO2 SLP183 T01170067 10117 20072 51010= 201705121251 METAR KEWR 121251Z 03003KT 10SM SCT025 BKN029 BKN250 12/07 A3007 RMK AO2 SLP183 T01220067= 201705121351 METAR KEWR 121351Z 09007KT 10SM SCT028 BKN035 BKN250 13/06 A3007 RMK AO2 SLP181 T01330061= 201705121451 METAR KEWR 121451Z VRB05KT 10SM SCT028 BKN035 BKN250 15/06 A3006 RMK AO2 SLP177 T01500061 58006= 201705121551 METAR KEWR 121551Z 06008KT 10SM FEW032 SCT037 BKN250 15/06 A3005 RMK AO2 SLP176 T01500056= 201705121651 METAR KEWR 121651Z 11007KT 070V150 10SM SCT040 BKN250 16/06 A3004 RMK AO2 SLP172 T01560056= 201705121751 METAR KEWR 121751Z 15008G17KT 10SM SCT045 BKN250 14/06 A3004 RMK AO2 SLP173 T01440061 10167 20117 55004= 201705121851 METAR KEWR 121851Z 15010G18KT 10SM SCT046 BKN250 15/06 A3004 RMK AO2 SLP171 T01500056= 201705121951 METAR KEWR 121951Z 14010G17KT 10SM FEW045 BKN250 14/05 A3004 RMK AO2 SLP170 T01440050= 201705122051 METAR KEWR 122051Z 14011KT 10SM FEW040 FEW100 BKN250 14/05 A3003 RMK AO2 SLP169 T01390050 56003= 201705122151 METAR KEWR 122151Z 14009KT 10SM FEW040 FEW100 SCT220 BKN260 13/04 A3003 RMK AO2 SLP168 T01330044= 201705122251 METAR KEWR 122251Z 16009KT 10SM FEW040 FEW100 BKN220 BKN260 13/04 A3003 RMK AO2 SLP170 T01280044= 201705122351 METAR KEWR 122351Z 13006KT 10SM FEW040 SCT120 BKN200 OVC260 12/04 A3003 RMK AO2 SLP169 T01220044 10150 20122 56001= 201705130051 METAR KEWR 130051Z 13006KT 10SM FEW040 SCT120 BKN210 OVC260 12/05 A3002 RMK AO2 SLP165 T01220050= 201705130151 METAR KEWR 130151Z 15005KT 10SM FEW015 SCT120 BKN190 OVC250 12/06 A3003 RMK AO2 SLP167 T01170056= 201705130251 METAR KEWR 130251Z 14007KT 10SM SCT018 BKN040 BKN120 OVC200 12/06 A3002 RMK AO2 SLP166 T01170061 56003= 201705130351 METAR KEWR 130351Z 15005KT 10SM OVC022 12/07 A3002 RMK AO2 SLP164 T01170067= 201705130451 METAR KEWR 130451Z 10004KT 10SM OVC020 12/07 A3000 RMK AO2 SLP158 T01170072 401670072= 201705130551 METAR KEWR 130551Z 12008KT 10SM -RA OVC016 12/08 A2998 RMK AO2 RAB49 SLP152 P0000 60000 T01170078 10122 20117 58015= 201705130651 METAR KEWR 130651Z 11007KT 10SM -RA BKN016 OVC022 11/08 A2997 RMK AO2 SLP149 P0000 T01110078= 201705130751 METAR KEWR 130751Z 10006KT 10SM -RA SCT016 OVC022 11/08 A2996 RMK AO2 SLP144 P0001 T01060078= 201705130851 METAR KEWR 130851Z 11006KT 10SM -RA SCT012 BKN024 OVC060 11/08 A2995 RMK AO2 SLP140 P0003 60004 T01060083 58012= 201705130951 METAR KEWR 130951Z 08008KT 7SM -RA SCT008 BKN012 OVC080 10/08 A2993 RMK AO2 SLP136 P0004 T01000083= 201705131051 METAR KEWR 131051Z 06008KT 7SM -RA BKN010 BKN025 OVC070 10/08 A2993 RMK AO2 SLP135 P0004 T01000083= 201705131151 METAR KEWR 131151Z 06007KT 5SM -RA BR BKN009 OVC018 10/09 A2992 RMK AO2 SLP132 CIG 007V011 P0004 60016 70016 T01000089 10117 20100 56008 $= 201705131251 METAR KEWR 131251Z 07008KT 6SM RA BR BKN009 OVC013 10/09 A2992 RMK AO2 SLP131 CIG 007V011 P0005 T01000089 $= 201705131351 METAR KEWR 131351Z 06008KT 4SM RA BR BKN009 OVC013 10/09 A2992 RMK AO2 SLP130 P0007 T01000094 $= 201705131451 METAR KEWR 131451Z 06011KT 6SM -RA BR BKN008 OVC013 10/09 A2989 RMK AO2 SLP120 P0009 60021 T01000094 58013 $= 201705131551 METAR KEWR 131551Z 06011KT 4SM RA BR BKN008 BKN013 OVC050 10/09 A2988 RMK AO2 SLP119 P0008 T01000094 $= 201705131651 METAR KEWR 131651Z 05008KT 5SM RA BR BKN008 OVC014 11/10 A2987 RMK AO2 SLP113 P0011 T01060100 $= 201705131751 METAR KEWR 131751Z 05010KT 3SM RA BR BKN008 BKN017 OVC023 10/09 A2985 RMK AO2 SLP107 P0019 60059 T01000094 10106 20100 58013 $= 201705131851 METAR KEWR 131851Z 05014KT 3SM RA BR BKN008 BKN017 OVC027 10/09 A2984 RMK AO2 SLP102 P0016 T01000089 $= 201705131951 METAR KEWR 131951Z 04010G17KT 1 3/4SM R04R/5500VP6000FT RA BR BKN008 OVC020 09/09 A2982 RMK AO2 SLP099 P0011 T00940094 $= 201705132051 METAR KEWR 132051Z 04012KT 1 3/4SM RA BR BKN008 OVC020 09/09 A2981 RMK AO2 SLP094 P0015 60042 T00940094 56013 $= 201705132151 METAR KEWR 132151Z 03018G26KT 1 3/4SM RA BR BKN008 BKN023 OVC039 08/08 A2981 RMK AO2 PK WND 03026/2151 SLP093 P0018 T00830083 $= 201705132251 METAR KEWR 132251Z 03017G26KT 1 3/4SM -RA BR BKN008 BKN014 OVC046 08/08 A2980 RMK AO2 PK WND 04026/2158 SLP090 P0007 T00780078 $= 201705132351 METAR KEWR 132351Z 02017KT 1 3/4SM -RA BR BKN007 BKN010 OVC016 07/07 A2980 RMK AO2 PK WND 03027/2256 SLP090 P0009 60076 T00670067 10100 20067 56004 $= 201705140051 METAR KEWR 140051Z 02016KT 1 3/4SM RA BR BKN007 BKN010 OVC016 06/06 A2980 RMK AO2 SLP090 P0012 T00610061 $= 201705140151 METAR KEWR 140151Z 02012KT 1 3/4SM -RA BR BKN007 OVC014 07/07 A2980 RMK AO2 SLP091 P0011 T00670067 $= 201705140251 METAR KEWR 140251Z 02012KT 6SM -RA BR BKN007 BKN014 OVC033 07/07 A2979 RMK AO2 SLP085 P0004 60027 T00670067 58004 $= 201705140351 METAR KEWR 140351Z 02012KT 8SM -RA BKN008 OVC012 07/07 A2976 RMK AO2 SLP077 P0001 T00670067 $= 201705140451 METAR KEWR 140451Z 36011KT 10SM BKN008 OVC012 07/07 A2975 RMK AO2 RAE41 SLP074 P0000 T00670067 401170061 $= 201705140551 METAR KEWR 140551Z 35014KT 10SM FEW008 BKN012 OVC020 07/07 A2973 RMK AO2 SLP067 60028 T00670067 10067 20061 56018 $= 201705140651 METAR KEWR 140651Z 33011KT 10SM FEW008 BKN013 OVC060 07/07 A2972 RMK AO2 SLP064 T00720067 $= 201705140751 METAR KEWR 140751Z 33011KT 10SM FEW015 BKN065 BKN100 07/07 A2972 RMK AO2 SLP063 T00720067 $= 201705140851 METAR KEWR 140851Z 33010KT 10SM FEW015 BKN075 BKN100 08/07 A2972 RMK AO2 SLP062 T00780067 56005 $= 201705140951 METAR KEWR 140951Z 31011KT 10SM FEW015 BKN075 BKN100 08/07 A2972 RMK AO2 SLP064 T00780067 $= 201705141051 METAR KEWR 141051Z 32010KT 10SM FEW016 SCT100 09/07 A2973 RMK AO2 SLP066 T00890067 $= 201705141151 METAR KEWR 141151Z 32012KT 10SM BKN016 BKN090 10/07 A2973 RMK AO2 SLP066 70163 T01000067 10100 20067 51003 $= 201705141251 METAR KEWR 141251Z 32010KT 10SM BKN020 BKN090 11/07 A2972 RMK AO2 SLP065 BKN020 V SCT T01110067 $= 201705141351 METAR KEWR 141351Z 31009KT 10SM SCT022 SCT090 13/08 A2971 RMK AO2 SLP059 T01330078 $= 201705141451 METAR KEWR 141451Z 29015G19KT 10SM SCT030 SCT090 BKN170 16/08 A2969 RMK AO2 SLP053 T01610078 58013 $= 201705141551 METAR KEWR 141551Z 32012G21KT 10SM SCT030 BKN060 BKN150 17/08 A2967 RMK AO2 SLP045 T01720078 $= 201705141651 METAR KEWR 141651Z 30011G21KT 10SM BKN040 BKN070 BKN120 19/08 A2964 RMK AO2 SLP037 T01890083 $= 201705141751 METAR KEWR 141751Z 28009G18KT 10SM BKN045 BKN080 20/08 A2961 RMK AO2 SLP025 T02000083 10206 20100 58028 $= 201705141851 METAR KEWR 141851Z 29012KT 3SM -RA FEW020 SCT045CB BKN080 OVC150 18/09 A2960 RMK AO2 PK WND 28026/1819 SFC VIS 7 RAB37 SLP024 CB OHD-S-W MOV SE P0000 T01830094 $= 201705141951 METAR KEWR 141951Z 26012G16KT 10SM FEW030 FEW070 SCT200 18/12 A2958 RMK AO2 PK WND 27027/1901 RAE31 SLP014 P0009 T01830122 $= 201705142051 METAR KEWR 142051Z 28009KT 10SM FEW025 BKN045CB BKN080 BKN200 19/09 A2957 RMK AO2 SLP012 CB OHD-N-NE MOV SE VCSH N 60009 T01940094 58012 $= 201705142151 METAR KEWR 142151Z 32019G25KT 10SM FEW030 SCT050 BKN100 BKN200 18/05 A2959 RMK AO2 PK WND 35031/2100 WSHFT 2058 RAB03E12 SLP019 CB DSNT SE MOV SE P0000 T01780050 $= 201705142251 METAR KEWR 142251Z 33016G23KT 10SM FEW040 SCT080 SCT130 18/06 A2957 RMK AO2 LTG DSNT S SLP014 CB DSNT SE MOV SE T01780056 $= 201705142351 METAR KEWR 142351Z 31014KT 10SM -RA FEW050 BKN080 BKN120 17/06 A2958 RMK AO2 RAB25 SLP015 P0000 60009 T01720056 10211 20156 51003 $= 201705150051 METAR KEWR 150051Z 29010G17KT 10SM FEW050 BKN080 BKN110 16/07 A2961 RMK AO2 RAE32 SLP027 P0000 T01610067 $= 201705150151 METAR KEWR 150151Z 32010G21KT 10SM FEW050 BKN080 BKN110 15/04 A2963 RMK AO2 PK WND 31031/0100 SLP033 T01500039 $= 201705150251 METAR KEWR 150251Z 31013G23KT 10SM FEW050 SCT120 14/04 A2964 RMK AO2 SLP037 60000 T01390039 51022 $= 201705150351 METAR KEWR 150351Z 30012G21KT 10SM FEW120 13/04 A2966 RMK AO2 SLP041 T01280044 $= 201705150451 METAR KEWR 150451Z 30014G22KT 10SM FEW120 12/05 A2965 RMK AO2 SLP039 T01220050 402110067 $= 201705150551 METAR KEWR 150551Z 29011KT 10SM FEW030 FEW100 12/05 A2965 RMK AO2 SLP039 60000 T01170050 10172 20117 51002 $= 201705150651 METAR KEWR 150651Z 28012KT 10SM FEW030 FEW100 12/06 A2964 RMK AO2 SLP038 T01170056 $= 201705150751 METAR KEWR 150751Z 30012KT 10SM FEW100 12/06 A2965 RMK AO2 SLP038 T01170056 $= 201705150851 METAR KEWR 150851Z 28011KT 10SM FEW050 FEW100 12/06 A2965 RMK AO2 SLP041 T01220061 53002 $= 201705150951 METAR KEWR 150951Z 28013G19KT 10SM BKN043 BKN150 13/06 A2966 RMK AO2 SLP044 T01280061 $= 201705151051 METAR KEWR 151051Z 31013G22KT 10SM SCT036 BKN048 BKN190 13/06 A2968 RMK AO2 SLP051 T01330061 $= 201705151151 METAR KEWR 151151Z 30019G27KT 10SM FEW039 BKN050 BKN170 14/06 A2970 RMK AO2 PK WND 30027/1148 SLP057 70009 T01390056 10139 20117 53016 $= 201705151251 METAR KEWR 151251Z 31019G28KT 10SM FEW039 SCT045 BKN150 BKN180 14/06 A2972 RMK AO2 PK WND 30031/1221 SLP064 T01440056 $= 201705151351 METAR KEWR 151351Z 30022G29KT 10SM FEW039 SCT045 BKN150 BKN180 16/06 A2973 RMK AO2 PK WND 32035/1331 SLP067 T01560056 $= 201705151451 METAR KEWR 151451Z 30019G30KT 10SM FEW041 SCT048 BKN210 17/05 A2974 RMK AO2 PK WND 30032/1422 SLP070 T01720050 51013 $= 201705151551 METAR KEWR 151551Z 30020G28KT 10SM FEW044 SCT050 BKN250 17/06 A2974 RMK AO2 PK WND 33032/1521 SLP071 T01720056 $= 201705151651 METAR KEWR 151651Z 33024G33KT 10SM BKN045 BKN250 19/06 A2974 RMK AO2 PK WND 34033/1651 SLP072 T01890056= 201705151751 METAR KEWR 151751Z 31016G24KT 10SM BKN050 BKN150 BKN250 19/05 A2975 RMK AO2 PK WND 33030/1652 SLP073 T01890050 10200 20139 53003= 201705151851 METAR KEWR 151851Z 31019G32KT 10SM SCT055 SCT150 BKN250 20/05 A2975 RMK AO2 PK WND 32032/1842 SLP074 T02000050= 201705151951 METAR KEWR 151951Z 32018G27KT 10SM FEW055 SCT250 21/05 A2975 RMK AO2 PK WND 33032/1923 SLP073 T02110050= 201705152051 METAR KEWR 152051Z 32026G33KT 10SM FEW055 SCT250 22/04 A2975 RMK AO2 PK WND 33033/2050 SLP074 T02170044 51001= 201705152151 METAR KEWR 152151Z 32021G32KT 10SM FEW055 SCT250 21/04 A2978 RMK AO2 PK WND 32034/2053 SLP084 T02110044= 201705152251 METAR KEWR 152251Z 32018G28KT 10SM FEW060 SCT250 21/04 A2982 RMK AO2 PK WND 31030/2228 SLP096 T02060044= 201705152351 METAR KEWR 152351Z 32014G25KT 10SM FEW060 FEW250 19/05 A2984 RMK AO2 PK WND 31026/2328 SLP104 T01940050 10217 20189 51030= 201705160051 METAR KEWR 160051Z 31008G16KT 10SM FEW250 18/06 A2988 RMK AO2 PK WND 32028/0008 SLP119 T01780056= 201705160151 METAR KEWR 160151Z 31012G16KT 10SM FEW250 18/05 A2990 RMK AO2 SLP124 T01780050= 201705160251 METAR KEWR 160251Z 30010KT 10SM FEW250 17/06 A2990 RMK AO2 SLP125 T01670056 51021= 201705160351 METAR KEWR 160351Z 31010KT 10SM CLR 16/06 A2992 RMK AO2 SLP132 T01610056= 201705160451 METAR KEWR 160451Z 31009KT 10SM CLR 16/06 A2994 RMK AO2 SLP137 T01610061 402170117= 201705160551 METAR KEWR 160551Z 32006KT 10SM CLR 16/07 A2993 RMK AO2 SLP135 T01560067 10194 20156 50009= 201705160651 METAR KEWR 160651Z 22006KT 10SM CLR 13/07 A2994 RMK AO2 SLP136 T01330067= 201705160751 METAR KEWR 160751Z 26006KT 10SM CLR 14/07 A2995 RMK AO2 SLP141 T01440067= 201705160851 METAR KEWR 160851Z 00000KT 10SM CLR 14/07 A2997 RMK AO2 SLP147 T01390067 53012= 201705160951 METAR KEWR 160951Z 00000KT 10SM FEW250 14/07 A2998 RMK AO2 SLP151 T01390067= 201705161051 METAR KEWR 161051Z 30003KT 10SM SCT250 14/07 A3001 RMK AO2 SLP162 T01440072= 201705161151 METAR KEWR 161151Z 28005KT 10SM BKN250 16/07 A3001 RMK AO2 SLP161 T01610072 10161 20128 50014= 201705161251 METAR KEWR 161251Z 29008KT 10SM FEW120 BKN250 18/07 A3002 RMK AO2 SLP167 T01830072= 201705161351 METAR KEWR 161351Z 32007KT 260V350 10SM FEW120 BKN250 20/07 A3003 RMK AO2 SLP168 T02000072= 201705161451 METAR KEWR 161451Z 27009G15KT 10SM FEW120 BKN250 21/08 A3002 RMK AO2 SLP167 T02110083 50006= 201705161551 METAR KEWR 161551Z 29009KT 10SM BKN250 23/07 A3002 RMK AO2 SLP164 T02280072= 201705161651 METAR KEWR 161651Z 28010G15KT 10SM FEW120 BKN250 24/08 A3001 RMK AO2 SLP160 T02390083= 201705161751 METAR KEWR 161751Z 29010KT 10SM FEW120 BKN250 24/08 A2999 RMK AO2 SLP153 T02440083 10244 20161 58013= 201705161851 METAR KEWR 161851Z 25013G20KT 10SM FEW120 BKN250 26/08 A2998 RMK AO2 SLP152 T02560083= 201705161951 METAR KEWR 161951Z 25010KT 10SM FEW120 BKN250 26/08 A2996 RMK AO2 SLP146 T02610083= 201705162051 METAR KEWR 162051Z 24012KT 10SM BKN140 BKN190 BKN250 26/07 A2995 RMK AO2 SLP142 T02560072 58012= 201705162151 METAR KEWR 162151Z 24010KT 10SM BKN130 BKN200 BKN260 26/07 A2994 RMK AO2 SLP139 T02560072= 201705162251 METAR KEWR 162251Z 23008KT 10SM BKN130 BKN200 BKN260 25/07 A2994 RMK AO2 SLP138 T02500067= 201705162351 METAR KEWR 162351Z 23009KT 10SM FEW120 FEW200 BKN260 24/08 A2995 RMK AO2 SLP142 T02440078 10272 20244 53000= 201705170051 METAR KEWR 170051Z 25007KT 10SM FEW110 BKN260 23/08 A2996 RMK AO2 SLP145 T02330083= 201705170151 METAR KEWR 170151Z 24004KT 10SM FEW120 SCT260 22/09 A2998 RMK AO2 SLP152 T02220089= 201705170251 METAR KEWR 170251Z 23008KT 10SM FEW120 SCT260 21/09 A2998 RMK AO2 SLP150 T02110089 50008= 201705170351 METAR KEWR 170351Z 26007KT 10SM FEW120 BKN200 BKN260 22/08 A2998 RMK AO2 SLP153 T02170083= 201705170451 METAR KEWR 170451Z 23007KT 10SM SCT200 BKN260 19/08 A2998 RMK AO2 SLP153 T01940083 402720128= 201705170551 METAR KEWR 170551Z 24007KT 10SM SCT200 SCT250 19/08 A2998 RMK AO2 SLP151 T01890083 10244 20183 50001= 201705170651 METAR KEWR 170651Z 21004KT 10SM SCT250 16/09 A2998 RMK AO2 SLP152 T01560089= 201705170751 METAR KEWR 170751Z 20004KT 10SM CLR 17/10 A2999 RMK AO2 SLP155 T01670100= 201705170851 METAR KEWR 170851Z 25003KT 10SM SCT250 16/10 A3001 RMK AO2 SLP160 T01610100 53009= 201705170951 METAR KEWR 170951Z 00000KT 10SM SCT250 17/11 A3001 RMK AO2 SLP162 T01670106= 201705171051 METAR KEWR 171051Z 20006KT 10SM FEW250 17/12 A3002 RMK AO2 SLP165 T01720117= 201705171151 METAR KEWR 171151Z 23009KT 10SM FEW250 19/12 A3002 RMK AO2 SLP166 T01940122 10194 20150 51005= 201705171251 METAR KEWR 171251Z 23009KT 10SM FEW250 22/12 A3002 RMK AO2 SLP165 T02220122= 201705171351 METAR KEWR 171351Z 23009KT 10SM FEW250 24/13 A3001 RMK AO2 SLP161 T02440128= 201705171451 METAR KEWR 171451Z 27010KT 10SM SCT070 SCT250 27/14 A3000 RMK AO2 SLP157 T02720139 58009= 201705171551 METAR KEWR 171551Z 21009KT 10SM FEW075 FEW250 29/15 A2997 RMK AO2 SLP150 T02890150= 201705171651 METAR KEWR 171651Z 23012KT 10SM FEW075 FEW250 31/16 A2995 RMK AO2 SLP143 T03110161= 201705171751 METAR KEWR 171751Z 23013G18KT 10SM FEW055 32/16 A2993 RMK AO2 SLP136 T03220161 10322 20194 56021= 201705171851 METAR KEWR 171851Z 24015G19KT 10SM CLR 32/16 A2992 RMK AO2 PK WND 19026/1824 SLP130 T03220161= 201705171951 METAR KEWR 171951Z 20012G20KT 10SM FEW250 32/16 A2990 RMK AO2 SLP123 T03220161= 201705172051 METAR KEWR 172051Z 22014KT 10SM FEW250 33/15 A2989 RMK AO2 SLP122 T03280150 56014= 201705172151 METAR KEWR 172151Z 22014G23KT 10SM SCT250 32/16 A2989 RMK AO2 PK WND 25026/2056 SLP120 T03170156= 201705172251 METAR KEWR 172251Z 23012G20KT 10SM SCT250 32/14 A2989 RMK AO2 SLP121 T03220144= 201705172351 METAR KEWR 172351Z 22014G20KT 10SM BKN250 31/17 A2990 RMK AO2 SLP125 T03060167 10333 20306 53003= 201705180051 METAR KEWR 180051Z 23014G22KT 10SM BKN250 29/17 A2991 RMK AO2 SLP127 T02940167= 201705180151 METAR KEWR 180151Z 23010KT 10SM BKN250 29/17 A2993 RMK AO2 SLP134 T02890167= 201705180251 METAR KEWR 180251Z 19007KT 10SM BKN250 28/17 A2993 RMK AO2 SLP136 T02780172 51011= 201705180351 METAR KEWR 180351Z 20009KT 10SM BKN250 27/18 A2993 RMK AO2 SLP134 T02670178= 201705180451 METAR KEWR 180451Z 20007KT 10SM BKN250 26/18 A2992 RMK AO2 SLP131 T02560178 403330150= 201705180551 METAR KEWR 180551Z 22008KT 10SM BKN250 26/18 A2992 RMK AO2 SLP131 T02560183 10306 20250 56005= 201705180651 METAR KEWR 180651Z 22008KT 10SM BKN250 25/18 A2990 RMK AO2 SLP125 T02500178= 201705180751 METAR KEWR 180751Z 22007KT 10SM BKN250 24/18 A2991 RMK AO2 SLP128 T02390178= 201705180851 METAR KEWR 180851Z 23007KT 10SM BKN250 23/18 A2992 RMK AO2 SLP132 T02330178 53001= 201705180951 METAR KEWR 180951Z 22008KT 10SM BKN250 23/18 A2993 RMK AO2 SLP133 T02330178= 201705181051 METAR KEWR 181051Z 24008KT 10SM BKN250 24/18 A2995 RMK AO2 SLP142 T02390178= 201705181151 METAR KEWR 181151Z 22010KT 10SM BKN250 26/18 A2996 RMK AO2 SLP145 T02560183 10256 20233 53013= 201705181251 METAR KEWR 181251Z 24008KT 10SM BKN250 28/18 A2995 RMK AO2 SLP142 T02780183= 201705181351 METAR KEWR 181351Z 22007KT 10SM SCT250 29/19 A2994 RMK AO2 SLP139 T02890189= 201705181451 METAR KEWR 181451Z 23011KT 10SM SCT250 31/18 A2992 RMK AO2 SLP133 T03060183 58012= 201705181551 METAR KEWR 181551Z 24011G18KT 10SM SCT250 32/17 A2991 RMK AO2 SLP127 T03170172= 201705181651 METAR KEWR 181651Z 23010G18KT 10SM FEW060 SCT250 33/17 A2989 RMK AO2 SLP122 T03330172= 201705181751 METAR KEWR 181751Z 23014G20KT 10SM FEW065 SCT250 33/16 A2987 RMK AO2 SLP115 T03330156 10339 20256 58018= 201705181851 METAR KEWR 181851Z 25018G25KT 10SM FEW065 SCT250 34/16 A2986 RMK AO2 SLP110 T03440156= 201705181951 METAR KEWR 181951Z 24017G24KT 10SM SCT075 SCT250 33/15 A2984 RMK AO2 PK WND 23026/1928 SLP105 T03330150= 201705182051 METAR KEWR 182051Z 23018G23KT 10SM FEW065 FEW100 SCT250 34/15 A2984 RMK AO2 PK WND 23026/2020 SLP104 T03390150 56011= 201705182151 METAR KEWR 182151Z 21015G21KT 10SM FEW065 FEW100 SCT250 33/16 A2982 RMK AO2 SLP098 T03280161= 201705182251 METAR KEWR 182251Z 23015G23KT 10SM FEW060 FEW100 SCT250 32/17 A2982 RMK AO2 SLP097 T03220167= 201705182351 METAR KEWR 182351Z 21015G21KT 10SM FEW100 SCT250 31/17 A2983 RMK AO2 SLP100 T03110172 10344 20311 55004= 201705190051 METAR KEWR 190051Z 21013G21KT 10SM FEW100 SCT250 30/18 A2984 RMK AO2 SLP103 T03000178= 201705190151 METAR KEWR 190151Z 22018G26KT 10SM FEW100 SCT250 29/17 A2985 RMK AO2 PK WND 23031/0138 SLP108 T02940172= 201705190251 METAR KEWR 190251Z 22013G22KT 10SM FEW100 SCT250 28/18 A2985 RMK AO2 PK WND 22027/0154 SLP107 OCNL LTGIC DSNT N-DSNT NE CB DSNT N-DSNT NE MOV E T02830178 50007= 201705190351 METAR KEWR 190351Z 23010KT 10SM FEW100 BKN250 28/18 A2986 RMK SLP111 FRQ LTGIC DSNT NE CB DSNT NE MOV E T02780178= 201705190451 METAR KEWR 190451Z 24010KT 10SM FEW200 BKN250 27/18 A2986 RMK AO2 SLP111 T02720178 403440233= 201705190551 METAR KEWR 190551Z 22008KT 10SM FEW180 SCT250 26/18 A2985 RMK AO2 SLP107 T02560183 10311 20256 50000= 201705190651 METAR KEWR 190651Z 21010KT 10SM SCT250 26/18 A2985 RMK AO2 SLP107 T02560183= 201705190751 METAR KEWR 190751Z 25010KT 10SM FEW250 26/19 A2986 RMK AO2 SLP110 T02560189= 201705190851 METAR KEWR 190851Z 23011KT 10SM SCT250 24/19 A2987 RMK AO2 SLP114 T02440189 53007= 201705190951 METAR KEWR 190951Z 23012KT 10SM FEW150 SCT250 24/19 A2988 RMK AO2 SLP118 T02390189= 201705191051 METAR KEWR 191051Z 24010KT 10SM SCT250 24/19 A2989 RMK AO2 SLP120 T02440194= 201705191151 METAR KEWR 191151Z 25012KT 10SM FEW250 26/19 A2989 RMK AO2 SLP122 T02610194 10261 20239 51008= 201705191251 METAR KEWR 191251Z 26014KT 10SM CLR 28/18 A2989 RMK AO2 SLP122 T02830183= 201705191351 METAR KEWR 191351Z 25013KT 10SM CLR 29/18 A2989 RMK AO2 SLP120 T02940183= 201705191451 METAR KEWR 191451Z 26013G17KT 10SM FEW045 31/18 A2988 RMK AO2 SLP119 T03110178 58003= 201705191551 METAR KEWR 191551Z 24010G20KT 10SM FEW055 FEW250 32/18 A2988 RMK AO2 SLP117 T03170178= 201705191651 METAR KEWR 191651Z 25014G20KT 10SM FEW065 SCT250 33/17 A2986 RMK AO2 SLP111 T03280172= 201705191751 METAR KEWR 191751Z 27016G24KT 10SM SCT065 SCT250 33/17 A2985 RMK AO2 PK WND 24028/1707 SLP106 T03330167 10333 20261 58013= 201705191851 METAR KEWR 191851Z 24013G24KT 10SM SCT065 SCT250 33/17 A2984 RMK AO2 SLP103 T03330167= 201705191951 METAR KEWR 191951Z 25019G25KT 10SM FEW065 FEW100 BKN250 34/15 A2983 RMK AO2 PK WND 27026/1939 LTG DSNT NE SLP102 CB DSNT NE MOV E T03390150= 201705192051 METAR KEWR 192051Z 27015G21KT 10SM FEW065 FEW100 BKN250 33/16 A2983 RMK AO2 SLP101 T03330156 56005= 201705192151 METAR KEWR 192151Z 24010G20KT 10SM FEW060 FEW100 BKN250 33/15 A2983 RMK AO2 SLP102 T03280150= 201705192251 METAR KEWR 192251Z 24012G20KT 10SM FEW060 FEW090 BKN250 33/15 A2985 RMK AO2 SLP106 T03280150= 201705192351 METAR KEWR 192351Z 27010KT 10SM FEW060 FEW090 BKN250 32/13 A2986 RMK AO2 SLP111 CB DSNT NE MOV E T03170128 10339 20317 53010= 201705200051 METAR KEWR 200051Z 34016G22KT 10SM FEW060 FEW090 BKN250 29/14 A2992 RMK AO2 WSHFT 0011 SLP131 T02890139= 201705200151 METAR KEWR 200151Z 01014G22KT 10SM FEW070 BKN250 27/13 A2996 RMK AO2 SLP146 T02670128= 201705200251 METAR KEWR 200251Z 35018KT 10SM FEW070 BKN250 25/10 A2999 RMK AO2 SLP154 T02500100 51044= 201705200351 METAR KEWR 200351Z 02015KT 10SM FEW050 FEW080 BKN250 21/11 A3003 RMK AO2 SLP169 T02110106= 201705200451 METAR KEWR 200451Z 02015G23KT 10SM FEW080 SCT250 19/10 A3006 RMK AO2 SLP177 T01890100 403390189= 201705200551 METAR KEWR 200551Z 01015KT 10SM FEW080 SCT110 BKN250 18/10 A3007 RMK AO2 SLP183 T01780100 10317 20178 51029= 201705200651 METAR KEWR 200651Z 02019KT 10SM FEW110 BKN250 17/09 A3010 RMK AO2 SLP194 T01670094= 201705200751 METAR KEWR 200751Z 02013KT 10SM FEW080 SCT110 BKN250 16/09 A3012 RMK AO2 SLP198 T01560089= 201705200851 METAR KEWR 200851Z 02011G18KT 10SM BKN070 BKN110 BKN250 16/08 A3013 RMK AO2 SLP201 T01560083 51018= 201705200951 METAR KEWR 200951Z 02011KT 10SM -RA BKN060 BKN090 BKN180 16/09 A3018 RMK AO2 RAB43 SLP217 P0000 T01560089= 201705201051 METAR KEWR 201051Z 03012KT 10SM -RA FEW030 SCT060 BKN100 BKN180 16/08 A3020 RMK AO2 RAE03B49 SLP227 P0000 T01560083= 201705201151 METAR KEWR 201151Z 03011KT 10SM SCT060 BKN085 BKN190 17/05 A3023 RMK AO2 RAE1058 SLP235 P0000 60000 T01670050 10178 20150 51034= 201705201251 METAR KEWR 201251Z 06012KT 10SM BKN060 BKN080 BKN190 OVC250 17/03 A3026 RMK AO2 SLP245 T01670033= 201705201351 METAR KEWR 201351Z 05010KT 10SM OVC065 17/03 A3028 RMK AO2 SLP252 VCSH T01670033= 201705201451 METAR KEWR 201451Z 04010KT 10SM -RA BKN070 OVC110 17/05 A3028 RMK AO2 RAB00E11B51 SLP252 P0000 60000 T01670050 50017= 201705201551 METAR KEWR 201551Z 05007KT 10SM FEW044 BKN080 OVC110 17/06 A3029 RMK AO2 RAE20 SLP256 VCSH P0000 T01670056= 201705201651 METAR KEWR 201651Z 06008KT 10SM -RA FEW045 OVC070 17/06 A3029 RMK AO2 RAB47 SLP256 P0000 T01720056= 201705201751 METAR KEWR 201751Z 10004KT 10SM FEW048 OVC060 17/04 A3030 RMK AO2 RAE03 SLP259 P0000 60000 T01720039 10178 20156 51007= 201705201851 METAR KEWR 201851Z 17009KT 10SM OVC060 16/07 A3031 RMK AO2 SLP261 T01560072= 201705201951 METAR KEWR 201951Z 17006KT 10SM OVC065 16/07 A3030 RMK AO2 SLP260 T01560067= 201705202051 METAR KEWR 202051Z 15006KT 10SM BKN065 BKN100 16/06 A3031 RMK AO2 SLP261 T01560061 51002= 201705202151 METAR KEWR 202151Z 17008KT 10SM SCT065 BKN085 BKN130 16/06 A3030 RMK AO2 SLP260 T01610056= 201705202251 METAR KEWR 202251Z 15007KT 10SM FEW065 FEW085 BKN130 16/06 A3030 RMK AO2 SLP260 T01610056= 201705202351 METAR KEWR 202351Z 17006KT 10SM FEW085 BKN130 BKN250 16/06 A3031 RMK AO2 SLP262 T01560056 10172 20156 53001= 201705210051 METAR KEWR 210051Z 17006KT 10SM FEW085 SCT130 BKN250 14/06 A3031 RMK AO2 SLP263 T01440056= 201705210151 METAR KEWR 210151Z 17006KT 10SM FEW130 BKN250 13/06 A3032 RMK AO2 SLP267 T01330061= 201705210251 METAR KEWR 210251Z 18005KT 10SM SCT250 13/06 A3033 RMK AO2 SLP269 T01330061 53007= 201705210351 METAR KEWR 210351Z 17005KT 10SM FEW250 13/06 A3034 RMK AO2 SLP272 T01280061= 201705210451 METAR KEWR 210451Z 19004KT 10SM FEW250 12/06 A3035 RMK AO2 SLP276 T01170061 401890117= 201705210551 METAR KEWR 210551Z 19003KT 10SM FEW250 12/06 A3033 RMK AO2 SLP269 T01170061 10156 20117 58000= 201705210651 METAR KEWR 210651Z 20003KT 10SM FEW250 11/06 A3033 RMK AO2 SLP269 T01110061= 201705210751 METAR KEWR 210751Z 26004KT 10SM FEW250 11/06 A3033 RMK AO2 SLP271 T01110061= 201705210851 METAR KEWR 210851Z 32003KT 10SM FEW250 11/06 A3034 RMK AO2 SLP272 T01110061 53003= 201705210951 METAR KEWR 210951Z 00000KT 10SM BKN250 11/06 A3036 RMK AO2 SLP279 T01110061= 201705211051 METAR KEWR 211051Z 07003KT 10SM FEW150 BKN250 13/06 A3035 RMK AO2 SLP277 T01280061= 201705211151 METAR KEWR 211151Z 03004KT 10SM FEW140 BKN250 14/06 A3035 RMK AO2 SLP278 T01440061 10144 20106 51006= 201705211251 METAR KEWR 211251Z 06006KT 10SM FEW140 BKN250 17/01 A3037 RMK SLP284 T01670011= 201705211351 METAR KEWR 211351Z 10SM FEW140 BKN250 17/M01 A3037 RMK AO2 SLP284 T01721006= 201705211451 METAR KEWR 211451Z 12007KT 10SM FEW100 SCT180 BKN250 18/M01 A3039 RMK AO2 SLP289 T01781011 51010= 201705211551 METAR KEWR 211551Z 14012KT 10SM FEW200 BKN250 18/00 A3038 RMK AO2 SLP287 T01830000= 201705211651 METAR KEWR 211651Z 14011G18KT 10SM BKN250 18/00 A3036 RMK AO2 SLP281 T01780000= 201705211751 METAR KEWR 211751Z 15008G17KT 130V200 10SM FEW100 BKN260 18/02 A3035 RMK AO2 SLP276 T01830017 10189 20150 58013= 201705211851 METAR KEWR 211851Z 16009G18KT 10SM FEW100 SCT260 18/02 A3033 RMK AO2 SLP270 T01830017= 201705211951 METAR KEWR 211951Z 15010G17KT 10SM FEW100 FEW200 BKN280 18/01 A3031 RMK AO2 SLP264 T01830011= 201705212051 METAR KEWR 212051Z 16011G19KT 10SM FEW090 FEW200 BKN280 17/03 A3030 RMK AO2 SLP258 T01720028 58018= 201705212151 METAR KEWR 212151Z 15009KT 10SM FEW090 SCT140 BKN260 16/04 A3029 RMK AO2 SLP256 T01610039= 201705212251 METAR KEWR 212251Z 13009KT 10SM SCT060 BKN100 BKN250 16/05 A3028 RMK AO2 SLP254 T01560050= 201705212351 METAR KEWR 212351Z 14008KT 10SM BKN060 BKN100 BKN250 14/06 A3028 RMK AO2 SLP253 T01440056 10189 20144 56005= 201705220051 METAR KEWR 220051Z 14008KT 10SM BKN060 OVC100 14/06 A3028 RMK AO2 SLP251 T01390061 $= 201705220151 METAR KEWR 220151Z 14008KT 10SM OVC060 14/07 A3028 RMK AO2 SLP253 T01390067= 201705220251 METAR KEWR 220251Z 15008KT 10SM OVC060 14/07 A3027 RMK AO2 SLP248 T01390072 58005= 201705220351 METAR KEWR 220351Z 16006KT 10SM OVC060 14/08 A3025 RMK AO2 SLP243 T01390078= 201705220451 METAR KEWR 220451Z 17006KT 10SM BKN050 OVC060 14/08 A3023 RMK AO2 SLP235 T01390078 401890106= 201705220551 METAR KEWR 220551Z 16004KT 10SM -RA OVC050 14/09 A3021 RMK AO2 RAB04 SLP228 P0000 60000 T01390089 10144 20139 58019= 201705220651 METAR KEWR 220651Z 16004KT 10SM -RA OVC050 13/09 A3020 RMK AO2 RAE0553B35 SLP225 P0000 T01330094 $= 201705220751 METAR KEWR 220751Z 08003KT 10SM +RA BKN050 BKN060 OVC090 13/10 A3018 RMK AO2 SLP220 P0011 T01280100 $= 201705220851 METAR KEWR 220851Z 00000KT 9SM -RA BKN050 BKN065 OVC075 13/11 A3017 RMK AO2 SLP216 P0004 60015 T01330111 58013 $= 201705220951 METAR KEWR 220951Z 00000KT 10SM BKN034 BKN050 OVC075 13/11 A3017 RMK AO2 RAE41 SLP215 P0000 T01330106 $= 201705221051 METAR KEWR 221051Z VRB04KT 10SM FEW015 BKN030 OVC040 13/10 A3016 RMK AO2 SLP212 T01330100 $= 201705221151 METAR KEWR 221151Z 13006KT 10SM -RA FEW012 BKN019 OVC030 14/10 A3016 RMK AO2 RAB33 SLP214 P0000 60015 70015 T01390100 10139 20128 55002 $= 201705221251 METAR KEWR 221251Z 12006KT 5SM -RA BR FEW009 BKN014 OVC020 13/11 A3016 RMK AO2 SLP213 P0001 T01280111 $= 201705221351 METAR KEWR 221351Z 09005KT 2 1/2SM -RA BR BKN004 OVC009 13/12 A3014 RMK AO2 SFC VIS 4 SLP205 P0004 T01280117 $= 201705221451 METAR KEWR 221451Z 11005KT 2 1/2SM -RA BR BKN005 OVC010 13/12 A3012 RMK AO2 SLP197 CIG 004V006 P0005 60010 T01280122 58017= 201705221551 METAR KEWR 221551Z 10005KT 2 1/2SM -RA BR BKN005 OVC010 13/13 A3009 RMK AO2 SLP189 P0006 T01330128= 201705221651 METAR KEWR 221651Z 11007KT 6SM -RA BR BKN005 OVC010 14/13 A3007 RMK AO2 RAE01B27 SLP182 P0001 T01390133 $= 201705221751 METAR KEWR 221751Z VRB04KT 4SM RA BR OVC005 14/14 A3004 RMK AO2 SLP173 P0006 60023 T01440144 10144 20128 58024 $= 201705221851 METAR KEWR 221851Z 10003KT 2 1/2SM R04R/6000VP6000FT +RA BR OVC006 14/14 A3002 RMK AO2 SLP163 CIG 004V008 P0017 T01440144 $= 201705221951 METAR KEWR 221951Z 08004KT 2 1/2SM -RA BR BKN004 OVC016 15/15 A2999 RMK AO2 SFC VIS 3 SLP154 CIG 003V006 P0011 T01500150 $= 201705222051 METAR KEWR 222051Z 10004KT 2 1/2SM -RA BR OVC004 15/15 A2998 RMK AO2 SFC VIS 4 SLP151 P0003 60031 T01500150 56022 $= 201705222151 METAR KEWR 222151Z 11003KT 3SM BR OVC004 15/15 A2997 RMK AO2 SFC VIS 6 RAE43 SLP147 P0001 T01500150 $= 201705222251 METAR KEWR 222251Z 13003KT 3SM BR OVC005 15/15 A2996 RMK AO2 SFC VIS 6 SLP146 T01500150 $= 201705222351 METAR KEWR 222351Z 00000KT 1 1/2SM -RA BR OVC005 16/16 A2997 RMK AO2 SFC VIS 5 RAB49 SLP147 P0000 60032 T01560156 10156 20144 55004 $= 201705230051 METAR KEWR 230051Z 00000KT 7SM OVC007 16/16 A2996 RMK AO2 RAE03 SLP144 P0000 T01560156 $= 201705230151 METAR KEWR 230151Z 27004KT 10SM BKN009 OVC070 16/15 A2997 RMK AO2 SLP149 T01560150 $= 201705230251 METAR KEWR 230251Z 28006KT 10SM SCT008 BKN012 OVC070 15/15 A2996 RMK AO2 SLP146 60000 T01500150 57001 $= 201705230351 METAR KEWR 230351Z VRB05KT 10SM OVC010 15/15 A2995 RMK AO2 SLP143 T01500150 $= 201705230451 METAR KEWR 230451Z 30006KT 10SM OVC009 15/14 A2996 RMK AO2 SLP144 T01500144 401560128 $= 201705230551 METAR KEWR 230551Z 31008KT 10SM OVC010 15/14 A2995 RMK AO2 SLP140 60000 T01500139 10156 20144 58005 $= 201705230651 METAR KEWR 230651Z 01005KT 10SM BKN012 OVC024 14/14 A2993 RMK AO2 SLP134 T01440139 $= 201705230751 METAR KEWR 230751Z 35005KT 10SM FEW012 SCT024 OVC250 14/14 A2993 RMK AO2 SLP135 T01440139 $= 201705230851 METAR KEWR 230851Z 36006KT 10SM FEW018 OVC024 14/14 A2993 RMK AO2 SLP134 T01440139 56006 $= 201705230951 METAR KEWR 230951Z 02008KT 10SM FEW015 FEW025 BKN250 14/13 A2994 RMK AO2 SLP138 T01390128 $= 201705231051 METAR KEWR 231051Z 01010KT 10SM FEW005 FEW014 BKN250 14/13 A2996 RMK AO2 SLP145 T01440128 $= 201705231151 METAR KEWR 231151Z 02008KT 10SM FEW009 OVC250 14/11 A2995 RMK AO2 SLP142 70055 T01440111 10156 20133 50008 $= 201705231251 METAR KEWR 231251Z 01007KT 10SM FEW023 OVC250 17/11 A2996 RMK AO2 SLP143 T01670111 $= 201705231351 METAR KEWR 231351Z 04007KT 10SM FEW028 BKN220 OVC250 17/09 A2995 RMK AO2 SLP142 T01670089 $= 201705231451 METAR KEWR 231451Z 02007KT 10SM FEW035 SCT220 OVC250 18/09 A2996 RMK AO2 SLP145 T01830094 53002= 201705231551 METAR KEWR 231551Z 02008KT 10SM FEW040 BKN190 OVC250 19/08 A2993 RMK AO2 SLP135 T01890083= 201705231651 METAR KEWR 231651Z 03009KT 10SM FEW040 BKN170 OVC250 20/09 A2993 RMK AO2 SLP134 T02000089= 201705231751 METAR KEWR 231751Z 03008KT 10SM BKN150 BKN180 OVC250 20/08 A2990 RMK AO2 SLP125 T02000078 10206 20144 56020= 201705231851 METAR KEWR 231851Z 06004KT 10SM BKN140 BKN160 OVC250 21/08 A2988 RMK AO2 SLP118 T02060078= 201705231951 METAR KEWR 231951Z 00000KT 10SM BKN140 OVC160 21/07 A2986 RMK AO2 SLP111 T02060072= 201705232051 METAR KEWR 232051Z VRB04KT 10SM FEW110 BKN140 OVC250 21/09 A2985 RMK AO2 SLP106 T02060089 56019= 201705232151 METAR KEWR 232151Z VRB06KT 10SM FEW120 SCT140 OVC250 21/09 A2983 RMK AO2 SLP100 T02060094= 201705232251 METAR KEWR 232251Z 16005KT 10SM FEW110 BKN140 OVC250 19/09 A2982 RMK AO2 SLP098 T01940094= 201705232351 METAR KEWR 232351Z 20003KT 10SM FEW100 BKN130 OVC250 19/09 A2983 RMK AO2 SLP100 T01890094 10211 20189 55006= 201705240051 METAR KEWR 240051Z 16004KT 10SM FEW100 SCT130 BKN190 OVC250 18/10 A2982 RMK AO2 SLP099 T01830100= 201705240151 METAR KEWR 240151Z 17003KT 10SM FEW100 BKN130 OVC200 17/11 A2983 RMK AO2 SLP101 T01720106= 201705240251 METAR KEWR 240251Z 00000KT 10SM FEW100 BKN130 OVC200 17/11 A2982 RMK AO2 SLP096 T01670106 58003= 201705240351 METAR KEWR 240351Z 00000KT 10SM FEW100 BKN130 OVC200 17/10 A2978 RMK AO2 SLP084 T01720100= 201705240451 METAR KEWR 240451Z 00000KT 10SM BKN140 OVC180 17/10 A2976 RMK AO2 SLP077 T01670100 402110133= 201705240551 METAR KEWR 240551Z 04003KT 10SM BKN120 OVC150 17/09 A2974 RMK AO2 SLP071 T01670089 10189 20161 56026= 201705240651 METAR KEWR 240651Z 13004KT 10SM BKN110 17/08 A2974 RMK AO2 SLP072 T01670083= 201705240751 METAR KEWR 240751Z 12006KT 10SM BKN100 OVC150 16/09 A2974 RMK AO2 SLP069 T01560094= 201705240851 METAR KEWR 240851Z 10007KT 10SM -RA OVC110 15/11 A2972 RMK AO2 RAB01E16B49 SLP062 P0000 60000 T01500106 58009= 201705240951 METAR KEWR 240951Z 00000KT 10SM -RA BKN110 OVC150 14/12 A2974 RMK AO2 SLP069 P0001 T01440117= 201705241051 METAR KEWR 241051Z 03004KT 10SM FEW048 SCT080 BKN110 OVC140 14/13 A2973 RMK AO2 RAE34 SLP068 P0003 T01440128= 201705241151 METAR KEWR 241151Z 04007KT 10SM FEW080 BKN100 BKN150 BKN250 16/12 A2974 RMK AO2 SLP069 60004 70004 T01560122 10167 20139 51007= 201705241251 METAR KEWR 241251Z 03007KT 10SM SCT080 BKN100 OVC150 16/11 A2975 RMK AO2 SLP073 T01560111= 201705241351 METAR KEWR 241351Z 02006KT 10SM FEW015 BKN080 BKN100 OVC140 16/12 A2975 RMK AO2 SLP074 T01610117= 201705241451 METAR KEWR 241451Z 04003KT 10SM FEW020 BKN070 OVC100 17/12 A2977 RMK AO2 SLP080 T01720117 53012= 201705241551 METAR KEWR 241551Z 02007KT 10SM FEW027 SCT080 BKN110 BKN250 19/12 A2975 RMK AO2 SLP072 T01940122= 201705241651 METAR KEWR 241651Z 03008KT 10SM FEW028 SCT085 BKN110 21/11 A2975 RMK AO2 SLP073 T02060111= 201705241751 METAR KEWR 241751Z 05011KT 10SM FEW038 BKN080 21/10 A2975 RMK AO2 SLP072 T02060100 10211 20156 56008= 201705241851 METAR KEWR 241851Z 09006G15KT 10SM FEW039 BKN085 21/09 A2975 RMK AO2 SLP074 T02060094= 201705241951 METAR KEWR 241951Z 08005KT 10SM FEW040 OVC085 21/09 A2975 RMK AO2 SLP075 T02060094= 201705242051 METAR KEWR 242051Z 07004KT 10SM FEW040 BKN080 21/10 A2978 RMK AO2 SLP082 T02060100 53010= 201705242151 METAR KEWR 242151Z 14007KT 110V170 10SM FEW040 BKN080 BKN250 18/12 A2978 RMK AO2 SLP083 T01780117= 201705242251 METAR KEWR 242251Z 14007KT 10SM FEW030 BKN080 BKN250 17/11 A2978 RMK AO2 SLP083 T01720111= 201705242351 METAR KEWR 242351Z 14006KT 10SM FEW030 SCT080 BKN250 17/10 A2980 RMK AO2 SLP090 T01670100 10211 20167 53007= 201705250051 METAR KEWR 250051Z 13009KT 10SM FEW080 OVC250 16/11 A2981 RMK AO2 SLP094 T01560106= 201705250151 METAR KEWR 250151Z 12011KT 10SM OVC250 16/10 A2982 RMK AO2 SLP096 T01560100= 201705250251 METAR KEWR 250251Z 11007KT 10SM OVC240 16/11 A2982 RMK AO2 SLP097 T01560106 51007= 201705250351 METAR KEWR 250351Z 09007KT 10SM FEW015 OVC240 15/11 A2981 RMK AO2 SLP095 T01500111= 201705250451 METAR KEWR 250451Z 10009KT 080V140 10SM SCT016 OVC240 14/11 A2980 RMK AO2 SLP091 T01440111 402110139= 201705250551 METAR KEWR 250551Z 09006KT 10SM BKN017 OVC240 14/12 A2979 RMK AO2 SLP086 T01440117 10167 20144 58012= 201705250651 METAR KEWR 250651Z 10007KT 10SM BKN017 OVC033 14/12 A2976 RMK AO2 SLP076 T01440117= 201705250751 METAR KEWR 250751Z 10008G16KT 10SM OVC013 14/12 A2975 RMK AO2 SLP072 T01440117= 201705250851 METAR KEWR 250851Z 10005KT 9SM -RA OVC013 14/13 A2975 RMK AO2 RAB0753 SLP073 P0001 60001 T01390128 55013= 201705250951 METAR KEWR 250951Z 05011KT 7SM -RA BKN009 OVC013 14/13 A2970 RMK AO2 SLP058 P0004 T01390128= 201705251051 METAR KEWR 251051Z 06009KT 6SM -RA BR BKN009 OVC012 14/13 A2970 RMK AO2 SLP058 P0003 T01390128= 201705251151 METAR KEWR 251151Z 07009KT 6SM -RA BR BKN009 OVC012 14/13 A2967 RMK AO2 PRESFR SLP046 P0004 60012 70012 T01390133 10144 20133 56026= 201705251251 METAR KEWR 251251Z 08010KT 1 1/2SM R04R/5000VP6000FT RA BR BKN005 OVC011 14/13 A2966 RMK AO2 SFC VIS 2 SLP042 P0004 T01390128= 201705251351 METAR KEWR 251351Z 07010KT 1 1/2SM -RA BR BKN006 OVC016 13/13 A2963 RMK AO2 SFC VIS 2 SLP033 CIG 005V008 BKN V SCT P0014 T01330128= 201705251451 METAR KEWR 251451Z 06011KT 1 1/2SM -RA BR BKN006 OVC012 14/13 A2962 RMK AO2 SFC VIS 2 1/2 SLP030 CIG 005V008 P0006 60024 T01390133 56017= 201705251551 METAR KEWR 251551Z 07007G16KT 1 1/2SM R04R/6000VP6000FT -RA BR BKN006 OVC014 14/14 A2961 RMK AO2 SFC VIS 2 1/2 SLP028 CIG 005V008 P0009 T01390139= 201705251651 METAR KEWR 251651Z 07009KT 2 1/2SM -RA BR FEW005 BKN008 OVC013 14/14 A2959 RMK AO2 SFC VIS 4 SLP021 CIG 007V010 P0006 T01440139= 201705251751 METAR KEWR 251751Z 06007KT 2 1/2SM -DZ BR OVC006 15/14 A2958 RMK AO2 SFC VIS 3 RAE51DZB51 SLP016 CIG 005V008 P0001 60040 T01500144 10150 20133 58014= 201705251851 METAR KEWR 251851Z 03008KT 2SM R04R/4500VP6000FT -DZ BR OVC005 14/14 A2957 RMK AO2 TWR VIS 2 1/2 DZE28B51RAB28E51 SLP013 CIG 003V007 P0003 T01440144= 201705251951 METAR KEWR 251951Z 03008KT 1 1/2SM R04R/5500VP6000FT -DZ BR OVC004 14/14 A2956 RMK AO2 SFC VIS 1 3/4 DZE05B50RAB05E50 SLP009 CIG 003V006 P0002 T01440144= 201705252051 METAR KEWR 252051Z 03005KT 1 1/2SM R04R/4500FT -DZ BR OVC004 15/15 A2953 RMK AO2 SFC VIS 1 3/4 DZE28B48RAB13E48 SLP998 CIG 003V006 P0001 60006 T01500150 58018= 201705252151 METAR KEWR 252151Z 03007KT 1SM R04R/5500VP6000FT -DZ BR OVC004 14/14 A2955 RMK AO2 SFC VIS 1 1/2 SLP005 CIG 003V005 P0001 T01440144= 201705252251 METAR KEWR 252251Z 02013KT 1SM R04R/6000VP6000FT -DZ BR OVC003 14/14 A2953 RMK AO2 SFC VIS 1 1/2 SLP998 P0001 T01390139= 201705252351 METAR KEWR 252351Z 03011KT 2SM -DZ BR BKN003 OVC009 14/14 A2952 RMK AO2 SFC VIS 3 SLP994 P0000 60008 T01390139 10150 20139 58004= 201705260051 METAR KEWR 260051Z 01013KT 2SM -DZ BR OVC004 14/14 A2948 RMK AO2 SFC VIS 5 PRESFR SLP983 CIG 003V005 P0000 T01390139= 201705260151 METAR KEWR 260151Z 02006KT 2SM -RA BR BKN004 OVC007 13/13 A2949 RMK AO2 SFC VIS 4 LTG DSNT W DZE50RAB50 SLP984 P0000 T01330133= 201705260251 METAR KEWR 260251Z 02011KT 2SM +TSRA BR FEW004 BKN007 OVC020CB 13/13 A2948 RMK AO2 SFC VIS 2 1/2 LTG DSNT ALQDS TSB26 SLP981 FRQ LTGICCG OHD TS OHD MOV N P0012 60012 T01330133 56013= 201705260351 METAR KEWR 260351Z 04008KT 2 1/2SM -TSRA BR BKN005 BKN014 OVC020CB 14/14 A2949 RMK AO2 SFC VIS 3 LTG DSNT ALQDS SLP985 OCNL LTGIC OHD TS OHD MOV N P0015 T01390139= 201705260451 METAR KEWR 260451Z 26009KT 8SM -RA BKN007 BKN014 OVC024 14/14 A2949 RMK AO2 LTG DSNT E AND SE TSE33 SLP987 P0007 T01390139 401500133= 201705260551 METAR KEWR 260551Z 03009KT 8SM -RA FEW008 FEW030 OVC080 13/13 A2944 RMK AO2 SLP970 P0005 60039 T01330133 10139 20133 58011= 201705260651 METAR KEWR 260651Z 36008KT 10SM -RA SCT008 BKN070 OVC100 13/13 A2946 RMK AO2 SLP976 P0002 T01330133= 201705260751 METAR KEWR 260751Z 27005KT 10SM -RA BKN009 OVC016 13/13 A2950 RMK AO2 SLP987 P0002 T01330133= 201705260851 METAR KEWR 260851Z 34005KT 10SM FEW006 OVC022 13/13 A2951 RMK AO2 RAE00 SLP991 P0000 60004 T01330128 51021= 201705260951 METAR KEWR 260951Z 33004KT 7SM -RA FEW005 BKN009 OVC014 13/13 A2953 RMK AO2 RAB06 SLP999 P0003 T01280128= 201705261051 METAR KEWR 261051Z 31005KT 10SM -RA FEW005 FEW009 OVC017 13/13 A2956 RMK AO2 SLP008 P0002 T01280128= 201705261151 METAR KEWR 261151Z 30006KT 10SM SCT007 BKN032 OVC050 13/13 A2958 RMK AO2 RAE36 SLP016 SCT V BKN P0002 60011 70098 T01330133 10133 20128 52025 $= 201705261251 METAR KEWR 261251Z VRB06KT 10SM FEW009 SCT028 BKN090 16/14 A2959 RMK AO2 SLP019 T01610139 $= 201705261351 METAR KEWR 261351Z 28006KT 10SM SCT015 BKN032 18/15 A2959 RMK AO2 SLP018 SCT V BKN T01780150 $= 201705261451 METAR KEWR 261451Z 26011G21KT 10SM SCT019 BKN025 21/15 A2958 RMK AO2 SLP018 T02060150 50001 $= 201705261551 METAR KEWR 261551Z 23015G22KT 10SM FEW025 SCT039 BKN055 22/14 A2958 RMK AO2 SLP017 T02220139 $= 201705261651 METAR KEWR 261651Z 26017KT 10SM FEW029 SCT040 BKN060 23/13 A2959 RMK AO2 SLP019 T02330128 $= 201705261751 METAR KEWR 261751Z 27014G19KT 10SM FEW032 SCT042 BKN070 23/13 A2960 RMK AO2 SLP022 T02330133 10239 20133 53004 $= 201705261851 METAR KEWR 261851Z 29012KT 10SM SCT041 BKN080 23/13 A2961 RMK AO2 SLP027 VCSH NW T02280133 $= 201705261951 METAR KEWR 261951Z 33010G16KT 10SM SCT044 BKN060 BKN095 BKN250 24/13 A2962 RMK AO2 RAB07E26 SLP031 P0000 T02440133 $= 201705262051 METAR KEWR 262051Z 28013G18KT 10SM FEW045 BKN060 BKN095 BKN250 23/12 A2963 RMK AO2 SLP033 60000 T02330122 51011= 201705262151 METAR KEWR 262151Z 25015KT 10SM FEW045 SCT065 BKN095 BKN250 22/13 A2965 RMK AO2 SLP040 T02220133= 201705262251 METAR KEWR 262251Z 26014KT 10SM FEW050 BKN100 BKN250 22/13 A2967 RMK AO2 SLP047 T02220133= 201705262351 METAR KEWR 262351Z 27011KT 10SM FEW055 SCT095 SCT250 22/14 A2970 RMK AO2 SLP058 60000 T02170139 10244 20217 53025= 201705270051 METAR KEWR 270051Z 29008KT 10SM FEW045 BKN065 BKN100 21/14 A2974 RMK AO2 SLP069 T02110139= 201705270151 METAR KEWR 270151Z 33011KT 10SM SCT044 BKN055 BKN100 21/12 A2977 RMK AO2 SLP082 T02110122= 201705270251 METAR KEWR 270251Z 31005KT 10SM FEW048 SCT055 BKN080 20/12 A2979 RMK AO2 SLP088 T02000122 51030= 201705270351 METAR KEWR 270351Z 31010KT 10SM FEW060 19/12 A2981 RMK AO2 SLP094 T01890117= 201705270451 METAR KEWR 270451Z 31011KT 10SM FEW050 18/12 A2982 RMK AO2 SLP096 T01830117 402440128= 201705270551 METAR KEWR 270551Z 24006KT 10SM CLR 17/12 A2982 RMK AO2 SLP097 T01720117 10217 20172 51009= 201705270651 METAR KEWR 270651Z 29003KT 10SM CLR 16/12 A2982 RMK AO2 SLP096 T01610117= 201705270751 METAR KEWR 270751Z 21003KT 10SM FEW045 16/12 A2983 RMK AO2 SLP102 T01560117= 201705270851 METAR KEWR 270851Z 24004KT 10SM FEW030 SCT080 14/12 A2985 RMK AO2 SLP108 T01440117 53010= 201705270951 METAR KEWR 270951Z 23004KT 10SM FEW040 SCT080 SCT250 15/12 A2986 RMK AO2 SLP111 T01500122= 201705271051 METAR KEWR 271051Z 00000KT 10SM SCT028 BKN075 BKN250 16/13 A2987 RMK AO2 SLP116 T01610133= 201705271151 METAR KEWR 271151Z 00000KT 10SM SCT030 SCT075 BKN250 18/13 A2987 RMK AO2 SLP116 T01780133 10183 20144 51008= 201705271251 METAR KEWR 271251Z 31008KT 10SM SCT033 SCT075 20/12 A2987 RMK AO2 SLP114 T02000122= 201705271351 METAR KEWR 271351Z 32005KT 10SM SCT033 SCT080 BKN280 21/12 A2987 RMK AO2 SLP115 T02060122= 201705271451 METAR KEWR 271451Z 30006KT 10SM BKN038 BKN055 BKN280 21/12 A2987 RMK AO2 SLP114 T02110122 56002= 201705271551 METAR KEWR 271551Z 07007KT 10SM BKN041 BKN060 BKN280 22/12 A2987 RMK AO2 SLP113 T02170122= 201705271651 METAR KEWR 271651Z 07007KT 10SM FEW032 BKN045 BKN060 BKN280 21/13 A2986 RMK AO2 SLP112 T02110128= 201705271751 METAR KEWR 271751Z 25010KT 10SM SCT041 BKN060 OVC075 23/13 A2986 RMK AO2 SLP113 T02280128 10228 20183 55001= 201705271851 METAR KEWR 271851Z VRB06KT 10SM FEW041 BKN060 OVC070 23/12 A2986 RMK AO2 SLP112 T02280117= 201705271951 METAR KEWR 271951Z 25006KT 10SM FEW045 BKN055 BKN070 OVC150 23/12 A2986 RMK AO2 SLP112 T02280117= 201705272051 METAR KEWR 272051Z 24007KT 10SM FEW045 BKN055 OVC070 23/12 A2986 RMK AO2 SLP111 T02280122 57002= 201705272151 METAR KEWR 272151Z 27008KT 10SM SCT047 BKN070 OVC230 22/13 A2986 RMK AO2 SLP112 T02220133= 201705272251 METAR KEWR 272251Z 27007KT 10SM SCT047 BKN075 BKN220 BKN280 22/13 A2987 RMK AO2 SLP114 T02220128= 201705272351 METAR KEWR 272351Z 26005KT 10SM SCT047 BKN070 BKN220 BKN280 22/13 A2987 RMK AO2 SLP115 T02220128 10233 20222 53004= 201705280051 METAR KEWR 280051Z 09007KT 10SM BKN047 BKN060 BKN280 20/14 A2989 RMK AO2 SLP120 T02000139= 201705280151 METAR KEWR 280151Z 09007KT 10SM FEW044 BKN070 BKN280 18/14 A2991 RMK AO2 SLP129 T01830139= 201705280251 METAR KEWR 280251Z 11007KT 10SM SCT050 BKN060 OVC075 18/14 A2992 RMK AO2 SLP130 T01780139 51015= 201705280351 METAR KEWR 280351Z 00000KT 10SM FEW050 FEW060 BKN075 17/14 A2992 RMK AO2 SLP132 T01670139= 201705280451 METAR KEWR 280451Z 11004KT 10SM BKN075 17/14 A2990 RMK AO2 SLP125 T01670139 402330144= 201705280551 METAR KEWR 280551Z 09003KT 10SM SCT075 16/14 A2990 RMK AO2 SLP126 T01610139 10222 20161 58004= 201705280651 METAR KEWR 280651Z 09003KT 10SM SCT075 16/14 A2990 RMK AO2 SLP124 T01560139= 201705280751 METAR KEWR 280751Z 12003KT 10SM FEW075 16/14 A2988 RMK AO2 SLP117 T01560139= 201705280851 METAR KEWR 280851Z 00000KT 10SM SCT075 15/14 A2990 RMK AO2 SLP125 T01500139 55001= 201705280951 METAR KEWR 280951Z 06003KT 9SM FEW006 FEW075 SCT250 15/14 A2990 RMK AO2 SLP124 T01500139= 201705281051 METAR KEWR 281051Z 11003KT 7SM FEW010 FEW075 SCT250 16/15 A2992 RMK AO2 SLP131 T01610150= 201705281151 METAR KEWR 281151Z 08005KT 4SM BR BKN006 BKN250 16/14 A2994 RMK AO2 SLP139 T01560139 10161 20144 53015= 201705281251 METAR KEWR 281251Z VRB03KT 4SM BR OVC005 16/14 A2994 RMK AO2 SLP139 T01560144= 201705281351 METAR KEWR 281351Z 08006KT 6SM HZ SCT009 SCT070 BKN250 17/14 A2993 RMK AO2 SLP135 T01720144= 201705281451 METAR KEWR 281451Z 12007KT 10SM FEW009 FEW070 BKN240 19/15 A2993 RMK AO2 SLP136 T01940150 55004= 201705281551 METAR KEWR 281551Z 11010KT 10SM FEW012 FEW060 BKN220 BKN260 22/14 A2993 RMK AO2 SLP135 T02170144= 201705281651 METAR KEWR 281651Z 13009G15KT 10SM FEW030 FEW070 SCT220 BKN260 21/13 A2996 RMK AO2 SLP145 T02110128= 201705281751 METAR KEWR 281751Z 13008KT 10SM FEW020 FEW050 BKN250 22/14 A2995 RMK AO2 SLP142 T02170139 10217 20150 50006= 201705281851 METAR KEWR 281851Z 11008KT 10SM FEW020 FEW060 BKN250 21/14 A2993 RMK AO2 SLP134 T02110139= 201705281951 METAR KEWR 281951Z 11010G15KT 10SM FEW030 FEW070 BKN250 21/12 A2992 RMK AO2 SLP130 T02060122= 201705282051 METAR KEWR 282051Z 13009G15KT 10SM FEW030 FEW070 OVC250 20/13 A2992 RMK AO2 SLP132 T02000128 55009= 201705282151 METAR KEWR 282151Z 11011KT 10SM FEW030 BKN080 OVC200 18/12 A2994 RMK AO2 SLP136 T01830117= 201705282251 METAR KEWR 282251Z 13007KT 10SM SCT060 BKN100 OVC200 18/11 A2994 RMK AO2 SLP137 T01780106= 201705282351 METAR KEWR 282351Z 12008G14KT 10SM SCT060 BKN100 OVC150 17/10 A2994 RMK AO2 SLP139 T01720100 10217 20172 51006= 201705290051 METAR KEWR 290051Z 12006KT 10SM -RA SCT060 BKN100 OVC150 17/11 A2994 RMK AO2 RAB00 SLP138 P0000 T01720106= 201705290151 METAR KEWR 290151Z 12010KT 10SM SCT050 SCT080 BKN110 OVC140 17/11 A2993 RMK AO2 RAE15 SLP133 P0000 T01670111= 201705290251 METAR KEWR 290251Z 11008KT 10SM FEW055 FEW080 BKN120 BKN180 16/12 A2992 RMK AO2 SLP132 60000 T01610117 57006= 201705290351 METAR KEWR 290351Z 11008KT 10SM FEW050 BKN080 BKN110 OVC140 16/11 A2991 RMK AO2 SLP128 T01610111= 201705290451 METAR KEWR 290451Z 10006KT 10SM -RA FEW046 SCT090 BKN110 OVC130 16/12 A2989 RMK AO2 RAB47 SLP122 P0000 T01610117 402170144= 201705290551 METAR KEWR 290551Z 10006KT 10SM SCT050 BKN070 BKN110 OVC130 16/12 A2989 RMK AO2 RAE17 SLP119 P0000 60000 T01610117 10172 20156 56013= 201705290651 METAR KEWR 290651Z 10009KT 10SM BKN055 BKN070 OVC110 16/12 A2988 RMK AO2 RAB23E50 SLP116 P0002 T01560117= 201705290751 METAR KEWR 290751Z 07007KT 10SM -RA FEW015 BKN045 OVC070 15/12 A2986 RMK AO2 RAB04 SLP110 P0000 T01500117= 201705290851 METAR KEWR 290851Z 08008KT 10SM -RA FEW015 BKN045 OVC075 14/12 A2986 RMK AO2 SLP112 P0003 60005 T01440117 55007= 201705290951 METAR KEWR 290951Z 06006KT 10SM -RA BKN016 BKN037 OVC070 14/12 A2988 RMK AO2 RAE29B40 SLP117 P0002 T01440122= 201705291051 METAR KEWR 291051Z 07008KT 9SM -RA BKN012 BKN017 OVC040 14/13 A2989 RMK AO2 SLP119 P0002 T01440128= 201705291151 METAR KEWR 291151Z VRB06KT 10SM BKN012 OVC020 14/13 A2990 RMK AO2 RAE27 SLP123 CIG 011V015 P0000 60009 70009 T01440128 10161 20144 51011= 201705291251 METAR KEWR 291251Z 07006KT 10SM -RA BKN011 OVC017 14/13 A2991 RMK AO2 RAB42 SLP126 P0000 T01440128= 201705291351 METAR KEWR 291351Z 09004KT 10SM -RA BKN013 BKN021 OVC050 14/13 A2991 RMK AO2 RAE13B42 SLP129 P0000 T01440128= 201705291451 METAR KEWR 291451Z 08005KT 7SM -RA BKN013 BKN020 OVC040 14/12 A2993 RMK AO2 SLP136 P0005 60005 T01440122 53013= 201705291551 METAR KEWR 291551Z 08007KT 10SM -RA SCT013 BKN020 OVC035 15/12 A2995 RMK AO2 SLP142 P0000 T01500122= 201705291651 METAR KEWR 291651Z 08005KT 10SM FEW014 BKN023 OVC035 16/12 A2997 RMK AO2 RAE08 SLP148 P0000 T01560117= 201705291751 METAR KEWR 291751Z 10005KT 10SM SCT017 BKN022 OVC045 16/11 A2998 RMK AO2 SLP152 60005 T01560111 10156 20144 51016= 201705291851 METAR KEWR 291851Z 08004KT 10SM -RA BKN017 BKN022 OVC045 16/11 A3000 RMK AO2 RAB49 SLP159 P0000 T01560111= 201705291951 METAR KEWR 291951Z 14004KT 10SM BKN018 OVC027 15/12 A3000 RMK AO2 RAE32 SLP160 CIG 016V020 P0000 T01500122= 201705292051 METAR KEWR 292051Z VRB04KT 10SM OVC019 16/12 A3003 RMK AO2 SLP167 CIG 017V021 60000 T01560117 52014= 201705292151 METAR KEWR 292151Z 15007KT 10SM SCT019 BKN027 OVC034 15/11 A3003 RMK AO2 SLP169 BKN V SCT T01500111= 201705292251 METAR KEWR 292251Z 15005KT 10SM SCT016 BKN027 OVC034 15/11 A3007 RMK AO2 SLP181 T01500111= 201705292351 METAR KEWR 292351Z 14004KT 10SM FEW014 SCT029 OVC034 14/11 A3007 RMK AO2 SLP182 SCT V BKN 60000 T01440111 10156 20144 51016= 201705300051 METAR KEWR 300051Z 14005KT 10SM FEW012 SCT028 BKN250 14/12 A3006 RMK AO2 SLP180 SCT V BKN T01390117 $= 201705300151 METAR KEWR 300151Z 13006KT 10SM BKN013 BKN250 14/12 A3008 RMK AO2 SLP185 CIG 012V016 T01440122 $= 201705300251 METAR KEWR 300251Z 16005KT 10SM BKN009 OVC019 14/12 A3009 RMK AO2 SLP190 T01390117 53007 $= 201705300351 METAR KEWR 300351Z 14005KT 10SM FEW009 BKN015 OVC020 14/12 A3010 RMK AO2 SLP192 T01390117 $= 201705300451 METAR KEWR 300451Z 16006KT 10SM FEW008 BKN012 OVC020 14/12 A3012 RMK AO2 SLP200 T01390117 401610139 $= 201705300551 METAR KEWR 300551Z 16007KT 10SM FEW008 BKN012 OVC020 13/11 A3012 RMK AO2 SLP200 T01330111 10144 20133 51010 $= 201705300651 METAR KEWR 300651Z 13006KT 10SM OVC008 13/11 A3013 RMK AO2 SLP202 T01330111 $= 201705300751 METAR KEWR 300751Z 14007KT 7SM -DZ OVC006 13/12 A3013 RMK AO2 DZB31 SLP202 P0000 T01330117 $= 201705300851 METAR KEWR 300851Z 14005KT 5SM -DZ BR OVC006 13/12 A3013 RMK AO2 SLP203 P0000 60000 T01280117 52003 $= 201705300951 METAR KEWR 300951Z 15006KT 8SM -DZ OVC007 13/12 A3015 RMK AO2 SLP209 CIG 005V009 P0000 T01330122 $= 201705301051 METAR KEWR 301051Z 17006KT 10SM OVC007 13/12 A3015 RMK AO2 DZE51 SLP210 CIG 006V008 P0000 T01330122 $= 201705301151 METAR KEWR 301151Z VRB05KT 10SM OVC007 13/12 A3016 RMK AO2 SLP212 CIG 006V008 60000 70005 T01330117 10139 20128 51009 $= 201705301251 METAR KEWR 301251Z 12006KT 10SM OVC008 14/12 A3017 RMK AO2 SLP217 CIG 007V009 T01390122 $= 201705301351 METAR KEWR 301351Z 11006KT 10SM BKN009 OVC014 14/12 A3017 RMK AO2 SLP215 CIG 008V011 T01390117 $= 201705301451 METAR KEWR 301451Z VRB06KT 10SM BKN012 OVC030 15/12 A3016 RMK AO2 SLP212 CIG 010V015 T01500117 50000= 201705301551 METAR KEWR 301551Z 13007KT 10SM BKN011 OVC015 14/12 A3017 RMK AO2 SLP217 CIG 009V013 T01440117= 201705301651 METAR KEWR 301651Z 14009KT 10SM SCT008 BKN010 OVC013 14/12 A3017 RMK AO2 SLP215 T01440117= 201705301751 METAR KEWR 301751Z 14005KT 7SM -RA OVC007 14/12 A3015 RMK AO2 RAB35 SLP208 CIG 006V008 P0001 60001 T01390122 10150 20133 58005= 201705301851 METAR KEWR 301851Z 13007KT 8SM BKN007 OVC012 14/13 A3012 RMK AO2 RAE51 SLP199 CIG 005V009 P0016 T01390133= 201705301951 METAR KEWR 301951Z 13007KT 10SM OVC007 14/13 A3012 RMK AO2 SLP199 T01440128= 201705302051 METAR KEWR 302051Z 12007KT 10SM OVC008 14/13 A3011 RMK AO2 SLP195 CIG 007V009 60016 T01440128 56013= 201705302151 METAR KEWR 302151Z 12004KT 10SM OVC009 14/13 A3012 RMK AO2 SLP198 CIG 008V010 T01440128= 201705302251 METAR KEWR 302251Z 12007KT 5SM -DZ BR OVC006 14/13 A3011 RMK AO2 DZB45 SLP195 CIG 005V007 P0000 T01440128= 201705302351 METAR KEWR 302351Z 14006KT 6SM -DZ BR OVC006 14/13 A3012 RMK AO2 SLP199 P0000 60016 T01440133 10144 20139 52004 $= 201705310051 METAR KEWR 310051Z 13007KT 2 1/2SM -DZ BR OVC005 14/13 A3012 RMK AO2 SFC VIS 3 SLP197 CIG 004V006 P0000 T01390133 $= 201705310151 METAR KEWR 310151Z 14004KT 2SM -DZ BR OVC005 14/13 A3013 RMK AO2 SFC VIS 3 SLP201 CIG 004V006 P0000 T01390133 $= 201705310251 METAR KEWR 310251Z VRB03KT 2SM -RA BR OVC004 14/14 A3012 RMK AO2 SFC VIS 3 DZE09RAB09 SLP197 P0001 60001 T01440139 58001 $= 201705310351 METAR KEWR 310351Z 13005KT 2SM -DZ BR OVC003 14/14 A3010 RMK AO2 SFC VIS 3 RAE06DZB06 SLP192 P0000 T01440139 $= 201705310451 METAR KEWR 310451Z 09003KT 3SM BR OVC003 14/14 A3009 RMK AO2 DZE46 SLP189 P0000 T01440144 401500128 $= 201705310551 METAR KEWR 310551Z 08003KT 3SM BR OVC003 14/14 A3006 RMK AO2 SLP177 60001 T01440144 10144 20139 58020 $= 201705310651 METAR KEWR 310651Z 10004KT 2SM BR OVC003 15/14 A3005 RMK AO2 SLP173 T01500144 $= 201705310751 METAR KEWR 310751Z 00000KT 6SM BR OVC005 15/14 A3003 RMK AO2 SLP168 T01500144 $= 201705310851 METAR KEWR 310851Z 08004KT 1SM R04R/P6000FT BR OVC003 15/15 A3003 RMK AO2 SFC VIS 1 1/2 SLP167 T01500150 56007 $= 201705310951 METAR KEWR 310951Z 36004KT 1SM R04R/6000VP6000FT -DZ BR OVC003 15/15 A3005 RMK AO2 DZB50 SLP174 P0000 T01500150 $= 201705311051 METAR KEWR 311051Z 02006KT 1SM R04R/P6000FT -DZ BR FEW003 BKN006 OVC011 15/15 A3005 RMK AO2 SLP176 P0003 T01500150 $= 201705311151 METAR KEWR 311151Z 03007KT 3SM BR BKN004 BKN009 OVC014 16/15 A3005 RMK AO2 SFC VIS 4 DZE50 SLP175 BKN004 V SCT P0000 60003 70021 T01560150 10156 20144 50001 $= 201705311251 METAR KEWR 311251Z 01007KT 9SM FEW004 BKN007 OVC012 16/15 A3006 RMK AO2 SLP177 T01560150 $= 201705311351 METAR KEWR 311351Z 36004KT 10SM OVC008 17/16 A3004 RMK AO2 SLP173 CIG 006V010 T01670156= 201705311451 METAR KEWR 311451Z 10008KT 9SM FEW009 BKN130 18/16 A3001 RMK AO2 SLP162 T01830156 58013= 201705311551 METAR KEWR 311551Z VRB04KT 10SM FEW012 SCT130 BKN240 20/16 A3001 RMK AO2 SLP162 T02000156= 201705311651 METAR KEWR 311651Z 16006KT 10SM SCT020 SCT140 BKN250 22/16 A3000 RMK AO2 SLP159 T02170161= 201705311751 METAR KEWR 311751Z 18007KT 10SM BKN022 BKN250 23/17 A2999 RMK AO2 SLP156 T02330167 10233 20150 58006= 201705311851 METAR KEWR 311851Z 24010KT 10SM BKN025 24/17 A2998 RMK AO2 SLP151 BKN025 V SCT T02390167= 201705311951 METAR KEWR 311951Z 25009KT 10SM FEW029 SCT250 25/16 A2995 RMK AO2 SLP140 T02500161= 201705312051 METAR KEWR 312051Z 23009KT 10SM FEW031 SCT250 26/15 A2992 RMK AO2 SLP131 T02560150 58025= 201705312151 METAR KEWR 312151Z 19012KT 10SM FEW025 SCT055 SCT150 BKN250 25/16 A2991 RMK AO2 SLP129 T02500161= 201705312251 METAR KEWR 312251Z 15006KT 10SM FEW025 FEW070 SCT140 BKN250 23/16 A2991 RMK AO2 SLP128 TCU DSNT NE T02330161= 201705312351 METAR KEWR 312351Z 16005KT 10SM FEW050 FEW140 SCT250 22/16 A2991 RMK AO2 SLP128 TCU DSNT NE AND DSNT SW T02220161 10267 20217 55002=
