 201711010051 METAR KEWR 010051Z 27007KT 10SM FEW250 09/M02 A3019 RMK AO2 SLP223 T00941022= 201711010151 METAR KEWR 010151Z 28005KT 10SM FEW250 08/M02 A3022 RMK AO2 SLP234 T00831022= 201711010251 METAR KEWR 010251Z 31006KT 10SM FEW250 08/M03 A3024 RMK AO2 SLP238 T00831028 51023= 201711010351 METAR KEWR 010351Z 33005KT 10SM FEW250 08/M03 A3025 RMK AO2 SLP242 T00831028= 201711010451 METAR KEWR 010451Z 33007KT 10SM FEW250 08/M03 A3027 RMK AO2 SLP248 T00781028 401500072= 201711010551 METAR KEWR 010551Z 35006KT 10SM FEW250 07/M03 A3026 RMK AO2 SLP247 T00671028 10106 20067 50009= 201711010651 METAR KEWR 010651Z 02004KT 10SM FEW250 06/M02 A3028 RMK AO2 SLP254 T00611017= 201711010751 METAR KEWR 010751Z 00000KT 10SM FEW250 06/M02 A3028 RMK AO2 SLP251 T00561017= 201711010851 METAR KEWR 010851Z 02004KT 10SM FEW250 06/M01 A3027 RMK AO2 SLP250 T00561011 50003= 201711010951 METAR KEWR 010951Z 30003KT 10SM SCT250 06/M01 A3030 RMK AO2 SLP260 T00561006= 201711011051 METAR KEWR 011051Z 00000KT 10SM BKN095 BKN250 07/M01 A3031 RMK AO2 SLP263 T00671006= 201711011151 METAR KEWR 011151Z 02004KT 10SM BKN080 BKN095 OVC250 07/01 A3033 RMK AO2 SLP271 T00670011 10072 20039 51021= 201711011251 METAR KEWR 011251Z 02006KT 10SM OVC070 07/00 A3035 RMK AO2 SLP277 T00720000= 201711011351 METAR KEWR 011351Z 01005KT 10SM BKN065 OVC110 08/02 A3035 RMK AO2 SLP276 T00830017= 201711011451 METAR KEWR 011451Z 35005KT 10SM BKN055 OVC065 09/01 A3036 RMK AO2 SLP279 T00940011 51008= 201711011551 METAR KEWR 011551Z 03004KT 10SM OVC055 11/02 A3034 RMK AO2 SLP274 T01060017= 201711011651 METAR KEWR 011651Z 02006KT 10SM BKN050 OVC060 11/03 A3033 RMK AO2 SLP269 T01110028= 201711011751 METAR KEWR 011751Z 03006KT 10SM FEW050 BKN070 OVC130 12/03 A3032 RMK AO2 SLP265 T01220033 10122 20067 56014= 201711011851 METAR KEWR 011851Z 03006KT 10SM FEW050 SCT070 OVC095 12/04 A3031 RMK AO2 SLP261 T01220044= 201711011951 METAR KEWR 011951Z 10008KT 10SM FEW050 FEW070 BKN095 OVC130 14/04 A3029 RMK AO2 SLP258 T01440039= 201711012051 METAR KEWR 012051Z 10006KT 10SM FEW050 BKN100 BKN140 14/04 A3029 RMK AO2 SLP256 T01440044 56009= 201711012151 METAR KEWR 012151Z 10009KT 10SM FEW045 BKN100 BKN140 BKN200 14/06 A3028 RMK AO2 SLP253 T01440056= 201711012251 METAR KEWR 012251Z 07005KT 10SM SCT040 SCT110 BKN150 BKN250 14/06 A3029 RMK AO2 SLP256 T01390061= 201711012351 METAR KEWR 012351Z 09006KT 10SM BKN045 BKN120 14/07 A3029 RMK AO2 SLP256 T01440072 10144 20117 56000= 201711020051 METAR KEWR 020051Z 06004KT 10SM BKN032 OVC050 14/08 A3028 RMK AO2 SLP253 T01390083= 201711020151 METAR KEWR 020151Z 02006KT 10SM OVC022 12/07 A3028 RMK AO2 SLP252 T01220067= 201711020251 METAR KEWR 020251Z 01006KT 10SM OVC018 13/07 A3027 RMK AO2 SLP250 T01280072 56005= 201711020351 METAR KEWR 020351Z 35005KT 10SM OVC012 13/08 A3027 RMK AO2 SLP249 T01280078= 201711020451 METAR KEWR 020451Z 03006KT 10SM OVC012 13/08 A3026 RMK AO2 SLP247 T01280083 401440039= 201711020551 METAR KEWR 020551Z 01004KT 10SM OVC012 13/09 A3026 RMK AO2 SLP247 T01330089 10144 20122 55003= 201711020651 METAR KEWR 020651Z 01003KT 10SM OVC011 13/09 A3025 RMK AO2 SLP244 T01330094= 201711020751 METAR KEWR 020751Z 00000KT 10SM BKN011 OVC016 14/10 A3024 RMK AO2 SLP240 T01390100= 201711020851 METAR KEWR 020851Z 00000KT 10SM OVC011 14/11 A3025 RMK AO2 SLP241 T01440111 55006= 201711020951 METAR KEWR 020951Z 00000KT 10SM BKN008 BKN011 14/12 A3025 RMK AO2 SLP242 T01440117= 201711021051 METAR KEWR 021051Z 18004KT 10SM SCT010 BKN016 BKN120 16/14 A3025 RMK AO2 SLP242 T01560139= 201711021151 METAR KEWR 021151Z 20004KT 10SM SCT007 BKN011 BKN018 BKN200 16/14 A3025 RMK AO2 SLP243 T01560144 10161 20128 51002= 201711021251 METAR KEWR 021251Z 18006KT 10SM BKN007 BKN018 BKN200 17/16 A3026 RMK AO2 SLP246 T01670156= 201711021351 METAR KEWR 021351Z 24005KT 10SM SCT009 BKN020 BKN220 18/15 A3027 RMK AO2 SLP250 SCT V BKN T01830150= 201711021451 METAR KEWR 021451Z 00000KT 10SM SCT012 BKN055 BKN110 BKN220 18/15 A3027 RMK AO2 SLP249 T01830150 50006= 201711021551 METAR KEWR 021551Z 18008KT 10SM FEW015 FEW055 SCT150 BKN220 21/16 A3026 RMK AO2 SLP245 T02060156= 201711021651 METAR KEWR 021651Z 18008KT 10SM SCT028 SCT150 BKN220 23/16 A3023 RMK AO2 SLP236 T02330156= 201711021751 METAR KEWR 021751Z 17010G16KT 10SM BKN034 BKN150 BKN250 23/15 A3021 RMK AO2 SLP229 T02330150 10233 20156 58020= 201711021851 METAR KEWR 021851Z 18012KT 10SM SCT037TCU BKN075 24/14 A3019 RMK AO2 SLP223 TCU S T02390144= 201711021951 METAR KEWR 021951Z 13007KT 10SM FEW038 SCT045 SCT250 23/16 A3018 RMK AO2 SLP220 T02280156= 201711022051 METAR KEWR 022051Z 14007KT 10SM FEW040 FEW055 SCT250 22/16 A3018 RMK AO2 SLP219 T02220156 56010= 201711022151 METAR KEWR 022151Z 15007KT 10SM FEW045 FEW055 SCT140 BKN250 21/15 A3018 RMK AO2 SLP219 T02110150= 201711022251 METAR KEWR 022251Z 16008KT 10SM FEW045 SCT140 BKN250 20/15 A3018 RMK AO2 SLP220 T02000150= 201711022351 METAR KEWR 022351Z 17008KT 10SM FEW040 FEW140 BKN250 19/14 A3018 RMK AO2 SLP220 T01940144 10239 20194 51001= 201711030051 METAR KEWR 030051Z 18008KT 10SM FEW040 FEW140 BKN250 19/14 A3018 RMK AO2 SLP218 T01940144= 201711030151 METAR KEWR 030151Z 19007KT 10SM FEW050 FEW100 BKN250 18/14 A3019 RMK AO2 SLP222 T01830144= 201711030251 METAR KEWR 030251Z 18006KT 10SM FEW050 FEW100 BKN250 18/15 A3018 RMK AO2 SLP220 T01830150 58001= 201711030351 METAR KEWR 030351Z 16005KT 10SM BKN120 BKN200 18/15 A3017 RMK AO2 SLP215 T01780150= 201711030451 METAR KEWR 030451Z 22004KT 10SM FEW120 BKN200 17/14 A3016 RMK AO2 SLP212 T01670144 402390128= 201711030551 METAR KEWR 030551Z 17004KT 10SM SCT200 BKN250 17/15 A3014 RMK AO2 SLP205 T01670150 10194 20156 58015= 201711030651 METAR KEWR 030651Z 18005KT 10SM FEW200 BKN250 16/15 A3013 RMK AO2 SLP202 T01610150= 201711030751 METAR KEWR 030751Z 21003KT 10SM SCT060 BKN250 16/15 A3011 RMK AO2 SLP195 T01610150= 201711030851 METAR KEWR 030851Z 00000KT 10SM BKN250 16/14 A3009 RMK AO2 SLP189 T01560144 58016= 201711030951 METAR KEWR 030951Z 19003KT 10SM BKN250 16/14 A3009 RMK AO2 SLP188 T01560144= 201711031051 METAR KEWR 031051Z 20005KT 10SM BKN250 16/14 A3008 RMK AO2 SLP185 T01560144= 201711031151 METAR KEWR 031151Z 23009KT 10SM FEW006 BKN250 16/14 A3007 RMK AO2 SLP182 T01560144 10167 20144 58008= 201711031251 METAR KEWR 031251Z 23007KT 10SM FEW006 BKN250 17/15 A3007 RMK AO2 SLP180 T01670150= 201711031351 METAR KEWR 031351Z 24009KT 10SM FEW012 BKN250 19/16 A3005 RMK AO2 SLP175 T01890156= 201711031451 METAR KEWR 031451Z 22011KT 10SM FEW028 BKN250 21/15 A3004 RMK AO2 SLP171 T02110150 58010= 201711031551 METAR KEWR 031551Z 24010KT 10SM FEW030 BKN250 22/15 A3002 RMK AO2 SLP167 T02220150= 201711031651 METAR KEWR 031651Z 23012KT 10SM FEW035 SCT130 BKN250 23/14 A2999 RMK AO2 SLP154 T02330139= 201711031751 METAR KEWR 031751Z 22013KT 10SM FEW035 BKN250 23/14 A2998 RMK AO2 SLP150 T02330144 10239 20150 57021= 201711031851 METAR KEWR 031851Z 24009KT 10SM SCT055 SCT120 BKN250 24/15 A2997 RMK AO2 SLP147 T02390150= 201711031951 METAR KEWR 031951Z 23010KT 10SM FEW040 BKN060 BKN130 BKN250 24/14 A2997 RMK AO2 SLP147 T02390144= 201711032051 METAR KEWR 032051Z 24009KT 10SM FEW042 BKN060 BKN130 BKN250 23/14 A2998 RMK AO2 SLP152 T02330144 53003= 201711032151 METAR KEWR 032151Z 33015G20KT 10SM SCT042 BKN060 BKN140 BKN250 23/14 A3002 RMK AO2 WSHFT 2136 SLP163 T02280139= 201711032251 METAR KEWR 032251Z 34019G27KT 10SM FEW040 SCT070 SCT140 BKN250 19/13 A3006 RMK AO2 PK WND 32027/2244 WSHFT 2138 SLP179 T01940128= 201711032351 METAR KEWR 032351Z 31012KT 10SM FEW045 FEW070 SCT140 BKN250 16/09 A3011 RMK AO2 PK WND 34027/2309 SLP196 T01610089 10244 20161 53043= 201711040051 METAR KEWR 040051Z 35024G30KT 10SM FEW050 FEW140 SCT250 14/05 A3015 RMK AO2 PK WND 34030/0051 PRESRR SLP210 T01440050= 201711040151 METAR KEWR 040151Z 34017G24KT 10SM FEW120 SCT250 13/04 A3018 RMK AO2 PK WND 33029/0100 SLP219 T01330039= 201711040251 METAR KEWR 040251Z 35017G23KT 10SM FEW120 SCT250 12/02 A3021 RMK AO2 SLP227 T01220017 51032= 201711040351 METAR KEWR 040351Z 35012G23KT 10SM SCT250 11/02 A3022 RMK AO2 SLP232 T01110017= 201711040451 METAR KEWR 040451Z 35010G20KT 10SM SCT250 11/01 A3024 RMK AO2 SLP239 T01060011 402440106= 201711040551 METAR KEWR 040551Z 34009KT 10SM BKN250 10/01 A3025 RMK AO2 SLP243 T01000011 10161 20100 52015= 201711040651 METAR KEWR 040651Z 34009KT 10SM BKN250 09/01 A3026 RMK AO2 SLP245 T00940011= 201711040751 METAR KEWR 040751Z 35005KT 10SM BKN250 08/02 A3027 RMK AO2 SLP250 T00830017= 201711040851 METAR KEWR 040851Z 02006KT 10SM BKN250 07/02 A3029 RMK AO2 SLP257 T00720017 53014= 201711040951 METAR KEWR 040951Z 01006KT 10SM BKN250 07/02 A3030 RMK AO2 SLP258 T00720022= 201711041051 METAR KEWR 041051Z 02007KT 10SM BKN250 07/02 A3031 RMK AO2 SLP264 T00670017= 201711041151 METAR KEWR 041151Z 03006KT 10SM BKN280 06/02 A3033 RMK AO2 SLP271 T00610022 10100 20061 53014= 201711041251 METAR KEWR 041251Z 36010KT 10SM BKN300 09/03 A3035 RMK AO2 SLP276 T00890028= 201711041351 METAR KEWR 041351Z 02011KT 10SM BKN290 10/03 A3035 RMK AO2 SLP275 T01000028= 201711041451 METAR KEWR 041451Z 02013KT 10SM BKN290 11/02 A3035 RMK AO2 SLP276 T01110017 51005= 201711041551 METAR KEWR 041551Z 05005KT 10SM OVC280 12/01 A3033 RMK AO2 SLP271 T01170006= 201711041651 METAR KEWR 041651Z 09005KT 10SM OVC280 13/M01 A3033 RMK AO2 SLP269 T01281006= 201711041751 METAR KEWR 041751Z VRB04KT 10SM FEW200 OVC270 13/01 A3031 RMK AO2 SLP262 T01330006 10139 20061 58014= 201711041851 METAR KEWR 041851Z VRB04KT 10SM FEW050 FEW180 BKN260 13/01 A3030 RMK AO2 SLP260 T01330011= 201711041951 METAR KEWR 041951Z 11004KT 10SM FEW050 FEW180 BKN260 14/02 A3031 RMK AO2 SLP261 T01390017= 201711042051 METAR KEWR 042051Z 15006KT 10SM FEW160 FEW220 BKN280 13/03 A3031 RMK AO2 SLP262 T01280033 55001= 201711042151 METAR KEWR 042151Z 14006KT 10SM FEW160 FEW220 BKN280 12/04 A3031 RMK AO2 SLP262 T01220039= 201711042251 METAR KEWR 042251Z 10008KT 10SM FEW160 FEW220 BKN280 12/04 A3031 RMK AO2 SLP262 T01220039= 201711042351 METAR KEWR 042351Z 11007KT 10SM FEW160 FEW220 BKN280 12/06 A3031 RMK AO2 SLP263 T01170061 10139 20117 53001= 201711050051 METAR KEWR 050051Z 07005KT 10SM SCT160 BKN220 OVC280 12/07 A3031 RMK AO2 SLP265 T01220067= 201711050151 METAR KEWR 050151Z 08006KT 10SM BKN160 OVC220 12/07 A3028 RMK AO2 SLP253 T01220067= 201711050251 METAR KEWR 050251Z 05005KT 10SM SCT040 BKN160 OVC220 12/07 A3032 RMK AO2 SLP267 T01220072 53005= 201711050351 METAR KEWR 050351Z 08006KT 10SM BKN040 OVC170 13/07 A3032 RMK AO2 SLP267 T01280072= 201711050451 METAR KEWR 050451Z 09007KT 10SM -RA BKN034 OVC042 13/08 A3032 RMK AO2 RAB29 SLP268 P0000 T01280078 401390061= 201711050551 METAR KEWR 050551Z 08008KT 10SM -RA FEW034 SCT042 OVC090 12/08 A3029 RMK AO2 SLP258 P0002 60002 T01170083 10128 20117 58009= 201711050651 METAR KEWR 050651Z 07007KT 10SM -RA FEW042 BKN080 OVC100 12/09 A3027 RMK AO2 SLP249 P0000 T01220089= 201711050751 METAR KEWR 050751Z 07007KT 10SM SCT032 OVC080 12/09 A3028 RMK AO2 RAE35 SLP254 P0000 T01220089= 201711050851 METAR KEWR 050851Z 07006KT 10SM BKN031 OVC070 12/08 A3029 RMK AO2 SLP256 60000 T01220083 55002= 201711050951 METAR KEWR 050951Z 08005KT 10SM BKN029 BKN050 OVC080 13/09 A3028 RMK AO2 SLP254 T01280089= 201711051051 METAR KEWR 051051Z 07006KT 10SM SCT030 OVC055 13/09 A3028 RMK AO2 SLP251 T01280089= 201711051151 METAR KEWR 051151Z 08008KT 10SM BKN024 OVC036 13/09 A3027 RMK AO2 SLP251 60000 70002 T01280094 10128 20117 56005= 201711051251 METAR KEWR 051251Z 07006KT 10SM BKN024 BKN036 OVC060 13/09 A3028 RMK AO2 SLP252 T01330094= 201711051351 METAR KEWR 051351Z 07007KT 10SM BKN015 BKN021 OVC050 14/11 A3026 RMK AO2 SLP247 T01390106 $= 201711051451 METAR KEWR 051451Z VRB05KT 10SM OVC012 14/11 A3025 RMK AO2 SLP244 T01440111 $= 201711051551 METAR KEWR 051551Z 09007KT 10SM -DZ OVC010 14/12 A3023 RMK AO2 RAB22E34DZB34 SLP237 P0000 T01440122 $= 201711051651 METAR KEWR 051651Z 07005KT 6SM -DZ BR OVC007 14/13 A3021 RMK AO2 SLP230 P0000 T01440128 $= 201711051751 METAR KEWR 051751Z 05005KT 5SM -DZ BR OVC007 15/13 A3018 RMK AO2 SLP220 58024 P0000 60000 T01500133 10150 20128 $= 201711051851 METAR KEWR 051851Z 02007KT 2SM -DZ BR OVC005 14/13 A3017 RMK AO2 SFC VIS 3 SLP217 P0000 T01390128 $= 201711051951 METAR KEWR 051951Z 04006KT 2SM -RA BR OVC005 14/13 A3014 RMK AO2 SFC VIS 4 RAB10 DZE10RAB10 SLP207 P0002 T01390133 $= 201711052051 METAR KEWR 052051Z 02003KT 2SM -RA BR OVC005 14/14 A3012 RMK AO2 SFC VIS 2 1/2 RAE1953B45DZB01E26 SLP200 56020 P0000 60002 T01440139 $= 201711052151 METAR KEWR 052151Z 33004KT 2SM BR BKN005 OVC010 14/14 A3012 RMK AO2 SFC VIS 4 RAE24B40E49 SLP200 P0001 T01440144 $= 201711052251 METAR KEWR 052251Z 11006KT 8SM BKN008 OVC034 16/14 A3009 RMK AO2 RAB2152E01 SLP190 P0000 T01560144 $= 201711052351 METAR KEWR 052351Z 16005KT 8SM OVC007 16/15 A3008 RMK AO2 SLP186 58014 60003 T01610150 10161 20139 $= 201711060051 METAR KEWR 060051Z 13003KT 8SM OVC007 16/16 A3006 RMK AO2 SLP179 T01610156 $= 201711060151 METAR KEWR 060151Z 18005KT 9SM OVC007 16/16 A3006 RMK AO2 SLP180 SLP179 T01610156 $= 201711060251 METAR KEWR 060251Z 19005KT 9SM OVC007 16/15 A3006 RMK AO2 SLP179 T01610150 $= 201711060351 METAR KEWR 060351Z VRB06KT 9SM SCT004 OVC006 16/15 A3004 RMK AO2 SLP173 T01560150 $= 201711060451 METAR KEWR 060451Z 20006KT 7SM OVC004 16/15 A3002 RMK AO2 SLP166 T01560150 401670117 $= 201711060551 METAR KEWR 060551Z 17006KT 9SM SCT004 BKN009 OVC014 16/15 A3000 RMK AO2 SLP159 T01560150 10167 20156 $= 201711060651 METAR KEWR 060651Z 18008KT 9SM FEW004 OVC009 16/14 A2999 RMK AO2 SLP156 T01560144 $= 201711060751 METAR KEWR 060751Z 17007KT 10SM FEW004 BKN009 OVC013 16/15 A2997 RMK AO2 SLP149 T01610150 $= 201711060851 METAR KEWR 060851Z 19008KT 10SM FEW004 OVC009 16/15 A2995 RMK AO2 SLP142 T01610150 $= 201711060951 METAR KEWR 060951Z 19009KT 10SM FEW004 BKN009 OVC011 17/16 A2994 RMK AO2 SLP139 T01670156 $= 201711061051 METAR KEWR 061051Z 21012KT 9SM SCT009 OVC011 17/16 A2993 RMK AO2 SLP135 T01720156 $= 201711061151 METAR KEWR 061151Z 21010KT 9SM -DZ OVC012 17/16 A2991 RMK AO2 DZB50 CIG 009V013 SLP129 57014 P0000 60000 70003 T01720156 10172 20156 $= 201711061251 METAR KEWR 061251Z 22012G17KT 9SM -DZ SCT009 OVC013 18/16 A2991 RMK AO2 SLP129 CIG 011V016 P0000 T01780156 $= 201711061351 METAR KEWR 061351Z 22012KT 8SM -DZ OVC013 18/16 A2993 RMK AO2 SLP136 CIG 011V016 SLP135 P0000 T01780156 $= 201711061451 METAR KEWR 061451Z 24015KT 10SM -DZ SCT012 OVC021 18/16 A2992 RMK AO2 SLP133 SCT V BKN P0000 60000 T01780156 50003 $= 201711061551 METAR KEWR 061551Z 22009KT 10SM SCT014 BKN023 OVC100 18/15 A2989 RMK AO2 DZE1452 SLP123 SCT V BKN P0000 T01830150 $= 201711061651 METAR KEWR 061651Z 24010KT 10SM -RA FEW015 BKN020 OVC090 18/14 A2990 RMK AO2 RAB50 SLP126 P0000 T01830144 $= 201711061751 METAR KEWR 061751Z 24011KT 10SM BKN018 BKN030 BKN080 19/14 A2988 RMK AO2 RAE11 SLP119 BKN018 V SCT P0000 60000 T01890144 10189 20172 56014 $= 201711061851 METAR KEWR 061851Z 24009KT 10SM SCT020 SCT030 BKN085 19/14 A2989 RMK AO2 SLP123 T01940144 $= 201711061951 METAR KEWR 061951Z 25009KT 10SM FEW011 SCT060 OVC075 19/15 A2990 RMK AO2 RAB36E51 SLP124 P0000 T01940150= 201711062051 METAR KEWR 062051Z 25011G19KT 10SM FEW015 SCT075 BKN110 BKN160 19/14 A2990 RMK AO2 RAB21E32 SLP124 P0000 60000 T01940144 51003= 201711062151 METAR KEWR 062151Z 27013KT 10SM FEW025 SCT040 BKN110 BKN160 18/14 A2992 RMK AO2 RAB14E29 SLP132 P0000 T01830144= 201711062251 METAR KEWR 062251Z 31009G18KT 10SM FEW025 SCT040 BKN100 BKN160 16/09 A2998 RMK AO2 PK WND 32029/2221 WSHFT 2203 SLP150 T01610089= 201711062351 METAR KEWR 062351Z 33016G23KT 10SM FEW040 FEW100 SCT150 13/07 A3001 RMK AO2 SLP163 60000 T01330072 10194 20133 53039= 201711070051 METAR KEWR 070051Z 32011G18KT 10SM FEW040 SCT150 12/06 A3005 RMK AO2 SLP174 T01220061= 201711070151 METAR KEWR 070151Z 33011KT 10SM FEW025 FEW040 BKN150 11/04 A3008 RMK AO2 SLP186 T01110044= 201711070251 METAR KEWR 070251Z 34013KT 10SM FEW025 FEW040 BKN170 10/03 A3011 RMK AO2 SLP194 T01000033 51031= 201711070351 METAR KEWR 070351Z 34010KT 10SM SCT200 09/03 A3012 RMK AO2 SLP198 T00890028= 201711070451 METAR KEWR 070451Z 33010KT 10SM FEW200 08/02 A3012 RMK AO2 SLP199 T00830017 401940083= 201711070551 METAR KEWR 070551Z 32011KT 10SM CLR 08/01 A3013 RMK AO2 SLP203 T00780011 10133 20078 51009= 201711070651 METAR KEWR 070651Z 34007KT 10SM CLR 07/01 A3014 RMK AO2 SLP204 T00670011= 201711070751 METAR KEWR 070751Z 34005KT 10SM CLR 06/01 A3016 RMK AO2 SLP211 T00610006= 201711070851 METAR KEWR 070851Z 34009KT 10SM CLR 06/01 A3016 RMK AO2 SLP213 T00610006 53011= 201711070951 METAR KEWR 070951Z 01006KT 10SM FEW250 06/00 A3017 RMK AO2 SLP216 T00560000= 201711071051 METAR KEWR 071051Z 02009KT 10SM FEW250 04/00 A3017 RMK AO2 SLP217 T00440000= 201711071151 METAR KEWR 071151Z 01009KT 10SM SCT150 SCT250 05/01 A3020 RMK AO2 SLP224 T00500006 10078 20039 53011= 201711071251 METAR KEWR 071251Z 36011KT 10SM BKN160 07/01 A3021 RMK AO2 SLP229 T00670011= 201711071351 METAR KEWR 071351Z 01011KT 10SM SCT150 BKN250 08/01 A3022 RMK AO2 SLP234 T00780006= 201711071451 METAR KEWR 071451Z 36012KT 10SM BKN150 BKN250 09/01 A3022 RMK AO2 SLP234 T00890006 51010= 201711071551 METAR KEWR 071551Z 01010KT 10SM BKN035 OVC150 09/01 A3021 RMK AO2 SLP230 T00940006= 201711071651 METAR KEWR 071651Z 36011KT 10SM BKN029 OVC150 09/00 A3021 RMK AO2 SLP228 T00940000= 201711071751 METAR KEWR 071751Z 04011KT 10SM FEW023 BKN030 OVC150 09/01 A3017 RMK AO2 SLP214 T00940006 10100 20050 58019= 201711071851 METAR KEWR 071851Z 03013KT 10SM FEW020 SCT029 OVC090 09/01 A3012 RMK AO2 SLP197 SCT V BKN T00890006= 201711071951 METAR KEWR 071951Z 01008KT 10SM -RA SCT025 BKN030 OVC070 08/00 A3018 RMK AO2 RAB33 SLP220 P0000 T00830000= 201711072051 METAR KEWR 072051Z 01013KT 5SM RA SCT032 BKN047 OVC075 07/02 A3015 RMK AO2 SLP210 P0002 60002 T00670022 56005= 201711072151 METAR KEWR 072151Z 01018KT 5SM RA BR FEW030 BKN050 OVC070 05/03 A3013 RMK AO2 SLP202 P0018 T00500028= 201711072251 METAR KEWR 072251Z 35011G19KT 4SM RA BR FEW025 BKN040 OVC065 05/03 A3017 RMK AO2 SLP214 P0013 T00500028= 201711072351 METAR KEWR 072351Z 36011KT 6SM RA BR FEW012 BKN040 OVC060 05/03 A3018 RMK AO2 SNB03E19 SLP217 931000 P0013 60046 T00500033 10094 20044 53008= 201711080051 METAR KEWR 080051Z 02011KT 6SM -RA BR FEW009 BKN037 OVC060 05/03 A3018 RMK AO2 SLP217 P0005 T00500033= 201711080151 METAR KEWR 080151Z 02012KT 6SM -RA BR SCT008 BKN035 OVC045 04/03 A3017 RMK AO2 SLP217 P0005 T00440033= 201711080251 METAR KEWR 080251Z 02014KT 7SM -RA BKN009 OVC045 04/03 A3018 RMK AO2 SLP220 CIG 008V011 P0006 60016 T00440033 53003= 201711080351 METAR KEWR 080351Z 01012G20KT 7SM -RA BKN009 OVC014 04/03 A3018 RMK AO2 SLP218 CIG 008V011 P0004 T00440033= 201711080451 METAR KEWR 080451Z 36016KT 9SM -RA SCT009 BKN011 OVC014 04/03 A3017 RMK AO2 SLP217 P0003 T00440028 401000039= 201711080551 METAR KEWR 080551Z 02015G20KT 10SM FEW009 BKN011 OVC014 04/03 A3017 RMK AO2 RAE17 SLP215 P0000 60023 T00390028 10050 20039 56005= 201711080651 METAR KEWR 080651Z 01014KT 10SM SCT011 BKN014 OVC019 04/03 A3017 RMK AO2 SLP216 T00390028= 201711080751 METAR KEWR 080751Z 01014KT 10SM FEW011 SCT014 OVC018 04/02 A3017 RMK AO2 SLP215 T00390022= 201711080851 METAR KEWR 080851Z 01013KT 10SM FEW014 SCT018 OVC032 04/02 A3019 RMK AO2 SLP221 T00390017 53005= 201711080951 METAR KEWR 080951Z 02013KT 10SM FEW018 BKN034 OVC065 04/01 A3021 RMK AO2 SLP229 T00390011= 201711081051 METAR KEWR 081051Z 01013KT 10SM FEW018 OVC037 04/01 A3022 RMK AO2 SLP234 T00440006= 201711081151 METAR KEWR 081151Z 01014KT 10SM SCT035 OVC042 04/00 A3025 RMK AO2 SLP243 70069 T00440000 10044 20039 53023= 201711081251 METAR KEWR 081251Z 36016KT 10SM FEW025 SCT030 OVC043 04/M01 A3026 RMK AO2 SLP247 T00441006= 201711081351 METAR KEWR 081351Z 01015KT 10SM FEW022 OVC043 05/00 A3027 RMK AO2 SLP248 T00500000= 201711081451 METAR KEWR 081451Z 01013KT 10SM FEW025 BKN043 BKN150 07/01 A3027 RMK AO2 SLP248 T00670011 51005= 201711081551 METAR KEWR 081551Z 02012KT 10SM SCT022 SCT045 BKN160 08/02 A3026 RMK AO2 SLP247 T00780017= 201711081651 METAR KEWR 081651Z 02011KT 10SM FEW023 SCT047 SCT160 BKN250 09/02 A3025 RMK AO2 SLP243 T00890017= 201711081751 METAR KEWR 081751Z 03008KT 10SM FEW025 SCT047 SCT170 BKN250 09/02 A3023 RMK AO2 SLP236 T00890022 10094 20044 58013= 201711081851 METAR KEWR 081851Z 01005KT 10SM SCT025 SCT050 10/02 A3023 RMK AO2 SLP236 T01000022= 201711081951 METAR KEWR 081951Z 03007KT 10SM SCT028 SCT045 SCT250 10/02 A3023 RMK AO2 SLP236 T01000022= 201711082051 METAR KEWR 082051Z 36006KT 10SM FEW028 BKN043 09/02 A3024 RMK AO2 SLP238 T00940022 53002= 201711082151 METAR KEWR 082151Z 03005KT 10SM SCT030 BKN043 09/03 A3024 RMK AO2 SLP240 T00890028= 201711082251 METAR KEWR 082251Z 02006KT 10SM FEW032 BKN043 09/03 A3025 RMK AO2 SLP244 T00940028= 201711082351 METAR KEWR 082351Z 03005KT 10SM FEW032 BKN042 09/03 A3026 RMK AO2 SLP247 T00890033 10106 20089 53008= 201711090051 METAR KEWR 090051Z 02007KT 10SM FEW032 BKN040 09/03 A3027 RMK AO2 SLP250 T00890033= 201711090151 METAR KEWR 090151Z 02008KT 10SM FEW025 SCT038 08/03 A3027 RMK AO2 SLP249 T00830033= 201711090251 METAR KEWR 090251Z 01006KT 10SM FEW030 06/02 A3026 RMK AO2 SLP245 T00610022 58002= 201711090351 METAR KEWR 090351Z 02007KT 10SM FEW035 06/03 A3025 RMK AO2 SLP241 T00560028= 201711090451 METAR KEWR 090451Z 02005KT 10SM FEW010 FEW035 04/02 A3025 RMK AO2 SLP243 T00440017 401060039= 201711090551 METAR KEWR 090551Z 01007KT 10SM FEW035 04/02 A3025 RMK AO2 SLP242 T00390022 10089 20039 56002= 201711090651 METAR KEWR 090651Z 02009KT 10SM FEW035 04/02 A3025 RMK AO2 SLP241 T00390022= 201711090751 METAR KEWR 090751Z 02010KT 10SM FEW030 03/02 A3023 RMK AO2 SLP234 T00330017= 201711090851 METAR KEWR 090851Z 01007KT 10SM FEW030 03/02 A3023 RMK AO2 SLP235 T00330017 55007= 201711090951 METAR KEWR 090951Z 02004KT 10SM FEW250 03/01 A3024 RMK AO2 SLP241 T00280011= 201711091051 METAR KEWR 091051Z 01006KT 10SM BKN043 03/02 A3024 RMK AO2 SLP239 T00330017= 201711091151 METAR KEWR 091151Z 02007KT 10SM BKN042 03/02 A3024 RMK AO2 SLP241 T00330017 10044 20028 51005= 201711091251 METAR KEWR 091251Z 02006KT 10SM BKN041 BKN130 04/02 A3024 RMK AO2 SLP238 T00390022= 201711091351 METAR KEWR 091351Z 02007KT 10SM BKN042 BKN130 06/03 A3023 RMK AO2 SLP235 T00610033= 201711091451 METAR KEWR 091451Z VRB04KT 10SM SCT042 BKN120 09/04 A3021 RMK AO2 SLP227 T00890039 58013= 201711091551 METAR KEWR 091551Z 04005KT 10SM BKN042 BKN120 11/03 A3018 RMK AO2 SLP220 T01060033= 201711091651 METAR KEWR 091651Z VRB03KT 10SM BKN042 BKN120 12/03 A3014 RMK AO2 SLP204 T01220028= 201711091751 METAR KEWR 091751Z VRB03KT 10SM SCT032 BKN040 BKN120 12/04 A3011 RMK AO2 SLP194 T01220039 10122 20033 58034= 201711091851 METAR KEWR 091851Z 11004KT 10SM SCT032 BKN038 BKN120 12/05 A3008 RMK AO2 SLP187 T01170050= 201711091951 METAR KEWR 091951Z 16006KT 10SM BKN035 BKN045 BKN100 12/04 A3007 RMK AO2 SLP182 T01220044= 201711092051 METAR KEWR 092051Z 15007KT 10SM -RA BKN040 BKN070 12/04 A3006 RMK AO2 RAB40 SLP179 P0000 60000 T01170044 56015= 201711092151 METAR KEWR 092151Z 15006KT 10SM BKN045 BKN065 OVC090 12/06 A3005 RMK AO2 RAE32 SLP177 P0000 T01170056= 201711092251 METAR KEWR 092251Z 14006KT 10SM FEW020 BKN045 BKN080 12/07 A3004 RMK AO2 SLP173 T01170067= 201711092351 METAR KEWR 092351Z 14004KT 10SM FEW020 BKN040 BKN070 12/07 A3003 RMK AO2 SLP167 60000 T01170072 10122 20117 58013= 201711100051 METAR KEWR 100051Z 18005KT 10SM FEW020 BKN040 BKN075 12/07 A3002 RMK AO2 SLP165 T01170067= 201711100151 METAR KEWR 100151Z 18006KT 10SM BKN035 BKN080 11/07 A3000 RMK AO2 SLP159 T01110067= 201711100251 METAR KEWR 100251Z 19008KT 10SM BKN040 OVC080 11/07 A2999 RMK AO2 SLP155 T01110072 58012= 201711100351 METAR KEWR 100351Z 24010KT 10SM BKN032 BKN048 OVC065 11/08 A2997 RMK AO2 SLP149 T01110078= 201711100451 METAR KEWR 100451Z 25010KT 10SM -RA BKN028 OVC040 11/08 A2997 RMK AO2 RAB05E38B51 SLP147 P0000 T01060083 401220028= 201711100551 METAR KEWR 100551Z 25007KT 10SM FEW012 SCT020 BKN040 10/08 A2995 RMK AO2 RAE42 SLP142 P0001 60001 T01000083 10122 20100 56014= 201711100651 METAR KEWR 100651Z 22006KT 10SM FEW010 SCT016 08/07 A2995 RMK AO2 SLP140 T00780072= 201711100751 METAR KEWR 100751Z 24009KT 10SM FEW010 SCT016 08/06 A2995 RMK AO2 SLP140 T00830061= 201711100851 METAR KEWR 100851Z 26009KT 10SM FEW020 08/06 A2996 RMK AO2 SLP144 T00780056 53002= 201711100951 METAR KEWR 100951Z 32015KT 10SM FEW023 BKN041 OVC055 07/02 A3000 RMK AO2 PK WND 30026/0925 SLP158 T00720017= 201711101051 METAR KEWR 101051Z 32019G24KT 10SM FEW022 FEW041 SCT060 06/00 A3004 RMK AO2 SLP171 T00610000= 201711101151 METAR KEWR 101151Z 33027G33KT 10SM FEW022 BKN033 04/M04 A3010 RMK AO2 PK WND 35033/1145 PRESRR SLP192 70001 T00391039 10100 20039 53048= 201711101251 METAR KEWR 101251Z 33019G31KT 10SM FEW044 SCT250 03/M08 A3016 RMK AO2 PK WND 31031/1237 SLP211 T00331083= 201711101351 METAR KEWR 101351Z 31014G23KT 10SM FEW046 SCT250 04/M12 A3020 RMK AO2 PK WND 32029/1324 SLP225 T00391117= 201711101451 METAR KEWR 101451Z 34020G27KT 10SM FEW050 BKN250 04/M11 A3022 RMK AO2 PK WND 33028/1439 SLP231 T00441106 51040= 201711101551 METAR KEWR 101551Z 30020G33KT 10SM SCT050 BKN250 04/M12 A3024 RMK AO2 PK WND 28033/1545 SLP241 T00391117= 201711101651 METAR KEWR 101651Z 32021G27KT 10SM FEW040 BKN250 03/M13 A3025 RMK AO2 PK WND 29029/1622 SLP243 T00281133= 201711101751 METAR KEWR 101751Z 31023G31KT 10SM FEW035 BKN240 02/M14 A3027 RMK AO2 PK WND 32033/1733 SLP248 T00221144 10044 20022 51017= 201711101851 METAR KEWR 101851Z 30015G26KT 10SM FEW040 BKN240 03/M13 A3028 RMK AO2 PK WND 28030/1818 SLP252 T00281128= 201711101951 METAR KEWR 101951Z 32020G27KT 10SM FEW040 SCT240 02/M14 A3029 RMK AO2 PK WND 33032/1904 SLP257 T00221144= 201711102051 METAR KEWR 102051Z 32018G26KT 10SM FEW050 FEW240 01/M16 A3033 RMK AO2 PK WND 33031/2004 SLP270 T00111156 53022= 201711102151 METAR KEWR 102151Z 34020G26KT 10SM FEW050 FEW250 00/M16 A3038 RMK AO2 PK WND 33029/2055 SLP286 T00001156= 201711102251 METAR KEWR 102251Z 32014G26KT 10SM FEW050 M01/M16 A3043 RMK AO2 PK WND 32028/2211 SLP303 T10061156= 201711102351 METAR KEWR 102351Z 33012G23KT 10SM CLR M02/M15 A3046 RMK AO2 SLP315 T10171150 10033 21017 51045= 201711110051 METAR KEWR 110051Z 32018KT 10SM CLR M02/M16 A3050 RMK AO2 SLP326 T10221156= 201711110151 METAR KEWR 110151Z 32015G21KT 10SM CLR M03/M16 A3051 RMK AO2 PK WND 34026/0058 SLP331 T10281156= 201711110251 METAR KEWR 110251Z 32012KT 10SM CLR M03/M15 A3053 RMK AO2 SLP337 T10331150 51022= 201711110351 METAR KEWR 110351Z 32008KT 10SM CLR M03/M14 A3052 RMK AO2 SLP335 T10331139= 201711110451 METAR KEWR 110451Z 32012KT 10SM CLR M04/M13 A3052 RMK AO2 SLP334 T10391133 401001039= 201711110551 METAR KEWR 110551Z 32009KT 10SM CLR M04/M13 A3052 RMK AO2 SLP334 T10391133 11017 21039 56003= 201711110651 METAR KEWR 110651Z 32012KT 10SM CLR M04/M13 A3051 RMK AO2 SLP332 T10391128= 201711110751 METAR KEWR 110751Z 31010KT 10SM CLR M04/M12 A3051 RMK AO2 SLP331 T10391122= 201711110851 METAR KEWR 110851Z 32011G15KT 10SM CLR M04/M12 A3054 RMK AO2 SLP339 T10441122 53005= 201711110951 METAR KEWR 110951Z 34005KT 10SM CLR M04/M12 A3054 RMK AO2 SLP342 T10391117= 201711111051 METAR KEWR 111051Z 33006KT 10SM CLR M04/M12 A3055 RMK AO2 SLP343 T10391117= 201711111151 METAR KEWR 111151Z 32012G16KT 10SM FEW250 M04/M12 A3055 RMK AO2 SLP343 T10391117 11039 21044 51004= 201711111251 METAR KEWR 111251Z 32008KT 10SM SCT250 M03/M12 A3057 RMK AO2 SLP351 T10281122= 201711111351 METAR KEWR 111351Z 34007KT 10SM FEW170 FEW250 M01/M13 A3058 RMK AO2 SLP354 T10111128= 201711111451 METAR KEWR 111451Z 01011G16KT 340V040 10SM FEW170 FEW250 00/M14 A3058 RMK AO2 SLP354 T00001139 51011= 201711111551 METAR KEWR 111551Z 33007KT 290V020 10SM FEW170 FEW250 02/M14 A3058 RMK AO2 SLP355 T00171144= 201711111651 METAR KEWR 111651Z 34008KT 10SM FEW250 03/M15 A3056 RMK AO2 SLP346 T00281150= 201711111751 METAR KEWR 111751Z 33005KT 10SM SCT250 03/M15 A3052 RMK AO2 SLP335 T00331150 10039 21039 58020= 201711111851 METAR KEWR 111851Z 03008KT 10SM BKN250 04/M16 A3050 RMK AO2 SLP329 T00441156= 201711111951 METAR KEWR 111951Z VRB05KT 10SM BKN250 04/M15 A3051 RMK AO2 SLP329 T00391150= 201711112051 METAR KEWR 112051Z 03005KT 10SM BKN250 03/M13 A3051 RMK AO2 SLP330 T00331133 55005= 201711112151 METAR KEWR 112151Z 03007KT 10SM BKN250 02/M14 A3052 RMK AO2 SLP334 T00221144= 201711112251 METAR KEWR 112251Z 02007KT 10SM OVC250 01/M13 A3054 RMK AO2 SLP339 T00061128= 201711112351 METAR KEWR 112351Z 03008KT 10SM OVC250 01/M12 A3054 RMK AO2 SLP341 T00061117 10050 20006 51011= 201711120051 METAR KEWR 120051Z 03006KT 10SM OVC250 01/M12 A3055 RMK AO2 SLP343 T00061122= 201711120151 METAR KEWR 120151Z 02006KT 10SM OVC250 00/M12 A3053 RMK AO2 SLP338 T00001122= 201711120251 METAR KEWR 120251Z 02006KT 10SM OVC250 M01/M11 A3052 RMK AO2 SLP333 T10061106 58008= 201711120351 METAR KEWR 120351Z 35004KT 10SM SCT220 BKN260 01/M12 A3052 RMK AO2 SLP335 T00061122= 201711120451 METAR KEWR 120451Z 35004KT 10SM SCT200 BKN260 M01/M11 A3051 RMK AO2 SLP332 T10061111 400501044= 201711120551 METAR KEWR 120551Z 01006KT 10SM FEW200 SCT260 M02/M11 A3050 RMK AO2 SLP327 T10221106 10011 21022 58006= 201711120651 METAR KEWR 120651Z 00000KT 10SM FEW200 BKN260 M01/M10 A3051 RMK AO2 SLP330 T10111100= 201711120751 METAR KEWR 120751Z 02003KT 10SM FEW200 BKN260 M01/M09 A3051 RMK AO2 SLP330 T10111089= 201711120851 METAR KEWR 120851Z 02004KT 10SM FEW200 BKN250 M02/M09 A3050 RMK AO2 SLP328 T10221089 50001= 201711120951 METAR KEWR 120951Z 01004KT 10SM FEW200 BKN250 M02/M08 A3050 RMK AO2 SLP329 T10221083= 201711121051 METAR KEWR 121051Z 01004KT 10SM SCT200 BKN250 M02/M08 A3051 RMK AO2 SLP329 T10171078= 201711121151 METAR KEWR 121151Z 02004KT 10SM BKN200 BKN260 M02/M07 A3051 RMK AO2 SLP331 T10171072 11006 21022 53002= 201711121251 METAR KEWR 121251Z 05004KT 10SM FEW030 BKN200 OVC260 00/M07 A3050 RMK AO2 SLP328 T00001067= 201711121351 METAR KEWR 121351Z 08003KT 10SM FEW030 FEW120 SCT200 BKN260 02/M07 A3050 RMK AO2 SLP326 T00171067= 201711121451 METAR KEWR 121451Z 00000KT 10SM FEW045 FEW180 OVC260 04/M09 A3049 RMK AO2 SLP325 T00391089 56006= 201711121551 METAR KEWR 121551Z 00000KT 10SM SCT030 BKN180 BKN260 05/M11 A3049 RMK AO2 SLP322 T00501106= 201711121651 METAR KEWR 121651Z 27003KT 10SM SCT034 BKN180 BKN260 06/M11 A3046 RMK AO2 SLP314 T00611111= 201711121751 METAR KEWR 121751Z 23005KT 10SM SCT034 SCT180 BKN260 07/M08 A3044 RMK AO2 SLP305 T00721078 10078 21017 58019= 201711121851 METAR KEWR 121851Z 22008KT 10SM FEW034 FEW200 SCT280 08/M04 A3042 RMK AO2 SLP300 T00831039= 201711121951 METAR KEWR 121951Z 25008KT 10SM FEW200 FEW300 08/M04 A3041 RMK AO2 SLP296 T00831039= 201711122051 METAR KEWR 122051Z 25007KT 10SM SCT220 SCT300 08/M06 A3041 RMK AO2 SLP296 T00781056 56009= 201711122151 METAR KEWR 122151Z 21006KT 10SM SCT200 BKN270 06/M04 A3041 RMK AO2 SLP297 T00561039= 201711122251 METAR KEWR 122251Z 17004KT 10SM FEW160 SCT200 BKN270 06/M03 A3041 RMK AO2 SLP296 T00611033= 201711122351 METAR KEWR 122351Z 00000KT 10SM BKN160 BKN200 BKN270 07/M01 A3041 RMK AO2 SLP296 T00721011 10089 20050 58000= 201711130051 METAR KEWR 130051Z 20003KT 10SM SCT160 BKN270 06/M02 A3041 RMK AO2 SLP296 T00561017 $= 201711130151 METAR KEWR 130151Z 27005KT 10SM SCT160 BKN250 06/M04 A3041 RMK AO2 SLP297 T00561039 $= 201711130251 METAR KEWR 130251Z 31004KT 10SM SCT150 BKN190 06/M05 A3041 RMK AO2 SLP296 T00561050 50000 $= 201711130351 METAR KEWR 130351Z 02004KT 10SM SCT150 BKN190 05/M03 A3040 RMK AO2 SLP293 T00501028 $= 201711130451 METAR KEWR 130451Z 03003KT 10SM OVC140 05/M04 A3039 RMK AO2 SLP291 T00501039 400891022 $= 201711130551 METAR KEWR 130551Z 02006KT 10SM FEW028 BKN120 OVC140 04/M04 A3038 RMK AO2 SLP287 T00441039 10072 20044 58008 $= 201711130651 METAR KEWR 130651Z 02004KT 10SM BKN120 BKN140 OVC190 04/M06 A3037 RMK AO2 SLP282 T00441056 $= 201711130751 METAR KEWR 130751Z 01005KT 10SM BKN110 BKN140 OVC190 05/M04 A3036 RMK AO2 SLP279 T00501044 $= 201711130851 METAR KEWR 130851Z 02008KT 10SM SCT034 OVC100 05/M03 A3035 RMK AO2 SLP276 T00501028 56012 $= 201711130951 METAR KEWR 130951Z 02005KT 10SM FEW026 OVC034 05/M03 A3035 RMK AO2 SLP277 T00501028 $= 201711131051 METAR KEWR 131051Z 02008KT 10SM FEW034 BKN065 OVC090 05/M02 A3033 RMK AO2 SLP270 T00501017 $= 201711131151 METAR KEWR 131151Z 36008KT 10SM FEW034 BKN065 OVC075 06/M02 A3035 RMK AO2 PRESRR SLP275 T00561022 10056 20044 55001 $= 201711131251 METAR KEWR 131251Z 02007KT 5SM -RA BKN028 OVC036 04/01 A3034 RMK AO2 RAB05 SLP272 P0004 T00440011 $= 201711131351 METAR KEWR 131351Z 01009KT 6SM -RA BKN036 OVC045 04/01 A3035 RMK AO2 SLP276 P0001 T00440011 $= 201711131451 METAR KEWR 131451Z 01012KT 8SM -RA SCT036 OVC046 04/02 A3035 RMK AO2 SLP275 P0001 60006 T00440017 55000 $= 201711131551 METAR KEWR 131551Z 02010KT 6SM -RA BR FEW025 BKN055 OVC065 05/03 A3034 RMK AO2 SLP273 P0002 T00500028= 201711131651 METAR KEWR 131651Z 36011KT 9SM FEW025 SCT060 OVC070 06/03 A3031 RMK AO2 RAE32 SLP263 P0001 T00610033= 201711131751 METAR KEWR 131751Z 01010KT 9SM FEW030 OVC060 07/04 A3029 RMK AO2 SLP255 60009 T00670039 10067 20044 58020= 201711131851 METAR KEWR 131851Z 02010KT 10SM OVC050 08/03 A3028 RMK AO2 SLP252 T00780033= 201711131951 METAR KEWR 131951Z 02010KT 10SM SCT050 OVC060 08/03 A3027 RMK AO2 SLP251 T00830033= 201711132051 METAR KEWR 132051Z 02008KT 10SM FEW025 BKN045 08/03 A3027 RMK AO2 SLP249 T00830033 56006= 201711132151 METAR KEWR 132151Z 03010KT 10SM FEW035 BKN050 08/03 A3028 RMK AO2 SLP251 T00780028= 201711132251 METAR KEWR 132251Z 02009KT 10SM FEW050 FEW120 06/02 A3030 RMK AO2 SLP258 T00610022= 201711132351 METAR KEWR 132351Z 36011KT 10SM FEW050 FEW120 06/02 A3032 RMK AO2 SLP265 T00610017 10089 20050 53016= 201711140051 METAR KEWR 140051Z 36012KT 10SM FEW050 06/01 A3032 RMK AO2 SLP267 T00560006= 201711140151 METAR KEWR 140151Z 36008KT 10SM FEW050 05/M01 A3033 RMK AO2 SLP268 T00501006= 201711140251 METAR KEWR 140251Z 36010KT 10SM FEW050 04/M01 A3032 RMK AO2 SLP267 T00441011 50002= 201711140351 METAR KEWR 140351Z 35007KT 10SM CLR 04/M02 A3031 RMK AO2 SLP264 T00441022= 201711140451 METAR KEWR 140451Z 01010KT 10SM CLR 03/M02 A3031 RMK AO2 SLP263 T00331022 400890033= 201711140551 METAR KEWR 140551Z 36007KT 10SM CLR 03/M02 A3030 RMK AO2 SLP259 T00281022 10061 20022 57007= 201711140651 METAR KEWR 140651Z 35008KT 10SM CLR 03/M02 A3031 RMK AO2 SLP262 T00331022= 201711140751 METAR KEWR 140751Z 33007KT 10SM CLR 03/M02 A3031 RMK AO2 SLP263 T00281017= 201711140851 METAR KEWR 140851Z 33006KT 10SM CLR 03/M02 A3031 RMK AO2 SLP262 T00281017 50003= 201711140951 METAR KEWR 140951Z 34007KT 10SM FEW250 03/M02 A3031 RMK AO2 SLP264 T00281017= 201711141051 METAR KEWR 141051Z 35006KT 10SM FEW050 02/M01 A3032 RMK AO2 SLP266 T00221011= 201711141151 METAR KEWR 141151Z 34009KT 10SM FEW050 BKN250 03/M01 A3033 RMK AO2 SLP270 70009 T00281011 10033 20022 53008= 201711141251 METAR KEWR 141251Z 36008KT 10SM FEW050 BKN220 BKN250 04/M01 A3034 RMK AO2 SLP274 T00391006= 201711141351 METAR KEWR 141351Z 36011KT 10SM FEW050 BKN240 06/00 A3035 RMK AO2 SLP276 T00610000= 201711141451 METAR KEWR 141451Z 01012KT 10SM FEW030 BKN055 BKN230 07/00 A3035 RMK AO2 SLP276 T00670000 50005= 201711141551 METAR KEWR 141551Z 03010KT 10SM BKN060 BKN230 07/00 A3034 RMK AO2 SLP272 T00670000= 201711141651 METAR KEWR 141651Z 35012KT 10SM SCT025 BKN035 BKN060 OVC250 08/00 A3032 RMK AO2 SLP265 SCT V BKN T00780000= 201711141751 METAR KEWR 141751Z 35011KT 10SM FEW028 SCT035 BKN060 OVC250 09/00 A3030 RMK AO2 SLP258 T00890000 10094 20028 58017= 201711141851 METAR KEWR 141851Z 02009KT 10SM FEW025 SCT038 BKN060 BKN250 09/00 A3028 RMK AO2 SLP253 T00890000= 201711141951 METAR KEWR 141951Z 03010KT 10SM FEW030 BKN060 08/01 A3028 RMK AO2 SLP253 T00830006= 201711142051 METAR KEWR 142051Z 03010KT 10SM SCT030 BKN060 08/01 A3028 RMK AO2 SLP254 T00830006 55004= 201711142151 METAR KEWR 142151Z 02010KT 10SM FEW030 BKN060 07/01 A3029 RMK AO2 SLP256 T00720006= 201711142251 METAR KEWR 142251Z 03009KT 10SM FEW030 BKN060 07/01 A3030 RMK AO2 SLP260 T00670011= 201711142351 METAR KEWR 142351Z 04006KT 10SM FEW030 BKN060 06/01 A3030 RMK AO2 SLP260 T00610011 10094 20061 51006= 201711150051 METAR KEWR 150051Z 03009KT 10SM FEW025 BKN060 06/01 A3031 RMK AO2 SLP261 T00560011= 201711150151 METAR KEWR 150151Z 01007KT 10SM FEW025 SCT060 04/01 A3031 RMK AO2 SLP263 T00390006= 201711150251 METAR KEWR 150251Z 02005KT 10SM FEW025 BKN060 05/02 A3030 RMK AO2 SLP260 T00500017 50000= 201711150351 METAR KEWR 150351Z 01007KT 10SM FEW020 BKN055 05/01 A3030 RMK AO2 SLP259 T00500011= 201711150451 METAR KEWR 150451Z 01008KT 10SM FEW020 BKN055 04/01 A3031 RMK AO2 SLP262 T00440011 400940022= 201711150551 METAR KEWR 150551Z 01009KT 10SM FEW020 BKN055 04/01 A3030 RMK AO2 SLP260 T00440006 10067 20039 57000= 201711150651 METAR KEWR 150651Z 01009KT 10SM FEW020 BKN055 04/00 A3030 RMK AO2 SLP259 T00390000= 201711150751 METAR KEWR 150751Z 01010KT 10SM BKN055 03/M01 A3030 RMK AO2 SLP259 T00281006= 201711150851 METAR KEWR 150851Z 02008KT 10SM BKN055 02/M01 A3030 RMK AO2 SLP261 T00221006 53001= 201711150951 METAR KEWR 150951Z 03007KT 10SM SCT055 02/M01 A3031 RMK AO2 SLP262 T00171006= 201711151051 METAR KEWR 151051Z 01010KT 10SM FEW055 02/M01 A3030 RMK AO2 SLP261 T00171006= 201711151151 METAR KEWR 151151Z 02009KT 10SM FEW055 FEW250 01/M01 A3031 RMK AO2 SLP263 T00111011 10044 20011 53002= 201711151251 METAR KEWR 151251Z 01009KT 10SM FEW055 FEW250 03/01 A3032 RMK AO2 SLP266 T00280006= 201711151351 METAR KEWR 151351Z 02008KT 10SM FEW250 05/01 A3031 RMK AO2 SLP264 T00500006= 201711151451 METAR KEWR 151451Z VRB04KT 10SM FEW045 FEW250 07/00 A3030 RMK AO2 SLP259 T00670000 58004= 201711151551 METAR KEWR 151551Z 02006KT 10SM FEW035 BKN250 08/M01 A3027 RMK AO2 SLP250 T00831006= 201711151651 METAR KEWR 151651Z 09005KT 10SM FEW037 BKN250 09/00 A3024 RMK AO2 SLP238 T00890000= 201711151751 METAR KEWR 151751Z VRB05KT 10SM SCT037 BKN250 09/01 A3021 RMK AO2 SLP228 T00940006 10100 20011 58031= 201711151851 METAR KEWR 151851Z VRB04KT 10SM SCT035 BKN250 10/02 A3019 RMK AO2 SLP223 T01000017= 201711151951 METAR KEWR 151951Z 15005KT 10SM SCT038 BKN250 09/01 A3017 RMK AO2 SLP215 T00940011= 201711152051 METAR KEWR 152051Z 15005KT 10SM FEW038 BKN042 09/03 A3017 RMK AO2 SLP216 T00890028 55012= 201711152151 METAR KEWR 152151Z VRB04KT 10SM OVC040 09/03 A3015 RMK AO2 SLP210 T00940028= 201711152251 METAR KEWR 152251Z 11006KT 10SM FEW036 OVC044 09/02 A3015 RMK AO2 SLP209 T00940022= 201711152351 METAR KEWR 152351Z 12007KT 10SM FEW038 OVC046 10/03 A3014 RMK AO2 SLP204 T01000033 10100 20089 56012= 201711160051 METAR KEWR 160051Z 10008KT 10SM BKN046 OVC220 09/04 A3010 RMK AO2 SLP191 T00940039= 201711160151 METAR KEWR 160151Z 10006KT 10SM SCT028 BKN048 OVC220 09/04 A3010 RMK AO2 SLP192 T00940044= 201711160251 METAR KEWR 160251Z 08003KT 10SM BKN025 OVC050 10/05 A3008 RMK AO2 SLP187 T01000050 56017= 201711160351 METAR KEWR 160351Z 16005KT 10SM FEW025 OVC050 11/06 A3006 RMK AO2 SLP177 T01110056= 201711160451 METAR KEWR 160451Z 15007KT 10SM FEW025 BKN042 OVC050 12/06 A3004 RMK AO2 SLP171 T01170061 401170011= 201711160551 METAR KEWR 160551Z 14008KT 10SM FEW025 BKN042 OVC050 12/07 A3000 RMK AO2 SLP159 T01170067 10117 20094 58027= 201711160651 METAR KEWR 160651Z 16007KT 10SM FEW029 SCT042 OVC055 12/07 A2999 RMK AO2 SLP154 T01170067= 201711160751 METAR KEWR 160751Z 16008KT 10SM FEW029 SCT042 OVC060 12/07 A2997 RMK AO2 SLP146 T01170067= 201711160851 METAR KEWR 160851Z 17007KT 10SM -RA FEW035 SCT040 OVC060 12/07 A2993 RMK AO2 RAB06 SLP135 P0000 60000 T01170072 58025= 201711160951 METAR KEWR 160951Z 18006KT 5SM RA BR FEW022 BKN041 OVC060 11/08 A2992 RMK AO2 RAE14B31 SLP132 P0004 T01060083= 201711161051 METAR KEWR 161051Z 26010KT 5SM RA BR FEW018 SCT024 OVC050 11/09 A2990 RMK AO2 SLP125 P0004 T01060089= 201711161151 METAR KEWR 161151Z 22006KT 9SM FEW011 BKN033 OVC045 11/09 A2989 RMK AO2 RAE50 SLP120 P0007 60015 70015 T01060094 10117 20100 58015= 201711161251 METAR KEWR 161251Z 23008KT 9SM -RA SCT008 BKN012 OVC045 11/10 A2988 RMK AO2 RAB09E32B43 SLP117 P0000 T01060100= 201711161351 METAR KEWR 161351Z 24008KT 10SM FEW010 BKN047 BKN060 11/09 A2986 RMK AO2 RAE1259 SLP112 P0000 T01060094= 201711161451 METAR KEWR 161451Z 23011KT 10SM FEW010 BKN047 BKN060 11/08 A2985 RMK AO2 SLP107 60000 T01060083 58012= 201711161551 METAR KEWR 161551Z 24011KT 10SM FEW010 FEW045 BKN065 11/08 A2983 RMK AO2 SLP100 T01110083= 201711161651 METAR KEWR 161651Z 23009KT 10SM SCT020 SCT034 SCT080 13/08 A2979 RMK AO2 SLP086 T01330078= 201711161751 METAR KEWR 161751Z 26016KT 10SM SCT030 BKN070 13/04 A2977 RMK AO2 SLP081 60000 T01330039 10139 20106 56027= 201711161851 METAR KEWR 161851Z 26017G22KT 10SM SCT049 SCT070 15/02 A2975 RMK AO2 SLP074 T01500022= 201711161951 METAR KEWR 161951Z 26017G29KT 10SM -RA SCT050 BKN070 11/03 A2979 RMK AO2 PK WND 25039/1929 RAB38 SLP086 P0000 T01110028= 201711162051 METAR KEWR 162051Z 27012KT 10SM FEW040 SCT065 SCT090 11/03 A2980 RMK AO2 RAE1955 SLP089 P0000 60000 T01110028 53008= 201711162151 METAR KEWR 162151Z 28017G21KT 10SM FEW040 FEW070 10/01 A2982 RMK AO2 SLP099 T01000011= 201711162251 METAR KEWR 162251Z 27011KT 10SM FEW040 FEW065 09/01 A2985 RMK AO2 SLP108 T00940011= 201711162351 METAR KEWR 162351Z 27013G20KT 10SM FEW040 FEW065 09/01 A2987 RMK AO2 SLP113 60000 T00940006 10150 20089 51023= 201711170051 METAR KEWR 170051Z 27013KT 10SM FEW040 08/01 A2987 RMK AO2 PK WND 28026/0013 SLP115 T00830006= 201711170151 METAR KEWR 170151Z 27015KT 10SM FEW040 08/00 A2988 RMK AO2 SLP118 T00780000= 201711170251 METAR KEWR 170251Z 27019G24KT 10SM FEW040 SCT070 08/01 A2989 RMK AO2 SLP122 T00780006 53009= 201711170351 METAR KEWR 170351Z 29007KT 10SM FEW030 SCT045 SCT070 07/02 A2991 RMK AO2 RAB26E48 SLP127 P0000 T00670017= 201711170451 METAR KEWR 170451Z 27011KT 10SM BKN045 07/01 A2991 RMK AO2 SLP128 T00670011 401500067= 201711170551 METAR KEWR 170551Z 30008G17KT 260V340 10SM BKN032 BKN045 BKN070 07/02 A2993 RMK AO2 RAB27E39 SLP135 P0000 60000 T00720017 10094 20067 53013= 201711170651 METAR KEWR 170651Z 30010KT 10SM FEW035 SCT050 SCT070 06/M01 A2994 RMK AO2 SLP139 T00611006= 201711170751 METAR KEWR 170751Z 29019G23KT 10SM SCT032 BKN050 06/M01 A2996 RMK AO2 SLP145 T00611011= 201711170851 METAR KEWR 170851Z 30019G25KT 10SM BKN045 06/M02 A2998 RMK AO2 SLP150 T00611022 53015= 201711170951 METAR KEWR 170951Z 32016G19KT 10SM BKN040 06/M03 A3001 RMK AO2 PK WND 33033/0902 SLP160 T00561028= 201711171051 METAR KEWR 171051Z 31019G29KT 10SM BKN042 05/M04 A3003 RMK AO2 PK WND 31032/1027 SLP169 T00501044= 201711171151 METAR KEWR 171151Z 30014G21KT 10SM SCT041 04/M04 A3004 RMK AO2 PK WND 31026/1124 SLP172 T00391039 10072 20039 51022= 201711171251 METAR KEWR 171251Z 30011KT 10SM FEW042 05/M04 A3006 RMK AO2 SLP180 T00501039= 201711171351 METAR KEWR 171351Z 29017G23KT 10SM FEW039 06/M04 A3009 RMK AO2 PK WND 32027/1308 SLP187 T00561039= 201711171451 METAR KEWR 171451Z 29016G24KT 10SM FEW040 07/M04 A3009 RMK AO2 PK WND 30029/1434 SLP189 T00671039 51017= 201711171551 METAR KEWR 171551Z 31014G21KT 10SM FEW043 07/M04 A3009 RMK AO2 PK WND 29027/1503 SLP188 T00721044= 201711171651 METAR KEWR 171651Z 28012KT 10SM FEW250 09/M06 A3007 RMK AO2 SLP181 T00891056= 201711171751 METAR KEWR 171751Z 29013G23KT 10SM FEW250 09/M07 A3007 RMK AO2 SLP181 T00941072 10094 20039 56008= 201711171851 METAR KEWR 171851Z 31016G22KT 10SM FEW250 10/M08 A3006 RMK AO2 PK WND 28026/1807 SLP180 T01001083= 201711171951 METAR KEWR 171951Z 32019G24KT 10SM SCT250 10/M10 A3007 RMK AO2 SLP181 T01001100= 201711172051 METAR KEWR 172051Z 30013G21KT 10SM FEW200 SCT250 09/M09 A3008 RMK AO2 SLP185 T00891089 53004= 201711172151 METAR KEWR 172151Z 30014KT 10SM FEW200 SCT250 08/M10 A3008 RMK AO2 SLP185 T00781100= 201711172251 METAR KEWR 172251Z 29006KT 10SM SCT250 07/M09 A3010 RMK AO2 SLP191 T00671094= 201711172351 METAR KEWR 172351Z 28007KT 10SM SCT250 06/M09 A3010 RMK AO2 SLP191 T00561094 10100 20056 53006= 201711180051 METAR KEWR 180051Z 29008KT 10SM SCT250 05/M09 A3010 RMK AO2 SLP191 T00501094= 201711180151 METAR KEWR 180151Z 30007KT 10SM FEW250 04/M09 A3010 RMK AO2 SLP192 T00441089= 201711180251 METAR KEWR 180251Z 28008KT 10SM FEW250 04/M08 A3010 RMK AO2 SLP190 T00391083 58000= 201711180351 METAR KEWR 180351Z 28006KT 10SM FEW120 SCT250 03/M08 A3008 RMK AO2 SLP186 T00331083= 201711180451 METAR KEWR 180451Z 27006KT 10SM SCT250 03/M08 A3008 RMK AO2 SLP186 T00281078 401000028= 201711180551 METAR KEWR 180551Z 25004KT 10SM BKN250 02/M08 A3005 RMK AO2 SLP175 T00221078 10061 20017 58016= 201711180651 METAR KEWR 180651Z 28004KT 10SM SCT250 02/M07 A3005 RMK AO2 SLP175 T00171072= 201711180751 METAR KEWR 180751Z 00000KT 10SM BKN250 02/M07 A3002 RMK AO2 SLP164 T00221072= 201711180851 METAR KEWR 180851Z 00000KT 10SM BKN250 01/M07 A3001 RMK AO2 SLP160 T00061067 58015= 201711180951 METAR KEWR 180951Z 25003KT 10SM BKN250 M01/M06 A3001 RMK AO2 SLP162 T10061056= 201711181051 METAR KEWR 181051Z 25005KT 10SM FEW150 BKN250 00/M05 A3000 RMK AO2 SLP160 T00001050= 201711181151 METAR KEWR 181151Z 28005KT 10SM FEW140 BKN200 BKN260 01/M05 A3000 RMK AO2 SLP157 T00061050 10028 21011 58003= 201711181251 METAR KEWR 181251Z 00000KT 10SM FEW140 BKN200 BKN260 01/M04 A2997 RMK AO2 SLP149 T00111044= 201711181351 METAR KEWR 181351Z 00000KT 10SM FEW130 BKN160 BKN250 03/M04 A2995 RMK AO2 SLP142 T00281044= 201711181451 METAR KEWR 181451Z 00000KT 10SM FEW120 BKN150 BKN250 04/M03 A2993 RMK AO2 SLP133 T00391033 58023= 201711181551 METAR KEWR 181551Z 19008KT 10SM FEW110 BKN140 OVC250 07/M01 A2989 RMK AO2 SLP120 T00721006= 201711181651 METAR KEWR 181651Z 19008KT 10SM FEW110 BKN140 OVC250 09/01 A2982 RMK AO2 PRESFR SLP096 T00890006= 201711181751 METAR KEWR 181751Z 17009KT 10SM BKN100 BKN130 OVC250 09/01 A2977 RMK AO2 SLP080 T00940011 10094 20000 58054= 201711181851 METAR KEWR 181851Z 15006KT 10SM -RA BKN085 BKN120 OVC200 10/02 A2971 RMK AO2 RAB02 SLP061 P0000 T01000022= 201711181951 METAR KEWR 181951Z 19006KT 10SM -RA FEW070 BKN090 OVC150 11/03 A2969 RMK AO2 RAE08B28 SLP052 P0000 T01060033= 201711182051 METAR KEWR 182051Z 18004KT 10SM -RA SCT050 SCT075 OVC110 10/04 A2967 RMK AO2 SLP047 P0000 60000 T01000039 56033= 201711182151 METAR KEWR 182151Z 00000KT 9SM -RA FEW065 BKN090 OVC110 09/05 A2964 RMK AO2 SLP037 P0002 T00940050= 201711182251 METAR KEWR 182251Z 00000KT 5SM RA FEW070 OVC085 09/06 A2964 RMK AO2 SLP035 P0005 T00890056= 201711182351 METAR KEWR 182351Z 19004KT 7SM -RA SCT055 BKN090 OVC100 09/06 A2962 RMK AO2 SLP029 P0005 60012 T00890061 10106 20083 56018= 201711190051 METAR KEWR 190051Z 18007KT 10SM BKN065 OVC080 09/07 A2957 RMK AO2 RAE00B29E49 SLP014 P0000 T00940067= 201711190151 METAR KEWR 190151Z 16003KT 10SM BKN090 BKN110 OVC160 09/07 A2953 RMK AO2 RAB0056E34 SLP001 P0000 T00940072= 201711190251 METAR KEWR 190251Z VRB03KT 10SM SCT060 SCT100 OVC130 11/08 A2950 RMK AO2 RAB30E39 SLP988 P0000 60000 T01060078 56041= 201711190351 METAR KEWR 190351Z 17005KT 10SM SCT110 OVC150 11/09 A2943 RMK AO2 PRESFR SLP965 T01110089= 201711190451 METAR KEWR 190451Z 19006KT 10SM SCT095 BKN140 BKN180 OVC250 12/09 A2940 RMK AO2 SLP955 T01170094 401171011= 201711190551 METAR KEWR 190551Z 19007KT 10SM SCT060 BKN075 BKN140 BKN250 13/10 A2936 RMK AO2 SLP942 60000 T01330100 10133 20089 56045= 201711190651 METAR KEWR 190651Z 19010KT 10SM -RA SCT060 BKN085 OVC120 14/11 A2933 RMK AO2 RAB12 SLP931 P0000 T01440106= 201711190751 METAR KEWR 190751Z 21015G21KT 8SM RA BKN032 BKN045 OVC070 14/12 A2931 RMK AO2 RAE06B33 SLP925 P0002 T01440117= 201711190851 METAR KEWR 190851Z 21019G25KT 7SM RA BKN022 BKN070 OVC100 14/13 A2928 RMK AO2 PK WND 20027/0840 SLP913 P0002 60004 T01440128 58029= 201711190951 METAR KEWR 190951Z 21013G23KT 7SM -RA BKN016 BKN020 14/13 A2926 RMK AO2 PK WND 20026/0855 SLP909 P0011 T01440133= 201711191051 METAR KEWR 191051Z 20017G24KT 9SM -RA SCT015 BKN018 OVC035 15/13 A2923 RMK AO2 PK WND 21035/0957 SLP897 P0005 T01500133= 201711191151 METAR KEWR 191151Z 22019G31KT 9SM -RA FEW018 BKN025 OVC065 14/12 A2922 RMK AO2 PK WND 22031/1129 SLP894 P0005 60025 70037 T01390117 10150 20133 56019= 201711191251 METAR KEWR 191251Z 26023G35KT 10SM BKN023 BKN042 OVC100 12/07 A2927 RMK AO2 PK WND 28044/1232 RAE36 SLP912 P0001 T01220067= 201711191351 METAR KEWR 191351Z 25020G28KT 10SM FEW028 BKN040 BKN100 11/05 A2934 RMK AO2 PK WND 27035/1256 PRESRR SLP936 T01110050= 201711191451 METAR KEWR 191451Z 28019G32KT 10SM BKN044 BKN200 11/02 A2942 RMK AO2 PK WND 29035/1433 PRESRR SLP961 60001 T01060017 53067= 201711191551 METAR KEWR 191551Z 28021G34KT 10SM BKN048 11/00 A2945 RMK AO2 PK WND 28041/1459 SLP973 T01060000= 201711191651 METAR KEWR 191651Z 30021G35KT 10SM BKN050 11/M01 A2950 RMK AO2 PK WND 28035/1646 SLP989 T01061011= 201711191751 METAR KEWR 191751Z 29025G35KT 10SM BKN050 12/M02 A2951 RMK AO2 PK WND 28036/1731 SLP991 60001 T01171017 10144 20100 51030= 201711191851 METAR KEWR 191851Z 30022G32KT 10SM BKN055 11/M02 A2954 RMK AO2 PK WND 29038/1757 SLP003 T01061017= 201711191951 METAR KEWR 191951Z 32022G26KT 10SM BKN050 10/M02 A2957 RMK AO2 PK WND 30032/1852 SLP012 T01001017= 201711192051 METAR KEWR 192051Z 32017G24KT 10SM SCT050 09/M03 A2961 RMK AO2 PK WND 30027/1959 SLP026 T00891033 53035= 201711192151 METAR KEWR 192151Z 30010G21KT 10SM BKN055 08/M04 A2964 RMK AO2 SLP036 T00831039= 201711192251 METAR KEWR 192251Z 31010G18KT 10SM BKN060 08/M04 A2967 RMK AO2 SLP048 T00831039= 201711192351 METAR KEWR 192351Z 29008G15KT 10SM BKN070 08/M04 A2970 RMK AO2 SLP056 T00831039 10122 20083 51030= 201711200051 METAR KEWR 200051Z 26011G18KT 10SM -RA FEW045 OVC060 08/M01 A2973 RMK AO2 RAB24 SLP065 P0000 T00781011= 201711200151 METAR KEWR 200151Z 29007G17KT 10SM -RA SCT037 BKN045 OVC055 05/01 A2975 RMK AO2 PK WND 30031/0129 SLP073 P0000 T00500011= 201711200251 METAR KEWR 200251Z 26013G19KT 10SM -RA FEW045 BKN060 BKN080 06/02 A2977 RMK AO2 RAE06B49 SLP081 P0000 60000 T00560017 51025= 201711200351 METAR KEWR 200351Z 32015G24KT 10SM -RA FEW041 BKN055 BKN070 05/00 A2980 RMK AO2 RAE05B49 SLP091 P0000 T00500000= 201711200451 METAR KEWR 200451Z 27012KT 10SM FEW055 SCT070 BKN085 04/M02 A2981 RMK AO2 PK WND 28026/0405 RAE11 SLP095 P0000 T00441017 401500039= 201711200551 METAR KEWR 200551Z 29017G22KT 10SM FEW070 SCT085 04/M02 A2983 RMK AO2 SLP102 60000 T00441017 10083 20039 51021= 201711200651 METAR KEWR 200651Z 26014KT 10SM -SN FEW035 BKN047 BKN075 03/M02 A2986 RMK AO2 RAB0556E33SNB02E14B33 SLP111 P0000 T00281017= 201711200751 METAR KEWR 200751Z 27011KT 10SM SCT060 OVC070 03/M03 A2989 RMK AO2 SNE01 SLP121 P0000 T00331028= 201711200851 METAR KEWR 200851Z 26013KT 10SM FEW060 FEW075 03/M04 A2992 RMK AO2 SLP130 60000 T00281039 51028= 201711200951 METAR KEWR 200951Z 26009KT 10SM BKN075 03/M03 A2994 RMK AO2 SLP138 T00281033= 201711201051 METAR KEWR 201051Z 25006KT 10SM BKN047 BKN060 OVC075 03/M03 A2997 RMK AO2 SLP149 T00281033= 201711201151 METAR KEWR 201151Z 24011KT 10SM SCT045 SCT065 02/M05 A3000 RMK AO2 SLP157 VIRGA N-NE 60000 70001 T00221050 10039 20022 53027= 201711201251 METAR KEWR 201251Z 25008KT 10SM FEW030 FEW050 BKN070 03/M04 A3004 RMK AO2 SLP170 T00281039= 201711201351 METAR KEWR 201351Z 25010KT 10SM FEW035 BKN060 04/M04 A3005 RMK AO2 SLP173 T00391039= 201711201451 METAR KEWR 201451Z 28015G23KT 10SM BKN045 BKN060 06/M06 A3005 RMK AO2 SLP175 T00561056 51018= 201711201551 METAR KEWR 201551Z 27020G24KT 10SM SCT050 07/M06 A3005 RMK AO2 SLP174 T00721056= 201711201651 METAR KEWR 201651Z 26016G24KT 10SM SCT060 08/M07 A3003 RMK AO2 PK WND 27026/1641 SLP169 T00831067= 201711201751 METAR KEWR 201751Z 27015G26KT 10SM SCT060 09/M06 A3003 RMK AO2 PK WND 30026/1743 SLP167 T00891061 10089 20017 58009= 201711201851 METAR KEWR 201851Z 26015G23KT 10SM FEW060 SCT250 09/M06 A3003 RMK AO2 SLP170 T00891056= 201711201951 METAR KEWR 201951Z 25014G19KT 10SM FEW065 SCT250 09/M06 A3005 RMK AO2 SLP173 T00891056= 201711202051 METAR KEWR 202051Z 26015KT 10SM FEW055 BKN250 08/M05 A3007 RMK AO2 SLP183 T00781050 53017= 201711202151 METAR KEWR 202151Z 23012G20KT 10SM FEW055 BKN250 07/M05 A3009 RMK AO2 SLP188 T00721050= 201711202251 METAR KEWR 202251Z 22013G18KT 10SM FEW060 BKN250 07/M04 A3010 RMK AO2 SLP193 T00671044= 201711202351 METAR KEWR 202351Z 22008KT 10SM FEW060 SCT250 06/M04 A3011 RMK AO2 SLP195 T00611044 10089 20061 51012= 201711210051 METAR KEWR 210051Z 23012KT 10SM SCT250 06/M04 A3012 RMK AO2 SLP198 T00561044= 201711210151 METAR KEWR 210151Z 24008KT 10SM SCT250 06/M05 A3012 RMK AO2 SLP197 T00561050 $= 201711210251 METAR KEWR 210251Z 22009KT 10SM FEW250 04/M04 A3012 RMK AO2 SLP199 T00441044 51004 $= 201711210351 METAR KEWR 210351Z 22012KT 10SM FEW250 05/M04 A3014 RMK AO2 SLP204 T00501044 $= 201711210451 METAR KEWR 210451Z 22010KT 10SM FEW250 04/M04 A3013 RMK AO2 SLP203 T00441044 400890017 $= 201711210551 METAR KEWR 210551Z 23011KT 10SM FEW250 04/M04 A3013 RMK AO2 SLP202 T00391039 10061 20039 50003 $= 201711210651 METAR KEWR 210651Z 22007KT 10SM SCT250 03/M03 A3014 RMK AO2 SLP204 T00331033 $= 201711210751 METAR KEWR 210751Z 22007KT 10SM SCT250 04/M03 A3014 RMK AO2 SLP205 T00391028 $= 201711210851 METAR KEWR 210851Z 22008KT 10SM BKN250 03/M02 A3013 RMK AO2 SLP202 T00331022 50000 $= 201711210951 METAR KEWR 210951Z 23006KT 10SM BKN250 03/M03 A3012 RMK AO2 SLP200 T00281028 $= 201711211051 METAR KEWR 211051Z 27004KT 10SM SCT250 03/M03 A3014 RMK AO2 SLP204 T00281028 $= 201711211151 METAR KEWR 211151Z 25004KT 10SM BKN250 03/M03 A3013 RMK AO2 SLP203 T00281028 10039 20022 53001 $= 201711211251 METAR KEWR 211251Z 00000KT 10SM SCT250 04/M01 A3014 RMK AO2 SLP205 T00441011 $= 201711211351 METAR KEWR 211351Z 22011KT 10SM SCT250 09/01 A3013 RMK AO2 SLP201 T00890011 $= 201711211451 METAR KEWR 211451Z 22013G24KT 10SM SCT250 11/00 A3012 RMK AO2 SLP200 T01110000 58003 $= 201711211551 METAR KEWR 211551Z 23017G24KT 10SM BKN250 12/M01 A3011 RMK AO2 PK WND 23028/1520 SLP195 T01221011 $= 201711211651 METAR KEWR 211651Z 23015G23KT 10SM BKN250 13/00 A3008 RMK AO2 SLP186 T01330000 $= 201711211751 METAR KEWR 211751Z 22015G21KT 10SM BKN250 14/M01 A3005 RMK AO2 SLP175 T01441011 10150 20022 58025 $= 201711211851 METAR KEWR 211851Z 21013KT 10SM BKN250 16/M01 A3003 RMK AO2 SLP170 T01561011= 201711211951 METAR KEWR 211951Z 20015G18KT 10SM FEW220 BKN250 14/M02 A3001 RMK AO2 SLP163 T01441017= 201711212051 METAR KEWR 212051Z 20014G21KT 10SM FEW220 BKN250 13/M02 A3002 RMK AO2 SLP166 T01331022 55009= 201711212151 METAR KEWR 212151Z 20006KT 10SM BKN250 11/M02 A3002 RMK AO2 SLP163 T01111017= 201711212251 METAR KEWR 212251Z 00000KT 10SM BKN250 12/M01 A3003 RMK AO2 SLP168 T01171011= 201711212351 METAR KEWR 212351Z 17005KT 10SM BKN250 11/01 A3005 RMK AO2 SLP174 T01110006 10156 20111 53008= 201711220051 METAR KEWR 220051Z 18007KT 10SM FEW180 BKN250 11/02 A3005 RMK AO2 SLP174 T01110022= 201711220151 METAR KEWR 220151Z 10SM FEW180 BKN250 11/03 A3005 RMK AO2 SLP174 T01060028 $= 201711220251 METAR KEWR 220251Z 16005KT 10SM FEW180 BKN250 10/04 A3005 RMK AO2 SLP174 T01000039 58000 $= 201711220351 METAR KEWR 220351Z 17004KT 10SM FEW180 BKN250 10/04 A3004 RMK AO2 SLP171 T01000044 $= 201711220451 METAR KEWR 220451Z 00000KT 10SM FEW050 OVC220 09/04 A3002 RMK AO2 SLP166 T00940044 401560022 $= 201711220551 METAR KEWR 220551Z 00000KT 10SM OVC240 09/04 A3000 RMK AO2 SLP158 T00940044 10117 20089 58015 $= 201711220651 METAR KEWR 220651Z 00000KT 10SM FEW050 OVC190 09/04 A2998 RMK AO2 SLP153 T00890044 $= 201711220751 METAR KEWR 220751Z 00000KT 10SM FEW040 SCT140 OVC200 08/04 A2997 RMK AO2 SLP147 T00830044 $= 201711220851 METAR KEWR 220851Z 00000KT 10SM FEW040 SCT090 BKN140 OVC200 08/04 A2995 RMK AO2 SLP141 T00830044 58018 $= 201711220951 METAR KEWR 220951Z 00000KT 10SM -RA SCT040 BKN090 OVC140 10/06 A2993 RMK AO2 RAB49 SLP133 P0000 T01000056 $= 201711221051 METAR KEWR 221051Z 36004KT 10SM BKN022 OVC040 09/06 A2990 RMK AO2 RAE0957 SLP125 P0000 T00940056 $= 201711221151 METAR KEWR 221151Z 00000KT 8SM -RA BKN016 OVC032 11/07 A2991 RMK AO2 RAB26 SLP127 P0003 60003 70003 T01060072 10111 20072 55014 $= 201711221251 METAR KEWR 221251Z 26005KT 7SM -RA BKN016 OVC060 11/09 A2991 RMK AO2 SLP128 P0005 T01060089 $= 201711221351 METAR KEWR 221351Z 33005KT 7SM -RA FEW015 SCT040 OVC070 10/08 A2990 RMK AO2 SLP125 P0004 T01000083 $= 201711221451 METAR KEWR 221451Z 03004KT 10SM FEW009 BKN048 OVC080 11/08 A2988 RMK AO2 RAE04 PRESFR SLP116 P0000 60009 T01060083 56012 $= 201711221551 METAR KEWR 221551Z 25007KT 10SM FEW010 BKN065 OVC080 10/08 A2990 RMK AO2 SLP126 T01000083= 201711221651 METAR KEWR 221651Z 30006KT 10SM -RA FEW050 BKN065 OVC085 11/09 A2989 RMK AO2 RAB12E28B46 SLP120 P0000 T01110089= 201711221751 METAR KEWR 221751Z 32014G22KT 10SM SCT035 BKN080 BKN120 BKN200 12/05 A2988 RMK AO2 RAE1655 SLP119 P0000 60009 T01170050 10128 20094 50003= 201711221851 METAR KEWR 221851Z 32017G21KT 10SM FEW035 11/03 A2991 RMK AO2 PK WND 31027/1836 SLP126 T01110028= 201711221951 METAR KEWR 221951Z 29019G23KT 10SM SCT038 10/01 A2993 RMK AO2 PK WND 31028/1926 SLP133 T01000006= 201711222051 METAR KEWR 222051Z 31019G28KT 10SM SCT035 08/M01 A2997 RMK AO2 PK WND 31029/2018 SLP146 T00781011 53028= 201711222151 METAR KEWR 222151Z 32017KT 10SM BKN041 07/M03 A3000 RMK AO2 PK WND 31030/2054 SLP157 T00721028= 201711222251 METAR KEWR 222251Z 30017G24KT 10SM BKN042 06/M04 A3002 RMK AO2 PK WND 31029/2220 SLP164 T00611044= 201711222351 METAR KEWR 222351Z 34021G29KT 10SM BKN042 06/M04 A3004 RMK AO2 PK WND 32029/2344 SLP171 T00561039 10122 20056 51025= 201711230051 METAR KEWR 230051Z 33019G25KT 10SM BKN042 04/M05 A3007 RMK AO2 PK WND 35028/2352 SLP181 T00441050= 201711230151 METAR KEWR 230151Z 32020G27KT 10SM SCT038 03/M06 A3008 RMK AO2 PK WND 32027/0143 SLP185 T00331056= 201711230251 METAR KEWR 230251Z 32018G22KT 10SM FEW038 03/M06 A3009 RMK AO2 PK WND 33026/0207 SLP189 T00281061 51017= 201711230351 METAR KEWR 230351Z 33014G22KT 10SM FEW040 02/M07 A3010 RMK AO2 SLP191 T00221067= 201711230451 METAR KEWR 230451Z 30010KT 10SM FEW040 02/M07 A3011 RMK AO2 SLP194 T00171067 401280017= 201711230551 METAR KEWR 230551Z 30010KT 10SM CLR 01/M07 A3010 RMK AO2 SLP191 T00111067 10056 20011 50003= 201711230651 METAR KEWR 230651Z 29009KT 10SM CLR 01/M07 A3011 RMK AO2 SLP196 T00061072= 201711230751 METAR KEWR 230751Z 32012KT 10SM CLR 01/M07 A3011 RMK AO2 SLP193 T00061072= 201711230851 METAR KEWR 230851Z 33009KT 10SM CLR 01/M07 A3009 RMK AO2 SLP189 T00061072 58002= 201711230951 METAR KEWR 230951Z 32009KT 10SM CLR 00/M08 A3009 RMK AO2 SLP189 T00001078= 201711231051 METAR KEWR 231051Z 32008KT 10SM CLR 00/M08 A3010 RMK AO2 SLP190 T00001078= 201711231151 METAR KEWR 231151Z 29006KT 10SM FEW220 M01/M08 A3012 RMK AO2 SLP198 70009 T10061078 10011 21006 53008= 201711231251 METAR KEWR 231251Z 27006KT 10SM FEW250 01/M07 A3013 RMK AO2 SLP202 T00061072= 201711231351 METAR KEWR 231351Z 32009KT 10SM FEW250 02/M07 A3013 RMK AO2 SLP202 T00171072= 201711231451 METAR KEWR 231451Z 33007KT 290V350 10SM SCT250 03/M07 A3013 RMK AO2 SLP201 T00281072 50003= 201711231551 METAR KEWR 231551Z 32006KT 10SM FEW250 04/M07 A3010 RMK AO2 SLP192 T00441067= 201711231651 METAR KEWR 231651Z 10SM FEW250 06/M07 A3008 RMK AO2 SLP184 T00561072= 201711231751 METAR KEWR 231751Z 24004KT 10SM FEW180 SCT250 06/M08 A3005 RMK AO2 SLP177 T00611078 10061 21006 56025= 201711231851 METAR KEWR 231851Z VRB03KT 10SM FEW180 SCT250 07/M07 A3003 RMK AO2 SLP169 T00671072= 201711231951 METAR KEWR 231951Z 00000KT 10SM FEW160 FEW250 07/M08 A3002 RMK AO2 SLP165 T00671078= 201711232051 METAR KEWR 232051Z 29005KT 10SM FEW250 06/M08 A3002 RMK AO2 SLP163 T00611078 56013= 201711232151 METAR KEWR 232151Z 27005KT 10SM SCT250 06/M08 A3002 RMK AO2 SLP165 T00561078= 201711232251 METAR KEWR 232251Z 24008KT 10SM SCT250 04/M07 A3002 RMK AO2 SLP166 T00441067= 201711232351 METAR KEWR 232351Z 24009KT 10SM SCT250 04/M07 A3003 RMK AO2 SLP169 T00391067 10078 20033 53005= 201711240051 METAR KEWR 240051Z 26008KT 10SM SCT250 03/M07 A3002 RMK AO2 SLP165 T00331067= 201711240151 METAR KEWR 240151Z 25007KT 10SM FEW250 03/M06 A3003 RMK AO2 SLP169 T00281061= 201711240251 METAR KEWR 240251Z 28007KT 10SM FEW250 02/M06 A3005 RMK AO2 SLP176 T00171061 53007= 201711240351 METAR KEWR 240351Z 26006KT 10SM FEW250 02/M06 A3005 RMK AO2 SLP175 T00171061= 201711240451 METAR KEWR 240451Z 27005KT 10SM FEW250 01/M06 A3005 RMK AO2 SLP176 T00061061 400781006= 201711240551 METAR KEWR 240551Z 24003KT 10SM FEW250 00/M07 A3004 RMK AO2 SLP173 T00001067 10039 20000 58003= 201711240651 METAR KEWR 240651Z 26004KT 10SM CLR 01/M06 A3004 RMK AO2 SLP172 T00061061= 201711240751 METAR KEWR 240751Z 27003KT 10SM CLR 01/M06 A3005 RMK AO2 SLP173 T00061061= 201711240851 METAR KEWR 240851Z 00000KT 10SM CLR 00/M06 A3005 RMK AO2 SLP173 T00001061 52001= 201711240951 METAR KEWR 240951Z 21005KT 10SM CLR M02/M06 A3004 RMK AO2 SLP173 T10171061= 201711241051 METAR KEWR 241051Z 22006KT 10SM CLR M02/M06 A3005 RMK AO2 SLP174 T10221061= 201711241151 METAR KEWR 241151Z 00000KT 10SM FEW050 00/M06 A3006 RMK AO2 SLP179 T00001056 10006 21028 53006= 201711241251 METAR KEWR 241251Z 22003KT 10SM FEW050 FEW250 01/M05 A3007 RMK AO2 SLP182 T00061050= 201711241351 METAR KEWR 241351Z 26003KT 10SM CLR 03/M05 A3006 RMK AO2 SLP179 T00331050= 201711241451 METAR KEWR 241451Z 24006KT 10SM CLR 06/M05 A3006 RMK AO2 SLP179 T00611050 58000= 201711241551 METAR KEWR 241551Z 00000KT 10SM CLR 08/M05 A3005 RMK AO2 SLP175 T00781050= 201711241651 METAR KEWR 241651Z VRB03KT 10SM CLR 09/M06 A3003 RMK AO2 SLP168 T00891056= 201711241751 METAR KEWR 241751Z 23004KT 10SM CLR 11/M06 A3001 RMK AO2 SLP161 T01061061 10106 21006 58017= 201711241851 METAR KEWR 241851Z 24006KT 10SM CLR 11/M06 A2998 RMK AO2 SLP152 T01111056= 201711241951 METAR KEWR 241951Z 17007KT 10SM CLR 11/M05 A2996 RMK AO2 SLP146 T01061050= 201711242051 METAR KEWR 242051Z 17007KT 10SM FEW250 10/M04 A2996 RMK AO2 SLP143 T01001044 56018= 201711242151 METAR KEWR 242151Z 16007KT 10SM FEW250 09/M03 A2996 RMK AO2 SLP146 T00941033= 201711242251 METAR KEWR 242251Z 19005KT 10SM CLR 08/M02 A2997 RMK AO2 SLP148 T00831022= 201711242351 METAR KEWR 242351Z 20005KT 10SM CLR 07/M03 A2997 RMK AO2 SLP149 T00671028 10111 20067 51005= 201711250051 METAR KEWR 250051Z 18006KT 10SM CLR 07/M02 A2997 RMK AO2 SLP149 T00721022= 201711250151 METAR KEWR 250151Z 19006KT 10SM CLR 06/M01 A2997 RMK AO2 SLP147 T00611011= 201711250251 METAR KEWR 250251Z 20005KT 10SM CLR 04/M01 A2996 RMK AO2 SLP144 T00441011 58005= 201711250351 METAR KEWR 250351Z 23005KT 10SM CLR 05/M02 A2995 RMK AO2 SLP142 T00501022= 201711250451 METAR KEWR 250451Z 22005KT 10SM CLR 03/M03 A2994 RMK AO2 SLP138 T00331028 401111028= 201711250551 METAR KEWR 250551Z 23005KT 10SM CLR 03/M03 A2992 RMK AO2 SLP132 T00331033 10072 20028 58012= 201711250651 METAR KEWR 250651Z 17003KT 10SM CLR 04/M02 A2990 RMK AO2 SLP125 T00391022= 201711250751 METAR KEWR 250751Z 18004KT 10SM CLR 03/M02 A2989 RMK AO2 SLP122 T00331017= 201711250851 METAR KEWR 250851Z 25004KT 10SM CLR 03/M02 A2988 RMK AO2 SLP116 T00331017 56017= 201711250951 METAR KEWR 250951Z 00000KT 10SM CLR 02/M03 A2986 RMK AO2 SLP111 T00171028= 201711251051 METAR KEWR 251051Z 00000KT 10SM CLR 02/M02 A2985 RMK AO2 SLP107 T00221022= 201711251151 METAR KEWR 251151Z 24003KT 10SM FEW250 02/M02 A2984 RMK AO2 SLP105 T00171022 10039 20011 56012= 201711251251 METAR KEWR 251251Z 17005KT 10SM FEW130 SCT260 03/00 A2982 RMK AO2 SLP098 T00330000= 201711251351 METAR KEWR 251351Z 21004KT 10SM SCT220 BKN260 06/01 A2983 RMK AO2 SLP099 T00560006= 201711251451 METAR KEWR 251451Z 21006KT 10SM FEW220 BKN270 09/02 A2981 RMK AO2 SLP093 T00890022 56012= 201711251551 METAR KEWR 251551Z 20009KT 10SM FEW220 SCT270 11/02 A2978 RMK AO2 SLP083 T01060022= 201711251651 METAR KEWR 251651Z 21006KT 10SM FEW220 SCT270 12/02 A2974 RMK AO2 SLP071 T01220022= 201711251751 METAR KEWR 251751Z 19011KT 10SM FEW220 SCT270 13/01 A2970 RMK AO2 SLP056 T01330006 10139 20006 58037= 201711251851 METAR KEWR 251851Z 22006KT 10SM FEW220 SCT270 14/01 A2969 RMK AO2 SLP053 T01440006= 201711251951 METAR KEWR 251951Z 22008KT 10SM SCT210 BKN270 14/01 A2968 RMK AO2 SLP049 T01440006= 201711252051 METAR KEWR 252051Z 23005KT 10SM SCT095 BKN210 BKN270 14/01 A2967 RMK AO2 SLP047 T01390011 56008= 201711252151 METAR KEWR 252151Z 23007KT 10SM BKN110 BKN210 BKN270 13/01 A2968 RMK AO2 SLP049 T01330011= 201711252251 METAR KEWR 252251Z 24012KT 10SM BKN100 BKN210 OVC270 13/01 A2969 RMK AO2 SLP052 T01330011= 201711252351 METAR KEWR 252351Z 26010KT 10SM BKN130 OVC220 13/01 A2969 RMK AO2 SLP055 T01280011 10150 20128 53007= 201711260051 METAR KEWR 260051Z 25009KT 10SM SCT130 SCT220 OVC260 12/01 A2971 RMK AO2 SLP061 T01220006= 201711260151 METAR KEWR 260151Z 24007KT 10SM FEW075 SCT130 BKN260 12/01 A2972 RMK AO2 SLP063 T01170006= 201711260251 METAR KEWR 260251Z 26009KT 10SM FEW070 FEW130 SCT260 11/01 A2972 RMK AO2 SLP064 T01060011 51009= 201711260351 METAR KEWR 260351Z 25008KT 10SM SCT075 SCT260 11/01 A2973 RMK AO2 SLP068 T01060011= 201711260451 METAR KEWR 260451Z 28010KT 10SM BKN090 10/02 A2976 RMK AO2 SLP076 T01000017 401500006= 201711260551 METAR KEWR 260551Z 29014G18KT 10SM BKN090 10/02 A2976 RMK AO2 SLP078 T01000017 10133 20094 51015= 201711260651 METAR KEWR 260651Z 31009KT 10SM SCT090 09/02 A2980 RMK AO2 SLP089 T00940022= 201711260751 METAR KEWR 260751Z 26007KT 10SM BKN085 08/03 A2981 RMK AO2 SLP095 T00830028= 201711260851 METAR KEWR 260851Z 29010KT 10SM FEW085 08/01 A2983 RMK AO2 SLP099 T00780011 51021= 201711260951 METAR KEWR 260951Z 27004KT 10SM BKN080 07/01 A2985 RMK AO2 SLP106 T00670006= 201711261051 METAR KEWR 261051Z 26004KT 10SM SCT080 07/01 A2987 RMK AO2 SLP114 T00670006= 201711261151 METAR KEWR 261151Z 27009KT 10SM FEW050 SCT065 BKN090 07/01 A2990 RMK AO2 SLP125 T00720006 10100 20061 53026= 201711261251 METAR KEWR 261251Z 27012KT 10SM SCT045 BKN060 BKN090 08/01 A2993 RMK AO2 SLP134 T00780006= 201711261351 METAR KEWR 261351Z 29015G25KT 10SM SCT049 SCT065 BKN090 09/M03 A2996 RMK AO2 PK WND 28029/1339 SLP143 T00891028= 201711261451 METAR KEWR 261451Z 30016G22KT 10SM SCT049 SCT065 SCT250 09/M03 A2997 RMK AO2 SLP147 T00941033 51023= 201711261551 METAR KEWR 261551Z 32013KT 10SM SCT049 SCT065 BKN250 09/M04 A2998 RMK AO2 PK WND 29029/1501 SLP152 T00891039= 201711261651 METAR KEWR 261651Z 29017KT 10SM FEW045 FEW065 SCT250 09/M05 A2996 RMK AO2 SLP145 T00891050= 201711261751 METAR KEWR 261751Z 28017KT 10SM FEW050 FEW150 SCT250 09/M05 A2996 RMK AO2 SLP144 T00941050 10094 20067 58004= 201711261851 METAR KEWR 261851Z 30013KT 10SM FEW050 SCT200 BKN250 08/M05 A2995 RMK AO2 SLP141 T00831050= 201711261951 METAR KEWR 261951Z 30010G17KT 10SM FEW050 BKN200 BKN250 08/M06 A2995 RMK AO2 SLP140 T00831056= 201711262051 METAR KEWR 262051Z 29014G19KT 10SM BKN180 BKN240 08/M06 A2996 RMK AO2 SLP143 T00831056 55000= 201711262151 METAR KEWR 262151Z 30009KT 10SM BKN200 BKN250 07/M06 A2997 RMK AO2 SLP148 T00721056= 201711262251 METAR KEWR 262251Z 31006KT 10SM SCT200 BKN250 06/M05 A2998 RMK AO2 SLP151 T00611050= 201711262351 METAR KEWR 262351Z 28006KT 10SM FEW200 SCT250 05/M05 A2999 RMK AO2 SLP154 T00501050 10100 20050 51010= 201711270051 METAR KEWR 270051Z 27003KT 10SM FEW200 FEW250 05/M05 A3000 RMK AO2 SLP157 T00501050= 201711270151 METAR KEWR 270151Z 26006KT 10SM FEW200 FEW250 04/M04 A3001 RMK AO2 SLP161 T00391044= 201711270251 METAR KEWR 270251Z 24010KT 10SM FEW200 FEW250 04/M04 A3000 RMK AO2 SLP157 T00391044 50003= 201711270351 METAR KEWR 270351Z 21008KT 10SM SCT200 BKN250 03/M04 A2998 RMK AO2 SLP152 T00331044= 201711270451 METAR KEWR 270451Z 23007KT 10SM BKN200 BKN250 03/M04 A2998 RMK AO2 SLP150 T00281039 401060028= 201711270551 METAR KEWR 270551Z 24006KT 10SM SCT190 BKN250 03/M04 A2998 RMK AO2 SLP150 T00281039 10056 20028 55006= 201711270651 METAR KEWR 270651Z 24007KT 10SM FEW190 BKN250 03/M04 A2998 RMK AO2 SLP152 T00331039= 201711270751 METAR KEWR 270751Z 23007KT 10SM SCT190 BKN250 03/M04 A2997 RMK AO2 SLP148 T00331039= 201711270851 METAR KEWR 270851Z 24010KT 10SM BKN190 OVC250 04/M04 A2997 RMK AO2 SLP148 T00391044 58002= 201711270951 METAR KEWR 270951Z 25008KT 10SM FEW200 SCT250 03/M04 A2998 RMK AO2 SLP153 T00331044= 201711271051 METAR KEWR 271051Z 26009KT 10SM FEW250 03/M04 A3001 RMK AO2 SLP160 T00331044= 201711271151 METAR KEWR 271151Z 26011KT 10SM FEW150 FEW250 04/M04 A3003 RMK AO2 SLP168 T00391044 10039 20028 53020= 201711271251 METAR KEWR 271251Z 25010KT 10SM FEW150 FEW250 06/M04 A3005 RMK AO2 SLP176 T00561039= 201711271351 METAR KEWR 271351Z 27012KT 10SM FEW140 SCT250 07/M03 A3006 RMK AO2 SLP179 T00721033= 201711271451 METAR KEWR 271451Z 28012G18KT 10SM FEW050 FEW140 SCT250 08/M03 A3006 RMK AO2 SLP179 T00831028 51012= 201711271551 METAR KEWR 271551Z 29015G23KT 10SM FEW050 FEW170 BKN250 10/M03 A3005 RMK AO2 SLP176 T01001033= 201711271651 METAR KEWR 271651Z 31016G19KT 10SM FEW050 BKN250 11/M04 A3005 RMK AO2 PK WND 29027/1604 SLP174 T01061039= 201711271751 METAR KEWR 271751Z 28018G22KT 10SM FEW050 BKN250 12/M03 A3004 RMK AO2 SLP171 T01171033 10117 20039 56008= 201711271851 METAR KEWR 271851Z 30011KT 10SM FEW050 SCT250 12/M04 A3004 RMK AO2 SLP171 T01171044 $= 201711271951 METAR KEWR 271951Z 29012KT 10SM FEW050 FEW250 12/M05 A3004 RMK AO2 SLP173 T01171050 $= 201711272051 METAR KEWR 272051Z 30010KT 10SM FEW250 11/M05 A3008 RMK AO2 SLP186 T01111050 53015 $= 201711272151 METAR KEWR 272151Z 31009KT 10SM FEW250 10/M04 A3011 RMK AO2 SLP195 T01001044 $= 201711272251 METAR KEWR 272251Z 32008G17KT 10SM BKN250 10/M05 A3014 RMK AO2 SLP206 T01001050 $= 201711272351 METAR KEWR 272351Z 29008KT 10SM FEW250 09/M06 A3019 RMK AO2 SLP222 T00891056 10122 20089 53036 $= 201711280051 METAR KEWR 280051Z 36010KT 10SM BKN240 07/M04 A3022 RMK AO2 SLP232 T00721044= 201711280151 METAR KEWR 280151Z 01010KT 10SM BKN240 06/M04 A3024 RMK AO2 SLP238 T00611044= 201711280251 METAR KEWR 280251Z 36010KT 10SM BKN240 05/M04 A3026 RMK AO2 SLP245 T00501044 51023= 201711280351 METAR KEWR 280351Z 36009KT 10SM FEW240 04/M04 A3029 RMK AO2 SLP256 T00391044= 201711280451 METAR KEWR 280451Z 01005KT 10SM CLR 03/M04 A3031 RMK AO2 SLP262 T00281044 401220028= 201711280551 METAR KEWR 280551Z 01005KT 10SM CLR 02/M04 A3031 RMK AO2 SLP262 T00221044 10089 20017 51018= 201711280651 METAR KEWR 280651Z 04003KT 10SM FEW240 03/M04 A3033 RMK AO2 SLP270 T00331044= 201711280751 METAR KEWR 280751Z 02005KT 10SM SCT250 01/M04 A3035 RMK AO2 SLP276 T00061044= 201711280851 METAR KEWR 280851Z 02009KT 10SM BKN250 01/M04 A3035 RMK AO2 SLP277 T00061044 51014= 201711280951 METAR KEWR 280951Z 00000KT 10SM BKN250 02/M04 A3038 RMK AO2 SLP288 T00221044= 201711281051 METAR KEWR 281051Z 34003KT 10SM SCT250 01/M04 A3041 RMK AO2 SLP297 T00111044= 201711281151 METAR KEWR 281151Z 07005KT 10SM SCT250 04/M04 A3041 RMK AO2 SLP295 T00391039 10039 20000 50019= 201711281251 METAR KEWR 281251Z 01007KT 10SM SCT250 02/M03 A3043 RMK AO2 SLP303 T00221033= 201711281351 METAR KEWR 281351Z 09006KT 10SM BKN250 05/M02 A3044 RMK AO2 SLP307 T00501022= 201711281451 METAR KEWR 281451Z 09006KT 10SM BKN250 06/M02 A3045 RMK AO2 SLP312 T00611022 51016= 201711281551 METAR KEWR 281551Z 12008KT 10SM SCT250 08/M01 A3044 RMK AO2 SLP308 T00781011= 201711281651 METAR KEWR 281651Z 12006KT 10SM SCT250 09/01 A3041 RMK AO2 SLP298 T00940006= 201711281751 METAR KEWR 281751Z 13009KT 10SM FEW040 FEW250 10/02 A3038 RMK AO2 SLP288 T01000022 10100 20017 58024= 201711281851 METAR KEWR 281851Z 14007KT 10SM FEW030 SCT250 11/03 A3036 RMK AO2 SLP281 T01060033= 201711281951 METAR KEWR 281951Z 15008KT 10SM FEW030 12/04 A3034 RMK AO2 SLP273 T01170044= 201711282051 METAR KEWR 282051Z 14007KT 10SM FEW028 11/06 A3032 RMK AO2 SLP267 T01110056 56021 $= 201711282151 METAR KEWR 282151Z VRB04KT 10SM FEW028 11/06 A3030 RMK AO2 SLP260 T01110061 $= 201711282251 METAR KEWR 282251Z 13004KT 10SM FEW025 11/07 A3029 RMK AO2 SLP256 T01060072 $= 201711282351 METAR KEWR 282351Z 18008KT 10SM FEW025 11/06 A3027 RMK AO2 SLP250 T01110061 10117 20100 56017 $= 201711290051 METAR KEWR 290051Z 18009KT 10SM CLR 11/06 A3028 RMK AO2 SLP253 T01060061 $= 201711290151 METAR KEWR 290151Z 19011KT 10SM CLR 11/06 A3027 RMK AO2 SLP250 T01060061 $= 201711290251 METAR KEWR 290251Z 18007KT 10SM FEW250 10/06 A3026 RMK AO2 SLP246 T01000061 58004 $= 201711290351 METAR KEWR 290351Z 19005KT 10SM FEW250 09/06 A3024 RMK AO2 SLP238 T00890056 $= 201711290451 METAR KEWR 290451Z 20010KT 10SM FEW250 09/06 A3019 RMK AO2 PRESFR SLP223 T00890061 401170000 $= 201711290551 METAR KEWR 290551Z 20013KT 10SM FEW250 09/07 A3015 RMK AO2 SLP209 T00890067 10111 20078 58037 $= 201711290651 METAR KEWR 290651Z 22010KT 10SM FEW250 09/07 A3015 RMK AO2 SLP209 T00890067 $= 201711290751 METAR KEWR 290751Z 21008KT 10SM FEW250 08/06 A3013 RMK AO2 SLP201 T00830061 $= 201711290851 METAR KEWR 290851Z 22007KT 10SM FEW250 08/06 A3011 RMK AO2 SLP196 T00780061 58013 $= 201711290951 METAR KEWR 290951Z 23008KT 10SM FEW250 07/06 A3010 RMK AO2 SLP191 T00720056 $= 201711291051 METAR KEWR 291051Z 23011KT 10SM FEW250 08/06 A3008 RMK AO2 SLP186 T00780061 $= 201711291151 METAR KEWR 291151Z 23006KT 10SM SCT080 SCT250 07/06 A3009 RMK AO2 SLP189 T00720061 10094 20072 55007 $= 201711291251 METAR KEWR 291251Z 23009KT 10SM SCT085 SCT250 08/06 A3009 RMK AO2 SLP188 T00780061 $= 201711291351 METAR KEWR 291351Z 24010G20KT 10SM BKN090 BKN250 10/06 A3010 RMK AO2 SLP191 T01000061 $= 201711291451 METAR KEWR 291451Z 25010KT 10SM SCT085 BKN250 12/04 A3010 RMK AO2 SLP191 T01170039 53001 $= 201711291551 METAR KEWR 291551Z 25009G17KT 10SM FEW250 16/01 A3008 RMK AO2 SLP185 T01560006= 201711291651 METAR KEWR 291651Z 28017G22KT 10SM FEW250 17/00 A3006 RMK AO2 SLP180 T01720000 $= 201711291751 METAR KEWR 291751Z 31019G24KT 10SM FEW250 18/M01 A3006 RMK AO2 SLP179 T01831011 10183 20072 56011 $= 201711291851 METAR KEWR 291851Z 28015G21KT 10SM FEW250 18/M01 A3006 RMK AO2 SLP178 T01831011 $= 201711291951 METAR KEWR 291951Z 32019G26KT 10SM FEW250 18/M05 A3009 RMK AO2 PK WND 32028/1903 SLP188 T01781050 $= 201711292051 METAR KEWR 292051Z 35017G24KT 10SM FEW250 16/M06 A3014 RMK AO2 PK WND 32029/2013 SLP204 T01561061 53025 $= 201711292151 METAR KEWR 292151Z 34013G22KT 10SM FEW250 14/M05 A3018 RMK AO2 SLP219 T01391050 $= 201711292251 METAR KEWR 292251Z 32009KT 10SM FEW250 12/M04 A3021 RMK AO2 PK WND 31028/2203 SLP231 T01221044 $= 201711292351 METAR KEWR 292351Z 33012KT 10SM CLR 11/M03 A3026 RMK AO2 SLP247 T01061033 10189 20106 53043= 201711300051 METAR KEWR 300051Z 33012KT 10SM CLR 09/M03 A3028 RMK AO2 SLP252 T00941033= 201711300151 METAR KEWR 300151Z 35009KT 10SM CLR 08/M03 A3030 RMK AO2 SLP258 T00831028= 201711300251 METAR KEWR 300251Z 32009KT 10SM CLR 08/M03 A3031 RMK AO2 SLP263 T00781033 51015= 201711300351 METAR KEWR 300351Z 35007KT 10SM CLR 06/M03 A3032 RMK AO2 SLP265 T00611033= 201711300451 METAR KEWR 300451Z 02007KT 10SM CLR 04/M03 A3031 RMK AO2 SLP264 T00441028 401890039= 201711300551 METAR KEWR 300551Z 02007KT 10SM CLR 03/M03 A3030 RMK AO2 SLP259 T00281033 10106 20022 58003= 201711300651 METAR KEWR 300651Z 01005KT 10SM CLR 03/M03 A3032 RMK AO2 SLP267 T00281033= 201711300751 METAR KEWR 300751Z 01006KT 10SM CLR 02/M04 A3034 RMK AO2 SLP272 T00171039= 201711300851 METAR KEWR 300851Z 03005KT 10SM CLR 03/M03 A3034 RMK AO2 SLP272 T00281033 50012= 201711300951 METAR KEWR 300951Z 36004KT 10SM FEW250 02/M03 A3035 RMK AO2 SLP277 T00221033= 201711301051 METAR KEWR 301051Z 04010KT 10SM FEW250 02/M03 A3032 RMK AO2 PRESFR SLP268 T00221028= 201711301151 METAR KEWR 301151Z 03008KT 10SM BKN250 02/M03 A3033 RMK AO2 SLP269 T00221028 10033 20000 58003= 201711301251 METAR KEWR 301251Z 05006KT 10SM BKN220 03/M03 A3032 RMK AO2 SLP265 T00281028= 201711301351 METAR KEWR 301351Z 02006KT 10SM BKN200 OVC250 04/M02 A3031 RMK AO2 SLP263 T00391017= 201711301451 METAR KEWR 301451Z VRB04KT 10SM BKN220 OVC250 06/M02 A3031 RMK AO2 SLP263 T00611017 56006= 201711301551 METAR KEWR 301551Z VRB03KT 10SM BKN030 BKN220 07/M02 A3029 RMK AO2 PRESFR SLP256 T00721017= 201711301651 METAR KEWR 301651Z 00000KT 10SM BKN032 BKN250 08/M01 A3027 RMK AO2 SLP249 T00831006 $= 201711301751 METAR KEWR 301751Z VRB03KT 10SM SCT035 SCT065 BKN250 08/00 A3021 RMK AO2 SLP230 T00830000 10089 20017 58032 $= 201711301851 METAR KEWR 301851Z 09004KT 10SM FEW035 SCT065 BKN250 09/01 A3018 RMK AO2 SLP219 T00940006 $= 201711301951 METAR KEWR 301951Z VRB03KT 10SM FEW035 BKN075 11/02 A3015 RMK AO2 SLP208 T01060017 $= 201711302051 METAR KEWR 302051Z 13003KT 10SM FEW035 FEW065 SCT080 BKN250 11/04 A3012 RMK AO2 SLP199 T01060039 56032 $= 201711302151 METAR KEWR 302151Z VRB03KT 10SM FEW035 FEW080 BKN250 10/04 A3009 RMK AO2 SLP189 T01000044 $= 201711302251 METAR KEWR 302251Z 12004KT 10SM FEW070 BKN250 10/06 A3008 RMK AO2 SLP183 T01000061 $= 201711302351 METAR KEWR 302351Z 15005KT 10SM FEW030 FEW070 SCT200 BKN260 10/07 A3006 RMK AO2 SLP178 T01000067 10106 20083 56021 $=
