 201710010051 METAR KEWR 010051Z 01017KT 10SM FEW025 BKN060 13/08 A3031 RMK AO2 SLP263 T01330078 $= 201710010151 METAR KEWR 010151Z 36013KT 10SM FEW022 SCT060 13/08 A3033 RMK AO2 SLP270 T01280078 $= 201710010251 METAR KEWR 010251Z 01012KT 10SM FEW022 SCT070 12/08 A3034 RMK AO2 SLP275 T01220078 51018 $= 201710010351 METAR KEWR 010351Z 01011KT 10SM SCT022 BKN055 12/08 A3035 RMK AO2 SLP276 T01170078 $= 201710010451 METAR KEWR 010451Z 01014KT 10SM SCT022 BKN055 12/08 A3035 RMK AO2 SLP276 T01170083 402000117 $= 201710010551 METAR KEWR 010551Z 36009KT 10SM BKN022 BKN055 12/08 A3036 RMK AO2 SLP279 T01170078 10133 20117 53005 $= 201710010651 METAR KEWR 010651Z 01008KT 10SM BKN022 BKN055 11/08 A3035 RMK AO2 SLP277 T01110078 $= 201710010751 METAR KEWR 010751Z 01008KT 10SM BKN018 OVC024 12/08 A3035 RMK AO2 SLP278 T01170078 $= 201710010851 METAR KEWR 010851Z 36011KT 10SM FEW018 SCT055 11/08 A3037 RMK AO2 SLP283 T01060078 53003 $= 201710010951 METAR KEWR 010951Z 01007KT 10SM FEW018 SCT250 10/07 A3037 RMK AO2 SLP285 T01000072 $= 201710011051 METAR KEWR 011051Z 01007KT 10SM FEW020 09/07 A3038 RMK AO2 SLP285 T00940072 $= 201710011151 METAR KEWR 011151Z 01007KT 10SM FEW020 11/08 A3039 RMK AO2 SLP290 T01110078 10117 20094 53008 $= 201710011251 METAR KEWR 011251Z 02011KT 10SM FEW040 13/08 A3040 RMK AO2 SLP295 T01280078 $= 201710011351 METAR KEWR 011351Z 03008KT 10SM FEW010 FEW070 14/07 A3041 RMK AO2 SLP298 T01440072 $= 201710011451 METAR KEWR 011451Z 35007KT 10SM FEW035 FEW080 16/07 A3041 RMK AO2 SLP296 T01610067 50005 $= 201710011551 METAR KEWR 011551Z 04006KT 10SM FEW040 17/06 A3039 RMK AO2 SLP289 T01720056 $= 201710011651 METAR KEWR 011651Z 36004KT 10SM SCT040 19/06 A3037 RMK AO2 SLP282 T01890056 $= 201710011751 METAR KEWR 011751Z 18005KT 10SM FEW050 19/06 A3033 RMK AO2 SLP271 T01890061 10200 20111 58024 $= 201710011851 METAR KEWR 011851Z 00000KT 10SM FEW055 21/04 A3031 RMK AO2 SLP263 T02110044 $= 201710011951 METAR KEWR 011951Z 16004KT 10SM FEW060 19/05 A3029 RMK AO2 SLP257 T01940050 $= 201710012051 METAR KEWR 012051Z 31007KT 10SM CLR 21/05 A3028 RMK AO2 SLP252 T02110050 56019 $= 201710012151 METAR KEWR 012151Z 26008KT 10SM CLR 20/04 A3027 RMK AO2 SLP251 T02000044 $= 201710012251 METAR KEWR 012251Z 30007KT 10SM FEW250 19/04 A3028 RMK AO2 SLP253 T01890039 $= 201710012351 METAR KEWR 012351Z 29006KT 10SM CLR 18/03 A3029 RMK AO2 SLP256 T01780033 10217 20178 53004 $= 201710020051 METAR KEWR 020051Z 30005KT 10SM CLR 17/03 A3031 RMK AO2 SLP261 T01720033 $= 201710020151 METAR KEWR 020151Z 27006KT 10SM CLR 17/05 A3031 RMK AO2 SLP263 T01670050 $= 201710020251 METAR KEWR 020251Z 28006KT 10SM CLR 17/05 A3031 RMK AO2 SLP263 T01670050 50007 $= 201710020351 METAR KEWR 020351Z 28007KT 10SM CLR 14/05 A3031 RMK AO2 SLP263 T01440050 $= 201710020451 METAR KEWR 020451Z 25003KT 10SM CLR 13/06 A3031 RMK AO2 SLP263 T01280056 402170094 $= 201710020551 METAR KEWR 020551Z 23004KT 10SM CLR 11/06 A3032 RMK AO2 SLP265 T01110056 10183 20111 53002 $= 201710020651 METAR KEWR 020651Z 00000KT 10SM CLR 12/06 A3032 RMK AO2 SLP266 T01170061 $= 201710020751 METAR KEWR 020751Z 29003KT 10SM CLR 11/06 A3032 RMK AO2 SLP265 T01110061 $= 201710020851 METAR KEWR 020851Z 02004KT 10SM CLR 09/06 A3033 RMK AO2 SLP269 T00940056 53004 $= 201710020951 METAR KEWR 020951Z 03005KT 10SM CLR 09/06 A3035 RMK AO2 SLP275 T00890056 $= 201710021051 METAR KEWR 021051Z 03005KT 10SM FEW250 09/06 A3037 RMK AO2 SLP283 T00890061 $= 201710021151 METAR KEWR 021151Z 02005KT 10SM CLR 11/07 A3039 RMK AO2 SLP290 T01110072 10117 20083 53021 $= 201710021251 METAR KEWR 021251Z 03008KT 10SM CLR 14/08 A3041 RMK AO2 SLP296 T01440078 $= 201710021351 METAR KEWR 021351Z 36011KT 10SM CLR 17/08 A3042 RMK AO2 SLP300 T01670078 $= 201710021451 METAR KEWR 021451Z 01010KT 10SM CLR 18/07 A3043 RMK AO2 SLP303 T01830067 51012= 201710021551 METAR KEWR 021551Z 01005KT 10SM CLR 19/07 A3042 RMK AO2 SLP302 T01940067= 201710021651 METAR KEWR 021651Z VRB04KT 10SM CLR 22/04 A3041 RMK AO2 SLP297 T02170044= 201710021751 METAR KEWR 021751Z VRB04KT 10SM CLR 22/04 A3039 RMK AO2 SLP289 T02170044 10222 20111 58014= 201710021851 METAR KEWR 021851Z 00000KT 10SM CLR 22/04 A3038 RMK AO2 SLP287 T02220039= 201710021951 METAR KEWR 021951Z VRB04KT 10SM FEW250 23/03 A3037 RMK AO2 SLP285 T02280028= 201710022051 METAR KEWR 022051Z 12006KT 10SM FEW250 23/M01 A3039 RMK AO2 SLP289 T02281006 53000= 201710022151 METAR KEWR 022151Z VRB04KT 10SM FEW250 22/02 A3040 RMK AO2 SLP293 T02220017= 201710022251 METAR KEWR 022251Z 14005KT 10SM FEW250 21/08 A3042 RMK AO2 SLP300 T02060078= 201710022351 METAR KEWR 022351Z 15004KT 10SM FEW250 19/11 A3044 RMK AO2 SLP306 T01890106 10239 20189 53017= 201710030051 METAR KEWR 030051Z 18003KT 10SM CLR 18/10 A3047 RMK AO2 SLP317 T01780100= 201710030151 METAR KEWR 030151Z 00000KT 10SM CLR 17/10 A3049 RMK AO2 SLP324 T01670100= 201710030251 METAR KEWR 030251Z 00000KT 10SM CLR 17/10 A3050 RMK AO2 SLP328 T01670100 51022= 201710030351 METAR KEWR 030351Z 20003KT 10SM CLR 16/11 A3051 RMK AO2 SLP331 T01610106= 201710030451 METAR KEWR 030451Z 26003KT 10SM CLR 16/09 A3052 RMK SLP333 T01560094 402390083= 201710030551 METAR KEWR 030551Z 00000KT 10SM FEW250 14/09 A3052 RMK AO2 SLP334 T01440094 10189 20144 51006= 201710030651 METAR KEWR 030651Z 01005KT 10SM CLR 13/09 A3053 RMK AO2 SLP338 T01280094= 201710030751 METAR KEWR 030751Z 02007KT 10SM CLR 11/08 A3054 RMK AO2 SLP340 T01110078= 201710030851 METAR KEWR 030851Z 02007KT 10SM CLR 11/08 A3054 RMK AO2 SLP342 T01110078 51008= 201710030951 METAR KEWR 030951Z 02005KT 10SM CLR 11/08 A3055 RMK AO2 SLP346 T01060083= 201710031051 METAR KEWR 031051Z 01006KT 10SM FEW025 11/08 A3059 RMK AO2 SLP356 T01060083= 201710031151 METAR KEWR 031151Z 02006KT 10SM FEW025 FEW250 13/10 A3060 RMK AO2 SLP361 T01280100 10150 20106 53019= 201710031251 METAR KEWR 031251Z 02005KT 10SM FEW025 FEW250 16/11 A3062 RMK AO2 SLP366 T01610111= 201710031351 METAR KEWR 031351Z VRB03KT 10SM SCT030 18/12 A3063 RMK AO2 SLP371 T01830117= 201710031451 METAR KEWR 031451Z 10007KT 10SM SCT035 20/11 A3064 RMK AO2 SLP374 T02000106 51013= 201710031551 METAR KEWR 031551Z 10SM SCT037 21/10 A3063 RMK AO2 SLP371 T02060100= 201710031651 METAR KEWR 031651Z VRB05KT 10SM SCT038 20/10 A3062 RMK AO2 SLP366 T02000100= 201710031751 METAR KEWR 031751Z 14007KT 10SM FEW039 21/08 A3060 RMK AO2 SLP362 T02110083 10211 20128 58013= 201710031851 METAR KEWR 031851Z VRB05KT 10SM FEW038 21/09 A3059 RMK AO2 SLP358 T02060089= 201710031951 METAR KEWR 031951Z 13008KT 10SM FEW040 FEW250 20/09 A3058 RMK AO2 SLP354 T02000089= 201710032051 METAR KEWR 032051Z 13008KT 10SM FEW040 FEW250 19/09 A3057 RMK AO2 SLP351 T01940089 56010= 201710032151 METAR KEWR 032151Z 16007KT 10SM FEW040 FEW250 18/08 A3057 RMK AO2 SLP351 T01830083= 201710032251 METAR KEWR 032251Z 14008KT 10SM SCT250 17/08 A3057 RMK AO2 SLP352 T01720083= 201710032351 METAR KEWR 032351Z 13007KT 10SM BKN250 17/09 A3057 RMK AO2 SLP352 T01720089 10211 20167 50000= 201710040051 METAR KEWR 040051Z 14004KT 10SM BKN250 17/09 A3057 RMK AO2 SLP350 T01670089= 201710040151 METAR KEWR 040151Z 16003KT 10SM SCT250 16/09 A3057 RMK AO2 SLP349 T01610094= 201710040251 METAR KEWR 040251Z 21004KT 10SM SCT250 14/09 A3056 RMK AO2 SLP347 T01440089 58005= 201710040351 METAR KEWR 040351Z 25004KT 10SM SCT250 14/09 A3055 RMK AO2 SLP344 T01390094= 201710040451 METAR KEWR 040451Z 24004KT 10SM SCT250 13/09 A3053 RMK AO2 SLP338 T01330094 402110106= 201710040551 METAR KEWR 040551Z 24004KT 10SM FEW250 13/09 A3052 RMK AO2 SLP335 T01280094 10172 20122 58011= 201710040651 METAR KEWR 040651Z 23004KT 10SM FEW250 12/09 A3050 RMK AO2 SLP328 T01220089= 201710040751 METAR KEWR 040751Z 25005KT 10SM FEW250 12/09 A3048 RMK AO2 SLP322 T01170089= 201710040851 METAR KEWR 040851Z 22003KT 10SM FEW250 12/09 A3048 RMK AO2 SLP319 T01170089 56017= 201710040951 METAR KEWR 040951Z 25003KT 10SM FEW250 11/09 A3047 RMK AO2 SLP316 T01060089= 201710041051 METAR KEWR 041051Z 21003KT 10SM SCT250 12/09 A3046 RMK AO2 SLP313 T01170094= 201710041151 METAR KEWR 041151Z 23004KT 10SM SCT250 13/11 A3046 RMK AO2 SLP314 T01280111 10128 20100 55005 $= 201710041251 METAR KEWR 041251Z 21006KT 10SM FEW250 15/11 A3045 RMK AO2 SLP312 T01500111 $= 201710041351 METAR KEWR 041351Z 23011KT 10SM FEW030 FEW250 18/12 A3044 RMK AO2 SLP308 T01780117 $= 201710041451 METAR KEWR 041451Z 22011KT 10SM FEW035 SCT250 19/12 A3042 RMK AO2 SLP300 T01940122 58014 $= 201710041551 METAR KEWR 041551Z 23011G20KT 10SM FEW250 22/12 A3039 RMK AO2 SLP290 T02170122 $= 201710041651 METAR KEWR 041651Z 24009KT 10SM FEW250 23/13 A3036 RMK AO2 SLP279 T02330128 $= 201710041751 METAR KEWR 041751Z 23012KT 10SM FEW250 24/12 A3031 RMK AO2 SLP264 T02440122 10244 20128 58036 $= 201710041851 METAR KEWR 041851Z 20009KT 10SM FEW250 26/13 A3028 RMK AO2 SLP253 T02560128 $= 201710041951 METAR KEWR 041951Z 21008G18KT 160V230 10SM FEW250 26/13 A3025 RMK AO2 SLP244 T02560128 $= 201710042051 METAR KEWR 042051Z 22012G16KT 10SM FEW250 25/13 A3023 RMK AO2 SLP238 T02500128 56027= 201710042151 METAR KEWR 042151Z 22011KT 10SM FEW250 24/13 A3023 RMK AO2 SLP234 T02390128= 201710042251 METAR KEWR 042251Z 22009KT 10SM FEW250 23/13 A3022 RMK AO2 SLP232 T02280133= 201710042351 METAR KEWR 042351Z 22011KT 10SM FEW250 22/13 A3022 RMK AO2 SLP233 T02220133 10256 20217 55005 $= 201710050051 METAR KEWR 050051Z 21013G20KT 10SM FEW250 22/14 A3021 RMK AO2 SLP228 T02170139 $= 201710050151 METAR KEWR 050151Z 22011KT 10SM FEW250 20/13 A3021 RMK AO2 SLP229 T02000133 $= 201710050251 METAR KEWR 050251Z 22011KT 10SM FEW250 19/14 A3020 RMK AO2 SLP227 T01940139 56006 $= 201710050351 METAR KEWR 050351Z 23011KT 10SM FEW250 18/14 A3019 RMK AO2 SLP224 T01830139 $= 201710050451 METAR KEWR 050451Z 23012KT 10SM SCT100 SCT250 18/14 A3019 RMK AO2 SLP223 T01830139 402560100 $= 201710050551 METAR KEWR 050551Z 22010KT 10SM SCT100 SCT250 18/14 A3018 RMK AO2 SLP220 T01780139 10222 20178 56006 $= 201710050651 METAR KEWR 050651Z 24014KT 10SM BKN100 18/14 A3016 RMK AO2 SLP213 T01830139 $= 201710050751 METAR KEWR 050751Z 23013KT 10SM BKN100 18/14 A3015 RMK AO2 SLP207 T01780139 $= 201710050851 METAR KEWR 050851Z 23009KT 10SM BKN090 BKN110 17/14 A3014 RMK AO2 SLP206 T01720139 56015 $= 201710050951 METAR KEWR 050951Z 23008KT 10SM BKN090 BKN110 17/14 A3014 RMK AO2 SLP205 T01720139 $= 201710051051 METAR KEWR 051051Z 22010KT 10SM FEW090 BKN110 17/14 A3015 RMK AO2 SLP209 T01720139 $= 201710051151 METAR KEWR 051151Z 22009KT 10SM BKN110 BKN250 17/14 A3016 RMK AO2 SLP212 T01720139 10183 20172 53006 $= 201710051251 METAR KEWR 051251Z 22008KT 10SM SCT110 SCT250 19/14 A3015 RMK AO2 SLP210 T01890139 $= 201710051351 METAR KEWR 051351Z 24009KT 10SM FEW110 SCT250 22/14 A3015 RMK AO2 SLP208 T02170139= 201710051451 METAR KEWR 051451Z 22008KT 10SM FEW100 SCT140 BKN250 24/14 A3013 RMK AO2 SLP201 T02440139 58010= 201710051551 METAR KEWR 051551Z 24010KT 10SM FEW100 SCT140 BKN250 27/14 A3011 RMK AO2 SLP194 T02670139= 201710051651 METAR KEWR 051651Z 24013KT 10SM FEW090 SCT150 BKN250 27/15 A3009 RMK AO2 SLP190 T02720150= 201710051751 METAR KEWR 051751Z 25010KT 10SM SCT110 SCT150 BKN250 28/16 A3007 RMK AO2 SLP181 T02830156 10289 20172 58020= 201710051851 METAR KEWR 051851Z 23010KT 10SM SCT110 BKN250 29/16 A3005 RMK AO2 SLP174 T02940156= 201710051951 METAR KEWR 051951Z 21013G19KT 10SM FEW050 SCT160 BKN240 29/16 A3003 RMK AO2 SLP168 T02890156= 201710052051 METAR KEWR 052051Z 26011KT 10SM SCT050 BKN120 BKN160 OVC250 28/16 A3003 RMK AO2 SLP168 T02830161 56014= 201710052151 METAR KEWR 052151Z 23012G21KT 10SM FEW050 SCT120 BKN170 OVC250 27/16 A3003 RMK AO2 SLP168 T02720156= 201710052251 METAR KEWR 052251Z 23011KT 10SM FEW060 SCT120 BKN200 OVC260 26/16 A3003 RMK AO2 SLP169 T02610161= 201710052351 METAR KEWR 052351Z 24011KT 10SM FEW050 SCT080 BKN180 OVC260 26/16 A3005 RMK AO2 SLP174 T02560161 10300 20256 53006 $= 201710060051 METAR KEWR 060051Z 23011KT 10SM FEW050 SCT090 BKN130 OVC200 25/16 A3006 RMK AO2 SLP178 T02500161 $= 201710060151 METAR KEWR 060151Z 25009KT 10SM -RA FEW050 BKN100 OVC130 23/18 A3007 RMK AO2 RAB13 SLP181 P0000 T02330178 $= 201710060251 METAR KEWR 060251Z 24008KT 10SM -RA FEW060 BKN110 OVC180 23/18 A3007 RMK AO2 SLP181 P0000 60000 T02280183 51007 $= 201710060351 METAR KEWR 060351Z 23007KT 10SM -RA FEW060 OVC110 22/19 A3006 RMK AO2 SLP180 P0000 T02170189 $= 201710060451 METAR KEWR 060451Z 24008KT 10SM FEW050 BKN110 OVC150 22/19 A3007 RMK AO2 RAE17 SLP181 P0000 T02170189 403000172 $= 201710060551 METAR KEWR 060551Z 24008KT 10SM FEW050 SCT120 BKN180 21/19 A3008 RMK AO2 SLP186 60000 T02110189 10256 20211 53005 $= 201710060651 METAR KEWR 060651Z 26003KT 10SM FEW050 BKN130 BKN180 21/18 A3006 RMK AO2 SLP180 T02060183 $= 201710060751 METAR KEWR 060751Z 24006KT 10SM FEW060 BKN120 OVC160 21/19 A3007 RMK AO2 SLP183 T02060189 $= 201710060851 METAR KEWR 060851Z 25005KT 10SM FEW060 BKN140 OVC200 20/18 A3007 RMK AO2 SLP183 T02000183 55002 $= 201710060951 METAR KEWR 060951Z 24005KT 10SM FEW070 BKN120 OVC180 20/18 A3010 RMK AO2 SLP191 T02000183 $= 201710061051 METAR KEWR 061051Z 25006KT 10SM FEW070 BKN120 BKN170 20/18 A3011 RMK AO2 SLP195 T02000183 $= 201710061151 METAR KEWR 061151Z 25005KT 8SM FEW070 SCT120 BKN170 20/18 A3011 RMK AO2 SLP197 T02000183 10211 20200 51013 $= 201710061251 METAR KEWR 061251Z 27004KT 10SM FEW070 SCT140 BKN260 21/18 A3011 RMK AO2 SLP197 T02110183 $= 201710061351 METAR KEWR 061351Z 27005KT 10SM FEW070 SCT140 SCT260 23/17 A3011 RMK AO2 SLP195 T02280172 $= 201710061451 METAR KEWR 061451Z 00000KT 10SM FEW070 SCT140 SCT260 24/14 A3010 RMK AO2 SLP191 T02440144 58005 $= 201710061551 METAR KEWR 061551Z 22007KT 10SM FEW040 FEW070 SCT130 SCT260 27/15 A3009 RMK AO2 SLP189 T02670150= 201710061651 METAR KEWR 061651Z 24006KT 10SM FEW045 FEW070 SCT140 SCT260 28/15 A3007 RMK AO2 SLP181 T02780150= 201710061751 METAR KEWR 061751Z 25009KT 10SM FEW050 SCT130 SCT260 29/14 A3005 RMK AO2 SLP176 T02890144 10289 20200= 201710061851 METAR KEWR 061851Z 27013KT 10SM BKN050 BKN130 BKN260 28/14 A3005 RMK AO2 SLP174 T02830144= 201710061951 METAR KEWR 061951Z 29007KT 10SM FEW050 SCT130 BKN260 27/14 A3004 RMK AO2 SLP171 T02720144= 201710062051 METAR KEWR 062051Z VRB03KT 10SM FEW050 FEW130 BKN250 27/15 A3003 RMK AO2 SLP169 T02670150 56007= 201710062151 METAR KEWR 062151Z 14005KT 10SM FEW055 SCT140 BKN250 24/18 A3003 RMK AO2 SLP169 T02440183= 201710062251 METAR KEWR 062251Z 16004KT 10SM FEW055 SCT150 BKN250 23/18 A3004 RMK AO2 SLP172 T02330183= 201710062351 METAR KEWR 062351Z 09003KT 10SM FEW050 SCT150 BKN250 23/19 A3006 RMK AO2 SLP178 T02330189 10294 20228 53008= 201710070051 METAR KEWR 070051Z 00000KT 10SM FEW050 FEW120 BKN210 BKN260 23/19 A3006 RMK AO2 SLP179 T02280189= 201710070151 METAR KEWR 070151Z 00000KT 10SM FEW050 BKN150 OVC250 23/19 A3008 RMK AO2 SLP184 T02280189= 201710070251 METAR KEWR 070251Z 00000KT 10SM FEW050 OVC150 22/19 A3009 RMK AO2 SLP188 T02220189 53009= 201710070351 METAR KEWR 070351Z 00000KT 10SM OVC150 22/19 A3008 RMK AO2 SLP186 T02220189= 201710070451 METAR KEWR 070451Z 00000KT 10SM BKN140 23/18 A3008 RMK AO2 SLP185 T02280183 402940200= 201710070551 METAR KEWR 070551Z 00000KT 10SM FEW140 BKN250 22/18 A3008 RMK AO2 SLP186 T02170183 10233 20211 55001= 201710070651 METAR KEWR 070651Z 26003KT 10SM BKN130 BKN250 21/17 A3009 RMK AO2 SLP188 T02060172= 201710070751 METAR KEWR 070751Z 00000KT 10SM SCT055 BKN130 BKN250 21/17 A3009 RMK AO2 SLP189 T02060172= 201710070851 METAR KEWR 070851Z 00000KT 10SM FEW055 FEW150 SCT250 21/18 A3009 RMK AO2 SLP189 T02110178 51003= 201710070951 METAR KEWR 070951Z 00000KT 10SM FEW040 SCT250 20/18 A3010 RMK AO2 SLP192 T02000178= 201710071051 METAR KEWR 071051Z 03003KT 10SM SCT040 SCT250 19/17 A3011 RMK AO2 SLP194 T01890172= 201710071151 METAR KEWR 071151Z 00000KT 10SM FEW050 FEW150 SCT270 21/18 A3011 RMK AO2 SLP195 T02060183 10217 20183 51007= 201710071251 METAR KEWR 071251Z 00000KT 10SM FEW055 BKN160 BKN270 22/18 A3013 RMK AO2 SLP202 T02170178= 201710071351 METAR KEWR 071351Z VRB03KT 10SM FEW055 BKN170 BKN270 23/18 A3013 RMK AO2 SLP203 T02280178= 201710071451 METAR KEWR 071451Z VRB04KT 10SM FEW055 SCT170 BKN270 25/17 A3013 RMK AO2 SLP201 T02500172 50005= 201710071551 METAR KEWR 071551Z 18005KT 10SM SCT160 BKN270 26/17 A3011 RMK AO2 SLP195 T02610167= 201710071651 METAR KEWR 071651Z 13006KT 10SM FEW035 BKN180 BKN260 27/17 A3009 RMK AO2 SLP188 T02670172= 201710071751 METAR KEWR 071751Z 14007KT 10SM FEW038 BKN180 BKN260 27/18 A3006 RMK AO2 SLP180 T02670178 10278 20206 58021= 201710071851 METAR KEWR 071851Z 14008KT 10SM FEW035 BKN180 BKN260 26/19 A3006 RMK AO2 SLP179 T02560189= 201710071951 METAR KEWR 071951Z 14008KT 10SM FEW035 SCT170 BKN200 BKN250 25/19 A3004 RMK AO2 SLP173 T02500194= 201710072051 METAR KEWR 072051Z 15011KT 10SM FEW045 SCT170 BKN200 BKN250 26/19 A3003 RMK AO2 SLP167 T02610194 58013= 201710072151 METAR KEWR 072151Z 16010KT 10SM FEW050 FEW170 SCT210 BKN250 27/17 A3003 RMK AO2 SLP167 T02670167= 201710072251 METAR KEWR 072251Z 16009KT 10SM FEW050 SCT210 BKN250 24/19 A3003 RMK AO2 SLP168 T02440189= 201710072351 METAR KEWR 072351Z 17009KT 10SM FEW050 SCT210 BKN250 24/19 A3004 RMK AO2 SLP170 T02390194 10272 20239 53004= 201710080051 METAR KEWR 080051Z 18009KT 10SM FEW050 FEW210 SCT250 23/19 A3004 RMK AO2 SLP172 T02330189= 201710080151 METAR KEWR 080151Z 19010KT 10SM BKN042 BKN050 BKN210 BKN250 23/19 A3005 RMK AO2 SLP175 T02330189= 201710080251 METAR KEWR 080251Z 18012KT 10SM FEW042 BKN050 23/19 A3004 RMK AO2 SLP172 T02280189 50001= 201710080351 METAR KEWR 080351Z 18010KT 10SM FEW009 BKN047 23/19 A3002 RMK AO2 SLP166 T02280194= 201710080451 METAR KEWR 080451Z 19008KT 10SM FEW009 BKN018 OVC049 23/19 A3001 RMK AO2 SLP162 T02280194 402780183= 201710080551 METAR KEWR 080551Z 19011KT 10SM FEW009 BKN018 OVC049 23/20 A3000 RMK AO2 SLP158 T02280200 10239 20228 56014= 201710080651 METAR KEWR 080651Z 18011KT 10SM BKN015 OVC046 23/20 A2999 RMK AO2 SLP154 T02280200= 201710080751 METAR KEWR 080751Z 18009KT 10SM BKN015 OVC055 23/21 A2997 RMK AO2 SLP148 T02280206= 201710080851 METAR KEWR 080851Z 19010KT 10SM BKN017 OVC055 23/21 A2995 RMK AO2 SLP140 T02330206 58018= 201710080951 METAR KEWR 080951Z 19010KT 10SM BKN017 OVC055 23/21 A2994 RMK AO2 SLP139 T02330206= 201710081051 METAR KEWR 081051Z 19012KT 10SM BKN018 OVC050 24/21 A2993 RMK AO2 SLP135 T02390206= 201710081151 METAR KEWR 081151Z 19011KT 10SM OVC018 24/21 A2993 RMK AO2 SLP135 T02390206 10239 20228 56005= 201710081251 METAR KEWR 081251Z 19013KT 2SM R04R/4000VP6000FT VCTS RA BR SCT011 BKN015 OVC020 23/22 A2993 RMK AO2 RAB1155 SLP136 P0010 T02280217= 201710081351 METAR KEWR 081351Z 20012KT 9SM FEW007 BKN010 OVC015 23/22 A2992 RMK AO2 RAE15B30E49 SLP132 P0009 T02280222= 201710081451 METAR KEWR 081451Z 22013KT 8SM -RA BKN009 OVC015 23/22 A2993 RMK AO2 RAB02 SLP136 P0001 60020 T02330222 53001= 201710081551 METAR KEWR 081551Z 23011KT 10SM -RA BKN010 BKN016 OVC022 24/23 A2993 RMK AO2 SLP135 P0002 T02390228= 201710081651 METAR KEWR 081651Z 22013G24KT 10SM -RA BKN012 BKN022 BKN030 OVC150 25/23 A2993 RMK AO2 RAE02B36 SLP136 P0000 T02500228= 201710081751 METAR KEWR 081751Z 22011KT 10SM FEW010 BKN018 BKN024 OVC150 26/22 A2991 RMK AO2 RAE06 SLP129 P0000 60022 T02560222 10256 20228 58006= 201710081851 METAR KEWR 081851Z 22011KT 10SM SCT016 BKN022 BKN046 OVC140 26/22 A2991 RMK AO2 SLP129 T02610222= 201710081951 METAR KEWR 081951Z 22013G19KT 10SM FEW016 SCT022 BKN046 OVC200 26/22 A2991 RMK AO2 SLP128 T02610217= 201710082051 METAR KEWR 082051Z 22012KT 10SM SCT018 BKN045 OVC200 26/22 A2992 RMK AO2 SLP133 T02560217 53003= 201710082151 METAR KEWR 082151Z 22011KT 10SM FEW018 FEW045 SCT140 OVC210 26/21 A2994 RMK AO2 SLP138 T02560211= 201710082251 METAR KEWR 082251Z 23013KT 10SM FEW020 FEW045 SCT140 OVC210 26/22 A2995 RMK AO2 SLP142 T02560217= 201710082351 METAR KEWR 082351Z 21010KT 10SM FEW025 SCT140 BKN210 25/22 A2996 RMK AO2 SLP146 T02500217 10261 20250 51013= 201710090051 METAR KEWR 090051Z 21007KT 10SM FEW019 FEW140 BKN210 25/21 A2997 RMK AO2 SLP150 T02500211= 201710090151 METAR KEWR 090151Z 00000KT 10SM FEW024 SCT032 BKN160 BKN210 24/22 A2999 RMK AO2 SLP153 T02440217= 201710090251 METAR KEWR 090251Z 16003KT 10SM FEW024 SCT032 BKN160 BKN210 24/22 A3000 RMK AO2 SLP158 T02440217 53013= 201710090351 METAR KEWR 090351Z 18005KT 10SM FEW025 BKN140 OVC240 24/22 A3000 RMK AO2 SLP157 T02440222= 201710090451 METAR KEWR 090451Z 17003KT 10SM FEW025 BKN100 OVC240 24/22 A2999 RMK AO2 SLP155 T02390222 402610228= 201710090551 METAR KEWR 090551Z 16003KT 10SM FEW025 FEW034 SCT100 OVC220 24/23 A2999 RMK AO2 SLP154 T02390228 10250 20239 58004= 201710090651 METAR KEWR 090651Z 00000KT 10SM FEW025 FEW034 SCT100 OVC220 24/22 A2997 RMK AO2 SLP149 T02390222= 201710090751 METAR KEWR 090751Z 16005KT 10SM -RA FEW030 BKN036 OVC045 24/22 A2997 RMK AO2 RAB36 SLP149 P0000 T02390222= 201710090851 METAR KEWR 090851Z 16004KT 8SM SCT010 SCT030 OVC055 23/22 A2996 RMK AO2 RAE0752B08E51 SLP146 P0001 60001 T02330222 56008= 201710090951 METAR KEWR 090951Z 17004KT 10SM FEW010 SCT050 BKN120 23/22 A2997 RMK AO2 RAB01E41 SLP150 P0000 T02280217= 201710091051 METAR KEWR 091051Z 19007KT 10SM -RA FEW008 SCT050 OVC120 23/22 A2997 RMK AO2 RAB10 SLP149 P0000 T02280217= 201710091151 METAR KEWR 091151Z 18008KT 10SM FEW008 SCT060 BKN110 OVC150 23/22 A2998 RMK AO2 RAE12B33E43 SLP150 P0000 60001 70023 T02280217 10239 20228 51005= 201710091251 METAR KEWR 091251Z 16006KT 10SM FEW008 BKN015 OVC130 23/22 A2997 RMK AO2 SLP149 T02330217= 201710091351 METAR KEWR 091351Z 14006KT 10SM FEW008 BKN014 BKN025 OVC130 24/22 A2996 RMK AO2 SLP144 T02390217= 201710091451 METAR KEWR 091451Z 16009KT 8SM -RA BKN014 BKN055 OVC110 23/22 A2993 RMK AO2 RAB02 SLP133 P0002 60002 T02330217 58017= 201710091551 METAR KEWR 091551Z 18008KT 5SM RA BR SCT009 BKN014 BKN080 OVC130 24/22 A2992 RMK AO2 SLP131 P0004 T02390222= 201710091651 METAR KEWR 091651Z 15012G19KT 3SM R04R/6000VP6000FT +RA BR BKN010 BKN038 OVC080 23/23 A2987 RMK AO2 PRESFR SLP115 P0016 T02330228= 201710091751 METAR KEWR 091751Z 16013KT 10SM -RA BKN007 BKN022 OVC029 24/23 A2984 RMK AO2 SLP103 P0002 60024 T02390228 10239 20228 58031= 201710091851 METAR KEWR 091851Z 18013KT 5SM -RA BR BKN009 BKN016 OVC024 24/22 A2982 RMK AO2 SLP098 P0000 T02390222= 201710091951 METAR KEWR 091951Z 19012KT 3SM -RA BR BKN009 BKN014 OVC030 24/23 A2982 RMK AO2 SLP098 P0000 T02440233= 201710092051 METAR KEWR 092051Z 19010G18KT 10SM BKN009 BKN014 BKN040 BKN140 25/23 A2982 RMK AO2 RAE05 SLP098 P0000 60000 T02500233 56005= 201710092151 METAR KEWR 092151Z 21011KT 5SM -RA BR FEW009 BKN012 OVC018 25/23 A2984 RMK AO2 RAB06E21B48 SLP103 P0000 T02500233= 201710092251 METAR KEWR 092251Z 21013G21KT 10SM SCT009 BKN014 BKN050 BKN150 25/23 A2985 RMK AO2 RAE17 SLP108 P0000 T02500233= 201710092351 METAR KEWR 092351Z 19008KT 6SM -RA BR BKN012 BKN026 OVC050 24/23 A2986 RMK AO2 RAB49 SLP112 P0001 60001 T02440233 10250 20239 51014= 201710100051 METAR KEWR 100051Z 22011KT 10SM FEW012 FEW026 BKN070 25/23 A2988 RMK AO2 RAE07 SLP118 P0000 T02500233= 201710100151 METAR KEWR 100151Z 23009KT 10SM -RA SCT014 BKN040 OVC075 25/23 A2989 RMK AO2 RAB49 SLP122 P0000 T02500233= 201710100251 METAR KEWR 100251Z 23011KT 10SM FEW012 FEW040 OVC080 24/24 A2991 RMK AO2 RAE0157 SLP126 P0000 60000 T02440239 51015= 201710100351 METAR KEWR 100351Z 24007KT 10SM FEW012 SCT025 OVC080 24/23 A2992 RMK AO2 SLP131 T02440233= 201710100451 METAR KEWR 100451Z 32014KT 10SM FEW015 SCT045 OVC075 23/19 A2994 RMK AO2 SLP138 T02330194 402500222= 201710100551 METAR KEWR 100551Z 31009KT 10SM FEW015 FEW060 BKN070 22/18 A2996 RMK AO2 SLP146 60000 T02220183 10250 20217 53020= 201710100651 METAR KEWR 100651Z 31010KT 10SM SCT065 22/17 A2997 RMK AO2 SLP148 T02170172= 201710100751 METAR KEWR 100751Z 33005KT 10SM FEW065 20/17 A2998 RMK AO2 SLP150 T02000172= 201710100851 METAR KEWR 100851Z 32005KT 10SM FEW065 FEW250 21/16 A3000 RMK AO2 SLP157 T02060161 53011= 201710100951 METAR KEWR 100951Z 35004KT 10SM FEW065 20/16 A3001 RMK AO2 SLP163 T02000161= 201710101051 METAR KEWR 101051Z 02005KT 10SM FEW065 FEW250 19/16 A3003 RMK AO2 SLP168 T01890156= 201710101151 METAR KEWR 101151Z 30006KT 10SM SCT070 SCT250 20/16 A3005 RMK AO2 SLP175 70025 T02000156 10222 20189 53018= 201710101251 METAR KEWR 101251Z 29006KT 10SM FEW160 SCT250 22/16 A3007 RMK AO2 SLP182 T02170161= 201710101351 METAR KEWR 101351Z 29008KT 10SM FEW160 SCT250 23/16 A3008 RMK AO2 SLP185 T02330161= 201710101451 METAR KEWR 101451Z 31007KT 10SM FEW035 FEW160 BKN250 25/16 A3007 RMK AO2 SLP182 T02500161 50007= 201710101551 METAR KEWR 101551Z 31011KT 10SM FEW040 FEW160 BKN250 26/16 A3007 RMK AO2 SLP182 T02610156= 201710101651 METAR KEWR 101651Z 30012KT 10SM FEW040 BKN250 27/16 A3006 RMK AO2 SLP179 T02720156= 201710101751 METAR KEWR 101751Z 30009G15KT 10SM FEW045 BKN250 27/16 A3005 RMK AO2 SLP175 T02720161 10278 20200 58007= 201710101851 METAR KEWR 101851Z 26009G16KT 230V290 10SM FEW045 BKN240 28/16 A3004 RMK AO2 SLP172 T02780161= 201710101951 METAR KEWR 101951Z 29006KT 10SM FEW045 BKN250 28/16 A3004 RMK AO2 SLP172 T02780161= 201710102051 METAR KEWR 102051Z 28006G17KT 10SM FEW045 FEW140 SCT250 27/16 A3003 RMK AO2 SLP169 T02720161 58005= 201710102151 METAR KEWR 102151Z 26009KT 10SM FEW045 FEW180 SCT250 26/16 A3004 RMK AO2 SLP173 T02610161= 201710102251 METAR KEWR 102251Z 26007KT 10SM FEW050 FEW140 SCT250 25/17 A3007 RMK AO2 SLP181 T02500167= 201710102351 METAR KEWR 102351Z 28005KT 10SM FEW140 SCT250 25/16 A3008 RMK AO2 SLP187 T02500161 10283 20244 53017= 201710110051 METAR KEWR 110051Z 28006KT 10SM FEW140 SCT250 24/17 A3009 RMK AO2 SLP188 T02390167= 201710110151 METAR KEWR 110151Z 31005KT 10SM FEW140 FEW250 23/17 A3010 RMK AO2 SLP192 T02330167= 201710110251 METAR KEWR 110251Z 34007KT 10SM FEW140 FEW250 23/15 A3010 RMK AO2 SLP193 T02280150 53007= 201710110351 METAR KEWR 110351Z 36007KT 10SM FEW140 FEW250 21/14 A3010 RMK AO2 SLP192 T02110139= 201710110451 METAR KEWR 110451Z 35006KT 10SM FEW140 FEW250 21/14 A3010 RMK AO2 SLP193 T02110144 402830189= 201710110551 METAR KEWR 110551Z 02006KT 10SM FEW140 FEW250 18/14 A3011 RMK AO2 SLP194 T01830144 10250 20183 53001= 201710110651 METAR KEWR 110651Z 02005KT 10SM CLR 18/14 A3010 RMK AO2 SLP191 T01780144= 201710110751 METAR KEWR 110751Z 01005KT 10SM SCT250 19/15 A3009 RMK AO2 SLP188 T01890150= 201710110851 METAR KEWR 110851Z 02008KT 10SM BKN200 18/15 A3009 RMK AO2 SLP189 T01830150 55005= 201710110951 METAR KEWR 110951Z 02007KT 10SM SCT170 OVC200 18/15 A3011 RMK AO2 SLP194 T01830150= 201710111051 METAR KEWR 111051Z 01007KT 10SM BKN160 OVC200 18/15 A3011 RMK AO2 SLP194 T01830150= 201710111151 METAR KEWR 111151Z 03007KT 10SM BKN140 OVC170 19/15 A3012 RMK AO2 SLP198 T01890150 10189 20172 51009= 201710111251 METAR KEWR 111251Z 01007KT 10SM SCT110 BKN140 OVC170 20/14 A3014 RMK AO2 RAB11E30 SLP205 P0000 T02000144= 201710111351 METAR KEWR 111351Z 02005KT 10SM FEW100 BKN130 OVC200 21/14 A3014 RMK AO2 SLP205 T02060144= 201710111451 METAR KEWR 111451Z 02007KT 10SM FEW100 BKN130 OVC180 22/15 A3014 RMK AO2 SLP204 60000 T02170150 50006= 201710111551 METAR KEWR 111551Z 03005KT 10SM FEW100 BKN130 BKN180 23/14 A3013 RMK AO2 SLP203 T02330144= 201710111651 METAR KEWR 111651Z 08005KT 10SM FEW100 BKN150 BKN170 23/14 A3011 RMK AO2 SLP196 T02330144= 201710111751 METAR KEWR 111751Z 06007KT 10SM FEW050 BKN130 BKN250 24/14 A3009 RMK AO2 SLP189 60000 T02440144 10244 20183 58015= 201710111851 METAR KEWR 111851Z VRB05KT 10SM SCT036 BKN130 BKN250 24/15 A3008 RMK AO2 SLP184 T02390150= 201710111951 METAR KEWR 111951Z 14007KT 10SM FEW030 BKN100 23/15 A3007 RMK AO2 SLP183 T02330150= 201710112051 METAR KEWR 112051Z 12007KT 10SM FEW030 SCT100 BKN130 BKN150 OVC250 22/14 A3008 RMK AO2 SLP187 T02220139 55002= 201710112151 METAR KEWR 112151Z 10008KT 7SM -RA FEW025 OVC100 21/16 A3012 RMK AO2 RAB22 SLP199 P0001 T02060161= 201710112251 METAR KEWR 112251Z COR 11007KT 10SM SCT025 BKN055 OVC100 21/17 A3012 RMK AO2 RAE37 P0000 T02060167 $= 201710112351 METAR KEWR 112351Z 12008KT 10SM FEW025 SCT045 OVC100 21/17 A3014 RMK AO2 RAE2237B11E49 SLP206 P0000 60001 T02060167 10244 20206 $= 201710120051 METAR KEWR 120051Z 09010KT 10SM -RA FEW015 OVC085 19/17 A3014 RMK AO2 RAB01 SLP206 P0000 T01940167 $= 201710120151 METAR KEWR 120151Z 07009G16KT 10SM FEW015 BKN080 OVC120 19/14 A3015 RMK AO2 RAE01 SLP208 P0000 T01940144 $= 201710120251 METAR KEWR 120251Z 08012G20KT 10SM FEW015 SCT080 BKN120 OVC180 19/14 A3016 RMK AO2 SLP211 60000 T01890139 53005 $= 201710120351 METAR KEWR 120351Z 07010KT 10SM FEW015 BKN080 BKN120 OVC180 18/14 A3017 RMK AO2 SLP215 T01830139 $= 201710120451 METAR KEWR 120451Z 07009KT 10SM FEW015 BKN080 OVC120 18/13 A3018 RMK AO2 RAB16E45 SLP220 P0000 T01780133 402440172 $= 201710120551 METAR KEWR 120551Z 05013KT 10SM -RA FEW020 BKN075 OVC100 17/13 A3020 RMK AO2 RAB15 SLP224 P0000 60000 T01670128 10200 20167 52014 $= 201710120651 METAR KEWR 120651Z 07016G21KT 10SM FEW020 BKN050 OVC100 17/12 A3021 RMK AO2 RAE36 SLP228 P0001 T01670117 $= 201710120751 METAR KEWR 120751Z 07011KT 10SM -RA FEW020 BKN042 OVC080 17/13 A3022 RMK AO2 RAB18 SLP233 P0000 T01670128 $= 201710120851 METAR KEWR 120851Z 07008G18KT 8SM -RA FEW022 BKN034 OVC045 16/13 A3025 RMK AO2 SLP242 P0003 60004 T01560128 53018 $= 201710120951 METAR KEWR 120951Z 06012G20KT 020V080 9SM -RA FEW024 BKN034 OVC048 16/12 A3026 RMK AO2 SLP245 P0001 T01560122 $= 201710121051 METAR KEWR 121051Z 07013KT 9SM -RA BKN021 BKN033 OVC040 16/12 A3027 RMK AO2 SLP251 P0000 T01560122 $= 201710121151 METAR KEWR 121151Z 02013KT 10SM BKN018 BKN035 OVC040 14/12 A3031 RMK AO2 RAE33 SLP262 P0000 60005 70006 T01440122 10167 20144 53020 $= 201710121251 METAR KEWR 121251Z 02012KT 10SM -RA FEW014 BKN018 OVC029 13/12 A3033 RMK AO2 RAB34 SLP270 P0000 T01330117 $= 201710121351 METAR KEWR 121351Z 03012KT 10SM -RA FEW023 BKN029 BKN050 OVC130 14/12 A3035 RMK AO2 SLP276 P0000 T01390117 $= 201710121451 METAR KEWR 121451Z 04012KT 10SM BKN021 BKN033 OVC110 14/12 A3035 RMK AO2 RAE02B31E50 SLP278 CIG 019V023 P0000 60000 T01440117 51016 $= 201710121551 METAR KEWR 121551Z 06012G18KT 10SM SCT022 OVC033 16/11 A3036 RMK AO2 SLP279 SCT V BKN T01610106 $= 201710121651 METAR KEWR 121651Z 05012KT 10SM BKN029 OVC036 17/10 A3035 RMK AO2 SLP277 T01670100 $= 201710121751 METAR KEWR 121751Z 06012G19KT 10SM FEW030 BKN035 OVC130 18/09 A3034 RMK AO2 SLP273 60000 T01780094 10178 20133 56006 $= 201710121851 METAR KEWR 121851Z 04012KT 10SM BKN034 BKN120 18/09 A3033 RMK AO2 SLP271 T01780094 $= 201710121951 METAR KEWR 121951Z 05009G15KT 10SM SCT037 BKN100 18/08 A3034 RMK AO2 SLP272 T01780083 $= 201710122051 METAR KEWR 122051Z 08009G15KT 10SM FEW038 SCT130 18/07 A3034 RMK AO2 SLP272 T01830067 56001 $= 201710122151 METAR KEWR 122151Z 07008KT 10SM FEW035 SCT110 18/06 A3034 RMK AO2 SLP274 T01780056 $= 201710122251 METAR KEWR 122251Z 07008KT 10SM FEW035 SCT100 17/06 A3036 RMK AO2 SLP278 T01720061 $= 201710122351 METAR KEWR 122351Z 08008KT 10SM FEW035 FEW100 BKN120 17/07 A3037 RMK AO2 SLP283 T01670067 10183 20167 53011 $= 201710130051 METAR KEWR 130051Z 06008G15KT 10SM FEW035 SCT110 BKN130 16/07 A3039 RMK AO2 SLP290 T01610067 $= 201710130151 METAR KEWR 130151Z 08007G18KT 10SM FEW035 SCT110 BKN130 15/07 A3040 RMK AO2 SLP292 T01500067 $= 201710130251 METAR KEWR 130251Z 07010KT 10SM FEW035 SCT110 SCT130 14/07 A3039 RMK AO2 SLP292 T01440072 50009 $= 201710130351 METAR KEWR 130351Z 08009G15KT 10SM FEW035 BKN120 14/07 A3040 RMK AO2 SLP293 T01440072 $= 201710130451 METAR KEWR 130451Z 07012G17KT 10SM FEW030 SCT120 14/07 A3041 RMK AO2 SLP297 T01390072 401830133 $= 201710130551 METAR KEWR 130551Z 05010KT 10SM SCT110 13/08 A3041 RMK AO2 SLP297 T01330078 10167 20133 50005 $= 201710130651 METAR KEWR 130651Z 02010KT 10SM SCT032 BKN100 12/07 A3042 RMK AO2 SLP299 T01170072 $= 201710130751 METAR KEWR 130751Z 02012KT 10SM BKN032 BKN110 11/07 A3042 RMK AO2 SLP300 T01110072 $= 201710130851 METAR KEWR 130851Z 02010KT 10SM FEW032 BKN110 11/07 A3042 RMK AO2 SLP300 T01060072 $= 201710130951 METAR KEWR 130951Z 02009KT 10SM SCT030 BKN110 10/07 A3042 RMK AO2 SLP301 T01000072 $= 201710131051 METAR KEWR 131051Z 01008KT 10SM BKN030 BKN110 11/07 A3043 RMK AO2 SLP304 T01060072 $= 201710131151 METAR KEWR 131151Z 01010KT 10SM FEW015 BKN031 11/07 A3044 RMK AO2 SLP307 T01060072 10139 20100 53007 $= 201710131251 METAR KEWR 131251Z 02010KT 10SM FEW014 FEW025 BKN033 12/08 A3045 RMK AO2 SLP310 T01170078 $= 201710131351 METAR KEWR 131351Z 02009KT 10SM FEW016 FEW025 BKN041 13/08 A3045 RMK AO2 SLP309 T01330083 $= 201710131451 METAR KEWR 131451Z 01008KT 10SM FEW023 FEW035 BKN045 16/10 A3045 RMK AO2 SLP309 T01560100 51002 $= 201710131551 METAR KEWR 131551Z VRB05KT 10SM SCT029 OVC045 17/11 A3043 RMK AO2 SLP304 T01670106 $= 201710131651 METAR KEWR 131651Z 07007KT 10SM BKN029 OVC047 18/11 A3040 RMK AO2 SLP295 T01780106 $= 201710131751 METAR KEWR 131751Z 06005KT 10SM FEW021 BKN030 OVC043 18/11 A3038 RMK AO2 SLP288 T01830106 10183 20106 58021 $= 201710131851 METAR KEWR 131851Z 06006KT 10SM FEW021 BKN030 OVC044 19/11 A3037 RMK AO2 SLP282 T01890111 $= 201710131951 METAR KEWR 131951Z VRB06KT 10SM FEW020 BKN028 BKN044 19/12 A3036 RMK AO2 SLP279 CIG 026V031 T01890122 $= 201710132051 METAR KEWR 132051Z 10009G15KT 10SM BKN024 BKN044 BKN080 18/13 A3034 RMK AO2 SLP275 T01830128 56013 $= 201710132151 METAR KEWR 132151Z 11008KT 10SM BKN021 BKN045 BKN080 18/13 A3034 RMK AO2 SLP273 T01780133= 201710132251 METAR KEWR 132251Z 10007KT 10SM BKN020 OVC070 18/14 A3034 RMK AO2 SLP274 T01780139= 201710132351 METAR KEWR 132351Z 09005KT 10SM BKN017 BKN024 OVC060 18/14 A3034 RMK AO2 SLP273 T01780139 10194 20178 56001= 201710140051 METAR KEWR 140051Z 08007KT 10SM SCT017 BKN025 OVC055 18/14 A3034 RMK AO2 SLP273 T01780139= 201710140151 METAR KEWR 140151Z 08007KT 10SM FEW017 BKN025 OVC055 18/14 A3033 RMK AO2 RAB00E19 SLP271 P0000 T01780139= 201710140251 METAR KEWR 140251Z VRB04KT 10SM FEW015 BKN029 OVC050 18/14 A3032 RMK AO2 SLP268 60000 T01780139 58005= 201710140351 METAR KEWR 140351Z 04006KT 9SM SCT014 BKN028 OVC040 17/14 A3032 RMK AO2 DZB40E49 SLP267 P0000 T01720144= 201710140451 METAR KEWR 140451Z 01008KT 10SM FEW014 SCT028 OVC042 17/14 A3030 RMK AO2 DZB26E38RAB38E49 SLP261 P0000 T01670144 401940100= 201710140551 METAR KEWR 140551Z 01008KT 10SM FEW012 OVC022 17/14 A3030 RMK AO2 RAB14E49 SLP258 P0000 60000 T01670144 10178 20167 58009= 201710140651 METAR KEWR 140651Z 02007KT 4SM -RA BR SCT008 BKN012 OVC018 16/15 A3028 RMK AO2 RAB20 SLP252 P0003 T01610150= 201710140751 METAR KEWR 140751Z 02006KT 7SM -RA BKN007 OVC011 16/16 A3027 RMK AO2 SLP248 P0000 T01610156= 201710140851 METAR KEWR 140851Z 01007KT 5SM -DZ BR OVC005 17/16 A3026 RMK AO2 RAE04DZB28 SLP245 P0000 60003 T01670156 56013= 201710140951 METAR KEWR 140951Z 03005KT 2 1/2SM -RA BR BKN005 BKN009 OVC024 16/16 A3025 RMK AO2 SFC VIS 4 DZE18RAB18 SLP244 P0004 T01610161= 201710141051 METAR KEWR 141051Z 36007KT 3SM -RA BR BKN004 OVC012 17/16 A3026 RMK AO2 RAE10B24DZB10E24 SLP245 CIG 003V005 P0002 T01670161= 201710141151 METAR KEWR 141151Z 36009KT 3SM -DZ BR BKN004 BKN007 OVC014 17/16 A3025 RMK AO2 SFC VIS 5 RAE14DZB14 SLP244 P0001 60010 70010 T01670161 10167 20161 56001= 201710141251 METAR KEWR 141251Z 02007KT 3SM BR BKN004 BKN007 OVC015 17/17 A3026 RMK AO2 SFC VIS 6 DZE47 SLP246 P0000 T01670167= 201710141351 METAR KEWR 141351Z 01007KT 3SM BR BKN004 OVC008 18/17 A3026 RMK AO2 SFC VIS 6 SLP246 T01780172= 201710141451 METAR KEWR 141451Z 02007KT 3SM FEW005 BKN007 BKN015 19/17 A3025 RMK AO2 SFC VIS 8 DZB1355E19 SLP242 P0000 60000 T01940172 58002= 201710141551 METAR KEWR 141551Z 01007KT 3SM BKN009 OVC012 20/17 A3024 RMK AO2 SFC VIS 9 SLP239 T02000172= 201710141651 METAR KEWR 141651Z 02005KT 10SM BKN010 OVC014 21/17 A3022 RMK AO2 SLP233 T02060167= 201710141751 METAR KEWR 141751Z 29004KT 10SM BKN016 OVC024 22/17 A3019 RMK AO2 SLP224 60000 T02170172 10217 20167 58018= 201710141851 METAR KEWR 141851Z 03004KT 10SM OVC021 22/17 A3017 RMK AO2 SLP217 T02220172= 201710141951 METAR KEWR 141951Z 00000KT 10SM OVC023 22/17 A3016 RMK AO2 SLP213 T02220172= 201710142051 METAR KEWR 142051Z 19003KT 10SM OVC022 22/17 A3015 RMK AO2 SLP210 T02170167 56014= 201710142151 METAR KEWR 142151Z 24004KT 10SM BKN024 BKN035 BKN090 22/17 A3016 RMK AO2 SLP213 T02170172= 201710142251 METAR KEWR 142251Z 28006KT 10SM BKN025 OVC035 22/17 A3017 RMK AO2 SLP215 T02170172= 201710142351 METAR KEWR 142351Z 28005KT 10SM BKN025 OVC031 21/17 A3018 RMK AO2 SLP219 T02110167 10233 20211 53009= 201710150051 METAR KEWR 150051Z 00000KT 10SM BKN020 OVC034 21/16 A3018 RMK AO2 SLP218 T02060161= 201710150151 METAR KEWR 150151Z 00000KT 10SM SCT022 OVC034 20/16 A3017 RMK AO2 SLP217 T02000161= 201710150251 METAR KEWR 150251Z 24003KT 10SM FEW021 BKN032 19/16 A3017 RMK AO2 SLP216 T01890161 58003= 201710150351 METAR KEWR 150351Z 24003KT 10SM FEW021 OVC031 20/17 A3017 RMK AO2 SLP215 T02000167= 201710150451 METAR KEWR 150451Z 17003KT 10SM FEW021 OVC027 19/17 A3015 RMK AO2 SLP208 T01940167 402330161= 201710150551 METAR KEWR 150551Z 20004KT 10SM BKN022 BKN029 19/17 A3013 RMK AO2 SLP204 T01940172 10211 20183 58012= 201710150651 METAR KEWR 150651Z 24004KT 10SM BKN022 BKN029 19/17 A3013 RMK AO2 SLP202 T01940167= 201710150751 METAR KEWR 150751Z 20004KT 10SM OVC020 19/17 A3010 RMK AO2 SLP192 T01890167= 201710150851 METAR KEWR 150851Z 20003KT 10SM OVC016 19/17 A3010 RMK AO2 SLP192 T01890172 56012= 201710150951 METAR KEWR 150951Z 22005KT 8SM FEW012 BKN014 OVC016 18/17 A3009 RMK AO2 SLP188 T01830167 $= 201710151051 METAR KEWR 151051Z 20003KT 8SM FEW014 OVC018 18/17 A3008 RMK AO2 SLP184 T01830172 $= 201710151151 METAR KEWR 151151Z 18005KT 2SM BR BKN007 BKN011 OVC019 19/18 A3007 RMK AO2 SFC VIS 3 SLP182 T01890178 10194 20183 56009 $= 201710151251 METAR KEWR 151251Z 17006KT 7SM BKN005 BKN014 BKN020 19/18 A3007 RMK AO2 DZB02E44 SLP182 P0000 T01940183 $= 201710151351 METAR KEWR 151351Z 18008KT 10SM SCT007 BKN014 OVC017 20/18 A3005 RMK AO2 SLP176 SCT V BKN T02000183 $= 201710151451 METAR KEWR 151451Z 23010KT 10SM -DZ SCT008 BKN012 OVC018 21/18 A3004 RMK AO2 DZB32 SLP170 P0000 60000 T02110183 58012 $= 201710151551 METAR KEWR 151551Z 22013KT 10SM FEW012 SCT018 BKN024 22/17 A3000 RMK AO2 DZE08 SLP159 P0000 T02220172 $= 201710151651 METAR KEWR 151651Z 22012G20KT 10SM FEW018 BKN024 BKN030 23/17 A2997 RMK AO2 SLP148 T02280172 $= 201710151751 METAR KEWR 151751Z 23014KT 10SM BKN024 OVC030 23/17 A2994 RMK AO2 SLP137 60000 T02280167 10228 20189 58034 $= 201710151851 METAR KEWR 151851Z 22016G23KT 10SM BKN024 OVC030 23/17 A2992 RMK AO2 SLP131 T02280172 $= 201710151951 METAR KEWR 151951Z 22010G20KT 10SM BKN026 22/17 A2989 RMK AO2 SLP121 T02220172 $= 201710152051 METAR KEWR 152051Z 23016KT 10SM OVC024 22/17 A2988 RMK AO2 SLP117 T02220167 56020 $= 201710152151 METAR KEWR 152151Z 22014G21KT 10SM OVC022 21/16 A2987 RMK AO2 SLP114 T02110161 $= 201710152251 METAR KEWR 152251Z 21011KT 10SM OVC021 21/17 A2985 RMK AO2 SLP108 T02110167 $= 201710152351 METAR KEWR 152351Z 21014KT 10SM BKN020 21/17 A2984 RMK AO2 SLP103 T02060167 10228 20206 58014 $= 201710160051 METAR KEWR 160051Z 22013G23KT 10SM BKN021 21/17 A2982 RMK AO2 SLP098 T02110167 $= 201710160151 METAR KEWR 160151Z 23013G22KT 10SM SCT017 BKN021 21/17 A2983 RMK AO2 SLP101 T02060172 $= 201710160251 METAR KEWR 160251Z 22012G20KT 10SM SCT015 BKN020 21/18 A2981 RMK AO2 SLP095 T02060178 56008 $= 201710160351 METAR KEWR 160351Z 22014G21KT 10SM SCT015 BKN075 21/18 A2980 RMK AO2 SLP089 T02060183 $= 201710160451 METAR KEWR 160451Z 25010KT 10SM -RA FEW013 SCT036 OVC095 21/18 A2981 RMK AO2 RAB38 SLP095 P0000 T02060183 402280183 $= 201710160551 METAR KEWR 160551Z 23009KT 10SM FEW021 SCT036 OVC080 20/18 A2982 RMK AO2 RAE12 SLP096 P0000 60000 T02000183 10211 20200 53001 $= 201710160651 METAR KEWR 160651Z 30010KT 10SM FEW014 SCT040 OVC075 19/16 A2984 RMK AO2 SLP104 T01940161 $= 201710160751 METAR KEWR 160751Z 33018G23KT 10SM FEW014 BKN040 OVC080 18/14 A2984 RMK AO2 RAB17E36 SLP105 P0000 T01830144 $= 201710160851 METAR KEWR 160851Z 29003KT 9SM -RA FEW018 SCT065 OVC075 17/14 A2986 RMK AO2 RAB0753 SLP110 P0001 60001 T01670144 51013 $= 201710160951 METAR KEWR 160951Z 33010KT 10SM FEW020 SCT055 OVC100 17/14 A2988 RMK AO2 RAE0856 SLP119 P0000 T01670144 $= 201710161051 METAR KEWR 161051Z 32010KT 10SM FEW020 SCT035 OVC130 16/10 A2991 RMK AO2 PK WND 32027/1028 RAB25E34 SLP127 P0000 T01560100 $= 201710161151 METAR KEWR 161151Z 33017G26KT 10SM FEW020 SCT031 OVC140 15/09 A2995 RMK AO2 PK WND 32026/1149 PRESRR SLP141 60001 70001 T01500089 10206 20150 53031 $= 201710161251 METAR KEWR 161251Z 33014G21KT 10SM FEW023 FEW032 BKN140 13/05 A2998 RMK AO2 SLP152 T01330050 $= 201710161351 METAR KEWR 161351Z 33013KT 10SM FEW025 FEW100 BKN160 13/04 A3000 RMK AO2 SLP158 T01330044 $= 201710161451 METAR KEWR 161451Z 32013G21KT 10SM FEW035 FEW100 BKN160 14/05 A3003 RMK AO2 SLP167 T01390050 51027 $= 201710161551 METAR KEWR 161551Z 32011G19KT 10SM SCT035 SCT100 BKN180 14/05 A3003 RMK AO2 SLP167 T01390050 $= 201710161651 METAR KEWR 161651Z 32014G22KT 10SM SCT035 SCT100 OVC180 14/04 A3001 RMK AO2 SLP162 T01440044 $= 201710161751 METAR KEWR 161751Z 32016KT 10SM SCT037 BKN170 BKN200 14/03 A3003 RMK AO2 PK WND 31028/1707 SLP167 T01390033 10150 20133 55000 $= 201710161851 METAR KEWR 161851Z 34015KT 10SM FEW045 BKN220 BKN250 16/03 A3003 RMK AO2 SLP168 T01560033 $= 201710161951 METAR KEWR 161951Z 30013KT 10SM FEW040 BKN220 BKN250 14/04 A3005 RMK AO2 PK WND 34027/1855 SLP175 T01440039 $= 201710162051 METAR KEWR 162051Z 33015G24KT 10SM FEW045 SCT210 BKN250 14/03 A3007 RMK AO2 SLP181 T01390028 53014 $= 201710162151 METAR KEWR 162151Z 32014KT 10SM FEW045 SCT210 BKN250 14/03 A3008 RMK AO2 SLP186 T01390028 $= 201710162251 METAR KEWR 162251Z 33017G24KT 10SM FEW045 FEW210 BKN250 13/01 A3011 RMK AO2 PK WND 32026/2215 SLP196 T01280006 $= 201710162351 METAR KEWR 162351Z 32015G21KT 10SM FEW045 BKN250 12/01 A3015 RMK AO2 SLP207 T01220006 10156 20122 $= 201710170051 METAR KEWR 170051Z 34014KT 10SM FEW045 SCT250 12/00 A3017 RMK AO2 SLP215 T01170000 $= 201710170151 METAR KEWR 170151Z 34009G18KT 10SM FEW050 FEW250 11/01 A3020 RMK AO2 SLP226 T01060011 $= 201710170251 METAR KEWR 170251Z 33012KT 10SM FEW050 FEW250 10/M02 A3021 RMK AO2 SLP230 T01001017 51023 $= 201710170351 METAR KEWR 170351Z 33014KT 10SM CLR 09/M02 A3022 RMK AO2 SLP234 T00891017 $= 201710170451 METAR KEWR 170451Z 33011KT 10SM CLR 08/M02 A3023 RMK AO2 SLP235 T00831017 402060083 $= 201710170551 METAR KEWR 170551Z 33009KT 10SM CLR 08/M01 A3024 RMK AO2 SLP240 T00781011 10122 20078 53009 $= 201710170651 METAR KEWR 170651Z 33006KT 10SM CLR 07/M01 A3025 RMK AO2 SLP243 T00721011 $= 201710170751 METAR KEWR 170751Z 34008KT 10SM CLR 07/M01 A3026 RMK AO2 SLP245 T00671006 $= 201710170851 METAR KEWR 170851Z 34007KT 10SM CLR 06/00 A3028 RMK AO2 SLP251 T00610000 53012 $= 201710170951 METAR KEWR 170951Z 36005KT 10SM CLR 06/00 RMK AO2 SLPNO T00560000 $= 201710171051 METAR KEWR 171051Z 35006KT 10SM FEW025 SCT250 06/01 RMK AO2 SLPNO T00560006 $= 201710171151 METAR KEWR 171151Z 35008KT 10SM FEW025 FEW250 07/01 RMK AO2 SLPNO T00670006 10078 20044 $= 201710171251 METAR KEWR 171251Z 01008KT 10SM FEW032 08/01 RMK AO2 SLPNO T00830011 $= 201710171351 METAR KEWR 171351Z 02010KT 10SM FEW037 09/00 A3035 RMK AO2 SLP278 T00940000 $= 201710171451 METAR KEWR 171451Z 01005KT 10SM CLR 11/M01 A3034 RMK AO2 SLP275 T01061006 $= 201710171551 METAR KEWR 171551Z 00000KT 10SM CLR 12/M01 A3033 RMK AO2 SLP272 T01171011 $= 201710171651 METAR KEWR 171651Z 00000KT 10SM CLR 13/M01 A3031 RMK AO2 SLP265 T01331006 $= 201710171751 METAR KEWR 171751Z 00000KT 10SM CLR 15/M01 A3029 RMK AO2 SLP257 T01501006 10150 20067= 201710171851 METAR KEWR 171851Z 10SM CLR 16/M01 A3027 RMK AO2 SLP250 T01561011= 201710171951 METAR KEWR 171951Z VRB03KT 10SM FEW250 16/M01 A3026 RMK AO2 SLP247 T01561011= 201710172051 METAR KEWR 172051Z 21007KT 10SM FEW250 16/00 A3025 RMK AO2 SLP242 T01560000 56015= 201710172151 METAR KEWR 172151Z 23010KT 10SM FEW250 15/M01 A3025 RMK AO2 SLP243 T01501011= 201710172251 METAR KEWR 172251Z 23009KT 10SM FEW250 14/00 A3026 RMK AO2 SLP247 T01390000= 201710172351 METAR KEWR 172351Z 18008KT 10SM CLR 13/04 A3027 RMK AO2 SLP251 T01280044 10167 20128 53009= 201710180051 METAR KEWR 180051Z 19009KT 10SM CLR 12/05 A3028 RMK AO2 SLP254 T01170050= 201710180151 METAR KEWR 180151Z 20010KT 10SM CLR 11/04 A3029 RMK AO2 SLP256 T01110039= 201710180251 METAR KEWR 180251Z 22005KT 10SM CLR 10/04 A3030 RMK AO2 SLP261 T01000039 53010= 201710180351 METAR KEWR 180351Z 20006KT 10SM CLR 08/03 A3030 RMK AO2 SLP259 T00830033= 201710180451 METAR KEWR 180451Z 24007KT 10SM CLR 09/03 A3030 RMK AO2 SLP259 T00890033 401670044= 201710180551 METAR KEWR 180551Z 23006KT 10SM CLR 08/03 A3030 RMK AO2 SLP258 T00830028 10128 20083 56003= 201710180651 METAR KEWR 180651Z 22004KT 10SM CLR 08/02 A3029 RMK AO2 SLP256 T00780022= 201710180751 METAR KEWR 180751Z 23007KT 10SM CLR 09/03 A3027 RMK AO2 SLP250 T00890028= 201710180851 METAR KEWR 180851Z 21005KT 10SM CLR 08/03 A3028 RMK AO2 SLP253 T00780028 55005= 201710180951 METAR KEWR 180951Z 21006KT 10SM CLR 07/03 A3030 RMK AO2 SLP260 T00720033= 201710181051 METAR KEWR 181051Z 22007KT 10SM CLR 08/03 A3032 RMK AO2 SLP265 T00780033= 201710181151 METAR KEWR 181151Z 22006KT 10SM CLR 08/04 A3032 RMK AO2 SLP267 T00830039 10089 20072 51014= 201710181251 METAR KEWR 181251Z 22004KT 10SM CLR 11/04 A3034 RMK AO2 SLP272 T01060044= 201710181351 METAR KEWR 181351Z 24004KT 10SM CLR 14/04 A3033 RMK AO2 SLP271 T01390044= 201710181451 METAR KEWR 181451Z 26004KT 10SM FEW250 16/05 A3032 RMK AO2 SLP268 T01610050 50001= 201710181551 METAR KEWR 181551Z VRB03KT 10SM FEW250 19/06 A3032 RMK AO2 SLP267 T01940056= 201710181651 METAR KEWR 181651Z 00000KT 10SM FEW250 22/06 A3031 RMK AO2 SLP262 T02170061= 201710181751 METAR KEWR 181751Z VRB03KT 10SM FEW250 23/07 A3028 RMK AO2 SLP252 T02280067 10233 20083 58016= 201710181851 METAR KEWR 181851Z VRB05KT 10SM CLR 22/08 A3026 RMK A02 SLP247 T02220078= 201710181951 METAR KEWR 181951Z 24008KT 10SM CLR 23/07 A3025 RMK AO2 SLP244 T02330072= 201710182051 METAR KEWR 182051Z 24011KT 10SM CLR 23/07 A3025 RMK AO2 SLP242 T02280067 56010= 201710182151 METAR KEWR 182151Z 23009KT 10SM CLR 22/07 A3025 RMK AO2 SLP242 T02170067= 201710182251 METAR KEWR 182251Z 21007KT 10SM CLR 19/08 A3026 RMK AO2 SLP246 T01890078= 201710182351 METAR KEWR 182351Z 19006KT 10SM CLR 19/08 A3027 RMK AO2 SLP250 T01890083 10233 20178 53008= 201710190051 METAR KEWR 190051Z 19005KT 10SM CLR 18/09 A3028 RMK AO2 SLP254 T01780089= 201710190151 METAR KEWR 190151Z 22008KT 10SM CLR 17/08 A3029 RMK AO2 SLP256 T01670078= 201710190251 METAR KEWR 190251Z 22007KT 10SM CLR 15/08 A3029 RMK AO2 SLP256 T01500083 50006= 201710190351 METAR KEWR 190351Z 23007KT 10SM CLR 14/08 A3028 RMK AO2 SLP254 T01440083= 201710190451 METAR KEWR 190451Z 23007KT 10SM CLR 14/08 A3028 RMK AO2 SLP252 T01390078 402330072= 201710190551 METAR KEWR 190551Z 24006KT 10SM CLR 13/08 A3027 RMK AO2 SLP250 T01280078 10189 20122 56006= 201710190651 METAR KEWR 190651Z 23006KT 10SM CLR 12/08 A3027 RMK AO2 SLP248 T01220078= 201710190751 METAR KEWR 190751Z 23006KT 10SM CLR 12/08 A3026 RMK AO2 SLP245 T01170083= 201710190851 METAR KEWR 190851Z 22006KT 10SM CLR 10/08 A3026 RMK AO2 SLP246 T01000078 55004= 201710190951 METAR KEWR 190951Z 22005KT 10SM FEW250 11/08 A3026 RMK AO2 SLP247 T01060078= 201710191051 METAR KEWR 191051Z 21005KT 10SM FEW250 09/07 A3025 RMK AO2 SLP243 T00890067= 201710191151 METAR KEWR 191151Z 22005KT 10SM SCT250 10/08 A3025 RMK AO2 SLP244 T01000078 10133 20089 57002= 201710191251 METAR KEWR 191251Z 24005KT 10SM SCT250 13/08 A3026 RMK AO2 SLP247 T01330083= 201710191351 METAR KEWR 191351Z 21007KT 10SM FEW250 16/09 A3025 RMK AO2 SLP244 T01610094= 201710191451 METAR KEWR 191451Z 22009KT 10SM FEW250 18/08 A3024 RMK AO2 SLP239 T01830078 58006= 201710191551 METAR KEWR 191551Z 24010G17KT 10SM FEW250 21/06 A3023 RMK AO2 SLP234 T02060061= 201710191651 METAR KEWR 191651Z 24015G20KT 10SM FEW250 22/05 A3019 RMK AO2 SLP223 T02170050= 201710191751 METAR KEWR 191751Z 24012KT 10SM FEW250 23/04 A3016 RMK AO2 SLP211 T02280044 10228 20106 58027= 201710191851 METAR KEWR 191851Z 22010KT 10SM FEW250 23/03 A3013 RMK AO2 SLP201 T02280033= 201710191951 METAR KEWR 191951Z 21011KT 10SM FEW250 23/04 A3011 RMK AO2 SLP194 T02280039= 201710192051 METAR KEWR 192051Z 23011KT 10SM FEW250 22/04 A3009 RMK AO2 SLP187 T02170044 56024= 201710192151 METAR KEWR 192151Z 21010KT 10SM FEW250 20/06 A3008 RMK AO2 SLP184 T02000056= 201710192251 METAR KEWR 192251Z 22012G19KT 10SM FEW250 19/06 A3009 RMK AO2 SLP187 T01940056= 201710192351 METAR KEWR 192351Z 22011KT 10SM FEW250 19/06 A3009 RMK AO2 SLP188 T01890061 10233 20189 53001= 201710200051 METAR KEWR 200051Z 22011KT 10SM FEW250 18/07 A3009 RMK AO2 SLP187 T01780067 $= 201710200151 METAR KEWR 200151Z 23010KT 10SM FEW250 17/07 A3009 RMK AO2 SLP190 T01670067 $= 201710200251 METAR KEWR 200251Z 24011KT 10SM FEW250 16/07 A3009 RMK AO2 SLP190 T01610072 53001 $= 201710200351 METAR KEWR 200351Z 22007KT 10SM SCT250 15/07 A3009 RMK AO2 SLP187 T01500072 $= 201710200451 METAR KEWR 200451Z 24007KT 10SM BKN250 15/08 A3009 RMK AO2 SLP188 T01500083 402330089 $= 201710200551 METAR KEWR 200551Z 25010KT 10SM SCT250 15/08 A3008 RMK AO2 SLP186 T01500083 10189 20139 56004 $= 201710200651 METAR KEWR 200651Z 27011KT 10SM FEW250 15/08 A3008 RMK AO2 SLP185 T01500083 $= 201710200751 METAR KEWR 200751Z 27009KT 10SM FEW250 14/08 A3008 RMK AO2 SLP186 T01440083 $= 201710200851 METAR KEWR 200851Z 29006KT 10SM FEW250 13/08 A3010 RMK AO2 SLP192 T01330083 53006 $= 201710200951 METAR KEWR 200951Z 27007KT 10SM FEW250 13/08 A3011 RMK AO2 SLP195 T01280083 $= 201710201051 METAR KEWR 201051Z 26006KT 10SM FEW250 13/08 A3013 RMK AO2 SLP202 T01330083 $= 201710201151 METAR KEWR 201151Z 24005KT 10SM SCT250 14/08 A3016 RMK AO2 SLP211 T01390083 10150 20128 53019 $= 201710201251 METAR KEWR 201251Z 27005KT 10SM SCT250 16/07 A3017 RMK AO2 SLP217 T01610072 $= 201710201351 METAR KEWR 201351Z 30007KT 10SM FEW250 18/06 A3018 RMK AO2 SLP218 T01780056= 201710201451 METAR KEWR 201451Z 32012G19KT 10SM FEW250 20/00 A3017 RMK AO2 SLP216 T02000000 50005= 201710201551 METAR KEWR 201551Z 33013G22KT 10SM FEW250 22/M02 A3016 RMK AO2 SLP212 T02171022= 201710201651 METAR KEWR 201651Z 30015G22KT 10SM FEW250 23/M03 A3014 RMK AO2 SLP205 T02331033= 201710201751 METAR KEWR 201751Z 29012G18KT 10SM FEW250 24/M02 A3011 RMK AO2 SLP195 T02391022 10239 20139 58021= 201710201851 METAR KEWR 201851Z 31013G21KT 10SM FEW250 24/M03 A3010 RMK AO2 SLP193 T02391033= 201710201951 METAR KEWR 201951Z 30013G19KT 10SM FEW250 24/M03 A3010 RMK AO2 SLP192 T02441033= 201710202051 METAR KEWR 202051Z 31011G21KT 10SM FEW250 23/M01 A3010 RMK AO2 SLP193 T02331011 55002= 201710202151 METAR KEWR 202151Z 31008G17KT 10SM FEW250 23/01 A3012 RMK AO2 SLP198 T02280006= 201710202251 METAR KEWR 202251Z 29008KT 10SM FEW250 21/02 A3014 RMK AO2 SLP206 T02110017= 201710202351 METAR KEWR 202351Z 28007KT 10SM CLR 20/02 A3016 RMK AO2 SLP212 T02000017 10244 20200 53019= 201710210051 METAR KEWR 210051Z 31006KT 10SM CLR 19/02 A3017 RMK AO2 SLP214 T01890022= 201710210151 METAR KEWR 210151Z VRB03KT 10SM CLR 18/03 A3020 RMK AO2 SLP225 T01780028= 201710210251 METAR KEWR 210251Z 01003KT 10SM CLR 17/03 A3021 RMK AO2 SLP229 T01720028 53017= 201710210351 METAR KEWR 210351Z 00000KT 10SM CLR 17/02 A3022 RMK AO2 SLP231 T01670017= 201710210451 METAR KEWR 210451Z 00000KT 10SM CLR 15/04 A3022 RMK AO2 SLP233 T01500039 402440128= 201710210551 METAR KEWR 210551Z 31005KT 10SM CLR 13/04 A3024 RMK AO2 SLP240 T01330039 10200 20128 53010= 201710210651 METAR KEWR 210651Z 00000KT 10SM CLR 13/04 A3025 RMK AO2 SLP242 T01280039= 201710210751 METAR KEWR 210751Z 00000KT 10SM CLR 12/04 A3026 RMK AO2 SLP245 T01220044= 201710210851 METAR KEWR 210851Z 00000KT 10SM FEW250 13/05 A3026 RMK AO2 SLP248 T01280050 53008= 201710210951 METAR KEWR 210951Z 03004KT 10SM FEW250 12/05 A3027 RMK AO2 SLP251 T01220050= 201710211051 METAR KEWR 211051Z 02003KT 10SM SCT250 12/04 A3028 RMK AO2 SLP254 T01170044= 201710211151 METAR KEWR 211151Z 00000KT 10SM SCT280 13/04 A3031 RMK AO2 SLP262 T01280044 10139 20111 53015= 201710211251 METAR KEWR 211251Z 00000KT 10SM SCT300 16/04 A3033 RMK AO2 SLP271 T01560044= 201710211351 METAR KEWR 211351Z 00000KT 10SM SCT300 18/04 A3034 RMK AO2 SLP275 T01780044= 201710211451 METAR KEWR 211451Z 00000KT 10SM FEW300 21/03 A3034 RMK AO2 SLP274 T02110033 51012= 201710211551 METAR KEWR 211551Z 21004KT 10SM SCT300 24/02 A3034 RMK AO2 SLP272 T02390017= 201710211651 METAR KEWR 211651Z VRB03KT 10SM BKN300 26/02 A3032 RMK AO2 SLP266 T02560017= 201710211751 METAR KEWR 211751Z 24006KT 10SM BKN300 27/00 A3030 RMK AO2 SLP260 T02670000 10267 20128 58015= 201710211851 METAR KEWR 211851Z 20004KT 10SM BKN300 27/01 A3029 RMK AO2 SLP257 T02670006= 201710211951 METAR KEWR 211951Z 22006KT 10SM BKN300 26/00 A3029 RMK AO2 SLP257 T02610000= 201710212051 METAR KEWR 212051Z 23007KT 10SM BKN300 25/01 A3030 RMK AO2 SLP260 T02500011 55000= 201710212151 METAR KEWR 212151Z 18004KT 10SM BKN280 23/06 A3032 RMK AO2 SLP265 T02280061= 201710212251 METAR KEWR 212251Z 17004KT 10SM BKN280 21/07 A3033 RMK AO2 SLP268 T02110067= 201710212351 METAR KEWR 212351Z 18005KT 10SM BKN280 19/08 A3034 RMK AO2 SLP272 T01940078 10272 20194 51012= 201710220051 METAR KEWR 220051Z 20005KT 10SM BKN280 18/07 A3035 RMK AO2 SLP276 T01780072= 201710220151 METAR KEWR 220151Z 22004KT 10SM BKN280 17/08 A3036 RMK AO2 SLP278 T01670078= 201710220251 METAR KEWR 220251Z 21005KT 10SM BKN280 16/08 A3036 RMK AO2 SLP278 T01560078 51006= 201710220351 METAR KEWR 220351Z 22005KT 10SM SCT280 14/08 A3036 RMK AO2 SLP279 T01390078= 201710220451 METAR KEWR 220451Z 00000KT 10SM SCT280 14/08 A3036 RMK AO2 SLP279 T01390078 402720111= 201710220551 METAR KEWR 220551Z 20004KT 10SM SCT280 14/08 A3036 RMK AO2 SLP279 T01390083 10194 20139 50001= 201710220651 METAR KEWR 220651Z 23004KT 10SM FEW280 14/08 A3035 RMK AO2 SLP276 T01390078= 201710220751 METAR KEWR 220751Z 20003KT 10SM FEW250 13/08 A3035 RMK AO2 SLP278 T01330083= 201710220851 METAR KEWR 220851Z 00000KT 10SM FEW250 12/07 A3036 RMK AO2 SLP281 T01170072 53002= 201710220951 METAR KEWR 220951Z 01004KT 10SM FEW250 12/08 A3037 RMK AO2 SLP285 T01170078= 201710221051 METAR KEWR 221051Z 02003KT 10SM SCT250 11/08 A3038 RMK AO2 SLP288 T01110083= 201710221151 METAR KEWR 221151Z 00000KT 10SM FEW150 BKN250 12/09 A3040 RMK AO2 SLP294 T01220094 10144 20100 53013= 201710221251 METAR KEWR 221251Z 00000KT 10SM FEW190 BKN250 14/09 A3042 RMK AO2 SLP300 T01390094= 201710221351 METAR KEWR 221351Z 00000KT 10SM FEW200 BKN250 17/08 A3041 RMK AO2 SLP298 T01670083= 201710221451 METAR KEWR 221451Z 10004KT 10SM FEW200 BKN250 20/07 A3040 RMK AO2 SLP295 T02000067 50001= 201710221551 METAR KEWR 221551Z 10004KT 10SM FEW200 BKN250 22/08 A3040 RMK AO2 SLP294 T02220083= 201710221651 METAR KEWR 221651Z 16006KT 10SM SCT200 BKN260 24/07 A3039 RMK AO2 SLP289 T02390067= 201710221751 METAR KEWR 221751Z 14008KT 10SM SCT200 BKN260 23/08 A3037 RMK AO2 SLP283 T02330083 10239 20122 58012= 201710221851 METAR KEWR 221851Z 13008KT 10SM FEW090 SCT180 BKN250 23/08 A3036 RMK AO2 SLP279 T02330078= 201710221951 METAR KEWR 221951Z VRB06KT 10SM FEW100 SCT180 BKN250 23/10 A3035 RMK AO2 SLP277 T02280100= 201710222051 METAR KEWR 222051Z 14008KT 10SM FEW100 BKN200 BKN250 22/12 A3035 RMK AO2 SLP276 T02220122 56007= 201710222151 METAR KEWR 222151Z VRB06KT 10SM BKN200 BKN250 21/13 A3035 RMK AO2 SLP276 T02060133= 201710222251 METAR KEWR 222251Z 14005KT 10SM SCT180 BKN250 19/13 A3034 RMK AO2 SLP274 T01940128= 201710222351 METAR KEWR 222351Z 16005KT 10SM FEW180 BKN250 18/12 A3036 RMK AO2 SLP281 T01830117 10233 20183 53005= 201710230051 METAR KEWR 230051Z 14005KT 10SM FEW180 BKN250 18/11 A3037 RMK AO2 SLP282 T01830106= 201710230151 METAR KEWR 230151Z 16004KT 10SM BKN250 18/13 A3038 RMK AO2 SLP286 T01780128= 201710230251 METAR KEWR 230251Z 16003KT 10SM BKN250 17/14 A3038 RMK AO2 SLP285 T01720139 50004= 201710230351 METAR KEWR 230351Z 00000KT 10SM BKN250 17/14 A3037 RMK AO2 SLP284 T01670144= 201710230451 METAR KEWR 230451Z 00000KT 10SM BKN250 16/14 A3036 RMK AO2 SLP280 T01610144 402390100= 201710230551 METAR KEWR 230551Z 00000KT 10SM BKN020 BKN250 16/14 A3034 RMK AO2 SLP274 T01560144 10183 20144 58011= 201710230651 METAR KEWR 230651Z 00000KT 10SM BKN026 17/16 A3033 RMK AO2 SLP268 T01670161= 201710230751 METAR KEWR 230751Z VRB03KT 10SM SCT026 BKN033 17/16 A3032 RMK AO2 SLP266 T01720161= 201710230851 METAR KEWR 230851Z 00000KT 10SM FEW022 SCT028 OVC036 17/17 A3032 RMK AO2 SLP265 T01720167 56003= 201710230951 METAR KEWR 230951Z 07003KT 10SM FEW008 BKN023 BKN036 18/17 A3031 RMK AO2 SLP264 T01780167= 201710231051 METAR KEWR 231051Z 07003KT 10SM FEW007 BKN025 BKN045 18/17 A3030 RMK AO2 SLP261 T01780167= 201710231151 METAR KEWR 231151Z 00000KT 10SM BKN008 BKN025 BKN048 18/17 A3030 RMK AO2 SLP260 T01830167 10183 20156 55005= 201710231251 METAR KEWR 231251Z VRB04KT 10SM BKN007 BKN045 18/17 A3031 RMK AO2 SLP261 T01830172= 201710231351 METAR KEWR 231351Z VRB03KT 10SM FEW008 SCT048 BKN250 20/17 A3028 RMK AO2 SLP252 T02000172= 201710231451 METAR KEWR 231451Z 15008KT 10SM FEW015 SCT050 BKN250 22/17 A3025 RMK AO2 SLP244 T02220167 58015= 201710231551 METAR KEWR 231551Z 16009KT 10SM FEW025 BKN055 BKN250 23/17 A3024 RMK AO2 SLP240 T02330167= 201710231651 METAR KEWR 231651Z 14009G15KT 10SM FEW025 BKN055 BKN250 23/16 A3021 RMK AO2 SLP231 T02280161= 201710231751 METAR KEWR 231751Z 15010KT 10SM FEW025 BKN060 BKN250 23/17 A3019 RMK AO2 SLP223 T02330167 10239 20183 58022= 201710231851 METAR KEWR 231851Z 14009G19KT 10SM FEW025 SCT050 BKN065 BKN250 23/17 A3016 RMK AO2 SLP213 T02280172= 201710231951 METAR KEWR 231951Z 14010G17KT 10SM FEW025 FEW050 SCT065 OVC250 22/17 A3014 RMK AO2 SLP207 T02170172= 201710232051 METAR KEWR 232051Z 14008KT 10SM FEW025 BKN070 OVC250 21/17 A3013 RMK AO2 SLP203 T02110172 56020= 201710232151 METAR KEWR 232151Z 13008KT 100V160 10SM FEW025 BKN070 OVC250 21/17 A3011 RMK AO2 SLP195 T02060172= 201710232251 METAR KEWR 232251Z 15012G17KT 10SM FEW022 SCT042 OVC070 20/17 A3010 RMK AO2 SLP191 T02000172= 201710232351 METAR KEWR 232351Z 15010KT 10SM FEW012 FEW028 SCT070 OVC250 20/17 A3007 RMK AO2 SLP183 T02000172 10233 20200 58020= 201710240051 METAR KEWR 240051Z 15011G18KT 10SM FEW012 FEW032 SCT075 OVC250 20/18 A3005 RMK AO2 SLP175 T02000178= 201710240151 METAR KEWR 240151Z 15008G18KT 10SM SCT018 SCT045 BKN075 OVC250 20/18 A3004 RMK AO2 SLP172 T02000178= 201710240251 METAR KEWR 240251Z 13009G17KT 110V170 10SM SCT018 SCT028 BKN035 OVC250 20/18 A3002 RMK AO2 RAB11E17 SLP164 P0000 60000 T02000178 58019= 201710240351 METAR KEWR 240351Z 13010G17KT 10SM SCT010 BKN018 OVC040 20/18 A2997 RMK AO2 SLP147 T02000183= 201710240451 METAR KEWR 240451Z 15010G16KT 10SM OVC007 20/19 A2997 RMK AO2 SLP147 T02000189 402390144= 201710240551 METAR KEWR 240551Z 14010KT 10SM BKN008 BKN014 OVC026 21/19 A2997 RMK AO2 SLP148 60000 T02060189 10206 20200 55017= 201710240651 METAR KEWR 240651Z 14011G18KT 10SM -RA SCT008 BKN012 OVC024 21/19 A2993 RMK AO2 RAB35 SLP133 P0000 T02060189= 201710240751 METAR KEWR 240751Z 14014G23KT 10SM BKN007 BKN011 OVC018 21/19 A2986 RMK AO2 RAE0657 SLP110 P0000 T02060189= 201710240851 METAR KEWR 240851Z 16010G17KT 10SM BKN008 OVC012 21/19 A2985 RMK AO2 SLP109 60000 T02060189 56039= 201710240951 METAR KEWR 240951Z 15012G19KT 10SM -RA FEW009 BKN016 OVC028 21/19 A2983 RMK AO2 RAB23 SLP102 P0000 T02110189= 201710241051 METAR KEWR 241051Z 17011KT 10SM FEW009 BKN017 OVC029 22/19 A2984 RMK AO2 RAE18 SLP103 P0000 T02220189= 201710241151 METAR KEWR 241151Z 17016G24KT 10SM FEW009 BKN014 BKN110 OVC170 22/19 A2984 RMK AO2 PK WND 19030/1115 RAB1059E20 SLP104 P0000 60000 T02220189 10222 20200 55004= 201710241251 METAR KEWR 241251Z 16013G22KT 9SM FEW009 BKN014 BKN045 OVC170 22/19 A2983 RMK AO2 PK WND 17027/1228 RAB05E22 SLP102 P0000 T02170189= 201710241351 METAR KEWR 241351Z 16014G23KT 9SM FEW009 BKN014 OVC040 22/19 A2982 RMK AO2 SLP097 T02220189= 201710241451 METAR KEWR 241451Z 15013G25KT 9SM FEW012 BKN020 BKN030 BKN180 24/19 A2980 RMK AO2 PK WND 15027/1438 SLP091 CIG 018V023 60000 T02390189 58013= 201710241551 METAR KEWR 241551Z 16019G29KT 10SM SCT014 BKN025 BKN065 24/19 A2978 RMK AO2 PK WND 16031/1513 LTG DSNT NW SLP085 T02390189= 201710241651 METAR KEWR 241651Z 16015G24KT 10SM -RA SCT014 BKN025 OVC070 23/19 A2977 RMK AO2 PK WND 16030/1641 LTG DSNT N AND NW RAB23 SLP079 P0000 T02330194= 201710241751 METAR KEWR 241751Z 16015G23KT 6SM -RA BR FEW007 BKN011 OVC040 22/21 A2976 RMK AO2 PK WND 15028/1705 TSB34E50 SLP077 P0020 60020 T02170206 10250 20211 56007= 201710241851 METAR KEWR 241851Z 18012G20KT 8SM -RA BKN010 OVC016 22/21 A2976 RMK AO2 RAE16B34 SLP075 P0001 T02220206= 201710241951 METAR KEWR 241951Z 16010G16KT 10SM -RA BKN010 BKN017 OVC037 22/20 A2976 RMK AO2 RAE1857B40 SLP076 CIG 009V013 P0000 T02170200= 201710242051 METAR KEWR 242051Z 16011G17KT 10SM BKN010 BKN018 BKN080 BKN150 BKN250 22/20 A2977 RMK AO2 RAE11 SLP080 P0000 60001 T02170200 53003= 201710242151 METAR KEWR 242151Z 17006KT 10SM FEW010 BKN015 BKN090 BKN250 21/19 A2976 RMK AO2 SLP077 T02110194= 201710242251 METAR KEWR 242251Z 16005KT 10SM FEW009 SCT016 BKN090 BKN150 BKN250 21/19 A2977 RMK AO2 SLP082 T02110194= 201710242351 METAR KEWR 242351Z 15005KT 10SM -RA FEW008 BKN015 BKN110 OVC180 21/19 A2976 RMK AO2 RAB44 SLP078 P0000 60001 T02060194 10222 20206 57002= 201710250051 METAR KEWR 250051Z 16007KT 10SM FEW008 BKN017 BKN110 BKN250 21/19 A2976 RMK AO2 RAE25 SLP077 OCNL LTGIC DSNT E-DSNT SE CB DSNT E-DSNT SE MOV N P0000 T02060194= 201710250151 METAR KEWR 250151Z 18006KT 10SM FEW008 SCT014 BKN100 BKN250 21/19 A2977 RMK AO2 SLP079 T02060189= 201710250251 METAR KEWR 250251Z 16004KT 10SM FEW008 BKN014 BKN090 BKN250 20/19 A2975 RMK AO2 SLP074 60000 T02000189 58004= 201710250351 METAR KEWR 250351Z 20004KT 10SM SCT007 BKN011 BKN080 BKN250 19/19 A2974 RMK AO2 LTG DSNT E SLP072 T01940189= 201710250451 METAR KEWR 250451Z 24004KT 10SM BKN007 BKN011 OVC080 19/18 A2973 RMK AO2 SLP065 T01890183 402500189= 201710250551 METAR KEWR 250551Z 25007KT 10SM FEW007 FEW014 SCT080 BKN150 18/17 A2973 RMK AO2 SLP068 60000 T01830172 10206 20183 55006= 201710250651 METAR KEWR 250651Z 23004KT 10SM FEW007 FEW014 FEW080 BKN150 17/17 A2974 RMK AO2 SLP069 T01720167= 201710250751 METAR KEWR 250751Z 26007KT 9SM FEW007 FEW080 BKN250 17/16 A2972 RMK AO2 SLP064 T01670161= 201710250851 METAR KEWR 250851Z 29005KT 9SM FEW007 FEW080 BKN250 14/14 A2974 RMK AO2 SLP070 T01440139 53002= 201710250951 METAR KEWR 250951Z 32004KT 10SM FEW007 FEW080 FEW250 15/11 A2974 RMK AO2 SLP069 T01500111= 201710251051 METAR KEWR 251051Z 29005KT 10SM FEW250 14/10 A2973 RMK AO2 SLP066 T01440100= 201710251151 METAR KEWR 251151Z 30004KT 10SM FEW080 FEW150 FEW250 14/08 A2974 RMK AO2 SLP070 70021 T01440078 10183 20139 55000= 201710251251 METAR KEWR 251251Z 27004KT 10SM FEW080 FEW130 SCT250 14/07 A2974 RMK AO2 SLP070 T01440072= 201710251351 METAR KEWR 251351Z 26006KT 10SM SCT043 SCT065 SCT250 15/07 A2974 RMK AO2 SLP071 T01500072= 201710251451 METAR KEWR 251451Z 29007KT 10SM BKN048 BKN065 BKN250 16/07 A2974 RMK AO2 SLP070 T01610072 50000= 201710251551 METAR KEWR 251551Z 30006KT 10SM BKN039 BKN065 17/07 A2973 RMK AO2 SLP068 T01720067= 201710251651 METAR KEWR 251651Z VRB03KT 10SM SCT039 SCT060 18/07 A2971 RMK AO2 SLP059 T01830067= 201710251751 METAR KEWR 251751Z VRB03KT 10SM R04R/1200VP6000FT FEW044 SCT055 BKN200 19/06 A2968 RMK AO2 SLP049 T01890056 10200 20139 58021= 201710251851 METAR KEWR 251851Z VRB03KT 10SM FEW050 SCT060 BKN200 19/06 A2967 RMK AO2 SLP047 T01890061= 201710251951 METAR KEWR 251951Z 00000KT 10SM SCT060 SCT150 BKN180 18/06 A2967 RMK AO2 SLP047 T01830061= 201710252051 METAR KEWR 252051Z 26007KT 10SM SCT060 OVC150 19/05 A2967 RMK AO2 SLP047 T01890050 56002= 201710252151 METAR KEWR 252151Z 26010KT 10SM SCT060 BKN150 BKN200 18/04 A2969 RMK AO2 SLP052 T01830044= 201710252251 METAR KEWR 252251Z 26006KT 10SM SCT070 BKN170 OVC210 17/05 A2970 RMK AO2 SLP055 T01720050= 201710252351 METAR KEWR 252351Z 26005KT 10SM BKN100 BKN160 OVC200 12/05 A2969 RMK AO2 SLP052 T01170050 10194 20111 50006= 201710260051 METAR KEWR 260051Z 28007KT 10SM FEW100 SCT170 OVC210 16/06 A2969 RMK AO2 SLP053 T01610056= 201710260151 METAR KEWR 260151Z 29009KT 10SM FEW090 SCT180 OVC220 16/05 A2970 RMK AO2 SLP056 T01560050= 201710260251 METAR KEWR 260251Z 32010KT 10SM BKN070 BKN100 OVC200 16/03 A2970 RMK AO2 SLP056 T01560028 51003= 201710260351 METAR KEWR 260351Z 31010KT 10SM BKN070 OVC100 14/02 A2969 RMK AO2 SLP055 T01440022= 201710260451 METAR KEWR 260451Z 30008KT 10SM SCT070 BKN100 OVC190 14/03 A2968 RMK AO2 SLP051 T01390033 402000106= 201710260551 METAR KEWR 260551Z 33007KT 10SM BKN070 BKN100 OVC190 13/03 A2967 RMK AO2 SLP047 T01330033 10167 20106 58009= 201710260651 METAR KEWR 260651Z 31006KT 10SM BKN075 OVC100 13/03 A2965 RMK AO2 SLP039 T01330033= 201710260751 METAR KEWR 260751Z 29006KT 10SM BKN075 OVC100 13/04 A2965 RMK AO2 SLP039 T01280039= 201710260851 METAR KEWR 260851Z 29005KT 10SM BKN075 OVC100 12/04 A2966 RMK AO2 SLP044 T01220039 55003= 201710260951 METAR KEWR 260951Z 32008KT 10SM BKN080 BKN100 12/04 A2967 RMK AO2 SLP045 T01170039= 201710261051 METAR KEWR 261051Z 28008KT 10SM SCT070 BKN090 BKN250 11/04 A2966 RMK AO2 SLP043 T01110039= 201710261151 METAR KEWR 261151Z 30010KT 10SM BKN075 BKN250 11/04 A2968 RMK AO2 SLP050 T01110044 10133 20106 53006= 201710261251 METAR KEWR 261251Z 31006KT 10SM FEW075 BKN095 BKN250 12/04 A2967 RMK AO2 SLP047 T01220044= 201710261351 METAR KEWR 261351Z 28008G17KT 10SM SCT055 BKN070 BKN100 BKN250 13/05 A2969 RMK AO2 SLP054 T01280050= 201710261451 METAR KEWR 261451Z 29010KT 10SM BKN060 BKN075 OVC100 13/05 A2970 RMK AO2 SLP056 T01280050 53006= 201710261551 METAR KEWR 261551Z 32007KT 10SM -RA SCT065 BKN080 OVC095 13/07 A2970 RMK AO2 RAB09 SLP057 P0000 T01280067= 201710261651 METAR KEWR 261651Z 33008G19KT 10SM FEW065 OVC080 15/05 A2968 RMK AO2 RAE1558 SLP051 P0000 T01500050= 201710261751 METAR KEWR 261751Z 31009G17KT 10SM FEW035 BKN065 OVC080 14/04 A2968 RMK AO2 SLP049 60000 T01440044 10156 20111 58006= 201710261851 METAR KEWR 261851Z 27016G23KT 10SM FEW035 BKN065 OVC080 15/04 A2968 RMK AO2 SLP051 T01500044= 201710261951 METAR KEWR 261951Z 26016G22KT 10SM FEW045 OVC075 13/06 A2970 RMK AO2 SLP058 T01330056 $= 201710262051 METAR KEWR 262051Z 25016KT 10SM -RA FEW040 BKN060 OVC085 14/05 A2973 RMK AO2 RAB36 SLP065 P0000 60000 T01390050 53016 $= 201710262151 METAR KEWR 262151Z 28015G23KT 10SM FEW045 SCT070 BKN100 14/03 A2975 RMK AO2 RAE34 SLP074 P0000 T01440033 $= 201710262251 METAR KEWR 262251Z 29015KT 10SM FEW050 FEW070 SCT100 14/02 A2979 RMK AO2 SLP088 T01390022 $= 201710262351 METAR KEWR 262351Z 27013KT 10SM FEW090 13/02 A2984 RMK AO2 SLP106 60000 T01280022 10150 20128 53040 $= 201710270051 METAR KEWR 270051Z 28009KT 10SM FEW090 12/02 A2987 RMK AO2 SLP114 T01170017 $= 201710270151 METAR KEWR 270151Z 27010KT 10SM FEW100 11/02 A2990 RMK AO2 SLP123 T01060022 $= 201710270251 METAR KEWR 270251Z 24006KT 10SM FEW100 10/02 A2991 RMK AO2 SLP129 T01000022 51024 $= 201710270351 METAR KEWR 270351Z 24007KT 10SM FEW100 09/03 A2993 RMK AO2 SLP134 T00940033 $= 201710270451 METAR KEWR 270451Z 26004KT 10SM CLR 09/03 A2993 RMK AO2 SLP136 T00890028 401560089 $= 201710270551 METAR KEWR 270551Z 22004KT 10SM CLR 06/02 A2996 RMK AO2 SLP143 T00610022 10128 20061 53014 $= 201710270651 METAR KEWR 270651Z 26007KT 10SM CLR 08/03 A2998 RMK AO2 SLP152 T00780033 $= 201710270751 METAR KEWR 270751Z 27008KT 10SM CLR 07/03 A3001 RMK AO2 SLP160 T00720033 $= 201710270851 METAR KEWR 270851Z 28005KT 10SM CLR 07/03 A3002 RMK AO2 SLP166 T00720033 51023 $= 201710270951 METAR KEWR 270951Z 26005KT 10SM CLR 07/03 A3004 RMK AO2 SLP172 T00670028 $= 201710271051 METAR KEWR 271051Z 25005KT 10SM CLR 07/02 A3006 RMK AO2 SLP178 T00720022 $= 201710271151 METAR KEWR 271151Z 20005KT 10SM CLR 05/02 A3007 RMK AO2 SLP183 T00500022 10078 20050 51017 $= 201710271251 METAR KEWR 271251Z 21004KT 10SM FEW250 09/03 A3010 RMK AO2 SLP191 T00890033 $= 201710271351 METAR KEWR 271351Z 22003KT 10SM SCT250 12/03 A3011 RMK AO2 SLP195 T01170033= 201710271451 METAR KEWR 271451Z 18003KT 10SM SCT250 13/03 A3011 RMK AO2 SLP194 T01330033 50011= 201710271551 METAR KEWR 271551Z 20003KT 10SM SCT250 14/03 A3010 RMK AO2 SLP193 T01440028= 201710271651 METAR KEWR 271651Z 23011KT 10SM SCT250 17/02 A3009 RMK AO2 SLP189 T01670017= 201710271751 METAR KEWR 271751Z 23005KT 10SM BKN250 17/01 A3008 RMK AO2 SLP187 T01720011 10172 20056 58007= 201710271851 METAR KEWR 271851Z AUTO 24007KT 10SM BKN250 18/01 A3007 RMK AO2 SLP181 T01780011= 201710271951 METAR KEWR 271951Z 18009KT 10SM SCT250 18/02 A3006 RMK AO2 SLP179 T01780017= 201710272051 METAR KEWR 272051Z 18009KT 10SM SCT250 17/02 A3006 RMK AO2 SLP179 T01720017 55007= 201710272151 METAR KEWR 272151Z 15007KT 10SM FEW250 16/04 A3007 RMK AO2 SLP182 T01610039= 201710272251 METAR KEWR 272251Z 16003KT 10SM FEW250 16/04 A3008 RMK AO2 SLP187 T01560044= 201710272351 METAR KEWR 272351Z 17005KT 10SM FEW250 15/07 A3009 RMK AO2 SLP189 T01500067 10183 20144 51009= 201710280051 METAR KEWR 280051Z 18006KT 10SM FEW250 14/07 A3009 RMK AO2 SLP189 T01390067= 201710280151 METAR KEWR 280151Z 19005KT 10SM FEW250 13/07 A3010 RMK AO2 SLP191 T01280072= 201710280251 METAR KEWR 280251Z 19004KT 10SM FEW250 13/07 A3009 RMK AO2 SLP188 T01280072 58000= 201710280351 METAR KEWR 280351Z 19006KT 10SM FEW250 13/08 A3009 RMK AO2 SLP187 T01280078= 201710280451 METAR KEWR 280451Z 23003KT 10SM CLR 11/07 A3008 RMK AO2 SLP183 T01110072 401830050= 201710280551 METAR KEWR 280551Z 21005KT 10SM CLR 10/07 A3007 RMK AO2 SLP182 T01000067 10144 20094 58007= 201710280651 METAR KEWR 280651Z 21003KT 10SM CLR 11/07 A3007 RMK AO2 SLP181 T01060072= 201710280751 METAR KEWR 280751Z 00000KT 10SM CLR 10/07 A3005 RMK AO2 SLP176 T01000072= 201710280851 METAR KEWR 280851Z 00000KT 10SM CLR 09/07 A3005 RMK AO2 SLP176 T00940067 56005= 201710280951 METAR KEWR 280951Z 00000KT 10SM CLR 10/08 A3005 RMK AO2 SLP175 T01000078= 201710281051 METAR KEWR 281051Z 00000KT 10SM FEW250 10/08 A3005 RMK AO2 SLP174 T01000078= 201710281151 METAR KEWR 281151Z 00000KT 10SM SCT280 11/08 A3005 RMK AO2 SLP176 T01110083 10111 20083 55000= 201710281251 METAR KEWR 281251Z 20004KT 10SM BKN300 14/10 A3006 RMK AO2 SLP179 T01390100= 201710281351 METAR KEWR 281351Z 18008KT 10SM BKN300 17/07 A3005 RMK AO2 SLP174 T01720072= 201710281451 METAR KEWR 281451Z 18009KT 10SM BKN300 19/07 A3003 RMK AO2 SLP168 T01890067 58008= 201710281551 METAR KEWR 281551Z 19012KT 10SM FEW055 BKN300 20/05 A3002 RMK AO2 SLP163 T02000050= 201710281651 METAR KEWR 281651Z 15007KT 10SM FEW055 BKN300 21/03 A2998 RMK AO2 SLP153 T02110033= 201710281751 METAR KEWR 281751Z 19008KT 10SM FEW065 FEW200 BKN300 21/04 A2996 RMK AO2 SLP146 T02110039 10217 20100 58023= 201710281851 METAR KEWR 281851Z 16009G19KT 120V200 10SM FEW065 FEW200 BKN300 22/05 A2993 RMK AO2 SLP135 T02170050= 201710281951 METAR KEWR 281951Z 14010G18KT 10SM FEW035 FEW200 BKN300 20/12 A2992 RMK AO2 SLP132 T02000117= 201710282051 METAR KEWR 282051Z 16014G19KT 10SM FEW035 FEW200 BKN300 19/13 A2991 RMK AO2 SLP129 T01940128 56017= 201710282151 METAR KEWR 282151Z 16011G17KT 10SM FEW025 FEW200 BKN280 19/13 A2992 RMK AO2 SLP130 T01890128= 201710282251 METAR KEWR 282251Z 16008KT 10SM FEW020 FEW200 BKN270 18/13 A2991 RMK AO2 SLP129 T01830128= 201710282351 METAR KEWR 282351Z 16008KT 10SM FEW020 SCT055 SCT190 BKN260 18/14 A2992 RMK AO2 SLP131 T01780139 10217 20178 53002= 201710290051 METAR KEWR 290051Z 16004KT 10SM FEW020 SCT060 SCT190 BKN260 17/14 A2992 RMK AO2 SLP132 T01720139= 201710290151 METAR KEWR 290151Z 17004KT 10SM FEW020 BKN060 BKN260 17/14 A2992 RMK AO2 SLP132 T01720144= 201710290251 METAR KEWR 290251Z 17004KT 10SM FEW016 SCT065 BKN260 17/15 A2991 RMK AO2 SLP128 T01720150 58003= 201710290351 METAR KEWR 290351Z 18003KT 10SM FEW014 BKN055 BKN260 17/16 A2990 RMK AO2 SLP124 T01720156= 201710290451 METAR KEWR 290451Z 15003KT 10SM FEW012 BKN060 BKN250 18/16 A2988 RMK AO2 SLP119 T01830161 402170083= 201710290551 METAR KEWR 290551Z 15007KT 10SM FEW012 BKN060 OVC085 18/16 A2985 RMK AO2 SLP109 T01830161 10183 20167 58019= 201710290651 METAR KEWR 290651Z 15013G20KT 10SM -RA SCT035 BKN060 OVC085 18/16 A2985 RMK AO2 RAB08E17B41 SLP106 P0000 T01830156= 201710290751 METAR KEWR 290751Z 14012G19KT 10SM FEW010 FEW035 OVC080 17/14 A2983 RMK AO2 RAE25 SLP101 P0000 T01720144= 201710290851 METAR KEWR 290851Z 12010G17KT 10SM BKN010 OVC070 17/14 A2981 RMK AO2 RAB0753E06 SLP095 P0000 60000 T01670144 58014= 201710290951 METAR KEWR 290951Z VRB03KT 10SM SCT010 SCT026 BKN090 OVC200 17/16 A2980 RMK AO2 SLP092 T01670156= 201710291051 METAR KEWR 291051Z 06005KT 10SM BKN007 OVC014 17/15 A2977 RMK AO2 RAB16E47 SLP081 P0001 T01670150= 201710291151 METAR KEWR 291151Z 14009KT 10SM BKN007 OVC012 18/16 A2977 RMK AO2 RAB20E32 SLP081 P0000 60001 70001 T01780161 10183 20161 56014= 201710291251 METAR KEWR 291251Z 14011G17KT 5SM RA BR BKN007 OVC014 17/16 A2978 RMK AO2 RAB37 SLP083 P0001 T01720161= 201710291351 METAR KEWR 291351Z 11008G19KT 9SM BKN009 BKN014 OVC060 17/16 A2974 RMK AO2 RAE33 SLP072 P0005 T01720161= 201710291451 METAR KEWR 291451Z 10008KT 8SM -RA BKN008 BKN020 OVC060 17/16 A2972 RMK AO2 RAB22 SLP063 P0001 60007 T01720156 58018= 201710291551 METAR KEWR 291551Z 08007KT 6SM RA BR BKN006 BKN012 OVC080 17/16 A2968 RMK AO2 SLP050 P0005 T01720161= 201710291651 METAR KEWR 291651Z 07005KT 5SM -RA BR BKN005 OVC009 17/17 A2962 RMK AO2 SLP030 P0014 T01720167= 201710291751 METAR KEWR 291751Z 10006KT 2SM R04R/3500VP6000FT +RA BR BKN004 BKN008 OVC020 18/17 A2957 RMK AO2 TWR VIS 2 1/2 SLP013 P0030 60056 T01780172 10178 20172 58051= 201710291851 METAR KEWR 291851Z 13014G29KT 1 1/2SM RA BR BKN004 BKN008 OVC012 19/18 A2952 RMK AO2 PK WND 14029/1849 SFC VIS 3 SLP997 P0046 T01890178= 201710291951 METAR KEWR 291951Z 15009G17KT 1 1/2SM R04R/4500VP6000FT +RA BR BKN005 BKN009 OVC018 18/18 A2949 RMK AO2 PK WND 14031/1906 SFC VIS 2 SLP985 P0090 T01830178= 201710292051 METAR KEWR 292051Z 14010G20KT 3SM RA BR BKN005 BKN010 OVC020 19/18 A2946 RMK AO2 PK WND 12030/2000 SLP977 P0041 60177 T01890178 56036= 201710292151 METAR KEWR 292151Z 13011G23KT 3SM RA BR BKN005 OVC009 19/18 A2942 RMK AO2 SFC VIS 4 SLP963 P0016 T01890178= 201710292251 METAR KEWR 292251Z 11015G22KT 3SM RA BR OVC007 19/18 A2935 RMK AO2 SFC VIS 5 PRESFR SLP940 P0009 T01890178= 201710292351 METAR KEWR 292351Z 09011G26KT 4SM RA BR BKN008 BKN012 OVC020 19/18 A2929 RMK AO2 PK WND 12026/2342 PRESFR SLP917 P0013 60215 T01890178 10189 20178 58059= 201710300051 METAR KEWR 300051Z 08015G23KT 3/4SM R04R/P6000FT RA BR BKN008 BKN015 OVC020 18/17 A2918 RMK AO2 PK WND 11028/0037 SFC VIS 1 1/2 PRESFR SLP879 P0029 T01830172= 201710300151 METAR KEWR 300151Z 06011G18KT 2 1/2SM RA BR BKN007 OVC015 18/17 A2902 RMK AO2 PK WND 07026/0057 PRESFR SLP826 P0067 T01780172= 201710300251 METAR KEWR 300251Z 13016G24KT 2 1/2SM -RA BR BKN007 OVC010 19/19 A2890 RMK AO2 SLP787 P0014 60110 T01940189 58131= 201710300351 METAR KEWR 300351Z 26019G36KT 10SM FEW008 FEW020 17/14 A2892 RMK AO2 PK WND 24042/0334 WSHFT 0257 SLP794 RAE23B26E44 P0004 T01670144 $= 201710300451 METAR KEWR 300451Z VRB03KT 10SM SCT100 16/13 A2897 RMK AO2 SLP811 T01610133 402000161 $= 201710300551 METAR KEWR 300551Z 30005KT 10SM FEW020 SCT070 SCT100 15/12 A2902 RMK AO2 SLP828 60114 T01500117 10200 20150 53042 $= 201710300651 METAR KEWR 300651Z 27006KT 10SM BKN013 BKN070 BKN100 15/12 A2904 RMK AO2 SLP833 T01500122 $= 201710300751 METAR KEWR 300751Z 31007KT 6SM RA BR FEW013 BKN018 BKN060 13/12 A2903 RMK AO2 RAB22 SLP830 P0002 T01330117 $= 201710300851 METAR KEWR 300851Z 30013G24KT 6SM -RA FEW015 OVC022 12/09 A2904 RMK AO2 RAE14B35 SLP834 P0002 60004 T01220094 53006 $= 201710300951 METAR KEWR 300951Z 26012KT 6SM -RA BR SCT020 BKN025 OVC032 11/09 A2912 RMK AO2 PK WND 29026/0940 SLP859 P0001 T01060089 $= 201710301051 METAR KEWR 301051Z 26018G26KT 4SM -RA BR FEW012 BKN019 OVC030 09/07 A2919 RMK AO2 PK WND 26026/1041 PRESRR SLP884 P0007 T00940072 $= 201710301151 METAR KEWR 301151Z 26017KT 4SM RA BR SCT010 BKN017 OVC039 09/07 A2927 RMK AO2 PK WND 26033/1140 SLP910 P0010 60022 70407 T00890067 10150 20089 53075 $= 201710301251 METAR KEWR 301251Z 26021G28KT 10SM FEW020 SCT030 BKN095 09/04 A2935 RMK AO2 PK WND 26028/1249 RAE19 PRESRR SLP940 P0000 T00890044 $= 201710301351 METAR KEWR 301351Z 26016G22KT 10SM FEW025 SCT035 BKN095 10/05 A2941 RMK AO2 PK WND 26031/1306 SLP960 T01000050 $= 201710301451 METAR KEWR 301451Z 26027G33KT 10SM SCT025 SCT042 BKN110 12/04 A2946 RMK AO2 PK WND 28033/1451 SLP976 SCT025 V BKN 60000 T01220044 51067= 201710301551 METAR KEWR 301551Z 26027G33KT 10SM FEW029 BKN048 BKN110 14/03 A2953 RMK AO2 PK WND 27036/1536 SLP998 T01390028= 201710301651 METAR KEWR 301651Z 26025G32KT 10SM BKN049 BKN110 14/02 A2956 RMK AO2 PK WND 26040/1604 SLP009 T01390017= 201710301751 METAR KEWR 301751Z 26020G29KT 10SM BKN049 14/01 A2961 RMK AO2 PK WND 27038/1657 SLP026 60000 T01440011 10150 20089 51049= 201710301851 METAR KEWR 301851Z 28013G26KT 10SM BKN050 13/01 A2965 RMK AO2 PK WND 26033/1810 SLP041 T01330006= 201710301951 METAR KEWR 301951Z 24017G22KT 10SM FEW050 14/01 A2967 RMK AO2 PK WND 28029/1908 SLP048 T01390006= 201710302051 METAR KEWR 302051Z 27017G28KT 10SM FEW050 13/00 A2971 RMK AO2 PK WND 27028/2045 SLP060 T01330000 51035= 201710302151 METAR KEWR 302151Z 24013KT 10SM FEW050 12/01 A2974 RMK AO2 SLP069 T01220006= 201710302251 METAR KEWR 302251Z 22011KT 10SM FEW050 12/01 A2976 RMK AO2 SLP078 T01170006= 201710302351 METAR KEWR 302351Z 21013G20KT 10SM FEW050 12/01 A2979 RMK AO2 SLP088 T01170006 10144 20111 53028= 201710310051 METAR KEWR 310051Z 21013KT 10SM FEW050 11/01 A2981 RMK AO2 SLP095 T01110011= 201710310151 METAR KEWR 310151Z 20012KT 10SM FEW090 11/02 A2983 RMK AO2 SLP101 T01060022= 201710310251 METAR KEWR 310251Z 21008KT 10SM FEW090 11/02 A2984 RMK AO2 SLP105 T01060017 51017= 201710310351 METAR KEWR 310351Z 23011KT 10SM CLR 10/02 A2987 RMK AO2 SLP115 T01000017= 201710310451 METAR KEWR 310451Z 22013KT 10SM CLR 10/02 A2988 RMK AO2 SLP118 T01000022 401610089= 201710310551 METAR KEWR 310551Z 22011G22KT 10SM FEW090 09/03 A2990 RMK AO2 SLP123 T00940028 10117 20094 51018= 201710310651 METAR KEWR 310651Z 26004KT 10SM SCT100 08/03 A2992 RMK AO2 SLP133 T00780028= 201710310751 METAR KEWR 310751Z 23005KT 10SM BKN080 09/04 A2993 RMK AO2 SLP136 T00890039= 201710310851 METAR KEWR 310851Z 25005KT 10SM FEW080 08/03 A2995 RMK AO2 SLP141 T00780033 51018= 201710310951 METAR KEWR 310951Z 24007KT 10SM FEW080 08/04 A2997 RMK AO2 SLP147 T00780039= 201710311051 METAR KEWR 311051Z 24008KT 10SM FEW100 FEW170 08/03 A2998 RMK AO2 SLP152 T00780033= 201710311151 METAR KEWR 311151Z 23007KT 10SM FEW090 FEW170 07/03 A3001 RMK AO2 SLP160 T00720033 10094 20072 53018= 201710311251 METAR KEWR 311251Z 24008KT 10SM SCT160 10/03 A3003 RMK AO2 SLP168 T01000033= 201710311351 METAR KEWR 311351Z 28013G22KT 10SM BKN160 11/01 A3004 RMK AO2 SLP172 T01060006= 201710311451 METAR KEWR 311451Z 27020G28KT 10SM FEW045 BKN160 12/M02 A3005 RMK AO2 PK WND 27028/1442 SLP175 T01171022 51016= 201710311551 METAR KEWR 311551Z 25019G26KT 10SM FEW050 SCT160 13/M02 A3005 RMK AO2 PK WND 26026/1547 SLP176 T01331017= 201710311651 METAR KEWR 311651Z 27018G25KT 10SM FEW055 FEW180 14/M02 A3005 RMK AO2 PK WND 25028/1603 SLP174 T01441017= 201710311751 METAR KEWR 311751Z 26017G26KT 10SM FEW055 14/M02 A3005 RMK AO2 PK WND 25029/1715 SLP175 T01441017 10144 20072 58000= 201710311851 METAR KEWR 311851Z 26013G23KT 10SM FEW060 14/M02 A3006 RMK AO2 SLP178 T01441017= 201710311951 METAR KEWR 311951Z 26015G22KT 10SM FEW060 14/M02 A3007 RMK AO2 PK WND 26028/1900 SLP181 T01441022= 201710312051 METAR KEWR 312051Z 25013KT 10SM FEW060 13/M03 A3008 RMK AO2 PK WND 27026/2005 SLP187 T01331028 53012= 201710312151 METAR KEWR 312151Z 26011KT 10SM FEW055 13/M03 A3011 RMK AO2 SLP196 T01281028= 201710312251 METAR KEWR 312251Z 27009KT 10SM FEW250 12/M03 A3014 RMK AO2 SLP207 T01171028= 201710312351 METAR KEWR 312351Z 27009KT 10SM FEW250 11/M03 A3017 RMK AO2 SLP215 T01061028 10150 20106 51028=
