 201709010051 METAR KEWR 010051Z 31010KT 10SM FEW060 SCT100 BKN130 BKN250 22/11 A2995 RMK AO2 SLP142 T02170111= 201709010151 METAR KEWR 010151Z 32012KT 10SM FEW060 FEW120 BKN250 19/11 A2997 RMK AO2 SLP148 T01940111= 201709010251 METAR KEWR 010251Z 33011G18KT 10SM FEW100 SCT130 BKN250 20/10 A2998 RMK AO2 SLP153 T02000100 51018= 201709010351 METAR KEWR 010351Z 34013KT 10SM BKN100 BKN250 19/09 A3000 RMK AO2 SLP159 T01940094= 201709010451 METAR KEWR 010451Z 33012KT 10SM FEW100 BKN250 18/08 A3002 RMK AO2 SLP166 T01780083 402890161= 201709010551 METAR KEWR 010551Z 34013KT 10SM BKN250 17/07 A3003 RMK AO2 SLP167 T01720072 10228 20172 51014= 201709010651 METAR KEWR 010651Z 34014KT 10SM SCT250 16/07 A3003 RMK AO2 SLP168 T01610072= 201709010751 METAR KEWR 010751Z 33015KT 10SM FEW070 SCT250 16/06 A3005 RMK AO2 SLP175 T01560061= 201709010851 METAR KEWR 010851Z 34010KT 10SM FEW060 SCT250 14/04 A3007 RMK AO2 PK WND 33027/0815 SLP181 T01390039 53014= 201709010951 METAR KEWR 010951Z 34013G19KT 10SM SCT250 13/03 A3009 RMK AO2 SLP189 T01330033= 201709011051 METAR KEWR 011051Z 34014KT 10SM SCT250 13/03 A3010 RMK AO2 SLP193 T01280033= 201709011151 METAR KEWR 011151Z 33010KT 10SM SCT250 14/03 A3013 RMK AO2 SLP201 70003 T01390033 10172 20128 51020= 201709011251 METAR KEWR 011251Z 36010KT 10SM BKN250 16/03 A3013 RMK AO2 SLP203 T01560033= 201709011351 METAR KEWR 011351Z 32013KT 10SM BKN250 17/03 A3013 RMK AO2 SLP202 T01670028= 201709011451 METAR KEWR 011451Z 34008G19KT 10SM BKN250 18/02 A3014 RMK AO2 SLP206 T01830017 53005= 201709011551 METAR KEWR 011551Z 33014KT 10SM BKN250 19/01 A3013 RMK AO2 SLP204 T01890011= 201709011651 METAR KEWR 011651Z 31010G16KT 10SM BKN250 21/02 A3012 RMK AO2 SLP200 T02060017= 201709011751 METAR KEWR 011751Z 29010G16KT 10SM FEW150 BKN250 21/02 A3011 RMK AO2 SLP194 T02110022 10217 20139 58011= 201709011851 METAR KEWR 011851Z 30011G20KT 260V330 10SM FEW180 BKN250 22/02 A3011 RMK AO2 SLP195 T02220017= 201709011951 METAR KEWR 011951Z 33013G21KT 10SM FEW180 BKN250 22/02 A3009 RMK AO2 SLP188 T02170022= 201709012051 METAR KEWR 012051Z 32014G18KT 10SM FEW170 SCT200 BKN250 21/02 A3009 RMK AO2 SLP189 T02110022 58005= 201709012151 METAR KEWR 012151Z 30009KT 10SM FEW170 SCT200 BKN250 21/04 A3010 RMK AO2 SLP190 T02110039= 201709012251 METAR KEWR 012251Z 33013KT 10SM FEW170 SCT200 BKN250 20/04 A3010 RMK AO2 SLP192 T02000039= 201709012351 METAR KEWR 012351Z 29007KT 10SM SCT180 BKN250 19/06 A3014 RMK AO2 SLP204 T01940056 10228 20183 53015= 201709020051 METAR KEWR 020051Z 29006KT 10SM FEW170 BKN220 BKN260 19/06 A3015 RMK AO2 SLP208 T01890061= 201709020151 METAR KEWR 020151Z 28005KT 10SM FEW170 BKN220 BKN260 17/07 A3016 RMK AO2 SLP212 T01720067= 201709020251 METAR KEWR 020251Z 32005KT 10SM FEW170 SCT220 SCT260 17/07 A3018 RMK AO2 SLP218 T01720067 53014= 201709020351 METAR KEWR 020351Z 33006KT 10SM FEW160 BKN240 16/06 A3018 RMK AO2 SLP219 T01610061= 201709020451 METAR KEWR 020451Z 01009KT 10SM FEW150 BKN240 15/06 A3019 RMK AO2 SLP223 T01500061 402280128= 201709020551 METAR KEWR 020551Z 02010KT 10SM SCT250 14/06 A3019 RMK AO2 SLP224 T01440061 10194 20139 53005= 201709020651 METAR KEWR 020651Z 02007KT 10SM FEW250 13/06 A3020 RMK AO2 SLP225 T01280061= 201709020751 METAR KEWR 020751Z 02008KT 10SM FEW240 13/07 A3018 RMK AO2 SLP219 T01280067= 201709020851 METAR KEWR 020851Z 02008KT 10SM FEW180 BKN250 12/06 A3020 RMK AO2 SLP227 T01170061 53003= 201709020951 METAR KEWR 020951Z 01010KT 10SM FEW180 BKN250 12/06 A3020 RMK AO2 SLP226 T01220061= 201709021051 METAR KEWR 021051Z 01009KT 10SM FEW150 SCT200 BKN250 12/07 A3022 RMK AO2 SLP234 T01170067= 201709021151 METAR KEWR 021151Z 01008KT 10SM FEW150 SCT190 BKN270 13/07 A3024 RMK AO2 SLP239 T01330072 10144 20094 53012= 201709021251 METAR KEWR 021251Z 02009KT 10SM FEW150 SCT190 OVC260 14/08 A3024 RMK AO2 SLP238 T01440078= 201709021351 METAR KEWR 021351Z 03005KT 10SM FEW140 BKN200 OVC260 16/08 A3026 RMK AO2 SLP245 T01560083= 201709021451 METAR KEWR 021451Z 06006KT 10SM FEW130 BKN190 OVC260 18/07 A3025 RMK AO2 SLP242 T01780072 50003= 201709021551 METAR KEWR 021551Z 08006KT 10SM FEW130 BKN190 OVC260 19/07 A3023 RMK AO2 SLP236 T01890072= 201709021651 METAR KEWR 021651Z 10007KT 10SM FEW130 BKN190 OVC260 19/08 A3021 RMK AO2 SLP230 T01890078= 201709021751 METAR KEWR 021751Z 11010KT 10SM FEW120 BKN190 OVC260 19/09 A3020 RMK AO2 SLP226 T01940094 10200 20133 56016= 201709021851 METAR KEWR 021851Z 09007KT 10SM SCT110 BKN190 OVC250 19/10 A3019 RMK AO2 SLP222 T01940100= 201709021951 METAR KEWR 021951Z 07008KT 040V110 10SM FEW085 SCT120 BKN190 OVC250 19/11 A3017 RMK AO2 SLP215 T01940106= 201709022051 METAR KEWR 022051Z 09007KT 10SM -RA SCT075 BKN120 OVC190 19/11 A3016 RMK AO2 RAB42 SLP213 P0000 60000 T01890106 56013= 201709022151 METAR KEWR 022151Z 10011G17KT 10SM -RA BKN050 BKN060 OVC120 18/11 A3014 RMK AO2 SLP206 P0000 T01830106= 201709022251 METAR KEWR 022251Z 09009KT 10SM -RA BKN055 OVC120 18/11 A3014 RMK AO2 RAE2159B31 SLP205 P0000 T01830111= 201709022351 METAR KEWR 022351Z 07007KT 4SM +RA SCT055 BKN070 OVC100 16/12 A3014 RMK AO2 SLP206 P0007 60007 T01610117 10194 20161 56007= 201709030051 METAR KEWR 030051Z 06008KT 4SM +RA BR SCT023 BKN028 OVC044 16/13 A3014 RMK AO2 SLP207 P0016 T01560133= 201709030151 METAR KEWR 030151Z 08006KT 6SM RA BR BKN009 OVC014 16/14 A3015 RMK AO2 SLP207 P0023 T01560144= 201709030251 METAR KEWR 030251Z 07011KT 7SM -RA SCT010 BKN021 OVC030 15/13 A3013 RMK AO2 SLP202 P0004 60043 T01500133 58003= 201709030351 METAR KEWR 030351Z 07008KT 8SM -RA FEW010 BKN015 OVC021 15/13 A3009 RMK AO2 RAE11B39 SLP190 P0000 T01500133= 201709030451 METAR KEWR 030451Z 06006KT 7SM -RA OVC009 16/14 A3008 RMK AO2 SLP184 P0010 T01560144 402000094= 201709030551 METAR KEWR 030551Z 07008KT 5SM -RA BR OVC007 16/14 A3005 RMK AO2 SLP174 P0000 60053 T01560144 10161 20150 56029= 201709030651 METAR KEWR 030651Z 06011KT 4SM -RA BR OVC006 16/15 A3001 RMK AO2 SLP161 P0001 T01560150= 201709030751 METAR KEWR 030751Z 05007KT 4SM -RA BR BKN006 OVC012 16/15 A3000 RMK AO2 SLP159 P0013 T01560150= 201709030851 METAR KEWR 030851Z 05008KT 7SM -DZ BKN004 BKN008 OVC014 16/15 A2997 RMK AO2 RAE49DZB49 SLP148 P0001 60015 T01560150 56026= 201709030951 METAR KEWR 030951Z 05006KT 4SM -RA BR OVC005 16/16 A2996 RMK AO2 DZE23RAB23 SLP143 P0000 T01610156= 201709031051 METAR KEWR 031051Z 05006KT 5SM -RA BR OVC005 17/16 A2994 RMK AO2 SLP139 P0001 T01670156= 201709031151 METAR KEWR 031151Z 06009KT 5SM -RA BR OVC004 17/16 A2993 RMK AO2 SLP133 P0001 60017 70077 T01670161 10167 20156 58015= 201709031251 METAR KEWR 031251Z 36006KT 1 1/2SM R04R/5000VP6000FT RA BR BKN003 BKN010 OVC040 16/16 A2991 RMK AO2 SFC VIS 2 1/2 SLP128 P0016 T01610161= 201709031351 METAR KEWR 031351Z 05007KT 6SM -RA BR BKN005 BKN017 OVC050 17/17 A2989 RMK AO2 SLP122 BKN005 V SCT P0012 T01670167= 201709031451 METAR KEWR 031451Z 35006KT 8SM -RA BKN008 BKN014 OVC027 18/17 A2988 RMK AO2 RAE14B49 SLP117 P0000 60028 T01780167 56016= 201709031551 METAR KEWR 031551Z 31008KT 10SM SCT007 OVC010 18/17 A2988 RMK AO2 RAE33 SLP118 P0003 T01830172= 201709031651 METAR KEWR 031651Z 26009KT 10SM BKN012 OVC037 20/17 A2988 RMK AO2 SLP116 T02000172= 201709031751 METAR KEWR 031751Z 27009KT 10SM SCT018 BKN023 OVC030 21/17 A2987 RMK AO2 SLP114 60031 T02060167 10206 20161 58003= 201709031851 METAR KEWR 031851Z 29011G19KT 10SM BKN023 OVC032 22/16 A2987 RMK AO2 SLP113 T02170161= 201709031951 METAR KEWR 031951Z 25011KT 10SM SCT025 BKN060 BKN095 22/16 A2986 RMK AO2 SLP109 T02170156= 201709032051 METAR KEWR 032051Z 27014KT 10SM SCT030 BKN050 BKN090 22/15 A2986 RMK AO2 SLP111 T02170150 55004= 201709032151 METAR KEWR 032151Z 26011KT 10SM FEW030 SCT050 SCT090 22/14 A2987 RMK AO2 SLP113 T02170139= 201709032251 METAR KEWR 032251Z 25008KT 10SM FEW035 BKN060 BKN080 21/14 A2987 RMK AO2 SLP115 T02110144= 201709032351 METAR KEWR 032351Z 25008KT 10SM FEW038 SCT090 BKN120 21/15 A2989 RMK AO2 SLP121 T02060150 10228 20206 53010= 201709040051 METAR KEWR 040051Z 25008KT 10SM FEW050 FEW120 19/14 A2990 RMK AO2 SLP125 T01940144= 201709040151 METAR KEWR 040151Z 23008KT 10SM FEW050 BKN090 19/14 A2992 RMK AO2 SLP130 T01890144= 201709040251 METAR KEWR 040251Z 26009KT 10SM FEW050 SCT090 19/15 A2993 RMK AO2 SLP134 T01890150 51013= 201709040351 METAR KEWR 040351Z 25008KT 10SM FEW090 18/14 A2993 RMK AO2 SLP133 T01780144= 201709040451 METAR KEWR 040451Z 25008KT 10SM CLR 17/14 A2993 RMK AO2 SLP134 T01720139 402280156= 201709040551 METAR KEWR 040551Z 24009KT 10SM CLR 17/13 A2993 RMK AO2 SLP135 T01670133 10206 20167 53001= 201709040651 METAR KEWR 040651Z 25004KT 10SM CLR 16/13 A2994 RMK AO2 SLP137 T01560128= 201709040751 METAR KEWR 040751Z 21007KT 10SM CLR 14/13 A2994 RMK AO2 SLP137 T01440128= 201709040851 METAR KEWR 040851Z 22006KT 10SM CLR 14/13 A2994 RMK AO2 SLP139 T01440128 53004= 201709040951 METAR KEWR 040951Z 25009KT 10SM CLR 16/13 A2996 RMK AO2 SLP144 T01560133= 201709041051 METAR KEWR 041051Z 27006KT 10SM CLR 16/13 A2997 RMK AO2 SLP148 T01610133= 201709041151 METAR KEWR 041151Z 25005KT 10SM FEW250 18/13 A2998 RMK AO2 SLP152 70031 T01780133 10178 20144 51013= 201709041251 METAR KEWR 041251Z 23006KT 10SM FEW250 20/14 A2998 RMK AO2 SLP152 T02000144= 201709041351 METAR KEWR 041351Z 21006KT 10SM SCT250 21/14 A2998 RMK AO2 SLP152 T02110144= 201709041451 METAR KEWR 041451Z 23009KT 10SM SCT250 23/14 A2998 RMK AO2 SLP152 T02280139 52000= 201709041551 METAR KEWR 041551Z 23013KT 10SM BKN250 25/12 A2997 RMK AO2 SLP147 T02500122= 201709041651 METAR KEWR 041651Z 21013G18KT 10SM BKN250 26/13 A2995 RMK AO2 SLP142 T02560133= 201709041751 METAR KEWR 041751Z 22012G20KT 10SM FEW050 SCT250 27/13 A2994 RMK AO2 SLP137 T02670133 10272 20178 56015= 201709041851 METAR KEWR 041851Z 22010G19KT 10SM FEW050 SCT250 28/13 A2991 RMK AO2 SLP129 T02780133= 201709041951 METAR KEWR 041951Z 22014G22KT 10SM FEW060 SCT250 28/12 A2990 RMK AO2 SLP124 T02780122= 201709042051 METAR KEWR 042051Z 22014G26KT 10SM FEW060 26/13 A2987 RMK AO2 PK WND 20026/2046 SLP116 T02610133 56022= 201709042151 METAR KEWR 042151Z 22015KT 10SM FEW050 26/13 A2986 RMK AO2 SLP112 T02610128= 201709042251 METAR KEWR 042251Z 21017G25KT 10SM FEW050 FEW250 26/12 A2986 RMK AO2 SLP110 T02560122= 201709042351 METAR KEWR 042351Z 18009KT 10SM FEW250 24/14 A2986 RMK AO2 SLP110 T02440139 10278 20244 55006= 201709050051 METAR KEWR 050051Z 19008KT 10SM FEW250 23/14 A2986 RMK AO2 SLP112 T02330139= 201709050151 METAR KEWR 050151Z 18007KT 10SM CLR 22/15 A2986 RMK AO2 SLP110 T02220150= 201709050251 METAR KEWR 050251Z 18008KT 10SM FEW250 21/16 A2986 RMK AO2 SLP110 T02110156 50000= 201709050351 METAR KEWR 050351Z 19010KT 10SM FEW250 21/15 A2985 RMK AO2 SLP108 T02110150= 201709050451 METAR KEWR 050451Z 19008KT 10SM FEW250 21/16 A2984 RMK AO2 SLP105 T02060156 402780144= 201709050551 METAR KEWR 050551Z 17005KT 10SM FEW250 20/16 A2983 RMK AO2 SLP100 T02000161 10244 20200 58010= 201709050651 METAR KEWR 050651Z 19008KT 10SM CLR 20/17 A2983 RMK AO2 SLP100 T02000167= 201709050751 METAR KEWR 050751Z 20007KT 10SM SCT250 20/17 A2982 RMK AO2 SLP096 T02000172= 201709050851 METAR KEWR 050851Z 22006KT 10SM FEW250 20/18 A2981 RMK AO2 SLP093 T02000178 58006= 201709050951 METAR KEWR 050951Z 23006KT 10SM FEW250 20/17 A2982 RMK AO2 SLP098 T02000172= 201709051051 METAR KEWR 051051Z 25007KT 10SM BKN065 BKN250 21/18 A2982 RMK AO2 SLP098 T02060178= 201709051151 METAR KEWR 051151Z 23008KT 10SM FEW050 SCT065 BKN080 21/18 A2982 RMK AO2 SLP098 T02110183 10211 20194 51005= 201709051251 METAR KEWR 051251Z 23015KT 10SM FEW050 SCT065 SCT080 BKN250 23/18 A2981 RMK AO2 SLP093 T02280183= 201709051351 METAR KEWR 051351Z 23010KT 10SM SCT055 SCT250 25/19 A2981 RMK AO2 SLP095 T02500189= 201709051451 METAR KEWR 051451Z 19005KT 10SM SCT055 27/19 A2980 RMK AO2 SLP092 T02720194 56006= 201709051551 METAR KEWR 051551Z 23005KT 10SM FEW035 SCT075 BKN250 28/20 A2979 RMK AO2 SLP086 T02830200= 201709051651 METAR KEWR 051651Z 17008KT 10SM FEW035 SCT250 29/20 A2977 RMK AO2 SLP080 T02890200= 201709051751 METAR KEWR 051751Z 18011KT 10SM SCT039 SCT080 SCT250 29/19 A2975 RMK AO2 SLP072 T02890194 10294 20211 58020= 201709051851 METAR KEWR 051851Z 18009G15KT 10SM SCT040 BKN250 30/19 A2973 RMK AO2 SLP066 T03000194= 201709051951 METAR KEWR 051951Z 18013G19KT 10SM SCT045 BKN250 31/19 A2972 RMK AO2 SLP064 T03060194= 201709052051 METAR KEWR 052051Z 19014G19KT 10SM FEW045 SCT250 30/19 A2971 RMK AO2 LTG DSNT N AND NW SLP059 T03000189 56014= 201709052151 METAR KEWR 052151Z 19012G21KT 10SM FEW045 SCT250 29/18 A2972 RMK AO2 LTG DSNT NW SLP065 CB DSNT NW MOV NE T02890183= 201709052251 METAR KEWR 052251Z 22011KT 10SM FEW045 FEW120 BKN250 28/18 A2975 RMK AO2 LTG DSNT W-N SLP075 CB DSNT NW MOV NE T02830183= 201709052351 METAR KEWR 052351Z 28024G34KT 3SM +TSRA FEW015 BKN045CB BKN120 OVC250 23/18 A2980 RMK AO2 PK WND 28034/2349 WSHFT 2330 LTG DSNT N RAB44 TSB44 PRESRR SLP091 OCNL LTGICCG VC NW TS VC NW MOV NE 60000 T02330183 10306 20233 51026 PNO= 201709060051 METAR KEWR 060051Z 25005KT 10SM FEW025 SCT045 BKN110 BKN250 22/19 A2980 RMK AO2 WSHFT 2338 RAE29 TSE29 SLP091 P0003 T02170189 $= 201709060151 METAR KEWR 060151Z 23008KT 10SM FEW045 OVC100 22/18 A2984 RMK AO2 SLP104 T02170183 $= 201709060251 METAR KEWR 060251Z 21005KT 10SM FEW050 BKN100 OVC130 21/18 A2983 RMK AO2 SLP101 60003 T02110183 50010 $= 201709060351 METAR KEWR 060351Z 22007KT 10SM SCT100 BKN130 BKN230 21/17 A2983 RMK AO2 SLP099 T02110167 $= 201709060451 METAR KEWR 060451Z 23003KT 10SM SCT080 BKN110 BKN230 21/17 A2984 RMK AO2 SLP105 T02110167 403060194 $= 201709060551 METAR KEWR 060551Z 26007KT 10SM BKN070 BKN110 OVC200 21/17 A2985 RMK AO2 SLP106 60003 T02110167 10228 20200 53005 $= 201709060651 METAR KEWR 060651Z 31003KT 10SM FEW060 21/17 A2982 RMK AO2 SLP097 T02060172 $= 201709060751 METAR KEWR 060751Z 00000KT 10SM SCT060 BKN120 21/17 A2981 RMK AO2 SLP094 T02060172 $= 201709060851 METAR KEWR 060851Z 00000KT 10SM BKN050 BKN085 OVC120 21/18 A2982 RMK AO2 SLP096 T02060178 55010 $= 201709060951 METAR KEWR 060951Z 08003KT 8SM RA SCT040 BKN070 OVC100 21/18 A2982 RMK AO2 RAB45 SLP097 P0002 T02110183 $= 201709061051 METAR KEWR 061051Z 31003KT 9SM FEW026 BKN035 BKN065 OVC130 21/19 A2983 RMK AO2 LTG DSNT SW RAE03B21E33 SLP101 P0000 T02060189 $= 201709061151 METAR KEWR 061151Z 29004KT 6SM -RA BR SCT026 BKN040 OVC060 21/19 A2984 RMK AO2 RAB09 TSE25 SLP105 P0001 60003 70006 T02060189 10211 20206 50008 $= 201709061251 METAR KEWR 061251Z 32008KT 7SM SCT009 SCT055 BKN130 21/19 A2984 RMK AO2 RAE17 SLP104 P0001 T02110189 $= 201709061351 METAR KEWR 061351Z 34014G18KT 9SM -RA BKN012 BKN023 OVC031 20/17 A2988 RMK AO2 RAB50 SLP118 P0000 T02000172 $= 201709061451 METAR KEWR 061451Z 34012KT 10SM FEW015 OVC020 18/15 A2990 RMK AO2 RAE49 SLP123 P0000 60001 T01830150 53019= 201709061551 METAR KEWR 061551Z 36015KT 10SM SCT014 BKN025 OVC070 18/16 A2988 RMK AO2 RAB10E50 SLP118 SCT V BKN P0000 T01830161= 201709061651 METAR KEWR 061651Z 36014KT 10SM FEW013 OVC025 18/14 A2989 RMK AO2 RAB27E40 SLP121 P0000 T01780139= 201709061751 METAR KEWR 061751Z 01011KT 5SM RA FEW013 OVC020 17/14 A2989 RMK AO2 RAB1658 SLP121 P0001 60002 T01720144 10217 20172 56002= 201709061851 METAR KEWR 061851Z 01011KT 10SM -RA SCT012 OVC018 17/15 A2988 RMK AO2 SLP116 P0000 T01720150= 201709061951 METAR KEWR 061951Z 34013KT 9SM BKN015 OVC022 18/16 A2989 RMK AO2 RAB10E19 SLP120 CIG 013V018 P0001 T01780156 $= 201709062051 METAR KEWR 062051Z 35014KT 10SM BKN015 OVC022 18/14 A2989 RMK AO2 SLP120 60001 T01780144 $= 201709062151 METAR KEWR 062151Z 05012KT 10SM -RA BKN015 OVC025 18/14 A2988 RMK AO2 RAB15E31B49 SLP117 P0000 T01780144 $= 201709062251 METAR KEWR 062251Z 02009KT 10SM -RA FEW015 SCT025 OVC045 17/14 A2988 RMK AO2 RAE02B27 SLP118 P0000 T01720144 $= 201709062351 METAR KEWR 062351Z 02005KT 9SM -RA FEW025 SCT035 OVC055 17/15 A2989 RMK AO2 SLP121 P0003 6//// T01670150 10178 20167 53001 $= 201709070051 METAR KEWR 070051Z 36005KT 6SM RA BR FEW015 OVC060 17/16 A2990 RMK AO2 SLP124 P0004 T01670156 $= 201709070151 METAR KEWR 070151Z 36008KT 6SM RA BR FEW010 OVC065 16/16 A2987 RMK AO2 PRESFR SLP114 P0014 T01610156 $= 201709070251 METAR KEWR 070251Z 32006KT 6SM -RA BR SCT008 BKN070 OVC100 16/16 A2988 RMK AO2 SLP119 P0004 60022 T01610156 55002 $= 201709070351 METAR KEWR 070351Z 05006KT 7SM -RA SCT008 BKN070 OVC100 16/16 A2985 RMK AO2 SLP108 P0005 T01610156 $= 201709070451 METAR KEWR 070451Z 04007KT 8SM BKN008 OVC080 16/16 A2983 RMK AO2 RAE46 SLP100 P0001 T01610156 402170161 $= 201709070551 METAR KEWR 070551Z 30004KT 8SM -RA BKN008 OVC080 17/16 A2983 RMK AO2 RAB10 SLP101 P0000 60028 T01720161 10172 20161 55018 $= 201709070651 METAR KEWR 070651Z 27009KT 5SM -RA BR BKN006 BKN010 OVC014 16/16 A2984 RMK AO2 SLP104 P0002 T01610156 $= 201709070751 METAR KEWR 070751Z 27008G14KT 5SM BR BKN006 BKN010 OVC014 16/15 A2983 RMK AO2 RAE07 SLP102 P0001 T01610150 $= 201709070851 METAR KEWR 070851Z 27008KT 10SM FEW008 SCT021 BKN037 OVC130 16/15 A2984 RMK AO2 SLP104 60003 T01610150 51003 $= 201709070951 METAR KEWR 070951Z 26006KT 10SM FEW021 FEW037 OVC065 16/14 A2985 RMK AO2 SLP108 T01610144 $= 201709071051 METAR KEWR 071051Z 22006KT 10SM FEW019 FEW065 15/14 A2987 RMK AO2 SLP114 T01500139 $= 201709071151 METAR KEWR 071151Z 23007KT 10SM FEW019 FEW065 16/14 A2988 RMK AO2 SLP117 60003 7//// T01610144 10172 20150 51014 $= 201709071251 METAR KEWR 071251Z 23008KT 10SM BKN011 16/13 A2989 RMK AO2 SLP121 T01610133 $= 201709071351 METAR KEWR 071351Z 26009G15KT 10SM BKN013 17/13 A2990 RMK AO2 SLP123 T01720133= 201709071451 METAR KEWR 071451Z 26012KT 10SM BKN019 19/13 A2991 RMK AO2 SLP126 T01890133 51009= 201709071551 METAR KEWR 071551Z 24013KT 10SM BKN023 19/13 A2991 RMK AO2 SLP128 T01940133= 201709071651 METAR KEWR 071651Z 21008KT 10SM SCT025 21/13 A2990 RMK AO2 SLP125 SCT V BKN T02060133= 201709071751 METAR KEWR 071751Z 23011KT 10SM SCT031 22/12 A2989 RMK AO2 SLP122 T02170122 10222 20161 58004= 201709071851 METAR KEWR 071851Z 26013KT 10SM SCT035 22/12 A2988 RMK AO2 SLP118 T02220117= 201709071951 METAR KEWR 071951Z 23013KT 10SM FEW048 SCT095 23/11 A2988 RMK AO2 SLP116 T02280106= 201709072051 METAR KEWR 072051Z 26014KT 10SM SCT055 SCT095 23/09 A2988 RMK AO2 SLP119 T02330094 55003= 201709072151 METAR KEWR 072151Z 25016G25KT 10SM FEW055 FEW095 22/09 A2990 RMK AO2 SLP124 T02220089= 201709072251 METAR KEWR 072251Z 25012KT 10SM FEW055 21/09 A2992 RMK AO2 SLP132 T02110089= 201709072351 METAR KEWR 072351Z 24008KT 10SM FEW055 20/09 A2994 RMK AO2 SLP139 T02000094 10233 20200 53020 $= 201709080051 METAR KEWR 080051Z 24008KT 10SM CLR 19/09 A2997 RMK AO2 SLP148 T01940094 $= 201709080151 METAR KEWR 080151Z 23008KT 10SM CLR 18/11 A2999 RMK AO2 SLP156 T01830106 $= 201709080251 METAR KEWR 080251Z 27006KT 10SM FEW060 18/11 A3000 RMK AO2 SLP158 T01780106 51019 $= 201709080351 METAR KEWR 080351Z 19006KT 10SM FEW060 16/11 A3002 RMK AO2 SLP166 T01610106 $= 201709080451 METAR KEWR 080451Z 26006KT 10SM FEW060 SCT090 16/11 A3004 RMK AO2 SLP171 T01610106 402330150 $= 201709080551 METAR KEWR 080551Z 25006KT 10SM FEW080 15/11 A3003 RMK AO2 SLP170 T01500111 10206 20139 50012 $= 201709080651 METAR KEWR 080651Z 25005KT 10SM CLR 14/11 A3005 RMK AO2 SLP174 T01440106 $= 201709080751 METAR KEWR 080751Z 22005KT 10SM CLR 12/10 A3005 RMK AO2 SLP176 T01220100 $= 201709080851 METAR KEWR 080851Z 23005KT 10SM CLR 14/11 A3006 RMK AO2 SLP179 T01390106 51009 $= 201709080951 METAR KEWR 080951Z 21004KT 10SM FEW250 12/10 A3007 RMK AO2 SLP180 T01220100 $= 201709081051 METAR KEWR 081051Z 23006KT 10SM FEW070 SCT250 13/11 A3009 RMK AO2 SLP187 T01280106 $= 201709081151 METAR KEWR 081151Z 26007KT 10SM FEW070 SCT250 15/11 A3009 RMK AO2 SLP189 T01500106 10150 20122 53009 $= 201709081251 METAR KEWR 081251Z 27011KT 10SM FEW070 SCT250 17/11 A3010 RMK AO2 SLP191 T01720106 $= 201709081351 METAR KEWR 081351Z 25012KT 10SM FEW035 SCT250 19/10 A3010 RMK AO2 SLP193 T01890100= 201709081451 METAR KEWR 081451Z 26010KT 10SM FEW040 SCT250 20/10 A3010 RMK AO2 SLP193 T02000100 50004= 201709081551 METAR KEWR 081551Z 26010KT 10SM SCT045 BKN250 22/10 A3010 RMK AO2 SLP192 T02170100= 201709081651 METAR KEWR 081651Z 27012G22KT 10SM SCT045 SCT250 22/10 A3010 RMK AO2 SLP193 T02220100= 201709081751 METAR KEWR 081751Z 27014G20KT 10SM SCT048 BKN055 23/09 A3010 RMK AO2 SLP192 T02280094 10228 20150 57000= 201709081851 METAR KEWR 081851Z 26009KT 10SM SCT050 SCT060 23/09 A3009 RMK AO2 SLP190 T02330089= 201709081951 METAR KEWR 081951Z VRB03G14KT 10SM SCT050 BKN070 22/09 A3010 RMK AO2 SLP192 T02220089= 201709082051 METAR KEWR 082051Z 26012KT 10SM FEW050 SCT070 BKN090 22/08 A3010 RMK AO2 SLP191 T02220083 56001= 201709082151 METAR KEWR 082151Z 28010KT 10SM FEW050 SCT085 22/09 A3011 RMK AO2 SLP195 T02170089= 201709082251 METAR KEWR 082251Z 26011KT 10SM FEW050 SCT085 21/08 A3011 RMK AO2 SLP197 VCSH W-NW T02060083= 201709082351 METAR KEWR 082351Z 32012G22KT 10SM FEW050 BKN090 19/10 A3014 RMK AO2 PK WND 28026/2338 SLP206 T01890100 10233 20189 53015= 201709090051 METAR KEWR 090051Z 29007KT 10SM FEW055 BKN085 18/08 A3016 RMK AO2 SLP212 T01830083= 201709090151 METAR KEWR 090151Z 28010KT 10SM FEW085 17/10 A3018 RMK AO2 SLP218 T01670100= 201709090251 METAR KEWR 090251Z 28006KT 10SM FEW080 16/11 A3018 RMK AO2 SLP218 T01560106 51013= 201709090351 METAR KEWR 090351Z 32004KT 10SM CLR 16/09 A3018 RMK AO2 SLP220 T01560094= 201709090451 METAR KEWR 090451Z 33008KT 10SM CLR 15/09 A3020 RMK AO2 SLP224 T01500094 402330122= 201709090551 METAR KEWR 090551Z 33007KT 10SM CLR 14/09 A3019 RMK AO2 SLP224 T01440094 10189 20144 50006= 201709090651 METAR KEWR 090651Z 32004KT 10SM CLR 14/09 A3020 RMK AO2 SLP226 T01390094= 201709090751 METAR KEWR 090751Z 34005KT 10SM CLR 13/09 A3020 RMK AO2 SLP225 T01330094= 201709090851 METAR KEWR 090851Z 35010KT 10SM CLR 13/09 A3021 RMK AO2 SLP228 T01330094 53004= 201709090951 METAR KEWR 090951Z 36008KT 10SM CLR 13/09 A3022 RMK AO2 SLP233 T01280094= 201709091051 METAR KEWR 091051Z 36006KT 10SM CLR 13/09 A3025 RMK AO2 SLP241 T01280094= 201709091151 METAR KEWR 091151Z 34009KT 10SM CLR 15/09 A3025 RMK AO2 SLP244 T01500089 10150 20122 51017= 201709091251 METAR KEWR 091251Z 35010KT 10SM CLR 17/09 A3026 RMK AO2 SLP247 T01670089= 201709091351 METAR KEWR 091351Z 34008KT 10SM FEW040 18/08 A3028 RMK AO2 SLP252 T01830078= 201709091451 METAR KEWR 091451Z 33009KT 10SM FEW040 19/08 A3027 RMK AO2 SLP251 T01940078 50007= 201709091551 METAR KEWR 091551Z 29011G15KT 10SM FEW040 21/07 A3027 RMK AO2 SLP249 T02060067= 201709091651 METAR KEWR 091651Z 30013KT 10SM SCT040 22/08 A3026 RMK AO2 SLP248 T02170078= 201709091751 METAR KEWR 091751Z 32009KT 10SM SCT048 22/07 A3026 RMK AO2 SLP245 T02170072 10217 20150 58006= 201709091851 METAR KEWR 091851Z 31014G20KT 10SM SCT050 22/08 A3025 RMK AO2 SLP242 T02220078= 201709091951 METAR KEWR 091951Z 29010G20KT 10SM BKN050 21/07 A3024 RMK AO2 SLP239 T02060072= 201709092051 METAR KEWR 092051Z 31014G23KT 10SM BKN055 21/08 A3025 RMK AO2 SLP241 T02060083 55003= 201709092151 METAR KEWR 092151Z 32014G23KT 10SM SCT050 19/08 A3026 RMK AO2 SLP245 T01940083= 201709092251 METAR KEWR 092251Z 34014KT 10SM FEW050 18/08 A3026 RMK AO2 SLP247 T01830078= 201709092351 METAR KEWR 092351Z 31008KT 10SM FEW050 17/08 A3027 RMK AO2 SLP250 T01720083 10222 20172 51009= 201709100051 METAR KEWR 100051Z 32007KT 10SM FEW050 17/09 A3029 RMK AO2 SLP256 T01670089= 201709100151 METAR KEWR 100151Z 33010KT 10SM FEW050 16/09 A3029 RMK AO2 SLP255 T01610089= 201709100251 METAR KEWR 100251Z 34009KT 10SM FEW050 16/09 A3030 RMK AO2 SLP258 T01560094 51008= 201709100351 METAR KEWR 100351Z 34009KT 10SM SCT050 16/09 A3030 RMK AO2 SLP259 T01560094= 201709100451 METAR KEWR 100451Z 36008KT 10SM SCT060 15/09 A3030 RMK AO2 SLP261 T01500094 402220122= 201709100551 METAR KEWR 100551Z 36010KT 10SM FEW060 14/10 A3030 RMK AO2 SLP261 T01440100 10172 20144 51003= 201709100651 METAR KEWR 100651Z 01009KT 10SM FEW060 14/10 A3030 RMK AO2 SLP259 T01390100= 201709100751 METAR KEWR 100751Z 35011KT 10SM FEW060 14/10 A3030 RMK AO2 SLP260 T01440100= 201709100851 METAR KEWR 100851Z 01007KT 10SM FEW060 14/10 A3031 RMK AO2 SLP263 T01390100 53002= 201709100951 METAR KEWR 100951Z 36009KT 10SM FEW060 13/10 A3033 RMK AO2 SLP269 T01330100= 201709101051 METAR KEWR 101051Z 01009KT 10SM CLR 14/10 A3035 RMK AO2 SLP276 T01390100= 201709101151 METAR KEWR 101151Z 01009KT 10SM CLR 16/10 A3037 RMK AO2 SLP282 T01560100 10156 20128 53019= 201709101251 METAR KEWR 101251Z 02009KT 10SM CLR 17/11 A3037 RMK AO2 SLP282 T01720106= 201709101351 METAR KEWR 101351Z 02012KT 10SM FEW035 18/11 A3037 RMK AO2 SLP284 T01830106= 201709101451 METAR KEWR 101451Z 02010KT 10SM FEW045 20/09 A3036 RMK AO2 SLP281 T02000094 58001= 201709101551 METAR KEWR 101551Z 01014KT 10SM SCT045 21/09 A3036 RMK AO2 SLP280 T02110089= 201709101651 METAR KEWR 101651Z 36013G22KT 10SM SCT045 22/08 A3036 RMK AO2 SLP279 T02170083= 201709101751 METAR KEWR 101751Z 02008G19KT 10SM SCT050 23/09 A3035 RMK AO2 SLP275 T02280089 10228 20156 58006= 201709101851 METAR KEWR 101851Z 36010G18KT 10SM SCT050 23/07 A3033 RMK AO2 SLP270 T02330072= 201709101951 METAR KEWR 101951Z 02012G17KT 10SM SCT050 23/07 A3034 RMK AO2 SLP272 T02280067= 201709102051 METAR KEWR 102051Z 02010KT 10SM SCT055 22/07 A3034 RMK AO2 SLP273 T02170067 55002= 201709102151 METAR KEWR 102151Z 36010KT 10SM FEW060 22/07 A3034 RMK AO2 SLP272 T02220072= 201709102251 METAR KEWR 102251Z 03006KT 10SM FEW060 21/07 A3034 RMK AO2 SLP272 T02060072= 201709102351 METAR KEWR 102351Z 04006KT 10SM FEW060 18/08 A3034 RMK AO2 SLP272 T01830078 10239 20183 56001= 201709110051 METAR KEWR 110051Z 04003KT 10SM FEW060 19/07 A3035 RMK AO2 SLP277 T01890067= 201709110151 METAR KEWR 110151Z 31007KT 10SM CLR 19/08 A3035 RMK AO2 SLP278 T01940083= 201709110251 METAR KEWR 110251Z 35006KT 10SM CLR 18/09 A3036 RMK AO2 SLP279 T01780089 51007= 201709110351 METAR KEWR 110351Z 02006KT 10SM CLR 16/10 A3036 RMK AO2 SLP279 T01560100= 201709110451 METAR KEWR 110451Z 02008KT 10SM CLR 14/09 A3035 RMK AO2 SLP277 T01390094 402390128= 201709110551 METAR KEWR 110551Z 01005KT 10SM CLR 14/10 A3034 RMK AO2 SLP272 T01390100 10200 20139 58007= 201709110651 METAR KEWR 110651Z 02006KT 10SM CLR 13/09 A3032 RMK AO2 SLP267 T01330094= 201709110751 METAR KEWR 110751Z 01003KT 10SM CLR 14/09 A3032 RMK AO2 SLP267 T01390094= 201709110851 METAR KEWR 110851Z 00000KT 10SM CLR 14/09 A3033 RMK AO2 SLP269 T01390094 55003= 201709110951 METAR KEWR 110951Z 28003KT 10SM FEW250 13/09 A3033 RMK AO2 SLP270 T01280089= 201709111051 METAR KEWR 111051Z 32005KT 10SM BKN250 13/09 A3035 RMK AO2 SLP277 T01330089= 201709111151 METAR KEWR 111151Z 29004KT 10SM BKN250 15/09 A3035 RMK AO2 SLP278 T01500094 10150 20117 52009= 201709111251 METAR KEWR 111251Z 02006KT 10SM FEW090 BKN250 17/09 A3034 RMK AO2 SLP272 T01720089= 201709111351 METAR KEWR 111351Z 01008KT 10SM BKN250 19/09 A3034 RMK AO2 SLP273 T01890094= 201709111451 METAR KEWR 111451Z 03009KT 10SM BKN250 20/09 A3032 RMK AO2 SLP265 T02000089 58013= 201709111551 METAR KEWR 111551Z 36007KT 10SM BKN250 22/08 A3028 RMK AO2 SLP254 T02170083= 201709111651 METAR KEWR 111651Z VRB04KT 10SM SCT250 23/07 A3026 RMK AO2 SLP246 T02330067= 201709111751 METAR KEWR 111751Z VRB06KT 10SM SCT250 24/08 A3023 RMK AO2 SLP237 T02440078 10244 20150 56028= 201709111851 METAR KEWR 111851Z 29009G16KT 10SM BKN250 26/08 A3021 RMK AO2 SLP229 T02560078= 201709111951 METAR KEWR 111951Z VRB06KT 10SM BKN250 26/05 A3020 RMK AO2 SLP225 T02560050= 201709112051 METAR KEWR 112051Z 32008KT 10SM BKN250 26/06 A3017 RMK AO2 SLP216 T02610056 58021= 201709112151 METAR KEWR 112151Z 33006KT 10SM BKN250 25/07 A3015 RMK AO2 SLP210 T02500067 $= 201709112251 METAR KEWR 112251Z 35009KT 10SM BKN250 24/06 A3015 RMK AO2 SLP207 T02390056 $= 201709112351 METAR KEWR 112351Z 35006KT 10SM FEW200 BKN250 22/07 A3015 RMK AO2 SLP207 T02220072 10261 20222 56008 $= 201709120051 METAR KEWR 120051Z 31005KT 10SM FEW200 BKN250 22/08 A3016 RMK AO2 SLP211 T02220078 $= 201709120151 METAR KEWR 120151Z 31004KT 10SM FEW200 BKN250 22/08 A3014 RMK AO2 SLP206 T02170083 $= 201709120251 METAR KEWR 120251Z 00000KT 10SM BKN250 19/09 A3014 RMK AO2 SLP205 T01890094 58002 $= 201709120351 METAR KEWR 120351Z 00000KT 10SM BKN250 19/10 A3013 RMK AO2 SLP201 T01890100 $= 201709120451 METAR KEWR 120451Z 00000KT 10SM BKN250 18/11 A3011 RMK AO2 SLP197 T01780106 402610117 $= 201709120551 METAR KEWR 120551Z 00000KT 10SM BKN250 17/11 A3010 RMK AO2 SLP192 T01720106 10228 20172 58013 $= 201709120651 METAR KEWR 120651Z 26004KT 10SM SCT250 17/11 A3007 RMK AO2 SLP182 T01670111 $= 201709120751 METAR KEWR 120751Z 00000KT 10SM SCT250 16/11 A3007 RMK AO2 SLP183 T01610111 $= 201709120851 METAR KEWR 120851Z 02006KT 10SM FEW200 BKN250 14/11 A3006 RMK AO2 SLP179 T01390111 56013 $= 201709120951 METAR KEWR 120951Z 02003KT 10SM FEW200 BKN250 14/12 A3006 RMK AO2 SLP178 T01440117 $= 201709121051 METAR KEWR 121051Z 01004KT 10SM FEW220 BKN250 15/12 A3006 RMK AO2 SLP178 T01500117 $= 201709121151 METAR KEWR 121151Z 02005KT 10SM FEW220 BKN250 16/13 A3005 RMK AO2 SLP177 T01610128 10178 20139 58003 $= 201709121251 METAR KEWR 121251Z 04005KT 10SM BKN250 18/13 A3005 RMK AO2 SLP174 T01830128 $= 201709121351 METAR KEWR 121351Z 35005KT 10SM BKN250 21/12 A3005 RMK AO2 SLP176 T02060122= 201709121451 METAR KEWR 121451Z 30004KT 10SM BKN250 23/12 A3004 RMK AO2 SLP172 T02280117 58004= 201709121551 METAR KEWR 121551Z 00000KT 10SM FEW220 BKN250 25/12 A3003 RMK AO2 SLP169 T02500117= 201709121651 METAR KEWR 121651Z 36006KT 10SM FEW220 BKN250 27/12 A3001 RMK AO2 SLP161 T02670117= 201709121751 METAR KEWR 121751Z VRB05KT 10SM BKN250 27/12 A2999 RMK AO2 SLP155 T02670117 10267 20161 58018= 201709121851 METAR KEWR 121851Z 28007KT 10SM BKN250 28/11 A2998 RMK AO2 SLP150 T02780106= 201709121951 METAR KEWR 121951Z 00000KT 10SM FEW200 BKN250 28/11 A2995 RMK AO2 SLP143 T02780111= 201709122051 METAR KEWR 122051Z 26007KT 10SM FEW200 BKN250 28/13 A2993 RMK AO2 SLP135 T02780128 58020= 201709122151 METAR KEWR 122151Z 27007KT 10SM FEW200 BKN250 27/12 A2993 RMK AO2 SLP135 T02670122= 201709122251 METAR KEWR 122251Z 26006KT 10SM FEW200 BKN250 26/12 A2992 RMK AO2 SLP132 T02560122= 201709122351 METAR KEWR 122351Z 23008KT 10SM FEW200 BKN250 24/14 A2992 RMK AO2 SLP132 T02390139 10278 20239 56003= 201709130051 METAR KEWR 130051Z 24009KT 10SM FEW200 BKN250 23/14 A2993 RMK AO2 SLP133 T02330144= 201709130151 METAR KEWR 130151Z 23008KT 10SM BKN250 22/14 A2992 RMK AO2 SLP131 T02220144= 201709130251 METAR KEWR 130251Z 27005KT 10SM BKN250 21/15 A2992 RMK AO2 SLP131 T02110150 58001= 201709130351 METAR KEWR 130351Z 24005KT 10SM BKN250 19/15 A2992 RMK AO2 SLP130 T01940150= 201709130451 METAR KEWR 130451Z 27004KT 10SM BKN250 18/14 A2991 RMK AO2 SLP128 T01830144 402780139= 201709130551 METAR KEWR 130551Z 28003KT 10SM BKN250 18/14 A2992 RMK AO2 SLP131 T01780144 10239 20172 55001= 201709130651 METAR KEWR 130651Z 23004KT 10SM SCT250 17/15 A2992 RMK AO2 SLP131 T01720150= 201709130751 METAR KEWR 130751Z 21003KT 10SM SCT250 17/14 A2991 RMK AO2 SLP128 T01670144= 201709130851 METAR KEWR 130851Z 21004KT 10SM SCT250 15/14 A2992 RMK AO2 SLP130 T01500139 55001= 201709130951 METAR KEWR 130951Z 23004KT 10SM SCT250 16/14 A2992 RMK AO2 SLP133 T01610144= 201709131051 METAR KEWR 131051Z 20004KT 10SM SCT160 SCT250 16/14 A2993 RMK AO2 SLP135 T01560139= 201709131151 METAR KEWR 131151Z 28003KT 10SM SCT160 SCT250 17/14 A2994 RMK AO2 SLP137 T01670144 10183 20150 51007= 201709131251 METAR KEWR 131251Z 21003KT 10SM SCT180 SCT250 20/14 A2993 RMK AO2 SLP135 T02000144= 201709131351 METAR KEWR 131351Z VRB04KT 10SM SCT180 SCT250 23/13 A2992 RMK AO2 SLP131 T02330133= 201709131451 METAR KEWR 131451Z 28006KT 10SM FEW090 SCT180 SCT250 26/12 A2992 RMK AO2 SLP130 T02610117 56007= 201709131551 METAR KEWR 131551Z 24006KT 10SM FEW075 FEW180 28/14 A2990 RMK AO2 SLP125 T02780139= 201709131651 METAR KEWR 131651Z 22008KT 10SM FEW035 SCT090 BKN150 BKN250 27/16 A2989 RMK AO2 SLP122 T02720161= 201709131751 METAR KEWR 131751Z 24012KT 10SM SCT050 BKN150 BKN250 27/16 A2988 RMK AO2 SLP119 T02670161 10289 20167 56011= 201709131851 METAR KEWR 131851Z 24011KT 10SM SCT045 SCT100 BKN140 26/17 A2987 RMK AO2 SLP113 CB W MOV NE VCSH W T02610167= 201709131951 METAR KEWR 131951Z 26007KT 5SM R04R/4000VP6000FT -RA BR FEW025 BKN045 OVC080 22/20 A2987 RMK AO2 RAB06 SLP115 VIS SE 2 1/2 P0013 T02170200= 201709132051 METAR KEWR 132051Z 18004KT 6SM -RA BR SCT018 BKN038 OVC095 22/21 A2986 RMK AO2 SLP112 P0004 60017 T02170206 56007= 201709132151 METAR KEWR 132151Z 18005KT 10SM SCT009 SCT018 OVC029 23/21 A2987 RMK AO2 RAE05 SLP114 P0000 T02280206= 201709132251 METAR KEWR 132251Z 15003KT 10SM FEW009 OVC015 23/21 A2986 RMK AO2 SLP112 T02280206= 201709132351 METAR KEWR 132351Z 00000KT 10SM FEW008 BKN014 OVC019 23/21 A2987 RMK AO2 DZB22E49 SLP113 P0000 60017 T02280206 10272 20217 51001= 201709140051 METAR KEWR 140051Z 18005KT 10SM FEW008 BKN012 OVC020 23/21 A2988 RMK AO2 SLP116 T02280211= 201709140151 METAR KEWR 140151Z 20006KT 10SM SCT007 OVC012 22/21 A2987 RMK AO2 SLP114 T02220211 $= 201709140251 METAR KEWR 140251Z 20007KT 10SM SCT009 BKN014 OVC040 22/21 A2988 RMK AO2 SLP116 T02220206 51003 $= 201709140351 METAR KEWR 140351Z 00000KT 10SM BKN009 BKN014 BKN040 22/21 A2987 RMK AO2 SLP115 T02220211 $= 201709140451 METAR KEWR 140451Z 23004KT 10SM BKN009 BKN017 BKN040 22/21 A2987 RMK AO2 SLP114 T02170206 402890150 $= 201709140551 METAR KEWR 140551Z 24009KT 10SM BKN009 OVC017 22/21 A2986 RMK AO2 SLP112 T02170206 10228 20206 58004 $= 201709140651 METAR KEWR 140651Z 27004KT 10SM BKN017 OVC065 22/20 A2986 RMK AO2 SLP109 T02170200 $= 201709140751 METAR KEWR 140751Z 16005KT 9SM BKN010 OVC017 22/21 A2985 RMK AO2 SLP107 T02170206 $= 201709140851 METAR KEWR 140851Z 16004KT 1/4SM R04R/P6000FT BKN002 OVC010 21/21 A2986 RMK AO2 SFC VIS 2 SLP111 T02110206 53002 $= 201709140951 METAR KEWR 140951Z 18005KT 6SM BKN004 BKN009 BKN017 21/20 A2987 RMK AO2 SLP113 T02110200 $= 201709141051 METAR KEWR 141051Z 23005KT 7SM FEW004 BKN008 BKN060 21/20 A2988 RMK AO2 SLP119 BKN008 V SCT T02060200 $= 201709141151 METAR KEWR 141151Z VRB03KT 9SM SCT008 BKN047 OVC180 21/20 A2989 RMK AO2 SLP120 70017 T02110200 10217 20206 51007 $= 201709141251 METAR KEWR 141251Z 19004KT 8SM BKN006 BKN047 OVC160 22/20 A2989 RMK AO2 SLP120 BKN006 V SCT T02170200 $= 201709141351 METAR KEWR 141351Z 15003KT 8SM BKN007 OVC130 22/21 A2989 RMK AO2 SLP122 T02220206= 201709141451 METAR KEWR 141451Z 21005KT 10SM BKN012 BKN130 OVC150 25/21 A2990 RMK AO2 SLP123 BKN012 V SCT T02500206 53003= 201709141551 METAR KEWR 141551Z VRB03KT 10SM SCT020 BKN100 BKN140 BKN250 26/19 A2988 RMK AO2 SLP119 T02560189= 201709141651 METAR KEWR 141651Z 27004KT 10SM FEW025 BKN110 BKN250 27/18 A2987 RMK AO2 SLP114 T02720183= 201709141751 METAR KEWR 141751Z 17009G16KT 10SM SCT037 BKN090 BKN180 27/18 A2986 RMK AO2 SLP109 T02670178 10272 20211 58014= 201709141851 METAR KEWR 141851Z 19011G17KT 10SM SCT045TCU BKN075 BKN250 28/18 A2984 RMK AO2 SLP105 TCU OHD T02830178= 201709141951 METAR KEWR 141951Z 17009KT 10SM SCT044 BKN060 BKN100 27/18 A2984 RMK AO2 SLP104 T02720178= 201709142051 METAR KEWR 142051Z 24011KT 10SM FEW039 SCT055 BKN075 28/16 A2984 RMK AO2 SLP104 T02780161 55005= 201709142151 METAR KEWR 142151Z 26009KT 10SM FEW040 SCT075 BKN095 BKN250 27/17 A2985 RMK AO2 SLP107 T02670167= 201709142251 METAR KEWR 142251Z 23007KT 10SM FEW040 FEW070 BKN100 BKN250 26/17 A2987 RMK AO2 SLP113 TCU DSNT N AND DSNT W T02610172= 201709142351 METAR KEWR 142351Z 24006KT 10SM FEW050 BKN100 BKN170 26/18 A2989 RMK AO2 SLP121 OCNL LTGIC DSNT W-DSNT NW CB DSNT W-DSNT NW MOV NE T02560178 10283 20256 53017= 201709150051 METAR KEWR 150051Z 26006KT 10SM FEW050 BKN100 BKN170 26/18 A2991 RMK AO2 SLP127 T02560183= 201709150151 METAR KEWR 150151Z 26008KT 10SM FEW050 FEW075 BKN100 25/18 A2992 RMK AO2 SLP131 T02500183= 201709150251 METAR KEWR 150251Z 24007KT 10SM FEW050 FEW075 SCT100 BKN250 23/18 A2994 RMK AO2 SLP137 T02330183 51016= 201709150351 METAR KEWR 150351Z 23006KT 10SM FEW070 SCT110 BKN250 23/18 A2994 RMK AO2 SLP139 T02280178= 201709150451 METAR KEWR 150451Z 24006KT 10SM SCT090 BKN250 22/18 A2995 RMK AO2 SLP141 T02220183 402830206= 201709150551 METAR KEWR 150551Z VRB06G20KT 10SM FEW080 FEW120 BKN250 21/18 A2996 RMK AO2 SLP144 T02110183 10256 20211 53007= 201709150651 METAR KEWR 150651Z 24006KT 10SM FEW090 BKN250 20/18 A2996 RMK AO2 SLP143 T02000178= 201709150751 METAR KEWR 150751Z 25005KT 10SM FEW090 SCT250 21/17 A2996 RMK AO2 SLP144 T02060172= 201709150851 METAR KEWR 150851Z 27003KT 10SM FEW140 SCT250 19/17 A2996 RMK AO2 SLP146 T01940172 53002= 201709150951 METAR KEWR 150951Z 29004KT 10SM SCT140 SCT250 19/17 A2999 RMK AO2 SLP153 T01890172= 201709151051 METAR KEWR 151051Z 00000KT 10SM SCT140 BKN250 19/17 A3000 RMK AO2 SLP160 T01940172= 201709151151 METAR KEWR 151151Z 00000KT 10SM FEW120 SCT250 22/18 A3002 RMK AO2 SLP166 T02170178 10217 20183 51020= 201709151251 METAR KEWR 151251Z 00000KT 10SM FEW120 FEW250 23/18 A3004 RMK AO2 SLP171 T02330178= 201709151351 METAR KEWR 151351Z 29004KT 10SM FEW120 FEW250 24/17 A3005 RMK AO2 SLP176 T02440172= 201709151451 METAR KEWR 151451Z 00000KT 10SM FEW040 FEW120 SCT250 26/17 A3005 RMK AO2 SLP176 T02560172 51010= 201709151551 METAR KEWR 151551Z 16005KT 10SM SCT040 SCT120 SCT250 26/18 A3005 RMK AO2 SLP175 T02610178= 201709151651 METAR KEWR 151651Z 18006KT 10SM BKN040 BKN250 27/18 A3004 RMK AO2 SLP172 T02720178= 201709151751 METAR KEWR 151751Z 20006KT 10SM SCT040 BKN055 BKN250 26/18 A3003 RMK AO2 SLP170 T02610178 10278 20211 58007= 201709151851 METAR KEWR 151851Z VRB03KT 10SM SCT042 BKN055 26/18 A3003 RMK AO2 SLP168 T02610178= 201709151951 METAR KEWR 151951Z 13005KT 10SM FEW042 SCT055 BKN080 27/18 A3002 RMK AO2 RAB1852E1857 SLP165 P0000 T02720183= 201709152051 METAR KEWR 152051Z 12006KT 10SM FEW040 SCT055 BKN080 27/18 A3003 RMK AO2 SLP167 60000 T02720183 55002= 201709152151 METAR KEWR 152151Z 12007KT 10SM SCT035TCU BKN070 BKN090 26/19 A3004 RMK AO2 SLP173 TCU NE AND S T02610189= 201709152251 METAR KEWR 152251Z 12003KT 10SM SCT035TCU SCT075 BKN090 26/19 A3005 RMK AO2 SLP177 TCU NE AND DSNT S T02560189= 201709152351 METAR KEWR 152351Z 09003KT 10SM FEW035 SCT050 BKN075 25/19 A3007 RMK AO2 SLP180 60000 T02500194 10278 20244 51013= 201709160051 METAR KEWR 160051Z 00000KT 10SM FEW015 FEW050 BKN080 24/20 A3008 RMK AO2 SLP184 T02440200= 201709160151 METAR KEWR 160151Z 00000KT 10SM FEW055 SCT080 24/20 A3008 RMK AO2 SLP184 T02390200 $= 201709160251 METAR KEWR 160251Z 19003KT 10SM FEW012 SCT080 23/20 A3009 RMK AO2 SLP188 T02330200 53008 $= 201709160351 METAR KEWR 160351Z 15003KT 10SM FEW012 FEW080 23/20 A3009 RMK AO2 SLP189 T02330200 $= 201709160451 METAR KEWR 160451Z 15004KT 10SM FEW010 FEW060 23/20 A3009 RMK AO2 SLP190 T02280200 402780183 $= 201709160551 METAR KEWR 160551Z 00000KT 10SM FEW010 FEW050 22/20 A3009 RMK AO2 SLP189 T02170200 10250 20217 50001 $= 201709160651 METAR KEWR 160651Z 02003KT 10SM FEW010 21/19 A3009 RMK AO2 SLP190 T02060189 $= 201709160751 METAR KEWR 160751Z 01006KT 9SM FEW010 20/19 A3010 RMK AO2 SLP191 T02000189 $= 201709160851 METAR KEWR 160851Z 02005KT 7SM FEW010 20/18 A3010 RMK AO2 SLP192 T02000183 53003 $= 201709160951 METAR KEWR 160951Z 02005KT 6SM BR FEW006 FEW012 20/19 A3011 RMK AO2 SLP196 T02000189 $= 201709161051 METAR KEWR 161051Z 02005KT 6SM BR FEW015 FEW050 20/19 A3013 RMK AO2 SLP202 T02000189 $= 201709161151 METAR KEWR 161151Z 01005KT 4SM BR FEW007 FEW200 21/20 A3014 RMK AO2 SLP206 T02110200 10222 20194 52014 $= 201709161251 METAR KEWR 161251Z 02007KT 3SM BR FEW003 OVC007 22/20 A3015 RMK AO2 SLP210 T02170200= 201709161351 METAR KEWR 161351Z 04004KT 4SM HZ BKN009 23/21 A3016 RMK AO2 SLP212 T02330206= 201709161451 METAR KEWR 161451Z VRB05KT 4SM HZ BKN012 24/20 A3016 RMK AO2 SLP213 CIG 010V014 T02440200 51007= 201709161551 METAR KEWR 161551Z 12005KT 4SM HZ SCT022 26/20 A3015 RMK AO2 SLP210 T02560200= 201709161651 METAR KEWR 161651Z 09006KT 5SM HZ SCT024TCU 27/20 A3014 RMK AO2 SLP207 TCU NW VCSH T02720200= 201709161751 METAR KEWR 161751Z VRB04KT 6SM HZ SCT026 SCT070 27/20 A3013 RMK AO2 SLP201 VCSH T02670200 10272 20211 58012= 201709161851 METAR KEWR 161851Z 14006KT 9SM SCT028 SCT070 27/20 A3011 RMK AO2 SLP197 T02720200= 201709161951 METAR KEWR 161951Z 17008KT 10SM SCT032 SCT070 27/20 A3011 RMK AO2 SLP195 T02720200= 201709162051 METAR KEWR 162051Z 15007KT 10SM SCT032 SCT070 26/19 A3011 RMK AO2 SLP197 TCU DSNT NW T02560194 55004= 201709162151 METAR KEWR 162151Z 13006KT 10SM SCT032TCU SCT080 BKN100 24/19 A3013 RMK AO2 SLP202 TCU NW VCSH T02390194= 201709162251 METAR KEWR 162251Z 17004KT 10SM SCT035 BKN100 23/19 A3014 RMK AO2 SLP205 VCSH T02280194= 201709162351 METAR KEWR 162351Z 13005KT 10SM FEW035 SCT100 23/19 A3014 RMK AO2 SLP204 T02280194 10278 20222 50007= 201709170051 METAR KEWR 170051Z 14004KT 10SM SCT100 22/20 A3014 RMK AO2 SLP206 T02220200= 201709170151 METAR KEWR 170151Z 00000KT 9SM FEW008 SCT100 22/20 A3014 RMK AO2 SLP205 T02170200= 201709170251 METAR KEWR 170251Z 19005KT 6SM BR SCT007 22/20 A3014 RMK AO2 SLP207 T02170200 53003= 201709170351 METAR KEWR 170351Z 00000KT 6SM BR OVC006 21/21 A3015 RMK AO2 SLP207 T02110206 $= 201709170451 METAR KEWR 170451Z 00000KT 5SM BR FEW006 FEW250 21/20 A3014 RMK AO2 SLP205 T02110200 402780194 $= 201709170551 METAR KEWR 170551Z 00000KT 5SM BR FEW006 21/20 A3013 RMK AO2 SLP203 T02110200 10228 20206 58003 $= 201709170651 METAR KEWR 170651Z 18003KT 4SM BR OVC006 21/20 A3013 RMK AO2 SLP202 T02110200 $= 201709170751 METAR KEWR 170751Z 16004KT 4SM BR OVC006 21/20 A3013 RMK AO2 SLP203 T02110200 $= 201709170851 METAR KEWR 170851Z 15005KT 4SM BR OVC006 21/20 A3013 RMK AO2 SLP203 T02110200 55001 $= 201709170951 METAR KEWR 170951Z 16003KT 4SM BR OVC006 21/19 A3014 RMK AO2 SLP207 T02060194 $= 201709171051 METAR KEWR 171051Z 17003KT 3SM BR OVC008 21/19 A3016 RMK AO2 SLP212 T02110194 $= 201709171151 METAR KEWR 171151Z 00000KT 3SM BR BKN009 OVC016 21/19 A3017 RMK AO2 SLP217 T02110194 10211 20206 53014 $= 201709171251 METAR KEWR 171251Z 17004KT 3SM HZ OVC009 22/19 A3018 RMK AO2 SLP218 T02170189 $= 201709171351 METAR KEWR 171351Z 09003KT 3SM HZ FEW013 BKN019 23/20 A3017 RMK AO2 SFC VIS 4 SLP214 T02330200 $= 201709171451 METAR KEWR 171451Z 20004KT 6SM HZ FEW014 BKN020 BKN050 23/19 A3016 RMK AO2 SLP213 T02330189 56005 $= 201709171551 METAR KEWR 171551Z 00000KT 7SM FEW015 BKN025 BKN050 24/18 A3015 RMK AO2 SLP209 T02440183 $= 201709171651 METAR KEWR 171651Z 00000KT 8SM SCT020 BKN030 BKN050 27/18 A3014 RMK AO2 SLP205 T02670183 $= 201709171751 METAR KEWR 171751Z VRB03KT 8SM FEW025 BKN032 BKN055 27/18 A3012 RMK AO2 SLP200 T02720183 10272 20211 58013 $= 201709171851 METAR KEWR 171851Z 10006KT 9SM FEW028 BKN035 BKN050 27/18 A3011 RMK AO2 SLP197 T02670178 $= 201709171951 METAR KEWR 171951Z 11006KT 10SM SCT030 SCT050 27/19 A3010 RMK AO2 SLP192 TCU DSNT NW T02670189 $= 201709172051 METAR KEWR 172051Z 12007KT 10SM FEW030 FEW050 25/19 A3010 RMK AO2 SLP191 T02500189 56009 $= 201709172151 METAR KEWR 172151Z VRB05KT 10SM FEW040 24/19 A3010 RMK AO2 SLP192 T02390189 $= 201709172251 METAR KEWR 172251Z 12006KT 10SM FEW010 FEW040 22/18 A3010 RMK AO2 SLP191 T02220183 $= 201709172351 METAR KEWR 172351Z 13007KT 10SM SCT010 22/19 A3011 RMK AO2 SLP195 T02170189 10278 20211 53004 $= 201709180051 METAR KEWR 180051Z 15005KT 10SM BKN010 21/18 A3012 RMK AO2 SLP200 T02110183 $= 201709180151 METAR KEWR 180151Z 16004KT 10SM OVC010 21/18 A3013 RMK AO2 SLP201 T02110183 $= 201709180251 METAR KEWR 180251Z 00000KT 10SM BKN010 21/18 A3013 RMK AO2 SLP202 T02110183 51007 $= 201709180351 METAR KEWR 180351Z 00000KT 10SM OVC010 21/19 A3013 RMK AO2 SLP202 T02110189 $= 201709180451 METAR KEWR 180451Z 00000KT 10SM OVC010 21/18 A3012 RMK AO2 SLP198 T02110183 402780206 $= 201709180551 METAR KEWR 180551Z 00000KT 6SM HZ OVC013 21/18 A3012 RMK AO2 SLP197 T02110183 10217 20206 56005 $= 201709180651 METAR KEWR 180651Z 04003KT 6SM BR BKN013 OVC018 21/19 A3011 RMK AO2 SLP194 T02110189 $= 201709180751 METAR KEWR 180751Z 07004KT 6SM HZ OVC016 22/19 A3009 RMK AO2 SLP190 T02170189 $= 201709180851 METAR KEWR 180851Z 07005KT 9SM OVC016 22/18 A3009 RMK AO2 SLP190 T02170178 55007 $= 201709180951 METAR KEWR 180951Z 04008KT 10SM BKN017 21/18 A3009 RMK AO2 SLP190 T02110178 $= 201709181051 METAR KEWR 181051Z 03008KT 10SM OVC014 21/18 A3011 RMK AO2 SLP196 T02110178 $= 201709181151 METAR KEWR 181151Z 02007KT 10SM BKN011 OVC016 21/18 A3013 RMK AO2 SLP201 T02110183 10217 20206 53011 $= 201709181251 METAR KEWR 181251Z 07006KT 6SM -DZ BKN005 OVC010 22/19 A3013 RMK AO2 DZB50 SLP202 BKN V SCT P0000 T02170189 $= 201709181351 METAR KEWR 181351Z 02012KT 10SM BKN008 OVC021 21/19 A3013 RMK AO2 DZE47 SLP203 CIG 007V010 P0000 T02110194= 201709181451 METAR KEWR 181451Z 04008KT 10SM BKN011 OVC017 22/19 A3012 RMK AO2 SLP200 CIG 009V013 60000 T02170189 58001= 201709181551 METAR KEWR 181551Z 02008KT 10SM OVC016 23/19 A3012 RMK AO2 SLP198 CIG 014V019 T02280189= 201709181651 METAR KEWR 181651Z 06006KT 10SM FEW011 OVC016 23/18 A3011 RMK AO2 SLP195 T02280183= 201709181751 METAR KEWR 181751Z 03011KT 10SM FEW011 OVC016 23/19 A3010 RMK AO2 SLP191 60000 T02330189 10233 20206 58008= 201709181851 METAR KEWR 181851Z 04009KT 10SM OVC018 23/19 A3009 RMK AO2 SLP190 T02280189= 201709181951 METAR KEWR 181951Z 06007KT 10SM OVC015 23/19 A3009 RMK AO2 SLP188 T02330189= 201709182051 METAR KEWR 182051Z 06007KT 10SM OVC015 23/19 A3008 RMK AO2 SLP187 T02280189 58005= 201709182151 METAR KEWR 182151Z 03007KT 10SM SCT014 BKN028 BKN180 BKN260 23/19 A3008 RMK AO2 SLP187 T02280189= 201709182251 METAR KEWR 182251Z 04009KT 10SM FEW014 SCT028 SCT040 BKN170 BKN260 23/18 A3008 RMK AO2 SLP184 T02280183= 201709182351 METAR KEWR 182351Z 06007KT 10SM FEW017 BKN025 BKN170 BKN250 23/19 A3008 RMK AO2 SLP187 T02280189 10239 20228 53000= 201709190051 METAR KEWR 190051Z 06006KT 10SM FEW019 SCT027 BKN038 BKN140 BKN250 22/18 A3010 RMK AO2 SLP191 T02220183= 201709190151 METAR KEWR 190151Z 03008KT 10SM BKN020 OVC036 22/19 A3009 RMK AO2 SLP187 T02220189= 201709190251 METAR KEWR 190251Z 03009KT 10SM OVC015 22/19 A3008 RMK AO2 SLP186 T02220194 58004= 201709190351 METAR KEWR 190351Z 01011KT 10SM OVC014 22/19 A3007 RMK AO2 SLP183 T02170189= 201709190451 METAR KEWR 190451Z 04010KT 10SM OVC012 22/19 A3006 RMK AO2 SLP178 T02220194 402390206= 201709190551 METAR KEWR 190551Z 03010KT 10SM OVC011 22/19 A3005 RMK AO2 SLP174 T02220194 10228 20217 58012= 201709190651 METAR KEWR 190651Z 03012KT 10SM OVC010 22/19 A3003 RMK AO2 SLP168 T02170194= 201709190751 METAR KEWR 190751Z 02010KT 10SM OVC010 22/19 A3003 RMK AO2 SLP167 T02170194= 201709190851 METAR KEWR 190851Z 02011KT 10SM OVC010 21/19 A3002 RMK AO2 RAB38E49 SLP164 P0000 60000 T02110194 56010= 201709190951 METAR KEWR 190951Z 02012KT 10SM OVC009 21/19 A3002 RMK AO2 RAB32E48 SLP164 P0000 T02110194= 201709191051 METAR KEWR 191051Z 02012KT 10SM OVC009 21/19 A3001 RMK AO2 SLP161 T02110189= 201709191151 METAR KEWR 191151Z 01014KT 10SM BKN012 22/19 A3001 RMK AO2 SLP161 60000 T02170189 10222 20211 57003= 201709191251 METAR KEWR 191251Z 04015G22KT 10SM BKN015 BKN130 BKN260 22/19 A3000 RMK AO2 SLP160 T02220189= 201709191351 METAR KEWR 191351Z 02013G18KT 10SM BKN020 BKN130 BKN260 24/19 A3000 RMK AO2 SLP159 T02440189= 201709191451 METAR KEWR 191451Z 04014G24KT 10SM BKN025 BKN130 BKN260 26/18 A2999 RMK AO2 PK WND 06029/1441 SLP155 T02560183 58006= 201709191551 METAR KEWR 191551Z 04017G24KT 10SM BKN028 BKN130 BKN250 25/18 A2998 RMK AO2 PK WND 03026/1518 SLP152 T02500178= 201709191651 METAR KEWR 191651Z 03019G24KT 10SM BKN034 BKN110 BKN150 BKN250 26/18 A2996 RMK AO2 PK WND 03027/1632 SLP146 T02610178= 201709191751 METAR KEWR 191751Z 03016G23KT 10SM SCT035 BKN100 BKN150 BKN250 26/17 A2994 RMK AO2 SLP136 T02610172 10261 20217 58019= 201709191851 METAR KEWR 191851Z 04015G26KT 10SM FEW030 BKN039 OVC055 26/17 A2991 RMK AO2 PK WND 03026/1809 SLP128 T02610172= 201709191951 METAR KEWR 191951Z 03013G23KT 10SM -RA FEW029 BKN034 OVC080 24/18 A2990 RMK AO2 RAB35 SLP125 P0000 T02440183= 201709192051 METAR KEWR 192051Z 02014KT 7SM -RA SCT035 BKN050 OVC085 22/19 A2989 RMK AO2 PK WND 03027/2032 SLP121 P0002 60002 T02220194 56015= 201709192151 METAR KEWR 192151Z 02016KT 10SM -RA FEW040 BKN060 OVC100 23/19 A2989 RMK AO2 SLP122 P0002 T02280189 $= 201709192251 METAR KEWR 192251Z 01015G23KT 10SM FEW030 SCT042 OVC049 22/18 A2988 RMK AO2 RAE2153 SLP117 P0000 T02220183 $= 201709192351 METAR KEWR 192351Z 01018G24KT 10SM -RA SCT022 BKN030 OVC065 21/19 A2988 RMK AO2 PK WND 01029/2330 RAB23 SLP119 SCT V BKN P0000 60004 T02060189 10272 20206 55003 $= 201709200051 METAR KEWR 200051Z 36013G21KT 10SM FEW020 BKN030 OVC055 22/19 A2989 RMK AO2 RAE10 SLP120 P0000 T02170189 $= 201709200151 METAR KEWR 200151Z 01015KT 10SM SCT029 BKN034 BKN060 22/18 A2988 RMK AO2 SLP118 T02170183 $= 201709200251 METAR KEWR 200251Z 02016KT 10SM FEW029 BKN039 BKN050 22/18 A2987 RMK AO2 PK WND 36027/0241 SLP114 60000 T02220183 58005 $= 201709200351 METAR KEWR 200351Z 01015KT 10SM BKN038 BKN048 23/18 A2985 RMK AO2 SLP109 T02280178 $= 201709200451 METAR KEWR 200451Z 01015G23KT 10SM FEW030 BKN040 BKN048 22/18 A2985 RMK AO2 SLP109 T02220178 402720206 $= 201709200551 METAR KEWR 200551Z 02016G23KT 10SM BKN031 BKN038 BKN044 22/18 A2984 RMK AO2 SLP105 60000 T02220178 10228 20206 56009 $= 201709200651 METAR KEWR 200651Z 01013KT 10SM BKN031 OVC042 22/18 A2983 RMK AO2 SLP100 T02220178 $= 201709200751 METAR KEWR 200751Z 36016KT 10SM FEW028 SCT038 BKN200 22/17 A2981 RMK AO2 SLP093 T02220172 $= 201709200851 METAR KEWR 200851Z 35014KT 10SM FEW028 SCT036 BKN200 22/17 A2982 RMK AO2 SLP096 T02170172 55008 $= 201709200951 METAR KEWR 200951Z 01015G24KT 10SM BKN032 BKN250 22/17 A2983 RMK AO2 PK WND 36027/0915 SLP100 T02220172 $= 201709201051 METAR KEWR 201051Z 36017G22KT 10SM FEW032 BKN250 22/17 A2984 RMK AO2 SLP104 T02170172 $= 201709201151 METAR KEWR 201151Z 36017KT 10SM SCT025 BKN250 22/17 A2986 RMK AO2 SLP110 70004 T02220172 10222 20217 53013 $= 201709201251 METAR KEWR 201251Z 36015KT 10SM SCT026 BKN250 23/18 A2987 RMK AO2 SLP115 T02330178 $= 201709201351 METAR KEWR 201351Z 01017KT 10SM SCT026 BKN150 BKN250 24/18 A2988 RMK AO2 PK WND 36026/1334 SLP117 T02440178= 201709201451 METAR KEWR 201451Z 36021G30KT 10SM SCT027 BKN150 BKN250 26/18 A2987 RMK AO2 PK WND 36030/1444 SLP115 T02610178 50005= 201709201551 METAR KEWR 201551Z 01015G23KT 10SM BKN030 BKN250 27/18 A2988 RMK AO2 PK WND 35026/1521 SLP117 T02670183= 201709201651 METAR KEWR 201651Z 35020G25KT 10SM SCT032 BKN250 27/18 A2988 RMK AO2 PK WND 36028/1620 SLP118 T02670178= 201709201751 METAR KEWR 201751Z 36017KT 10SM BKN034 BKN250 27/18 A2988 RMK AO2 PK WND 36027/1700 SLP116 T02670178 10272 20222 50002= 201709201851 METAR KEWR 201851Z 35016KT 10SM BKN035 BKN250 27/18 A2987 RMK AO2 PK WND 33026/1826 SLP115 T02670178= 201709201951 METAR KEWR 201951Z 35015G24KT 10SM SCT036 BKN250 27/17 A2988 RMK AO2 SLP117 T02670172= 201709202051 METAR KEWR 202051Z 35013G22KT 10SM SCT036 BKN070 BKN200 BKN250 26/17 A2989 RMK AO2 SLP121 T02610172 53005= 201709202151 METAR KEWR 202151Z 36015G22KT 10SM FEW040 SCT075 BKN200 BKN250 26/17 A2990 RMK AO2 SLP123 T02610172= 201709202251 METAR KEWR 202251Z 35010KT 10SM FEW040 FEW080 SCT200 BKN250 26/17 A2990 RMK AO2 SLP124 T02610172= 201709202351 METAR KEWR 202351Z 35008KT 10SM FEW080 SCT180 BKN250 26/18 A2991 RMK AO2 SLP128 T02560178 10272 20256 53007= 201709210051 METAR KEWR 210051Z 35009KT 10SM FEW090 SCT150 BKN250 25/17 A2992 RMK AO2 SLP131 T02500172= 201709210151 METAR KEWR 210151Z 36008KT 10SM FEW100 FEW150 BKN250 24/17 A2992 RMK AO2 SLP133 T02440172= 201709210251 METAR KEWR 210251Z 33009KT 10SM FEW100 SCT150 BKN250 24/17 A2994 RMK AO2 SLP137 T02440172 53009= 201709210351 METAR KEWR 210351Z 33009KT 10SM SCT150 BKN250 24/17 A2994 RMK AO2 SLP137 T02390167= 201709210451 METAR KEWR 210451Z 34010KT 10SM SCT150 BKN250 23/17 A2994 RMK AO2 SLP139 T02330167 402720217= 201709210551 METAR KEWR 210551Z 35011KT 10SM FEW150 BKN250 23/17 A2994 RMK AO2 SLP139 T02330172 10256 20233 51002= 201709210651 METAR KEWR 210651Z 36010KT 10SM BKN250 23/17 A2994 RMK AO2 SLP137 T02330172= 201709210751 METAR KEWR 210751Z 01012KT 10SM BKN250 23/18 A2995 RMK AO2 SLP141 T02280178= 201709210851 METAR KEWR 210851Z 36012KT 10SM BKN220 OVC260 22/18 A2995 RMK AO2 SLP143 T02220178 53004= 201709210951 METAR KEWR 210951Z 34010KT 10SM OVC240 23/18 A2997 RMK AO2 SLP147 T02280178= 201709211051 METAR KEWR 211051Z 34009KT 10SM OVC250 23/17 A2999 RMK AO2 SLP155 T02280172= 201709211151 METAR KEWR 211151Z 34012KT 10SM BKN250 23/17 A3000 RMK AO2 SLP159 T02280172 10233 20222 51017= 201709211251 METAR KEWR 211251Z 34011KT 10SM FEW220 BKN260 24/18 A3001 RMK AO2 SLP162 T02390178= 201709211351 METAR KEWR 211351Z 01011KT 10SM FEW035 FEW180 BKN260 24/17 A3002 RMK AO2 SLP164 T02440172= 201709211451 METAR KEWR 211451Z 35010KT 10SM FEW040 SCT200 BKN260 24/17 A3002 RMK AO2 SLP166 T02440172 51007= 201709211551 METAR KEWR 211551Z 34014KT 10SM FEW040 FEW120 SCT200 BKN260 27/17 A3001 RMK AO2 SLP162 T02670172= 201709211651 METAR KEWR 211651Z 35010KT 10SM FEW040 FEW120 SCT210 BKN260 28/17 A3000 RMK AO2 SLP158 T02830172= 201709211751 METAR KEWR 211751Z 03010KT 10SM FEW040 FEW130 SCT210 BKN260 28/17 A2998 RMK AO2 SLP153 T02780172 10283 20228 58013= 201709211851 METAR KEWR 211851Z 03011KT 10SM FEW040 FEW130 SCT230 BKN260 27/17 A2998 RMK AO2 SLP151 T02720167= 201709211951 METAR KEWR 211951Z 02009KT 10SM FEW040 FEW230 BKN260 28/16 A2998 RMK AO2 SLP150 T02780161= 201709212051 METAR KEWR 212051Z 01015G21KT 10SM FEW050 FEW230 BKN260 28/14 A2999 RMK AO2 SLP154 T02830139 53001= 201709212151 METAR KEWR 212151Z 03013KT 10SM FEW045 FEW230 BKN260 27/15 A2999 RMK AO2 SLP154 T02720150= 201709212251 METAR KEWR 212251Z 02010KT 10SM FEW045 FEW230 BKN260 26/14 A2999 RMK AO2 SLP155 T02560139= 201709212351 METAR KEWR 212351Z 02010KT 10SM FEW045 BKN260 24/16 A3000 RMK AO2 SLP158 T02440156 10289 20244 53005= 201709220051 METAR KEWR 220051Z 02012KT 10SM FEW045 BKN260 24/17 A3001 RMK AO2 SLP162 T02390167= 201709220151 METAR KEWR 220151Z 02009KT 10SM FEW050 BKN260 23/16 A3002 RMK AO2 SLP165 T02280161= 201709220251 METAR KEWR 220251Z 36008KT 10SM FEW050 BKN260 23/16 A3002 RMK AO2 SLP164 T02330161 50006= 201709220351 METAR KEWR 220351Z 36009KT 10SM FEW050 BKN250 23/16 A3001 RMK AO2 SLP163 T02280161= 201709220451 METAR KEWR 220451Z 36009KT 10SM BKN250 22/17 A3001 RMK AO2 SLP161 T02220167 402890217= 201709220551 METAR KEWR 220551Z 02007KT 10SM FEW050 OVC250 21/16 A3002 RMK AO2 SLP164 T02110161 10244 20211 53000= 201709220651 METAR KEWR 220651Z 01012KT 10SM OVC250 21/14 A3001 RMK AO2 SLP160 T02060139= 201709220751 METAR KEWR 220751Z 36010KT 10SM FEW150 OVC250 21/10 A3000 RMK AO2 SLP158 T02060100= 201709220851 METAR KEWR 220851Z 01010KT 10SM SCT150 BKN250 19/11 A3000 RMK AO2 SLP158 T01940111 56007= 201709220951 METAR KEWR 220951Z 36012KT 10SM FEW070 SCT150 BKN250 19/11 A3001 RMK AO2 SLP160 T01940111= 201709221051 METAR KEWR 221051Z 35012G19KT 10SM FEW080 SCT150 BKN250 19/10 A3001 RMK AO2 SLP161 T01940100= 201709221151 METAR KEWR 221151Z 36011G21KT 10SM FEW100 BKN180 BKN260 20/09 A3001 RMK AO2 SLP162 T02000089 10217 20189 51005= 201709221251 METAR KEWR 221251Z 36015KT 10SM FEW100 BKN180 BKN260 22/08 A3002 RMK AO2 SLP166 T02170083= 201709221351 METAR KEWR 221351Z 35016KT 10SM FEW090 FEW180 BKN260 23/08 A3002 RMK AO2 SLP166 T02280083= 201709221451 METAR KEWR 221451Z 02014G21KT 10SM FEW090 FEW180 BKN260 25/09 A3001 RMK AO2 SLP161 T02500089 58001= 201709221551 METAR KEWR 221551Z 36015KT 10SM FEW090 SCT180 BKN250 27/11 A3000 RMK AO2 SLP159 T02670106= 201709221651 METAR KEWR 221651Z 35013G20KT 10SM FEW080 SCT170 BKN250 27/12 A2998 RMK AO2 SLP152 T02670117= 201709221751 METAR KEWR 221751Z 36017KT 10SM FEW075 SCT100 SCT170 BKN250 29/12 A2997 RMK AO2 SLP147 T02890122 10289 20200 58014= 201709221851 METAR KEWR 221851Z 33015KT 10SM FEW075 FEW100 BKN180 BKN250 29/13 A2995 RMK AO2 SLP140 T02940128= 201709221951 METAR KEWR 221951Z 35015KT 10SM FEW060 FEW100 SCT180 BKN260 29/13 A2994 RMK AO2 SLP138 T02940133= 201709222051 METAR KEWR 222051Z 35018G22KT 10SM FEW060 FEW100 BKN260 29/14 A2993 RMK AO2 SLP135 T02890139 56012= 201709222151 METAR KEWR 222151Z 01013KT 10SM FEW060 FEW100 BKN260 28/14 A2994 RMK AO2 SLP137 T02780139= 201709222251 METAR KEWR 222251Z 01017KT 10SM FEW060 FEW100 BKN260 26/14 A2994 RMK AO2 SLP137 T02610139= 201709222351 METAR KEWR 222351Z 35013KT 10SM FEW050 FEW095 BKN250 26/13 A2995 RMK AO2 SLP143 T02560128 10294 20256 53007= 201709230051 METAR KEWR 230051Z 36015KT 10SM FEW050 FEW090 SCT250 25/11 A2997 RMK AO2 SLP148 T02500111= 201709230151 METAR KEWR 230151Z 01012G22KT 10SM FEW050 FEW090 SCT250 24/11 A2997 RMK AO2 SLP148 T02440106= 201709230251 METAR KEWR 230251Z 36014KT 10SM FEW050 FEW250 24/11 A2998 RMK AO2 SLP150 T02390106 51008= 201709230351 METAR KEWR 230351Z 36010KT 10SM FEW250 23/11 A2998 RMK AO2 SLP151 T02330111= 201709230451 METAR KEWR 230451Z 01010KT 10SM FEW050 23/12 A2999 RMK AO2 SLP153 T02280122 402940189= 201709230551 METAR KEWR 230551Z 36008KT 10SM FEW030 FEW050 22/12 A2999 RMK AO2 SLP154 T02220122 10256 20222 51003= 201709230651 METAR KEWR 230651Z 34010KT 10SM SCT026 22/11 A2998 RMK AO2 SLP152 T02170111= 201709230751 METAR KEWR 230751Z 33009KT 10SM FEW026 22/11 A2998 RMK AO2 SLP151 T02170111= 201709230851 METAR KEWR 230851Z 34011KT 10SM CLR 21/11 A2998 RMK AO2 SLP153 T02110106 55001= 201709230951 METAR KEWR 230951Z 35010KT 10SM FEW026 21/11 A3000 RMK AO2 SLP157 T02110106= 201709231051 METAR KEWR 231051Z 35010KT 10SM FEW026 SCT280 22/11 A3000 RMK AO2 SLP159 T02170106= 201709231151 METAR KEWR 231151Z 34007KT 10SM FEW060 SCT280 23/11 A3001 RMK AO2 SLP162 T02280111 10228 20211 51009= 201709231251 METAR KEWR 231251Z 36008KT 10SM FEW060 SCT280 24/13 A3004 RMK AO2 SLP172 T02390133= 201709231351 METAR KEWR 231351Z 35013KT 10SM FEW280 26/13 A3006 RMK AO2 SLP177 T02560133= 201709231451 METAR KEWR 231451Z 35013KT 10SM FEW055 FEW280 27/13 A3005 RMK AO2 SLP176 T02720128 50014= 201709231551 METAR KEWR 231551Z 01011G18KT 10SM FEW060 FEW280 29/13 A3005 RMK AO2 SLP174 T02890128= 201709231651 METAR KEWR 231651Z 02010G18KT 10SM FEW060 FEW150 FEW280 29/13 A3004 RMK AO2 SLP171 T02940133= 201709231751 METAR KEWR 231751Z 01011KT 10SM FEW065 FEW280 31/13 A3002 RMK AO2 SLP165 T03110133 10311 20228 58011= 201709231851 METAR KEWR 231851Z 02010KT 10SM CLR 31/12 A3000 RMK AO2 SLP160 T03110117= 201709231951 METAR KEWR 231951Z 35014G17KT 10SM CLR 32/07 A2999 RMK AO2 SLP156 T03170072= 201709232051 METAR KEWR 232051Z 36011KT 10SM CLR 32/07 A2999 RMK AO2 SLP156 T03170072 56009= 201709232151 METAR KEWR 232151Z 04007KT 10SM CLR 31/09 A3000 RMK AO2 SLP158 T03060089= 201709232251 METAR KEWR 232251Z 02008KT 10SM CLR 27/10 A3001 RMK AO2 SLP161 T02720100= 201709232351 METAR KEWR 232351Z 02007KT 10SM CLR 26/11 A3003 RMK AO2 SLP167 T02560111 10322 20250 53011= 201709240051 METAR KEWR 240051Z 36005KT 10SM CLR 25/12 A3003 RMK AO2 SLP168 T02500117= 201709240151 METAR KEWR 240151Z 36006KT 10SM CLR 27/11 A3003 RMK AO2 SLP169 T02670111 $= 201709240251 METAR KEWR 240251Z 36005KT 10SM CLR 26/12 A3004 RMK AO2 SLP171 T02560122 $= 201709240351 METAR KEWR 240351Z 05003KT 10SM CLR 24/13 A3004 RMK AO2 SLP172 T02440133 $= 201709240451 METAR KEWR 240451Z 00000KT 10SM CLR 24/13 A3004 RMK AO2 SLP171 T02390133 403220211 $= 201709240551 METAR KEWR 240551Z 05003KT 10SM CLR 23/14 A3004 RMK AO2 SLP170 T02280144 10272 20228 58001 $= 201709240651 METAR KEWR 240651Z 03005KT 10SM CLR 20/14 A3004 RMK AO2 SLP171 T02000144 $= 201709240751 METAR KEWR 240751Z 03003KT 10SM CLR 21/15 A3004 RMK AO2 SLP172 T02060150 $= 201709240851 METAR KEWR 240851Z 02003KT 10SM CLR 20/14 A3005 RMK AO2 SLP174 T02000144 53004 $= 201709240951 METAR KEWR 240951Z 02003KT 10SM CLR 21/14 A3005 RMK AO2 SLP176 T02060144 $= 201709241051 METAR KEWR 241051Z 02003KT 10SM CLR 20/14 A3007 RMK AO2 SLP181 T02000144 $= 201709241151 METAR KEWR 241151Z 00000KT 10SM CLR 22/16 A3008 RMK AO2 SLP186 T02220156 10228 20183 53011 $= 201709241251 METAR KEWR 241251Z 03004KT 10SM CLR 24/16 A3009 RMK AO2 SLP187 T02440156 $= 201709241351 METAR KEWR 241351Z 01007KT 10SM CLR 27/17 A3008 RMK AO2 SLP186 T02670167 $= 201709241451 METAR KEWR 241451Z 02009KT 10SM CLR 28/17 A3007 RMK AO2 SLP184 T02830172 58002 $= 201709241551 METAR KEWR 241551Z 05008KT 10SM CLR 31/17 A3007 RMK AO2 SLP182 T03060172 $= 201709241651 METAR KEWR 241651Z 03009KT 10SM CLR 32/17 A3006 RMK AO2 SLP178 T03170167 $= 201709241751 METAR KEWR 241751Z VRB03KT 10SM CLR 32/16 A3004 RMK AO2 SLP172 T03220161 10328 20222 58012 $= 201709241851 METAR KEWR 241851Z 08007KT 10SM CLR 33/17 A3003 RMK AO2 SLP168 T03280167 $= 201709241951 METAR KEWR 241951Z VRB05KT 10SM CLR 33/16 A3001 RMK AO2 SLP162 T03330161= 201709242051 METAR KEWR 242051Z 13006KT 10SM CLR 33/17 A3000 RMK AO2 SLP158 T03280167 56014= 201709242151 METAR KEWR 242151Z 17006KT 10SM FEW055 30/18 A3001 RMK AO2 SLP161 T03000178= 201709242251 METAR KEWR 242251Z 13004KT 10SM FEW260 29/18 A3001 RMK AO2 SLP163 T02890178= 201709242351 METAR KEWR 242351Z 07003KT 10SM CLR 27/18 A3003 RMK AO2 SLP168 T02670183 10333 20267 53010= 201709250051 METAR KEWR 250051Z 09003KT 10SM CLR 26/18 A3004 RMK AO2 SLP173 T02610178= 201709250151 METAR KEWR 250151Z 00000KT 10SM CLR 26/18 A3005 RMK AO2 SLP176 T02560183= 201709250251 METAR KEWR 250251Z 17003KT 10SM CLR 24/19 A3005 RMK AO2 SLP175 T02390189 50006= 201709250351 METAR KEWR 250351Z 00000KT 10SM CLR 24/19 A3004 RMK AO2 SLP173 T02390189= 201709250451 METAR KEWR 250451Z 00000KT 10SM CLR 24/19 A3003 RMK AO2 SLP169 T02440189 403330183= 201709250551 METAR KEWR 250551Z 00000KT 10SM CLR 24/19 A3002 RMK AO2 SLP164 T02390194 10267 20233 58011= 201709250651 METAR KEWR 250651Z 00000KT 10SM CLR 23/19 A3001 RMK AO2 SLP163 T02330194= 201709250751 METAR KEWR 250751Z 01003KT 10SM CLR 21/18 A3001 RMK AO2 SLP163 T02110178= 201709250851 METAR KEWR 250851Z 00000KT 10SM CLR 22/18 A3002 RMK AO2 SLP165 T02170183 53001= 201709250951 METAR KEWR 250951Z 00000KT 10SM CLR 22/18 A3003 RMK AO2 SLP167 T02220183= 201709251051 METAR KEWR 251051Z 03005KT 10SM FEW250 23/19 A3004 RMK AO2 SLP172 T02280189 $= 201709251151 METAR KEWR 251151Z 00000KT 10SM FEW250 24/19 A3006 RMK AO2 SLP180 T02390194 10244 20206 $= 201709251251 METAR KEWR 251251Z 02004KT 9SM FEW250 26/20 A3007 RMK AO2 SLP182 T02610200 $= 201709251351 METAR KEWR 251351Z 06003KT 9SM CLR 27/19 A3007 RMK AO2 SLP183 T02720189 $= 201709251451 METAR KEWR 251451Z 09004KT 9SM CLR 28/19 A3007 RMK AO2 SLP181 T02830189 50001 $= 201709251551 METAR KEWR 251551Z VRB03KT 10SM CLR 29/19 A3005 RMK AO2 SLP177 T02940189 $= 201709251651 METAR KEWR 251651Z 06005KT 10SM FEW250 32/19 A3004 RMK AO2 SLP172 T03170194 $= 201709251751 METAR KEWR 251751Z 08007KT 10SM FEW250 32/19 A3003 RMK AO2 SLP167 T03170189 10317 20239 58014 $= 201709251851 METAR KEWR 251851Z 08007KT 10SM FEW050 32/19 A3001 RMK AO2 SLP163 T03170189 $= 201709251951 METAR KEWR 251951Z 11006KT 10SM FEW050 31/18 A3000 RMK AO2 SLP160 T03110178 $= 201709252051 METAR KEWR 252051Z 13008KT 10SM FEW050 FEW250 29/16 A3000 RMK AO2 SLP160 T02890161 56008 $= 201709252151 METAR KEWR 252151Z 15008KT 10SM FEW050 FEW250 28/17 A3001 RMK AO2 SLP163 T02780167 $= 201709252251 METAR KEWR 252251Z VRB03KT 10SM FEW060 SCT250 25/17 A3002 RMK AO2 SLP164 T02500167 $= 201709252351 METAR KEWR 252351Z 12005KT 10SM FEW060 FEW250 23/18 A3004 RMK AO2 SLP171 T02330178 10322 20233 53012 $= 201709260051 METAR KEWR 260051Z 18003KT 10SM FEW010 FEW060 SCT250 22/19 A3005 RMK AO2 SLP175 T02220189 $= 201709260151 METAR KEWR 260151Z 14003KT 10SM FEW010 SCT250 23/18 A3005 RMK AO2 SLP174 T02280178 $= 201709260251 METAR KEWR 260251Z 05003KT 10SM FEW010 SCT250 22/18 A3003 RMK AO2 SLP170 T02220183 58001 $= 201709260351 METAR KEWR 260351Z 00000KT 10SM FEW010 SCT250 22/18 A3003 RMK AO2 SLP167 T02170183 $= 201709260451 METAR KEWR 260451Z 16004KT 10SM FEW250 21/19 A3003 RMK AO2 SLP167 T02110189 403220206 $= 201709260551 METAR KEWR 260551Z 00000KT 10SM FEW010 FEW250 21/19 A3004 RMK AO2 SLP171 T02060189 10233 20206 53002 $= 201709260651 METAR KEWR 260651Z 15005KT 9SM BKN006 OVC250 21/19 A3004 RMK AO2 SLP173 T02060194 $= 201709260751 METAR KEWR 260751Z 00000KT 10SM BKN007 OVC015 21/19 A3003 RMK AO2 SLP170 T02110194 $= 201709260851 METAR KEWR 260851Z 35003KT 10SM FEW006 SCT010 BKN250 21/19 A3003 RMK AO2 SLP168 T02060189 58004 $= 201709260951 METAR KEWR 260951Z 35003KT 10SM FEW006 SCT009 BKN250 21/19 A3002 RMK AO2 SLP166 T02060189 $= 201709261051 METAR KEWR 261051Z 02005KT 10SM FEW008 SCT200 BKN260 19/18 A3003 RMK AO2 SLP170 T01940178 $= 201709261151 METAR KEWR 261151Z 35004KT 10SM FEW008 FEW200 BKN260 21/18 A3004 RMK AO2 SLP173 T02110183 10211 20194 53005 $= 201709261251 METAR KEWR 261251Z 07004KT 10SM FEW008 FEW015 BKN260 23/19 A3005 RMK AO2 SLP176 T02280194 $= 201709261351 METAR KEWR 261351Z 12003KT 9SM FEW007 BKN260 23/19 A3006 RMK AO2 SLP178 T02330189 $= 201709261451 METAR KEWR 261451Z 06004KT 10SM FEW009 FEW016 BKN260 24/19 A3005 RMK AO2 SLP175 T02440194 50003 $= 201709261551 METAR KEWR 261551Z 00000KT 10SM FEW015 BKN260 26/19 A3004 RMK AO2 SLP172 T02560194 $= 201709261651 METAR KEWR 261651Z 15006KT 10SM FEW018 BKN260 27/19 A3002 RMK AO2 SLP166 T02670189 $= 201709261751 METAR KEWR 261751Z VRB04KT 10SM CLR 27/19 A3000 RMK AO2 SLP159 T02670194 10278 20211 58016 $= 201709261851 METAR KEWR 261851Z VRB04KT 10SM FEW020 BKN260 28/19 A2999 RMK AO2 SLP154 T02830194 $= 201709261951 METAR KEWR 261951Z 12005KT 10SM FEW020 BKN260 28/19 A2997 RMK AO2 SLP149 T02830194 $= 201709262051 METAR KEWR 262051Z 17005KT 10SM FEW035 BKN260 27/19 A2997 RMK AO2 SLP147 T02720194 56012 $= 201709262151 METAR KEWR 262151Z 14007KT 10SM BKN260 26/19 A2996 RMK AO2 SLP145 T02560189 $= 201709262251 METAR KEWR 262251Z 13004KT 10SM BKN260 24/19 A2997 RMK AO2 SLP149 T02390189 $= 201709262351 METAR KEWR 262351Z 15005KT 10SM BKN260 23/19 A2998 RMK AO2 SLP151 T02280189 10289 20228 53004= 201709270051 METAR KEWR 270051Z 00000KT 10SM BKN260 23/19 A2998 RMK AO2 SLP151 T02280189= 201709270151 METAR KEWR 270151Z 00000KT 10SM FEW010 SCT260 23/19 A2999 RMK AO2 SLP153 T02280189= 201709270251 METAR KEWR 270251Z 00000KT 10SM FEW010 SCT260 22/19 A2998 RMK AO2 SLP151 T02220189 50001= 201709270351 METAR KEWR 270351Z 00000KT 10SM FEW010 FEW260 22/19 A2996 RMK AO2 SLP146 T02220189= 201709270451 METAR KEWR 270451Z 34006KT 10SM FEW010 FEW260 22/19 A2995 RMK AO2 SLP140 T02220194 402890194= 201709270551 METAR KEWR 270551Z 01008KT 10SM FEW010 FEW260 22/19 A2993 RMK AO2 SLP136 T02220189 10228 20211 56016= 201709270651 METAR KEWR 270651Z 05004KT 10SM FEW010 FEW250 22/19 A2994 RMK AO2 SLP136 T02220194= 201709270751 METAR KEWR 270751Z 36008KT 10SM BKN020 BKN028 22/19 A2992 RMK AO2 SLP132 T02170189= 201709270851 METAR KEWR 270851Z 02008KT 10SM FEW020 FEW028 21/19 A2992 RMK AO2 SLP130 T02110189 58006= 201709270951 METAR KEWR 270951Z 03006KT 10SM FEW020 21/19 A2991 RMK AO2 SLP129 T02110194= 201709271051 METAR KEWR 271051Z 02007KT 10SM FEW010 BKN025 21/19 A2993 RMK AO2 SLP134 T02110194= 201709271151 METAR KEWR 271151Z 01008KT 10SM SCT012 BKN022 22/19 A2992 RMK AO2 SLP132 T02170194 10222 20206 50002= 201709271251 METAR KEWR 271251Z 01008KT 10SM FEW012 FEW022 FEW250 24/19 A2992 RMK AO2 SLP132 T02440194= 201709271351 METAR KEWR 271351Z 03007KT 10SM FEW010 SCT015 SCT024 26/21 A2991 RMK AO2 SLP129 T02610206= 201709271451 METAR KEWR 271451Z 02006KT 10SM FEW020 FEW040 SCT150 28/21 A2990 RMK AO2 SLP125 T02780211 58007= 201709271551 METAR KEWR 271551Z 03006KT 10SM SCT030 SCT140 29/21 A2989 RMK AO2 SLP121 T02940211= 201709271651 METAR KEWR 271651Z 11006KT 10SM BKN030 BKN140 30/21 A2987 RMK AO2 SLP115 T03000211= 201709271751 METAR KEWR 271751Z 04006KT 10SM BKN032 31/21 A2984 RMK AO2 SLP104 T03060211 10311 20222 58021= 201709271851 METAR KEWR 271851Z VRB06KT 10SM BKN034 31/21 A2982 RMK AO2 SLP096 T03060211= 201709271951 METAR KEWR 271951Z 10006KT 10SM BKN040 31/22 A2980 RMK AO2 SLP092 T03060217= 201709272051 METAR KEWR 272051Z 11005KT 10SM SCT038 SCT250 31/21 A2979 RMK AO2 SLP089 T03060211 56015= 201709272151 METAR KEWR 272151Z 10009KT 10SM FEW020 SCT038 SCT250 29/22 A2979 RMK AO2 SLP086 T02940217= 201709272251 METAR KEWR 272251Z 09007KT 10SM FEW030 FEW060 SCT250 28/22 A2978 RMK AO2 SLP084 T02830217= 201709272351 METAR KEWR 272351Z 00000KT 10SM FEW040 FEW250 26/23 A2979 RMK AO2 SLP086 T02610228 10306 20261 55003= 201709280051 METAR KEWR 280051Z 10004KT 10SM FEW040 FEW150 SCT250 27/23 A2978 RMK AO2 SLP085 T02670228= 201709280151 METAR KEWR 280151Z 00000KT 10SM FEW020 SCT040 SCT150 BKN250 26/23 A2979 RMK AO2 SLP087 T02610228= 201709280251 METAR KEWR 280251Z 04004KT 10SM FEW015 FEW250 25/22 A2976 RMK AO2 SLP077 T02500222 58008= 201709280351 METAR KEWR 280351Z 36006KT 10SM FEW010 FEW150 25/23 A2974 RMK AO2 SLP071 T02500228= 201709280451 METAR KEWR 280451Z 03005KT 10SM FEW010 SCT130 24/22 A2973 RMK AO2 SLP067 T02440222 403110206= 201709280551 METAR KEWR 280551Z 36008KT 10SM FEW015 SCT140 24/22 A2973 RMK AO2 SLP068 T02390222 10272 20233 55010= 201709280651 METAR KEWR 280651Z 01007KT 10SM BKN008 OVC015 24/23 A2972 RMK AO2 SLP065 T02390228= 201709280751 METAR KEWR 280751Z 02007KT 9SM OVC008 24/23 A2972 RMK AO2 SLP064 T02390228= 201709280851 METAR KEWR 280851Z 36006KT 10SM FEW009 FEW035 FEW250 23/22 A2971 RMK AO2 SLP062 T02330217 56006= 201709280951 METAR KEWR 280951Z 35019KT 10SM FEW012 FEW035 FEW250 23/18 A2972 RMK AO2 SLP065 T02330183= 201709281051 METAR KEWR 281051Z 34012KT 10SM FEW015 FEW032 23/17 A2974 RMK AO2 SLP069 T02280172= 201709281151 METAR KEWR 281151Z 35014G24KT 10SM FEW015 FEW032 23/13 A2976 RMK AO2 PK WND 31027/1125 SLP077 T02280128 10239 20228 53015= 201709281251 METAR KEWR 281251Z 33015G25KT 10SM FEW015 FEW032 22/11 A2977 RMK AO2 PK WND 33027/1241 SLP082 T02220106= 201709281351 METAR KEWR 281351Z 33015KT 10SM FEW030 23/11 A2978 RMK AO2 PK WND 34027/1312 SLP084 T02280106= 201709281451 METAR KEWR 281451Z 33020G26KT 10SM FEW030 FEW260 23/10 A2978 RMK AO2 PK WND 31031/1434 SLP084 T02330100 51007= 201709281551 METAR KEWR 281551Z 34023G28KT 10SM FEW040 FEW260 24/10 A2977 RMK AO2 PK WND 34028/1548 SLP080 T02440100= 201709281651 METAR KEWR 281651Z 34019G24KT 10SM FEW040 FEW260 26/09 A2977 RMK AO2 PK WND 36030/1613 SLP079 T02560089= 201709281751 METAR KEWR 281751Z 31017G30KT 10SM FEW040 FEW260 26/08 A2976 RMK AO2 PK WND 30030/1745 SLP076 T02560083 10256 20217 56008= 201709281851 METAR KEWR 281851Z 33014G27KT 10SM FEW055 FEW260 26/09 A2976 RMK AO2 PK WND 34029/1813 SLP077 T02560089= 201709281951 METAR KEWR 281951Z 31016G23KT 10SM FEW055 FEW260 26/08 A2977 RMK AO2 PK WND 32027/1930 SLP081 T02560078= 201709282051 METAR KEWR 282051Z 33014G26KT 10SM FEW055 FEW260 24/08 A2979 RMK AO2 PK WND 30026/2043 SLP088 T02440083 53012= 201709282151 METAR KEWR 282151Z 32020G29KT 10SM FEW055 FEW200 23/07 A2982 RMK AO2 PK WND 31029/2151 SLP099 T02280072= 201709282251 METAR KEWR 282251Z 32020G29KT 10SM FEW050 FEW220 21/07 A2985 RMK AO2 PK WND 30029/2244 SLP109 T02110072= 201709282351 METAR KEWR 282351Z 33015G23KT 10SM FEW050 FEW250 20/07 A2988 RMK AO2 PK WND 32026/2257 SLP118 T02000067 10261 20200 51030= 201709290051 METAR KEWR 290051Z 32013KT 10SM FEW250 18/07 A2991 RMK AO2 SLP129 T01830072= 201709290151 METAR KEWR 290151Z 34013G26KT 10SM FEW250 18/07 A2994 RMK AO2 PK WND 33026/0145 SLP138 T01780067= 201709290251 METAR KEWR 290251Z 32013G21KT 10SM FEW250 17/06 A2996 RMK AO2 SLP145 T01670061 51027= 201709290351 METAR KEWR 290351Z 33014KT 10SM CLR 16/06 A2997 RMK AO2 SLP148 T01610061= 201709290451 METAR KEWR 290451Z 33008KT 10SM CLR 16/06 A2998 RMK AO2 SLP152 T01560061 402610156= 201709290551 METAR KEWR 290551Z 33009KT 10SM CLR 15/06 A3000 RMK AO2 SLP157 T01500061 10200 20150 53012= 201709290651 METAR KEWR 290651Z 33007KT 10SM CLR 14/07 A3000 RMK AO2 SLP158 T01440067= 201709290751 METAR KEWR 290751Z 32008KT 10SM CLR 14/07 A3001 RMK AO2 SLP160 T01390067= 201709290851 METAR KEWR 290851Z 33009KT 10SM CLR 13/07 A3001 RMK AO2 SLP161 T01330067 51004= 201709290951 METAR KEWR 290951Z 34004KT 10SM CLR 13/07 A3002 RMK AO2 SLP166 T01280072= 201709291051 METAR KEWR 291051Z 34006KT 10SM FEW250 13/07 A3004 RMK AO2 SLP173 T01280072= 201709291151 METAR KEWR 291151Z 34003KT 10SM FEW035 FEW250 14/07 A3006 RMK AO2 SLP178 T01390072 10150 20122 53018= 201709291251 METAR KEWR 291251Z 00000KT 10SM FEW035 FEW250 16/07 A3007 RMK AO2 SLP181 T01560072= 201709291351 METAR KEWR 291351Z VRB04KT 10SM FEW045 FEW250 17/06 A3008 RMK AO2 SLP184 T01670061= 201709291451 METAR KEWR 291451Z 25007KT 10SM SCT050 SCT250 18/06 A3007 RMK AO2 SLP181 T01830061 50003= 201709291551 METAR KEWR 291551Z 23005KT 10SM SCT048 SCT250 19/06 A3005 RMK AO2 SLP175 T01890061= 201709291651 METAR KEWR 291651Z 00000KT 10SM BKN050 BKN250 19/06 A3004 RMK AO2 SLP171 T01940061 $= 201709291751 METAR KEWR 291751Z 28007G16KT 250V310 10SM BKN055 BKN250 19/06 A3002 RMK AO2 SLP164 T01940061 10206 20139 58017 $= 201709291851 METAR KEWR 291851Z 27007KT 210V300 10SM BKN055 BKN250 20/06 A3001 RMK AO2 SLP161 T02000061 $= 201709291951 METAR KEWR 291951Z 26010G19KT 10SM SCT055 BKN250 21/05 A3000 RMK AO2 SLP157 T02110050 $= 201709292051 METAR KEWR 292051Z 26008KT 10SM SCT055 BKN250 21/05 A3000 RMK AO2 SLP157 T02060050 55007 $= 201709292151 METAR KEWR 292151Z 33009KT 10SM FEW060 SCT250 19/06 A3001 RMK AO2 SLP160 T01940056 $= 201709292251 METAR KEWR 292251Z 30006KT 10SM FEW060 FEW250 19/06 A3002 RMK AO2 SLP163 T01890056 $= 201709292351 METAR KEWR 292351Z 31004KT 10SM FEW055 SCT250 18/06 A3002 RMK AO2 SLP165 T01830056 10211 20183 51007 $= 201709300051 METAR KEWR 300051Z 05003KT 10SM FEW055 SCT250 17/07 A3003 RMK AO2 SLP169 T01720072 $= 201709300151 METAR KEWR 300151Z 00000KT 10SM FEW100 FEW250 17/07 A3003 RMK AO2 SLP169 T01720067 $= 201709300251 METAR KEWR 300251Z 20003KT 10SM FEW060 SCT100 SCT250 16/08 A3003 RMK AO2 SLP168 T01610078 50004 $= 201709300351 METAR KEWR 300351Z 20004KT 10SM FEW060 OVC085 16/09 A3003 RMK AO2 SLP167 T01610094 $= 201709300451 METAR KEWR 300451Z 24006KT 10SM OVC060 16/08 A3003 RMK AO2 SLP169 T01610083 402110122 $= 201709300551 METAR KEWR 300551Z 10004KT 10SM -RA BKN060 OVC080 16/08 A3000 RMK AO2 RAB42 SLP160 P0000 60000 T01610083 10189 20156 58009 $= 201709300651 METAR KEWR 300651Z 25008KT 10SM FEW060 FEW080 SCT120 16/08 A3001 RMK AO2 RAE33 SLP163 P0000 T01560083 $= 201709300751 METAR KEWR 300751Z 25006KT 10SM FEW120 14/09 A3001 RMK AO2 SLP161 T01440089 $= 201709300851 METAR KEWR 300851Z 26008KT 10SM CLR 14/08 A3003 RMK AO2 SLP167 60000 T01390083 53007 $= 201709300951 METAR KEWR 300951Z 24006KT 10SM FEW050 FEW100 13/09 A3004 RMK AO2 SLP172 T01280089 $= 201709301051 METAR KEWR 301051Z 26005KT 10SM SCT042 SCT100 13/09 A3005 RMK AO2 SLP176 T01280094 $= 201709301151 METAR KEWR 301151Z 28007KT 10SM BKN050 BKN100 14/10 A3007 RMK AO2 SLP182 60000 T01390100 10161 20128 53015 $= 201709301251 METAR KEWR 301251Z 30007KT 10SM FEW040 BKN055 16/10 A3008 RMK AO2 SLP186 T01560100 $= 201709301351 METAR KEWR 301351Z 32008KT 10SM FEW040 BKN060 16/09 A3009 RMK AO2 SLP190 T01610094 $= 201709301451 METAR KEWR 301451Z 36016KT 10SM FEW040 BKN060 BKN090 18/09 A3011 RMK AO2 SLP194 T01830089 51012 $= 201709301551 METAR KEWR 301551Z 35015KT 310V010 10SM SCT030 BKN040 BKN065 17/09 A3012 RMK AO2 SLP200 T01670094 $= 201709301651 METAR KEWR 301651Z 01013G20KT 10SM FEW032 BKN045 BKN090 BKN250 18/09 A3014 RMK AO2 SLP205 TCU DSNT NE T01780089 $= 201709301751 METAR KEWR 301751Z 36013KT 10SM FEW032 SCT045 BKN085 BKN130 19/08 A3014 RMK AO2 SLP206 T01940078 10194 20139 51012 $= 201709301851 METAR KEWR 301851Z 01018G24KT 10SM SCT039 BKN130 19/09 A3016 RMK AO2 SLP212 T01890089 $= 201709301951 METAR KEWR 301951Z 01017KT 10SM SCT039 BKN048 BKN085 BKN130 18/09 A3018 RMK AO2 PK WND 35026/1930 SLP220 T01780089 $= 201709302051 METAR KEWR 302051Z 01017KT 10SM SCT031 SCT048 BKN085 17/08 A3021 RMK AO2 SLP229 T01670083 53023 $= 201709302151 METAR KEWR 302151Z 36018KT 10SM SCT035 BKN055 16/07 A3024 RMK AO2 PK WND 36026/2112 SLP240 T01560072 $= 201709302251 METAR KEWR 302251Z 02020G24KT 10SM SCT060 14/08 A3027 RMK AO2 PK WND 36026/2215 SLP250 T01440078 $= 201709302351 METAR KEWR 302351Z 01017KT 10SM FEW030 BKN050 13/08 A3029 RMK AO2 PK WND 01029/2332 SLP257 T01330078 10200 20133 51028 $=
